{"type":"FeatureCollection","features":[{"properties":{"id_url":"G01007.html","kuni_url":"/kg/resource/K01.html","id":"G01007","kuni":"山城","yomi":"つづき","name":"綴喜","pref":"京都府","kuni_id":"K01"},"geometry":{"type":"Polygon","coordinates":[[[135.682683,34.887802],[135.683695,34.889085],[135.68402,34.889469],[135.684432,34.889827],[135.684945,34.890185],[135.685845,34.89071],[135.686857,34.891044],[135.687632,34.891269],[135.689082,34.891544],[135.690582,34.891702],[135.691357,34.89181],[135.693294,34.892019],[135.693406,34.892035],[135.693819,34.892219],[135.694169,34.892535],[135.694419,34.892669],[135.695319,34.893369],[135.696993,34.89391],[135.697706,34.894177],[135.697781,34.894177],[135.698193,34.89436],[135.698768,34.89481],[135.699205,34.895102],[135.699368,34.89526],[135.699805,34.895577],[135.700655,34.896452],[135.701967,34.897652],[135.70273,34.898393],[135.703067,34.898643],[135.70328,34.898552],[135.703805,34.89801],[135.70408,34.897735],[135.70443,34.89731],[135.704755,34.896835],[135.70503,34.896119],[135.705167,34.895577],[135.70553,34.894719],[135.708129,34.895311],[135.708679,34.895469],[135.708917,34.895469],[135.710179,34.892703],[135.710542,34.892744],[135.711691,34.892995],[135.711829,34.893153],[135.711879,34.892495],[135.711879,34.89187],[135.711717,34.890536],[135.711742,34.889345],[135.711854,34.889187],[135.711904,34.889028],[135.711929,34.888395],[135.711879,34.887162],[135.715629,34.887004],[135.715417,34.883263],[135.715467,34.882796],[135.715854,34.882704],[135.716367,34.882521],[135.718066,34.882096],[135.719704,34.881696],[135.720991,34.881288],[135.721929,34.881022],[135.723379,34.880497],[135.724228,34.880072],[135.725566,34.879288],[135.727203,34.878388],[135.728791,34.877397],[135.730053,34.876539],[135.732191,34.875147],[135.732378,34.874989],[135.732678,34.874781],[135.733503,34.874106],[135.734103,34.873772],[135.735041,34.873364],[135.735716,34.873122],[135.737165,34.872739],[135.738478,34.872447],[135.740478,34.871931],[135.741715,34.871706],[135.742665,34.871564],[135.742675,34.871582],[135.743039,34.872428],[135.743053,34.872464],[135.743165,34.872514],[135.744965,34.872264],[135.745165,34.872198],[135.745265,34.871864],[135.745515,34.871639],[135.745765,34.871548],[135.746915,34.871431],[135.747176,34.871385],[135.747577,34.871414],[135.747852,34.871389],[135.747927,34.871206],[135.747965,34.870156],[135.74769,34.869839],[135.747365,34.86954],[135.747277,34.869406],[135.747415,34.869365],[135.74769,34.869181],[135.749202,34.868423],[135.749277,34.86834],[135.749452,34.86834],[135.749852,34.868115],[135.75049,34.86764],[135.751227,34.867015],[135.751752,34.866323],[135.752215,34.865832],[135.752465,34.865315],[135.752777,34.863532],[135.75284,34.862299],[135.752815,34.861465],[135.75274,34.860765],[135.752765,34.859216],[135.752752,34.858299],[135.752665,34.857549],[135.75254,34.856924],[135.751753,34.854374],[135.751678,34.853458],[135.751703,34.852716],[135.75234,34.850375],[135.752678,34.849458],[135.752953,34.84905],[135.75414,34.8471],[135.754715,34.846183],[135.755377,34.845375],[135.755902,34.844584],[135.75609,34.844225],[135.757215,34.842609],[135.75964,34.839292],[135.759802,34.839026],[135.76014,34.838259],[135.760277,34.837784],[135.76049,34.837384],[135.761039,34.836576],[135.761214,34.836126],[135.762014,34.835343],[135.762364,34.835026],[135.763714,34.834235],[135.764214,34.833985],[135.764764,34.83376],[135.766102,34.833376],[135.766739,34.83331],[135.767451,34.833301],[135.767789,34.83326],[135.769576,34.83321],[135.770889,34.83321],[135.771251,34.833235],[135.771988,34.83321],[135.773288,34.833235],[135.775126,34.83316],[135.776963,34.832868],[135.777763,34.83271],[135.778375,34.832485],[135.77975,34.83176],[135.781088,34.831127],[135.781775,34.830877],[135.782413,34.83056],[135.784012,34.829527],[135.784775,34.829119],[135.7858,34.828327],[135.789679,34.828963],[135.793511,34.83016],[135.798127,34.830986],[135.800199,34.830986],[135.803006,34.830986],[135.806204,34.830986],[135.810477,34.831935],[135.81353,34.833509],[135.816659,34.83601],[135.817439,34.837078],[135.81803,34.838953],[135.819619,34.840693],[135.82307,34.841738],[135.826008,34.842023],[135.830452,34.843145],[135.831885,34.844106],[135.832269,34.845217],[135.83197,34.846329],[135.830109,34.848444],[135.829736,34.849629],[135.829736,34.850569],[135.831527,34.852358],[135.83367,34.853475],[135.833832,34.8537],[135.834157,34.853792],[135.834182,34.853858],[135.834157,34.854333],[135.836058,34.855199],[135.839107,34.856802],[135.840604,34.857849],[135.843509,34.861259],[135.845115,34.86228],[135.846624,34.86228],[135.847152,34.86145],[135.847152,34.859114],[135.846734,34.857026],[135.846453,34.855623],[135.847449,34.854619],[135.848842,34.854619],[135.850649,34.854168],[135.852042,34.853115],[135.852739,34.852588],[135.854489,34.853265],[135.855053,34.853716],[135.855053,34.855559],[135.855543,34.857138],[135.857471,34.858773],[135.86093,34.860778],[135.864549,34.86321],[135.864987,34.864167],[135.86532,34.865602],[135.86532,34.866413],[135.864466,34.867058],[135.862738,34.868451],[135.861197,34.869004],[135.860321,34.869319],[135.858744,34.871861],[135.856452,34.876035],[135.85549,34.878951],[135.85549,34.879777],[135.856945,34.882717],[135.857442,34.883697],[135.858079,34.883539],[135.858217,34.883539],[135.858954,34.883922],[135.859254,34.884397],[135.859492,34.884922],[135.859517,34.885322],[135.859442,34.885772],[135.859267,34.886064],[135.859154,34.886739],[135.859517,34.887622],[135.860629,34.88933],[135.861017,34.890013],[135.861779,34.891005],[135.862316,34.891363],[135.862866,34.891572],[135.865766,34.891763],[135.866529,34.892147],[135.866754,34.892305],[135.867129,34.891988],[135.867954,34.891613],[135.868454,34.891413],[135.868454,34.891363],[135.868578,34.891347],[135.869241,34.89108],[135.870041,34.890605],[135.870803,34.890072],[135.871266,34.889713],[135.871703,34.889222],[135.872164,34.888845],[135.872228,34.888797],[135.872316,34.888797],[135.872828,34.888822],[135.873628,34.888755],[135.874028,34.888913],[135.874303,34.888888],[135.874528,34.888213],[135.875241,34.886955],[135.875678,34.88648],[135.875815,34.88628],[135.876253,34.886239],[135.877103,34.886572],[135.87784,34.886622],[135.877978,34.886505],[135.87819,34.88608],[135.87844,34.885314],[135.87874,34.885089],[135.879978,34.884689],[135.880665,34.884255],[135.881153,34.883872],[135.881215,34.883789],[135.881453,34.883739],[135.881727,34.883789],[135.882215,34.883947],[135.882352,34.884214],[135.88279,34.88433],[135.88334,34.884305],[135.884127,34.884514],[135.885315,34.883856],[135.886077,34.883589],[135.886977,34.883072],[135.888539,34.881631],[135.888702,34.881006],[135.888677,34.880256],[135.888352,34.879806],[135.887702,34.879539],[135.886852,34.879381],[135.886027,34.878814],[135.885565,34.878139],[135.885277,34.877123],[135.885352,34.876406],[135.885027,34.875998],[135.885002,34.875706],[135.885027,34.87559],[135.88549,34.875415],[135.886315,34.875598],[135.886965,34.87569],[135.887677,34.875548],[135.888452,34.875465],[135.88899,34.875332],[135.889515,34.874923],[135.889764,34.874832],[135.890939,34.874632],[135.891539,34.874607],[135.892252,34.874457],[135.892964,34.874232],[135.893677,34.873848],[135.894489,34.873465],[135.895889,34.87304],[135.896301,34.872632],[135.897176,34.871465],[135.897201,34.871332],[135.897364,34.871199],[135.897501,34.871174],[135.898301,34.871265],[135.899501,34.871307],[135.900151,34.87149],[135.900476,34.871715],[135.900889,34.871832],[135.902088,34.872507],[135.902988,34.87309],[135.903101,34.87314],[135.904251,34.87379],[135.904926,34.87404],[135.905201,34.87409],[135.906626,34.874065],[135.907176,34.874024],[135.907388,34.874049],[135.907363,34.874157],[135.906676,34.87544],[135.906901,34.875865],[135.9076,34.876473],[135.9081,34.87659],[135.908238,34.876548],[135.909163,34.876973],[135.909488,34.877265],[135.9093,34.877648],[135.909188,34.877782],[135.909213,34.878298],[135.909263,34.878598],[135.909675,34.879115],[135.909863,34.879565],[135.909863,34.880015],[135.9097,34.880348],[135.910438,34.880807],[135.910525,34.881007],[135.910788,34.881273],[135.911225,34.881498],[135.911338,34.881706],[135.911313,34.882065],[135.911613,34.882265],[135.911963,34.882673],[135.912125,34.883056],[135.91245,34.883573],[135.912837,34.883848],[135.912862,34.883465],[135.912975,34.883348],[135.9133,34.883398],[135.913825,34.883731],[135.914425,34.883915],[135.914612,34.88394],[135.915,34.883731],[135.91565,34.88349],[135.91585,34.88349],[135.916087,34.88369],[135.916825,34.883806],[135.9173,34.884073],[135.917975,34.884573],[135.918712,34.884665],[135.919012,34.884598],[135.919612,34.884306],[135.919999,34.88439],[135.920162,34.884373],[135.920899,34.884098],[135.921399,34.88399],[135.921999,34.88379],[135.922512,34.883765],[135.922974,34.883698],[135.923424,34.88359],[135.923661,34.883857],[135.924049,34.884807],[135.924186,34.884873],[135.924424,34.884915],[135.924674,34.885323],[135.925161,34.885573],[135.925661,34.88559],[135.925924,34.885665],[135.926311,34.885907],[135.926561,34.886206],[135.926936,34.886381],[135.926936,34.886473],[135.927099,34.886815],[135.927811,34.88704],[135.927949,34.887148],[135.927974,34.887215],[135.928199,34.887423],[135.928461,34.88789],[135.928761,34.88819],[135.929173,34.888298],[135.929748,34.888415],[135.929936,34.888481],[135.930411,34.888573],[135.930948,34.888506],[135.931336,34.888323],[135.931561,34.888073],[135.932536,34.88774],[135.932873,34.887715],[135.933448,34.88779],[135.933573,34.887873],[135.933935,34.888532],[135.93431,34.888732],[135.93456,34.889073],[135.93511,34.890373],[135.935485,34.891073],[135.936173,34.891798],[135.93691,34.892115],[135.937648,34.89229],[135.93906,34.893198],[135.939697,34.89344],[135.940672,34.893623],[135.94106,34.893673],[135.94131,34.893515],[135.941247,34.893448],[135.940847,34.89324],[135.940597,34.892723],[135.94041,34.892181],[135.94041,34.891398],[135.94036,34.890948],[135.940385,34.89029],[135.940085,34.889865],[135.94006,34.889348],[135.93981,34.888832],[135.93976,34.888582],[135.940085,34.888357],[135.940609,34.887773],[135.940634,34.886332],[135.940822,34.885832],[135.941072,34.885498],[135.941272,34.884482],[135.940972,34.883965],[135.940809,34.88284],[135.940784,34.882299],[135.940509,34.882099],[135.939872,34.88194],[135.939709,34.881599],[135.939847,34.881065],[135.940047,34.880565],[135.940209,34.88034],[135.940759,34.879957],[135.941272,34.879807],[135.941734,34.879582],[135.942259,34.878949],[135.943134,34.878407],[135.943384,34.878182],[135.942896,34.877599],[135.942921,34.877124],[135.943196,34.876024],[135.943821,34.875416],[135.943883,34.875257],[135.943821,34.874857],[135.943546,34.874407],[135.943308,34.873882],[135.943383,34.873391],[135.943833,34.872982],[135.943658,34.872582],[135.943308,34.872107],[135.943071,34.871499],[135.942846,34.870191],[135.942521,34.869766],[135.942271,34.869341],[135.942033,34.869024],[135.941621,34.868349],[135.941546,34.867741],[135.941409,34.8672],[135.941346,34.866383],[135.941159,34.8656],[135.940971,34.865058],[135.941221,34.864633],[135.941271,34.864358],[135.941196,34.864133],[135.941196,34.863733],[135.941609,34.863392],[135.941571,34.863375],[135.941659,34.8633],[135.941771,34.863075],[135.942346,34.862767],[135.942446,34.862558],[135.942146,34.862317],[135.942121,34.861933],[135.942371,34.8615],[135.942696,34.861325],[135.943134,34.860533],[135.943109,34.860175],[135.943134,34.859859],[135.943471,34.859617],[135.943821,34.859434],[135.944559,34.859484],[135.945271,34.858442],[135.945334,34.858267],[135.945196,34.85775],[135.944971,34.857275],[135.945034,34.857209],[135.945496,34.856801],[135.946209,34.855592],[135.946396,34.855051],[135.946734,34.854442],[135.946971,34.853793],[135.946946,34.853359],[135.946509,34.852276],[135.946159,34.851826],[135.946047,34.851759],[135.946272,34.851693],[135.946759,34.851376],[135.947284,34.851293],[135.947659,34.851359],[135.948096,34.851718],[135.948534,34.851968],[135.948896,34.851926],[135.949171,34.851651],[135.949496,34.851634],[135.951209,34.852443],[135.951434,34.852468],[135.952009,34.852334],[135.952521,34.852334],[135.952984,34.852651],[135.953321,34.853101],[135.953721,34.853368],[135.954158,34.853434],[135.954933,34.853443],[135.955696,34.853709],[135.956208,34.854026],[135.956733,34.854434],[135.957033,34.854768],[135.958183,34.854884],[135.958783,34.855001],[135.958783,34.854818],[135.958921,34.854409],[135.959133,34.853984],[135.959683,34.853876],[135.960395,34.854193],[135.96072,34.854418],[135.961408,34.854618],[135.961733,34.853784],[135.962058,34.853401],[135.962908,34.85311],[135.962958,34.853001],[135.962908,34.85246],[135.962671,34.851851],[135.962746,34.851401],[135.962721,34.85086],[135.962746,34.850435],[135.962908,34.850318],[135.963571,34.85021],[135.965121,34.849827],[135.965871,34.849585],[135.966521,34.849268],[135.966933,34.848885],[135.967096,34.84821],[135.967121,34.847285],[135.967508,34.846885],[135.967833,34.846752],[135.968133,34.846727],[135.968733,34.84686],[135.969396,34.847135],[135.970383,34.847069],[135.971008,34.846419],[135.971695,34.846352],[135.972158,34.845785],[135.971908,34.845094],[135.971496,34.844485],[135.970958,34.84351],[135.971308,34.842994],[135.971471,34.842902],[135.971533,34.842094],[135.971346,34.841127],[135.971096,34.840344],[135.970121,34.838744],[135.969784,34.838061],[135.969896,34.837836],[135.971046,34.838428],[135.971534,34.838428],[135.972309,34.838094],[135.972709,34.837953],[135.973121,34.837936],[135.973346,34.838003],[135.973671,34.838203],[135.974021,34.838544],[135.974483,34.838611],[135.975446,34.838519],[135.976533,34.838569],[135.977521,34.838461],[135.978396,34.838619],[135.979183,34.838886],[135.979321,34.838911],[135.979845,34.839111],[135.980858,34.839136],[135.981558,34.839211],[135.982108,34.839411],[135.983095,34.839978],[135.98377,34.840536],[135.984832,34.841711],[135.985107,34.841619],[135.985932,34.841528],[135.98612,34.841553],[135.986145,34.841536],[135.986532,34.841619],[135.986832,34.841553],[135.98692,34.841419],[135.987407,34.840878],[135.98817,34.840994],[135.98872,34.841128],[135.989532,34.841286],[135.989845,34.841586],[135.990032,34.841853],[135.990495,34.842036],[135.991557,34.842803],[135.992132,34.842644],[135.992844,34.842128],[135.993119,34.842219],[135.993657,34.842261],[135.994207,34.842086],[135.994757,34.842086],[135.995032,34.842403],[135.995057,34.842536],[135.995357,34.842961],[135.995819,34.843119],[135.996144,34.843461],[135.996694,34.843461],[135.997044,34.843553],[135.997154,34.843742],[135.997257,34.843694],[135.997444,34.843836],[135.997669,34.844103],[135.997769,34.844328],[135.997907,34.844461],[135.998544,34.844486],[135.998794,34.844603],[135.999169,34.844894],[135.999531,34.844978],[135.999969,34.845028],[136.000956,34.845094],[136.001644,34.845044],[136.001806,34.845003],[136.003018,34.844503],[136.004068,34.844394],[136.004256,34.844328],[136.004718,34.84392],[136.005406,34.84297],[136.005406,34.842903],[136.005331,34.84277],[136.004643,34.842411],[136.004281,34.842161],[136.004143,34.84187],[136.004093,34.841578],[136.003956,34.841395],[136.003793,34.841261],[136.003731,34.841078],[136.003893,34.84092],[136.004031,34.84067],[136.004118,34.839978],[136.004031,34.838937],[136.003931,34.838603],[136.003569,34.838237],[136.003519,34.838103],[136.003181,34.837812],[136.002744,34.837612],[136.002631,34.83732],[136.002694,34.83682],[136.002669,34.836579],[136.002956,34.836437],[136.003081,34.835987],[136.003106,34.835762],[136.003019,34.835245],[136.002719,34.834279],[136.002781,34.834029],[136.002981,34.833646],[136.003019,34.833446],[136.002956,34.833312],[136.002631,34.833104],[136.002519,34.832971],[136.002506,34.832771],[136.002594,34.832521],[136.002981,34.831962],[136.003719,34.831488],[136.003856,34.831329],[136.003981,34.831079],[136.004031,34.830379],[136.004006,34.829821],[136.004069,34.829638],[136.004331,34.829371],[136.004444,34.828671],[136.004769,34.828405],[136.005006,34.828271],[136.005269,34.827746],[136.005444,34.826622],[136.005731,34.826238],[136.006031,34.826105],[136.006531,34.82613],[136.007119,34.826288],[136.007319,34.826288],[136.007581,34.826222],[136.007731,34.826147],[136.008118,34.826063],[136.008706,34.826013],[136.009056,34.826013],[136.009556,34.826105],[136.009856,34.826105],[136.010706,34.825763],[136.011493,34.825605],[136.011993,34.825247],[136.012118,34.825205],[136.012555,34.825297],[136.01288,34.82543],[136.013993,34.826038],[136.014555,34.826238],[136.01558,34.826438],[136.015768,34.826663],[136.015793,34.826863],[136.01573,34.827338],[136.015768,34.827522],[136.016055,34.827813],[136.01618,34.827988],[136.016142,34.828505],[136.01618,34.828713],[136.01633,34.828872],[136.01668,34.828438],[136.016855,34.828305],[136.01768,34.828238],[136.017817,34.828147],[136.018292,34.827272],[136.018405,34.82698],[136.018492,34.826863],[136.018855,34.826614],[136.020817,34.82558],[136.021167,34.825314],[136.021554,34.824656],[136.021692,34.824481],[136.021904,34.824431],[136.022342,34.824431],[136.022554,34.824389],[136.022817,34.824114],[136.022954,34.823956],[136.023192,34.823847],[136.023817,34.823731],[136.024042,34.823647],[136.024992,34.823081],[136.025104,34.822897],[136.025217,34.822564],[136.025279,34.822514],[136.025479,34.822473],[136.025979,34.822539],[136.026104,34.822539],[136.026254,34.822473],[136.026367,34.822289],[136.026454,34.822064],[136.026654,34.821798],[136.026842,34.821731],[136.027191,34.821748],[136.027516,34.821839],[136.027629,34.821839],[136.027779,34.821798],[136.027866,34.821706],[136.028154,34.820556],[136.028391,34.819815],[136.028479,34.819256],[136.027979,34.819323],[136.027654,34.819415],[136.027004,34.819706],[136.026092,34.819998],[136.025629,34.820106],[136.025154,34.820181],[136.024154,34.820198],[136.023867,34.820181],[136.023717,34.820223],[136.023567,34.820356],[136.023417,34.820406],[136.023004,34.820381],[136.022829,34.820339],[136.022692,34.820356],[136.022505,34.820498],[136.022217,34.820923],[136.021517,34.821464],[136.021155,34.821639],[136.019717,34.822181],[136.019517,34.822297],[136.01913,34.822322],[136.018692,34.822247],[136.018392,34.822339],[136.017755,34.822631],[136.017193,34.822814],[136.016693,34.822906],[136.016255,34.822947],[136.015755,34.822947],[136.014168,34.822797],[136.013193,34.822522],[136.012693,34.822322],[136.012281,34.822231],[136.011756,34.822189],[136.011406,34.822189],[136.011018,34.822147],[136.010693,34.822147],[136.010193,34.822372],[136.009781,34.822481],[136.009431,34.822531],[136.009081,34.822531],[136.008819,34.822614],[136.008694,34.82273],[136.008494,34.823064],[136.008344,34.823222],[136.008144,34.823272],[136.007694,34.823247],[136.007369,34.823205],[136.006781,34.823297],[136.006081,34.823297],[136.005756,34.823364],[136.004106,34.823947],[136.003382,34.824013],[136.002607,34.823922],[136.001382,34.824105],[136.000582,34.82413],[135.999607,34.824088],[135.999382,34.824155],[135.999232,34.824288],[135.999082,34.824513],[135.998932,34.824647],[135.997907,34.825005],[135.997257,34.825305],[135.997154,34.825302],[135.99692,34.825346],[135.996645,34.82548],[135.996257,34.825588],[135.995632,34.82573],[135.99547,34.825813],[135.995032,34.825971],[135.994707,34.825996],[135.97381,34.81473],[135.973235,34.81428],[135.97301,34.814197],[135.972472,34.814105],[135.972272,34.813855],[135.971922,34.813047],[135.971372,34.812622],[135.971235,34.812356],[135.970735,34.810939],[135.970547,34.810606],[135.970247,34.810381],[135.96981,34.810331],[135.969373,34.810406],[135.969148,34.810356],[135.968748,34.809706],[135.968473,34.809056],[135.968385,34.808989],[135.968135,34.808989],[135.963661,34.810164],[135.963235,34.810294],[135.956652,34.813772],[135.953478,34.815141],[135.9515,34.815141],[135.94977,34.815958],[135.948401,34.817071],[135.94761,34.818169],[135.946716,34.820393],[135.945444,34.82245],[135.944051,34.823297],[135.942243,34.823514],[135.940323,34.823514],[135.938141,34.823036],[135.934984,34.821805],[135.931737,34.819486],[135.928793,34.817006],[135.925737,34.814725],[135.922703,34.814292],[135.919806,34.813878],[135.918176,34.813446],[135.916296,34.812265],[135.915509,34.810894],[135.913968,34.809693],[135.91179,34.809],[135.908388,34.809],[135.907371,34.808707],[135.90653,34.808063],[135.906269,34.80675],[135.906008,34.80583],[135.904264,34.804831],[135.901657,34.803861],[135.897971,34.803861],[135.896524,34.80327],[135.893162,34.801344],[135.889828,34.800774],[135.88754,34.800384],[135.885612,34.801278],[135.883764,34.801278],[135.881296,34.80107],[135.879066,34.80107],[135.876522,34.80107],[135.872713,34.800436],[135.871602,34.799849],[135.869872,34.797138],[135.868841,34.796583],[135.866587,34.795885],[135.866006,34.794773],[135.865981,34.795081],[135.865868,34.795515],[135.865706,34.795806],[135.865131,34.796164],[135.864906,34.796373],[135.864743,34.796598],[135.864493,34.796756],[135.864256,34.796981],[135.864143,34.797139],[135.864031,34.797498],[135.863981,34.797881],[135.864056,34.798373],[135.864231,34.798598],[135.864606,34.798806],[135.865381,34.799097],[135.866481,34.799947],[135.866643,34.800314],[135.866731,34.800781],[135.866956,34.801306],[135.867193,34.801731],[135.867643,34.802655],[135.867718,34.802722],[135.867481,34.802789],[135.866818,34.803197],[135.866493,34.80333],[135.866106,34.803372],[135.865806,34.803289],[135.865581,34.803105],[135.865306,34.803039],[135.864943,34.80313],[135.864806,34.80313],[135.864231,34.802855],[135.863881,34.802814],[135.863681,34.802747],[135.863518,34.802497],[135.863381,34.802405],[135.862581,34.802205],[135.862119,34.80198],[135.861294,34.801714],[135.860956,34.801439],[135.860706,34.801306],[135.859831,34.801239],[135.859031,34.801264],[135.858644,34.801064],[135.857931,34.800947],[135.857469,34.800747],[135.857306,34.800706],[135.856831,34.800706],[135.856307,34.800772],[135.855869,34.800864],[135.854944,34.800864],[135.854607,34.800997],[135.854532,34.801064],[135.854194,34.801222],[135.852882,34.80118],[135.852132,34.800955],[135.851807,34.800955],[135.851532,34.800997],[135.851032,34.800889],[135.850619,34.800889],[135.850182,34.80098],[135.849957,34.800864],[135.84977,34.800572],[135.849495,34.80028],[135.849132,34.800031],[135.84872,34.799806],[135.84817,34.799722],[135.847657,34.799722],[135.847107,34.799989],[135.846807,34.800239],[135.846007,34.800305],[135.84562,34.800464],[135.844795,34.80053],[135.844107,34.800647],[135.843145,34.800555],[135.842783,34.800672],[135.842158,34.800647],[135.841933,34.800805],[135.841608,34.800939],[135.84087,34.800855],[135.840183,34.800605],[135.839845,34.800564],[135.83922,34.800405],[135.838608,34.80043],[135.837533,34.800514],[135.837158,34.800655],[135.836771,34.80063],[135.835696,34.800297],[135.834508,34.799822],[135.834321,34.79978],[135.833171,34.799105],[135.832421,34.79843],[135.832096,34.797905],[135.831821,34.797614],[135.831434,34.797572],[135.831296,34.797597],[135.830971,34.79773],[135.830696,34.798539],[135.830471,34.798764],[135.830171,34.798814],[135.829159,34.79863],[135.828609,34.79863],[135.827996,34.798497],[135.827584,34.798272],[135.826822,34.797572],[135.826434,34.797105],[135.826097,34.79663],[135.825822,34.796155],[135.825822,34.795931],[135.825959,34.795756],[135.825884,34.795506],[135.825572,34.795097],[135.824947,34.794739],[135.824397,34.794631],[135.823072,34.794714],[135.822447,34.794606],[135.822222,34.794539],[135.821697,34.794197],[135.82101,34.794064],[135.820347,34.794064],[135.819635,34.793906],[135.819522,34.793822],[135.819222,34.793347],[135.818672,34.792989],[135.818235,34.792872],[135.81741,34.793014],[135.816835,34.793056],[135.816423,34.792989],[135.815923,34.792764],[135.814498,34.792206],[135.812935,34.791597],[135.812298,34.791439],[135.81166,34.791322],[135.810148,34.791172],[135.809936,34.791189],[135.808336,34.791106],[135.806686,34.791056],[135.805648,34.791197],[135.804711,34.791422],[135.803399,34.791697],[135.803086,34.791672],[135.802536,34.791472],[135.801686,34.790772],[135.801024,34.790347],[135.800474,34.790097],[135.800124,34.789964],[135.799049,34.789464],[135.798612,34.789306],[135.797012,34.788839],[135.796599,34.788481],[135.796274,34.787889],[135.795999,34.787689],[135.795362,34.787573],[135.794924,34.787556],[135.7946,34.787664],[135.794375,34.787964],[135.793437,34.789722],[135.79325,34.789989],[135.793112,34.790106],[135.792725,34.790214],[135.791875,34.790197],[135.7905,34.790147],[135.789287,34.790081],[135.789012,34.789972],[135.788937,34.789564],[135.788937,34.789206],[135.788875,34.788914],[135.788188,34.788914],[135.7877,34.788956],[135.787175,34.788956],[135.786438,34.788872],[135.786325,34.788756],[135.78635,34.788439],[135.786513,34.788122],[135.786625,34.787764],[135.786675,34.787272],[135.786988,34.786814],[135.786988,34.786414],[135.786675,34.785464],[135.7866,34.784631],[135.786463,34.784498],[135.785963,34.784456],[135.785913,34.784181],[135.785875,34.783598],[135.7858,34.783281],[135.785688,34.783164],[135.785325,34.782989],[135.7841,34.782581],[135.784013,34.782489],[135.7839,34.781656],[135.783213,34.780806],[135.782551,34.780306],[135.781976,34.780081],[135.781488,34.780065],[135.780963,34.780198],[135.780551,34.780465],[135.780276,34.780715],[135.779863,34.780765],[135.779613,34.780715],[135.779151,34.78054],[135.778651,34.78049],[135.778213,34.780631],[135.777851,34.780631],[135.777501,34.780473],[135.777089,34.780356],[135.776651,34.780356],[135.776064,34.780273],[135.775326,34.779889],[135.774914,34.77959],[135.774501,34.779481],[135.774064,34.779548],[135.773601,34.779889],[135.773514,34.779998],[135.772601,34.780273],[135.772464,34.780381],[135.772052,34.780923],[135.771677,34.781306],[135.771377,34.781423],[135.771102,34.781448],[135.770602,34.781156],[135.770302,34.781014],[135.769939,34.781081],[135.769552,34.781264],[135.769227,34.781248],[135.768789,34.781089],[135.768239,34.780523],[135.767989,34.780456],[135.767989,34.780414],[135.767802,34.780206],[135.767552,34.780164],[135.767114,34.780256],[135.766727,34.780273],[135.766365,34.780348],[135.766202,34.780323],[135.764665,34.780164],[135.764302,34.779989],[135.763977,34.779673],[135.76389,34.779673],[135.763565,34.779848],[135.763015,34.780281],[135.762602,34.780373],[135.762077,34.780414],[135.761752,34.780348],[135.76164,34.780239],[135.76129,34.780014],[135.760927,34.779939],[135.760353,34.779714],[135.75999,34.779473],[135.75944,34.778906],[135.759203,34.778731],[135.75909,34.778481],[135.759065,34.778123],[135.75884,34.777756],[135.758565,34.777148],[135.758515,34.776765],[135.758753,34.776606],[135.758865,34.77659],[135.759115,34.776473],[135.759165,34.776273],[135.758978,34.776156],[135.758453,34.776023],[135.75824,34.775798],[135.758203,34.775323],[135.75829,34.77499],[135.75829,34.77474],[135.758128,34.774423],[135.75774,34.774198],[135.757465,34.774173],[135.757215,34.774065],[135.757078,34.77384],[135.75714,34.773565],[135.757415,34.773207],[135.757515,34.77294],[135.75749,34.772848],[135.75724,34.77264],[135.756891,34.772532],[135.756391,34.772307],[135.756141,34.77204],[135.756041,34.771607],[135.756341,34.77109],[135.756253,34.77089],[135.754966,34.770757],[135.754691,34.770524],[135.754528,34.770032],[135.754028,34.769307],[135.754091,34.768974],[135.754278,34.768632],[135.754828,34.768182],[135.755728,34.767324],[135.756553,34.766966],[135.756941,34.766691],[135.758178,34.766224],[135.758703,34.766132],[135.75914,34.766132],[135.759603,34.766082],[135.76004,34.765949],[135.76114,34.765699],[135.762103,34.765341],[135.762415,34.765116],[135.762415,34.764816],[135.76219,34.764483],[135.761965,34.763916],[135.76164,34.763716],[135.761315,34.763624],[135.760978,34.763583],[135.760678,34.763608],[135.760378,34.763808],[135.759366,34.764757],[135.759303,34.764732],[135.758366,34.764599],[135.757491,34.764216],[135.756391,34.764149],[135.755841,34.764083],[135.755516,34.763858],[135.755241,34.763499],[135.754966,34.763041],[135.754579,34.762708],[135.753754,34.762283],[135.753341,34.761966],[135.752541,34.761083],[135.752104,34.76075],[135.751666,34.76055],[135.749992,34.760341],[135.749992,34.76005],[135.750129,34.759375],[135.750079,34.759033],[135.749904,34.758541],[135.749717,34.758158],[135.749354,34.7573],[135.748667,34.757033],[135.748342,34.756875],[135.748067,34.756692],[135.747679,34.756375],[135.747242,34.756083],[135.747178,34.756082],[135.746829,34.756217],[135.746605,34.756258],[135.746467,34.756242],[135.746305,34.756058],[135.745955,34.755925],[135.745467,34.7559],[135.745055,34.755875],[135.74483,34.755925],[135.744692,34.756008],[135.744555,34.756192],[135.744342,34.756325],[135.744092,34.756392],[135.743767,34.756333],[135.743442,34.756258],[135.742955,34.756183],[135.742592,34.756208],[135.742317,34.75655],[135.74213,34.756867],[135.741942,34.75695],[135.741717,34.756842],[135.741505,34.756658],[135.741255,34.756142],[135.741118,34.755983],[135.740955,34.755692],[135.740768,34.755075],[135.740568,34.754783],[135.740268,34.754442],[135.740268,34.754175],[135.740193,34.753925],[135.739505,34.7534],[135.73948,34.75325],[135.739593,34.753142],[135.73928,34.752809],[135.738893,34.752542],[135.738693,34.752459],[135.737818,34.752492],[135.73728,34.752425],[135.736881,34.752075],[135.736681,34.751717],[135.736393,34.752259],[135.736443,34.752892],[135.736593,34.75325],[135.736555,34.754142],[135.736668,34.75485],[135.736555,34.755275],[135.736005,34.755258],[135.734781,34.755034],[135.733743,34.754742],[135.733306,34.754775],[135.733168,34.754825],[135.733081,34.755],[135.733168,34.755342],[135.733331,34.755658],[135.733443,34.756267],[135.733006,34.756517],[135.732543,34.7567],[135.732268,34.756875],[135.731993,34.757217],[135.732018,34.757508],[135.732531,34.758467],[135.732643,34.758825],[135.732668,34.759141],[135.732481,34.759475],[135.732343,34.759816],[135.732268,34.760383],[135.732131,34.760858],[135.732106,34.761175],[135.732131,34.761258],[135.732106,34.7616],[135.731743,34.762375],[135.731693,34.762758],[135.731768,34.763099],[135.731968,34.763433],[135.732068,34.763774],[135.732106,34.764041],[135.731906,34.764383],[135.731468,34.764816],[135.731368,34.764858],[135.730981,34.764924],[135.730793,34.765083],[135.730431,34.765583],[135.730218,34.766058],[135.730081,34.766483],[135.729968,34.767582],[135.730081,34.767866],[135.730405,34.768224],[135.73043,34.768449],[135.730343,34.768816],[135.73038,34.769124],[135.73073,34.769699],[135.73078,34.769949],[135.730705,34.770282],[135.730655,34.770374],[135.73013,34.770824],[135.72983,34.771249],[135.72978,34.772174],[135.729555,34.773332],[135.729755,34.774457],[135.729693,34.77484],[135.729255,34.775432],[135.728955,34.775998],[135.729205,34.776898],[135.72918,34.777265],[135.729068,34.777557],[135.72873,34.777898],[135.729343,34.779248],[135.72953,34.779548],[135.730155,34.78014],[135.730843,34.781173],[135.731093,34.781331],[135.731717,34.781556],[135.731905,34.781739],[135.732017,34.782214],[135.732042,34.782581],[135.732155,34.782689],[135.73253,34.782914],[135.73303,34.783139],[135.733542,34.783764],[135.734017,34.784039],[135.734617,34.784164],[135.735592,34.784364],[135.736117,34.784631],[135.736279,34.784931],[135.736417,34.785514],[135.736854,34.786081],[135.737129,34.786264],[135.737479,34.786622],[135.737679,34.787006],[135.737892,34.787256],[135.738467,34.787547],[135.738929,34.787664],[135.739367,34.787739],[135.739754,34.787889],[135.740079,34.788122],[135.740516,34.788272],[135.740704,34.78843],[135.740766,34.788705],[135.740604,34.789064],[135.740379,34.789355],[135.740267,34.78963],[135.740291,34.78988],[135.740242,34.790122],[135.739942,34.79028],[135.739392,34.790664],[135.739254,34.790922],[135.739304,34.791255],[135.739529,34.79148],[135.739804,34.791688],[135.740017,34.791913],[135.740191,34.79223],[135.740266,34.792613],[135.740516,34.793263],[135.740729,34.793422],[135.741091,34.793538],[135.741466,34.793605],[135.741904,34.793605],[135.742066,34.79363],[135.742841,34.793605],[135.743166,34.793696],[135.743354,34.79388],[135.743491,34.794196],[135.743691,34.795296],[135.743816,34.795713],[135.744154,34.796255],[135.744779,34.797154],[135.745491,34.798054],[135.745791,34.798354],[135.745903,34.798538],[135.746041,34.799238],[135.746366,34.800746],[135.746553,34.801204],[135.746603,34.801671],[135.746553,34.802104],[135.746416,34.802596],[135.745903,34.803954],[135.745691,34.804154],[135.745041,34.80437],[135.744716,34.80442],[135.743954,34.804762],[135.743054,34.805237],[135.742816,34.805545],[135.742566,34.806229],[135.742291,34.806478],[135.742041,34.806878],[135.741966,34.807353],[135.741879,34.808287],[135.741666,34.80862],[135.741391,34.808928],[135.740516,34.810136],[135.739442,34.811303],[135.739142,34.811536],[135.738842,34.811645],[135.738542,34.81167],[135.738267,34.811736],[135.737917,34.812028],[135.737867,34.812519],[135.737754,34.812878],[135.737567,34.813178],[135.737292,34.813361],[135.736992,34.813453],[135.736767,34.813586],[135.736692,34.813878],[135.736767,34.814686],[135.736742,34.815069],[135.736367,34.816319],[135.736092,34.816769],[135.735979,34.817036],[135.736004,34.817561],[135.735892,34.817919],[135.735342,34.818886],[135.735292,34.819336],[135.735105,34.819877],[135.73493,34.819994],[135.734392,34.820086],[135.73398,34.820244],[135.733592,34.820485],[135.733317,34.820735],[135.732755,34.822027],[135.73248,34.82241],[135.73218,34.82261],[135.73158,34.822677],[135.731142,34.822677],[135.730592,34.822294],[135.730367,34.822177],[135.730042,34.822177],[135.729605,34.822294],[135.72898,34.822494],[135.72818,34.822927],[135.727643,34.823127],[135.72663,34.823102],[135.725918,34.823019],[135.724905,34.823035],[135.72438,34.823118],[135.724143,34.823235],[135.724006,34.823443],[135.723506,34.82441],[135.723018,34.82506],[135.723018,34.825202],[135.723293,34.825968],[135.723243,34.82631],[135.722418,34.827343],[135.722231,34.828018],[135.721543,34.828385],[135.721031,34.829035],[135.720731,34.829351],[135.720643,34.829376],[135.719993,34.829443],[135.719681,34.829551],[135.719431,34.82976],[135.719293,34.830026],[135.719343,34.830543],[135.719343,34.830884],[135.719218,34.831176],[135.718781,34.831718],[135.718156,34.832101],[135.717956,34.832326],[135.718019,34.832709],[135.718181,34.833026],[135.718181,34.833251],[135.717981,34.833459],[135.717769,34.833843],[135.717631,34.834243],[135.717356,34.835442],[135.716894,34.835734],[135.715931,34.836209],[135.715769,34.836384],[135.715769,34.836434],[135.715644,34.836576],[135.715669,34.836701],[135.715644,34.837125],[135.715669,34.837467],[135.715644,34.837734],[135.715481,34.83805],[135.715256,34.8383],[135.714706,34.838725],[135.714431,34.839067],[135.713969,34.839333],[135.713669,34.839583],[135.713344,34.839917],[135.712956,34.840233],[135.712656,34.840325],[135.712269,34.840166],[135.711994,34.840216],[135.711781,34.840508],[135.711456,34.841275],[135.711294,34.841425],[135.711069,34.841499],[135.711044,34.841633],[135.711206,34.841808],[135.711669,34.841991],[135.711781,34.842124],[135.711669,34.842333],[135.711456,34.842558],[135.711393,34.843208],[135.711231,34.843908],[135.711018,34.844132],[135.710356,34.844174],[135.709968,34.844824],[135.710056,34.845166],[135.710193,34.846632],[135.710006,34.846857],[135.709481,34.847032],[135.709118,34.847241],[135.708856,34.847507],[135.708606,34.847957],[135.708419,34.848299],[135.708194,34.848566],[135.707869,34.848857],[135.707344,34.849582],[135.707094,34.849666],[135.707019,34.849649],[135.706956,34.849666],[135.706519,34.849691],[135.706169,34.849849],[135.705919,34.850099],[135.705456,34.850816],[135.705106,34.851157],[135.704581,34.851316],[135.703681,34.851491],[135.703181,34.851691],[135.702719,34.851807],[135.702206,34.851782],[135.701981,34.851624],[135.701732,34.851266],[135.701407,34.850999],[135.701057,34.850907],[135.700669,34.850749],[135.700119,34.850457],[135.699219,34.850141],[135.698757,34.849891],[135.698394,34.849824],[135.697719,34.849257],[135.697407,34.848966],[135.697007,34.848832],[135.696482,34.848649],[135.696182,34.848499],[135.69582,34.848249],[135.695307,34.848116],[135.694895,34.848157],[135.694732,34.848316],[135.694707,34.848674],[135.694782,34.849015],[135.69462,34.849324],[135.69402,34.849865],[135.693832,34.850565],[135.693745,34.851065],[135.69352,34.85169],[135.693145,34.851965],[135.69262,34.85219],[135.692245,34.852415],[135.691882,34.852723],[135.69167,34.853332],[135.691695,34.853557],[135.691882,34.853873],[135.692132,34.854123],[135.692295,34.854373],[135.692407,34.854615],[135.692432,34.85509],[135.692295,34.855432],[135.69117,34.855857],[135.69087,34.856123],[135.690707,34.85644],[135.69082,34.857432],[135.690982,34.857857],[135.691357,34.858448],[135.691832,34.858915],[135.692182,34.859215],[135.692945,34.859707],[135.69347,34.860115],[135.694157,34.860515],[135.694644,34.86074],[135.694757,34.860899],[135.694782,34.861174],[135.694694,34.86144],[135.693682,34.861082],[135.693282,34.861015],[135.692845,34.861057],[135.692295,34.861307],[135.691557,34.86144],[135.691257,34.862273],[135.691195,34.862473],[135.691195,34.862973],[135.691307,34.863423],[135.691695,34.864231],[135.691882,34.864548],[135.691995,34.864998],[135.691857,34.865514],[135.691745,34.865672],[135.691445,34.865922],[135.691357,34.866322],[135.691382,34.86718],[135.691145,34.868264],[135.691107,34.868872],[135.691032,34.868963],[135.690595,34.869138],[135.689632,34.869363],[135.68942,34.869338],[135.689008,34.869205],[135.688733,34.869072],[135.688508,34.869047],[135.688108,34.86918],[135.687583,34.86948],[135.68627,34.870355],[135.685058,34.870763],[135.684408,34.871363],[135.683558,34.871679],[135.683258,34.871887],[135.682708,34.872154],[135.682383,34.872379],[135.682158,34.872671],[135.682021,34.873437],[135.681996,34.874629],[135.681883,34.87517],[135.681971,34.87562],[135.682133,34.875979],[135.682383,34.876295],[135.683008,34.876928],[135.683333,34.87747],[135.683395,34.877778],[135.683283,34.878162],[135.68317,34.87832],[135.683008,34.87877],[135.682958,34.87922],[135.68282,34.879628],[135.68232,34.880145],[135.682045,34.88062],[135.68177,34.880753],[135.680796,34.881094],[135.680083,34.881319],[135.679971,34.881319],[135.680058,34.881519],[135.680546,34.883794],[135.681283,34.885594],[135.681908,34.886719],[135.682683,34.887802]]]},"type":"Feature"}]}