{"type":"FeatureCollection","features":[{"properties":{"yomi":"かどの","name":"葛野","pref":"京都府","kuni_id":"K01","id_url":"G01001.html","kuni_url":"/kg/resource/K01.html","id":"G01001","kuni":"山城"},"geometry":{"coordinates":[[[135.597875,35.09439],[135.59825,35.09474],[135.5988,35.09509],[135.598975,35.095107],[135.599462,35.094948],[135.599712,35.094957],[135.599962,35.09494],[135.600362,35.095057],[135.600575,35.095357],[135.6007,35.095448],[135.600962,35.095398],[135.601412,35.094998],[135.601687,35.094757],[135.602037,35.094548],[135.602474,35.094523],[135.602787,35.094498],[135.603362,35.094557],[135.603799,35.094515],[135.604124,35.094357],[135.604374,35.094157],[135.604887,35.093273],[135.605112,35.092832],[135.605187,35.092765],[135.605687,35.092857],[135.606149,35.093048],[135.606862,35.093523],[135.607799,35.09419],[135.609561,35.095223],[135.610486,35.09559],[135.611011,35.095748],[135.611611,35.09599],[135.612498,35.096373],[135.612861,35.096481],[135.613073,35.09664],[135.613211,35.096848],[135.613736,35.097181],[135.614473,35.097381],[135.614561,35.097439],[135.614836,35.097856],[135.615686,35.099381],[135.615911,35.099639],[135.615961,35.099897],[135.616161,35.100297],[135.616273,35.100589],[135.616436,35.100814],[135.617236,35.100956],[135.617598,35.100931],[135.617698,35.100589],[135.617811,35.100497],[135.617636,35.099714],[135.617611,35.099314],[135.617498,35.098831],[135.617473,35.098189],[135.617136,35.097714],[135.616948,35.097264],[135.616886,35.096998],[135.616886,35.096723],[135.616948,35.096481],[135.617273,35.096006],[135.617323,35.095473],[135.617136,35.094656],[135.616936,35.094048],[135.616798,35.093781],[135.616661,35.093265],[135.616686,35.092948],[135.616661,35.092932],[135.616798,35.092773],[135.616836,35.092232],[135.616898,35.09209],[135.617111,35.091865],[135.617061,35.091848],[135.617611,35.091423],[135.617723,35.091348],[135.617773,35.09124],[135.617773,35.090882],[135.617861,35.090657],[135.618261,35.090457],[135.618423,35.09034],[135.618586,35.090157],[135.618786,35.089724],[135.618886,35.089324],[135.618936,35.088424],[135.619098,35.088207],[135.619373,35.08809],[135.619623,35.087865],[135.619835,35.087415],[135.62011,35.086549],[135.62011,35.086432],[135.620298,35.086074],[135.620748,35.084949],[135.621048,35.084541],[135.621348,35.083891],[135.621723,35.083216],[135.622174,35.082748],[135.622285,35.082766],[135.622585,35.082558],[135.622773,35.082308],[135.622885,35.082083],[135.622973,35.081683],[135.623135,35.081391],[135.623398,35.080691],[135.62346,35.080083],[135.62351,35.079925],[135.623535,35.079566],[135.623498,35.078666],[135.623698,35.07835],[135.623773,35.078075],[135.623748,35.077716],[135.623773,35.077241],[135.62371,35.076933],[135.623735,35.076525],[135.62371,35.07605],[135.623598,35.075558],[135.623598,35.075358],[135.624548,35.074542],[135.624685,35.073733],[135.62466,35.073617],[135.624523,35.073417],[135.624573,35.073075],[135.62476,35.072625],[135.62496,35.072359],[135.625223,35.072292],[135.625773,35.072284],[135.62591,35.072192],[135.625885,35.0719],[135.625698,35.071609],[135.625523,35.071142],[135.625635,35.07085],[135.625848,35.070667],[135.625985,35.070484],[135.625935,35.070217],[135.625798,35.069875],[135.625848,35.069584],[135.62601,35.069334],[135.62606,35.069159],[135.625923,35.068934],[135.62581,35.068617],[135.62581,35.068209],[135.625873,35.067917],[135.626085,35.067601],[135.626223,35.067217],[135.62646,35.067017],[135.626523,35.066926],[135.626523,35.066634],[135.626435,35.066367],[135.62681,35.065576],[135.627085,35.065509],[135.627698,35.065434],[135.628435,35.065301],[135.628923,35.065051],[135.629773,35.064759],[135.63016,35.064442],[135.63046,35.064326],[135.631173,35.063893],[135.632048,35.063801],[135.63251,35.063643],[135.632848,35.063601],[135.632948,35.063618],[135.633448,35.063484],[135.63386,35.063659],[135.633748,35.062609],[135.634347,35.062468],[135.634647,35.062243],[135.635022,35.061834],[135.635197,35.061834],[135.635272,35.062018],[135.635772,35.062284],[135.635935,35.062618],[135.635885,35.062959],[135.635772,35.063301],[135.635947,35.063726],[135.637535,35.064826],[135.637897,35.064842],[135.63841,35.064617],[135.639259,35.064726],[135.639672,35.064926],[135.639984,35.065176],[135.640084,35.065201],[135.640472,35.065017],[135.640797,35.065034],[135.641297,35.065326],[135.641522,35.066226],[135.641822,35.066951],[135.641722,35.067267],[135.641747,35.067642],[135.641809,35.067759],[135.641809,35.068234],[135.641859,35.068617],[135.641759,35.069017],[135.641972,35.069492],[135.641847,35.070192],[135.642009,35.070525],[135.642059,35.070867],[135.641959,35.0712],[135.642009,35.071517],[135.642622,35.072142],[135.642847,35.072483],[135.642897,35.072725],[135.642734,35.073],[135.641997,35.073658],[135.641422,35.074375],[135.641509,35.074716],[135.641647,35.074916],[135.642171,35.076241],[135.642221,35.076216],[135.643021,35.076125],[135.643734,35.076375],[135.644234,35.076508],[135.644584,35.07675],[135.644621,35.076891],[135.644371,35.076958],[135.644146,35.077091],[135.644046,35.077316],[135.643584,35.077541],[135.643109,35.0777],[135.642921,35.077816],[135.642784,35.077974],[135.642046,35.078266],[135.641796,35.078491],[135.640947,35.078833],[135.640734,35.078766],[135.640397,35.078816],[135.639884,35.079241],[135.639384,35.079491],[135.639059,35.079741],[135.638897,35.080124],[135.638597,35.080466],[135.638084,35.080799],[135.635097,35.082607],[135.634747,35.082924],[135.634609,35.083199],[135.634384,35.083491],[135.633597,35.084166],[135.633459,35.084507],[135.633484,35.084666],[135.633459,35.084999],[135.63226,35.086174],[135.632097,35.08649],[135.63201,35.086549],[135.63201,35.08669],[135.631872,35.08694],[135.631847,35.087182],[135.632359,35.087599],[135.632597,35.088024],[135.633022,35.089173],[135.633409,35.089782],[135.633622,35.090307],[135.633697,35.090665],[135.633659,35.091448],[135.634334,35.092473],[135.634647,35.093798],[135.634997,35.094256],[135.635259,35.095089],[135.635934,35.096131],[135.636572,35.095664],[135.637759,35.095239],[135.638471,35.094981],[135.639309,35.094531],[135.640346,35.094539],[135.641384,35.094598],[135.641684,35.094573],[135.642159,35.094489],[135.643183,35.093731],[135.643596,35.09349],[135.643521,35.09279],[135.643546,35.092456],[135.643533,35.091873],[135.643558,35.091823],[135.643534,35.091665],[135.644058,35.091473],[135.644283,35.091115],[135.644233,35.090748],[135.644308,35.090457],[135.644271,35.089765],[135.644621,35.08979],[135.645121,35.089723],[135.645783,35.089415],[135.645946,35.089298],[135.646608,35.089015],[135.646796,35.088907],[135.647633,35.088232],[135.648233,35.087882],[135.650658,35.08684],[135.650633,35.087449],[135.650646,35.088057],[135.650446,35.088932],[135.650421,35.089382],[135.650333,35.08954],[135.650383,35.089765],[135.650783,35.090265],[135.651495,35.090965],[135.651958,35.091356],[135.652258,35.091673],[135.652583,35.091923],[135.653158,35.091948],[135.653683,35.092065],[135.654308,35.092406],[135.654308,35.092606],[135.654133,35.09304],[135.65372,35.093506],[135.65327,35.094089],[135.652858,35.094506],[135.652633,35.094914],[135.652595,35.095248],[135.652758,35.095948],[135.652695,35.096289],[135.652233,35.096781],[135.652358,35.097589],[135.65232,35.097856],[135.651958,35.098214],[135.651545,35.098414],[135.651295,35.098772],[135.65127,35.099156],[135.65112,35.099939],[135.650783,35.100839],[135.65017,35.101797],[135.650545,35.102563],[135.650895,35.102955],[135.651145,35.103088],[135.651795,35.103138],[135.65227,35.103322],[135.652595,35.103705],[135.652882,35.10423],[135.65307,35.10468],[135.653532,35.105313],[135.653832,35.105563],[135.654432,35.105838],[135.65407,35.106288],[135.653732,35.106596],[135.653707,35.106796],[135.654357,35.107771],[135.654732,35.108829],[135.65467,35.108921],[135.654457,35.108988],[135.654207,35.108988],[135.653707,35.109046],[135.652557,35.109246],[135.651645,35.109529],[135.651182,35.109729],[135.65057,35.109838],[135.649758,35.109804],[135.649258,35.109938],[135.649008,35.110229],[135.648645,35.111146],[135.64847,35.111346],[135.648195,35.111887],[135.648158,35.112087],[135.648233,35.112629],[135.64872,35.113237],[135.64927,35.113804],[135.649758,35.114462],[135.64932,35.114612],[135.649095,35.11482],[135.648145,35.11647],[135.64817,35.116695],[135.647945,35.117128],[135.64717,35.117887],[135.64692,35.118062],[135.647595,35.118628],[135.648145,35.11902],[135.64847,35.119195],[135.648683,35.119153],[135.649433,35.118578],[135.64972,35.11822],[135.649883,35.117678],[135.650195,35.116987],[135.650807,35.116229],[135.651332,35.115962],[135.652045,35.11572],[135.652382,35.115495],[135.652432,35.115387],[135.652845,35.115137],[135.653295,35.115095],[135.65392,35.114904],[135.654195,35.11477],[135.654332,35.114904],[135.655357,35.116462],[135.655445,35.116645],[135.655845,35.116987],[135.656345,35.117237],[135.65702,35.117287],[135.657957,35.117045],[135.658369,35.117003],[135.658732,35.116853],[135.659832,35.116162],[135.659919,35.116145],[135.661332,35.117054],[135.662619,35.117787],[135.663469,35.118128],[135.663957,35.118653],[135.664332,35.118837],[135.664532,35.119128],[135.664544,35.11967],[135.664732,35.12012],[135.665332,35.120845],[135.665844,35.121137],[135.666482,35.121328],[135.667269,35.121328],[135.667544,35.121378],[135.667982,35.121612],[135.668394,35.122086],[135.668857,35.122536],[135.669207,35.122811],[135.670031,35.122886],[135.670244,35.12302],[135.670456,35.12372],[135.670582,35.125653],[135.670769,35.126219],[135.671144,35.126561],[135.672044,35.126903],[135.672269,35.127086],[135.672231,35.127469],[135.672344,35.127719],[135.672756,35.127969],[135.673319,35.128469],[135.673481,35.128919],[135.673531,35.129344],[135.673719,35.129619],[135.674319,35.129853],[135.674344,35.130369],[135.674119,35.131244],[135.674119,35.131352],[135.674306,35.131852],[135.674631,35.132327],[135.675469,35.133686],[135.675569,35.13411],[135.675369,35.134985],[135.675444,35.135977],[135.675731,35.13681],[135.675781,35.137443],[135.675619,35.13771],[135.675481,35.137777],[135.675032,35.137868],[135.674432,35.138177],[135.674207,35.138327],[135.673819,35.138752],[135.673457,35.139335],[135.672957,35.140368],[135.672832,35.140885],[135.672632,35.141426],[135.672494,35.142051],[135.672457,35.142609],[135.672694,35.143468],[135.672744,35.143918],[135.672495,35.144709],[135.672407,35.145267],[135.672595,35.145651],[135.673007,35.146017],[135.673495,35.146334],[135.673682,35.146692],[135.67357,35.147326],[135.673157,35.148984],[135.672857,35.14925],[135.672657,35.149609],[135.672732,35.150242],[135.672757,35.150875],[135.672507,35.151842],[135.672583,35.152492],[135.672695,35.154],[135.672857,35.154541],[135.673157,35.155016],[135.673307,35.155666],[135.672945,35.156724],[135.672607,35.157308],[135.67252,35.157866],[135.672757,35.158474],[135.67317,35.158933],[135.67412,35.159458],[135.67432,35.159683],[135.674395,35.159908],[135.67447,35.160382],[135.67462,35.161532],[135.674482,35.162449],[135.674257,35.162924],[135.674382,35.163257],[135.674332,35.163774],[135.674544,35.164232],[135.675844,35.165232],[135.675769,35.165565],[135.675732,35.165924],[135.684088,35.160984],[135.686852,35.158707],[135.687968,35.156036],[135.689078,35.151907],[135.689615,35.14804],[135.690828,35.143583],[135.690828,35.140537],[135.692016,35.138503],[135.692347,35.136129],[135.692347,35.129225],[135.692045,35.125953],[135.693069,35.123264],[135.694765,35.121248],[135.697076,35.119845],[135.701394,35.11676],[135.703905,35.114636],[135.704067,35.113598],[135.703837,35.111603],[135.703306,35.107765],[135.703306,35.105463],[135.703306,35.104278],[135.705262,35.101446],[135.707759,35.098517],[135.709994,35.096036],[135.712876,35.090926],[135.712876,35.085533],[135.712876,35.082162],[135.713668,35.078646],[135.715806,35.074314],[135.719876,35.068018],[135.721793,35.064217],[135.724856,35.059142],[135.726361,35.057077],[135.729004,35.053473],[135.731795,35.051083],[135.735525,35.048779],[135.738912,35.047761],[135.740901,35.045774],[135.741744,35.039123],[135.741744,35.035627],[135.741852,35.035631],[135.741852,35.035539],[135.742264,35.035489],[135.742289,35.035831],[135.743114,35.035822],[135.743139,35.035622],[135.743614,35.035622],[135.743639,35.035889],[135.743914,35.035872],[135.743939,35.035647],[135.745664,35.035572],[135.745689,35.035797],[135.746439,35.035797],[135.746402,35.035572],[135.747014,35.035564],[135.747014,35.035881],[135.747089,35.035906],[135.747173,35.035878],[135.747251,35.035839],[135.747501,35.035864],[135.747551,35.036972],[135.747714,35.036997],[135.747789,35.038597],[135.747839,35.039139],[135.747939,35.039205],[135.748576,35.039164],[135.749076,35.039239],[135.749539,35.039105],[135.749839,35.03888],[135.750426,35.038272],[135.750501,35.03823],[135.750751,35.03823],[135.751389,35.038305],[135.751576,35.03828],[135.751526,35.037922],[135.751576,35.037781],[135.751939,35.037697],[135.752876,35.037539],[135.753976,35.037481],[135.754876,35.037397],[135.755426,35.037306],[135.756013,35.037289],[135.756451,35.037314],[135.757413,35.037297],[135.757488,35.037414],[135.757951,35.037664],[135.758176,35.037664],[135.758476,35.03773],[135.758938,35.037664],[135.759051,35.037464],[135.759138,35.037397],[135.759988,35.037422],[135.760288,35.037539],[135.760613,35.037789],[135.761088,35.03763],[135.76125,35.037639],[135.761225,35.037114],[135.761888,35.037031],[135.762988,35.037056],[135.7631,35.036922],[135.763175,35.036989],[135.763225,35.037147],[135.763638,35.037289],[135.76375,35.037222],[135.76435,35.037497],[135.764638,35.037089],[135.764988,35.036689],[135.765575,35.035872],[135.766925,35.034797],[135.7674,35.034306],[135.767762,35.033698],[135.7679,35.033539],[135.7679,35.033406],[135.768037,35.033206],[135.7684,35.032864],[135.7689,35.032323],[135.769087,35.032281],[135.769637,35.032464],[135.769887,35.032581],[135.770075,35.032381],[135.770574,35.031614],[135.771087,35.030598],[135.771362,35.02974],[135.771674,35.028032],[135.771749,35.026173],[135.771674,35.024299],[135.771599,35.023374],[135.771587,35.02209],[135.771612,35.021632],[135.771574,35.020441],[135.771662,35.019057],[135.771637,35.018566],[135.771674,35.018091],[135.771624,35.016691],[135.771687,35.016216],[135.771662,35.015808],[135.771687,35.015383],[135.771662,35.014925],[135.771762,35.012466],[135.771749,35.010683],[135.771787,35.010475],[135.771762,35.010075],[135.771787,35.009617],[135.773712,35.009658],[135.774099,35.009725],[135.774149,35.010175],[135.774199,35.0102],[135.774674,35.010158],[135.774674,35.009933],[135.775024,35.009975],[135.775387,35.009958],[135.775474,35.0096],[135.775687,35.00955],[135.776874,35.009625],[135.777749,35.0097],[135.777999,35.00975],[135.778074,35.009792],[135.778574,35.009867],[135.778786,35.009958],[135.778874,35.010183],[135.778949,35.010292],[135.780411,35.010283],[135.780786,35.010258],[135.780986,35.010283],[135.781611,35.010558],[135.781973,35.010625],[135.782411,35.010608],[135.782598,35.010633],[135.783061,35.010767],[135.783086,35.010817],[135.783723,35.0108],[135.784136,35.010825],[135.784411,35.010867],[135.784573,35.0108],[135.784636,35.010692],[135.784661,35.010192],[135.784636,35.0099],[135.784723,35.009717],[135.784773,35.009692],[135.785411,35.009833],[135.785686,35.009792],[135.786173,35.009792],[135.786473,35.009883],[135.787211,35.01],[135.78746,35.010142],[135.788398,35.010008],[135.788698,35.009875],[135.788998,35.009542],[135.789223,35.009408],[135.789523,35.009408],[135.79021,35.009525],[135.790623,35.009458],[135.791148,35.009142],[135.790735,35.00885],[135.790523,35.008558],[135.790523,35.008483],[135.79096,35.008175],[135.79096,35.007992],[135.790885,35.007834],[135.790723,35.007675],[135.790148,35.007742],[135.78956,35.007759],[135.789123,35.007667],[135.78871,35.007525],[135.788223,35.007434],[135.787998,35.007434],[135.787536,35.007292],[135.786986,35.006884],[135.786798,35.006567],[135.786698,35.006184],[135.786623,35.005434],[135.786698,35.005192],[135.786836,35.005034],[135.787173,35.004467],[135.787336,35.004109],[135.787536,35.003251],[135.787561,35.002684],[135.787748,35.002092],[135.787861,35.001867],[135.788048,35.001151],[135.788186,35.000834],[135.788273,35.000742],[135.789011,35.000401],[135.789286,35.000251],[135.789373,35.000159],[135.789448,34.999909],[135.789423,34.999568],[135.789448,34.999301],[135.789836,34.998918],[135.790061,34.998626],[135.79061,34.998259],[135.790823,34.998034],[135.791098,34.997226],[135.791073,34.996843],[135.790885,34.996259],[135.790686,34.996034],[135.790473,34.995851],[135.789561,34.995535],[135.789836,34.995151],[135.789948,34.994901],[135.789973,34.994593],[135.789861,34.994026],[135.789948,34.993235],[135.790048,34.992901],[135.790248,34.992718],[135.790386,34.992427],[135.790598,34.991393],[135.790636,34.991093],[135.790461,34.990535],[135.790186,34.990418],[135.789973,34.990194],[135.789861,34.989877],[135.789723,34.989744],[135.789423,34.98961],[135.789148,34.98916],[135.789086,34.988977],[135.789086,34.988419],[135.789248,34.98781],[135.789198,34.987444],[135.788898,34.987061],[135.787736,34.985694],[135.787323,34.985061],[135.787348,34.984902],[135.787548,34.984769],[135.787936,34.984253],[135.788586,34.983594],[135.788286,34.983105],[135.785653,34.982669],[135.784365,34.982864],[135.783262,34.984154],[135.782251,34.985253],[135.782251,34.986577],[135.781375,34.987161],[135.780005,34.987161],[135.779376,34.986487],[135.778985,34.985592],[135.77794,34.983599],[135.777538,34.982085],[135.778231,34.981531],[135.778865,34.981025],[135.779143,34.980138],[135.778383,34.979788],[135.775794,34.979788],[135.77339,34.982494],[135.771096,34.983157],[135.768129,34.983308],[135.768076,34.982936],[135.767801,34.981877],[135.767476,34.981902],[135.766926,34.981902],[135.766876,34.982194],[135.766835,34.982741],[135.766831,34.982794],[135.766676,34.984069],[135.766488,34.984019],[135.765913,34.984044],[135.765413,34.98411],[135.763826,34.98416],[135.761626,34.984185],[135.760139,34.984144],[135.759427,34.984185],[135.758102,34.98421],[135.757527,34.984252],[135.757089,34.984327],[135.756677,34.984502],[135.756539,34.984619],[135.756177,34.984802],[135.755402,34.985002],[135.754852,34.985069],[135.754414,34.98516],[135.754027,34.98521],[135.752715,34.985027],[135.751315,34.984935],[135.749302,34.984918],[135.747327,34.98501],[135.747174,34.985024],[135.74689,34.984993],[135.74684,34.984977],[135.746065,34.98496],[135.745665,34.984918],[135.74529,34.984668],[135.74489,34.98451],[135.744165,34.98441],[135.74354,34.984252],[135.74249,34.983927],[135.741215,34.983644],[135.737416,34.982577],[135.736166,34.982169],[135.734816,34.981619],[135.734291,34.981444],[135.733616,34.981202],[135.733141,34.98106],[135.733178,34.98221],[135.733228,34.98266],[135.733178,34.983043],[135.732866,34.983202],[135.732216,34.98321],[135.731716,34.983168],[135.730466,34.98316],[135.730491,34.98336],[135.730379,34.984018],[135.730304,34.984218],[135.728679,34.984227],[135.728429,34.984268],[135.728454,34.984452],[135.728391,34.985735],[135.727254,34.985777],[135.727229,34.985635],[135.727029,34.985618],[135.726716,34.985635],[135.725992,34.98556],[135.725604,34.985518],[135.725079,34.985635],[135.723454,34.985743],[135.722954,34.985718],[135.721729,34.985418],[135.721317,34.985277],[135.721229,34.98521],[135.720979,34.984852],[135.720642,34.984552],[135.720454,34.984485],[135.720129,34.984418],[135.720029,34.984193],[135.719555,34.983927],[135.719205,34.983868],[135.71863,34.983843],[135.71853,34.983635],[135.718517,34.982985],[135.718105,34.982935],[135.717592,34.98276],[135.71768,34.981877],[135.71638,34.981652],[135.716242,34.981594],[135.715967,34.981227],[135.715455,34.97996],[135.714292,34.981285],[135.713555,34.982385],[135.71283,34.983693],[135.712568,34.984318],[135.711593,34.986251],[135.711205,34.986876],[135.710743,34.988268],[135.710405,34.989934],[135.710318,34.991334],[135.710205,34.991968],[135.709905,34.992951],[135.709468,34.994142],[135.708568,34.996192],[135.70828,34.996684],[135.707855,34.997176],[135.707131,34.997784],[135.706568,34.998134],[135.705893,34.9984],[135.705206,34.9986],[135.704281,34.998725],[135.702031,34.998959],[135.701069,34.999],[135.700294,34.998992],[135.699469,34.998825],[135.697394,34.998209],[135.696619,34.998042],[135.695944,34.997976],[135.695232,34.997992],[135.694469,34.997942],[135.692932,34.997767],[135.692269,34.997834],[135.691807,34.997967],[135.691369,34.998234],[135.690907,34.998567],[135.690144,34.999284],[135.689894,34.999734],[135.689782,35.000384],[135.689619,35.001784],[135.689557,35.003183],[135.689607,35.003225],[135.689557,35.003467],[135.689419,35.003733],[135.689294,35.004458],[135.689357,35.005583],[135.689457,35.006033],[135.689569,35.006641],[135.689494,35.007158],[135.689357,35.007633],[135.689094,35.008058],[135.688382,35.008916],[135.687532,35.010024],[135.686932,35.010949],[135.686644,35.011333],[135.686032,35.011916],[135.685169,35.012457],[135.684619,35.012732],[135.683819,35.012932],[135.682782,35.013049],[135.682507,35.012982],[135.682207,35.012782],[135.681357,35.012516],[135.680882,35.012424],[135.680445,35.012182],[135.679295,35.011624],[135.678682,35.011441],[135.67822,35.011424],[135.677757,35.011449],[135.677157,35.011608],[135.676632,35.011858],[135.675407,35.012666],[135.675245,35.012741],[135.673345,35.012857],[135.671895,35.013149],[135.670745,35.013491],[135.67012,35.013882],[135.669795,35.014174],[135.66952,35.014557],[135.669083,35.015365],[135.668532,35.015998],[135.668132,35.016198],[135.66717,35.01659],[135.66627,35.016906],[135.665583,35.017065],[135.66492,35.017181],[135.663695,35.01734],[135.662345,35.017415],[135.661058,35.017598],[135.66032,35.017573],[135.659908,35.017506],[135.659583,35.017489],[135.659245,35.017556],[135.658733,35.017806],[135.65827,35.018081],[135.657608,35.018731],[135.657233,35.019322],[135.65652,35.020314],[135.656058,35.021214],[135.655895,35.021705],[135.655633,35.022905],[135.65557,35.023372],[135.655558,35.024455],[135.65542,35.024813],[135.655233,35.025088],[135.65487,35.025222],[135.654495,35.025497],[135.654058,35.025696],[135.653745,35.025921],[135.65342,35.02658],[135.653345,35.027121],[135.65337,35.027705],[135.65352,35.028738],[135.653433,35.029413],[135.653195,35.029754],[135.65287,35.030004],[135.652433,35.030246],[135.651958,35.030429],[135.651246,35.030638],[135.650946,35.030613],[135.650533,35.030371],[135.649346,35.028663],[135.648796,35.028121],[135.648383,35.027829],[135.647208,35.027271],[135.646621,35.026938],[135.645471,35.026038],[135.643484,35.024696],[135.642146,35.023821],[135.641834,35.02373],[135.640609,35.023713],[135.640309,35.023646],[135.640059,35.023555],[135.639997,35.023488],[135.639897,35.023696],[135.639397,35.023963],[135.638959,35.02428],[135.638884,35.024638],[135.638934,35.024779],[135.639347,35.025404],[135.639322,35.025496],[135.638909,35.025363],[135.638609,35.025179],[135.638397,35.025163],[135.638147,35.025338],[135.638147,35.025654],[135.638447,35.026013],[135.638209,35.026379],[135.638347,35.026846],[135.638122,35.027146],[135.638047,35.027679],[135.637797,35.027863],[135.636759,35.028296],[135.636572,35.028471],[135.636522,35.028812],[135.636409,35.029012],[135.636134,35.029129],[135.635859,35.029329],[135.635447,35.029937],[135.635322,35.030012],[135.635097,35.030212],[135.635322,35.030704],[135.635047,35.031046],[135.63491,35.031087],[135.63431,35.031587],[135.634097,35.031837],[135.634122,35.032312],[135.634072,35.032354],[135.633385,35.032537],[135.632972,35.033079],[135.632622,35.033187],[135.632285,35.033345],[135.63201,35.033645],[135.631822,35.033979],[135.631585,35.034137],[135.63076,35.03407],[135.63056,35.03412],[135.630485,35.03432],[135.62991,35.03482],[135.629748,35.035228],[135.629673,35.035995],[135.629535,35.036328],[135.629535,35.03667],[135.629585,35.036978],[135.629398,35.037162],[135.628935,35.037345],[135.62831,35.037662],[135.627948,35.037778],[135.627785,35.03802],[135.62726,35.03832],[135.62691,35.039128],[135.62661,35.039445],[135.626423,35.039578],[135.626285,35.039603],[135.62541,35.039336],[135.624686,35.039045],[135.623536,35.038303],[135.623211,35.038237],[135.622636,35.03817],[135.622185,35.038151],[135.621948,35.038103],[135.621673,35.038145],[135.621486,35.038353],[135.621323,35.038845],[135.621098,35.039253],[135.620773,35.039636],[135.619836,35.039995],[135.619098,35.040986],[135.617898,35.04177],[135.617561,35.042086],[135.617186,35.042719],[135.617099,35.043261],[135.617349,35.043753],[135.617648,35.044636],[135.617673,35.045153],[135.617536,35.045536],[135.617648,35.046186],[135.617873,35.046927],[135.617973,35.047586],[135.618086,35.048661],[135.618086,35.049202],[135.617948,35.050327],[135.617898,35.051185],[135.617973,35.051769],[135.617973,35.05231],[135.618111,35.052985],[135.618086,35.053577],[135.617873,35.053952],[135.617398,35.054227],[135.617373,35.054294],[135.617486,35.054943],[135.617373,35.05531],[135.617486,35.055668],[135.617923,35.05616],[135.618498,35.056635],[135.618823,35.057018],[135.619123,35.058776],[135.619373,35.059385],[135.620086,35.060443],[135.620611,35.061368],[135.621048,35.061909],[135.621236,35.062268],[135.621423,35.063259],[135.621673,35.063618],[135.622161,35.064109],[135.622161,35.064709],[135.621148,35.065709],[135.619836,35.066859],[135.619461,35.067401],[135.619123,35.068034],[135.618661,35.068434],[135.618336,35.068501],[135.617761,35.068459],[135.617073,35.068276],[135.616474,35.068076],[135.614524,35.067759],[135.612474,35.067284],[135.610611,35.066901],[135.608449,35.066559],[135.608549,35.066001],[135.608387,35.065301],[135.608037,35.064601],[135.607737,35.064334],[135.606987,35.063093],[135.606724,35.062801],[135.605899,35.062168],[135.605462,35.062051],[135.604937,35.062101],[135.60415,35.062276],[135.603487,35.062526],[135.603025,35.062643],[135.602725,35.062776],[135.60245,35.063068],[135.60225,35.063518],[135.602062,35.063834],[135.6017,35.064168],[135.601575,35.064601],[135.60165,35.065134],[135.6019,35.066126],[135.6017,35.066443],[135.600825,35.067368],[135.60075,35.067568],[135.600687,35.068268],[135.600412,35.069101],[135.600087,35.070492],[135.599513,35.070701],[135.598225,35.071084],[135.596175,35.071259],[135.595975,35.071392],[135.5959,35.071826],[135.595351,35.072276],[135.595126,35.072659],[135.594713,35.073867],[135.594363,35.074142],[135.593813,35.074209],[135.593188,35.074234],[135.592751,35.074409],[135.592576,35.074525],[135.592388,35.07495],[135.592138,35.075492],[135.591763,35.07585],[135.591263,35.076075],[135.590714,35.076259],[135.590551,35.076775],[135.590176,35.077042],[135.590114,35.077384],[135.590139,35.077467],[135.590576,35.077809],[135.590963,35.078375],[135.591151,35.0788],[135.591263,35.078892],[135.592201,35.079367],[135.591926,35.079658],[135.591726,35.08015],[135.591788,35.080875],[135.591726,35.081008],[135.591726,35.0815],[135.591788,35.081683],[135.592363,35.0827],[135.592413,35.083008],[135.591976,35.083841],[135.591863,35.084383],[135.591976,35.084833],[135.592438,35.085375],[135.593263,35.086141],[135.593651,35.086391],[135.593838,35.086483],[135.594088,35.086549],[135.594113,35.086574],[135.594125,35.086799],[135.594088,35.086908],[135.593788,35.087274],[135.5937,35.087583],[135.593813,35.087916],[135.593975,35.088166],[135.59425,35.088458],[135.595375,35.089374],[135.595875,35.089874],[135.59605,35.090091],[135.59615,35.090324],[135.5964,35.090641],[135.596975,35.091041],[135.597538,35.09154],[135.597975,35.092057],[135.598137,35.092407],[135.598137,35.092857],[135.598062,35.09329],[135.598075,35.093582],[135.597875,35.09439]]],"type":"Polygon"},"type":"Feature"}]}