{"type":"FeatureCollection","features":[{"geometry":{"type":"Polygon","coordinates":[[[135.71566,34.594949],[135.71656,34.594866],[135.71781,34.594916],[135.718572,34.595124],[135.718685,34.595124],[135.719559,34.595416],[135.719772,34.595533],[135.721047,34.595899],[135.722009,34.595724],[135.722672,34.595341],[135.722997,34.594741],[135.723197,34.59305],[135.723559,34.591925],[135.724159,34.591391],[135.724409,34.591208],[135.726134,34.59075],[135.726434,34.5907],[135.727334,34.590775],[135.728446,34.590958],[135.729509,34.591217],[135.730409,34.591333],[135.731534,34.591333],[135.734071,34.5916],[135.737396,34.592242],[135.739058,34.59275],[135.740145,34.593158],[135.740933,34.59325],[135.741483,34.593233],[135.74527,34.592784],[135.745795,34.592784],[135.74667,34.5929],[135.747045,34.592925],[135.747181,34.592908],[135.74752,34.592975],[135.748645,34.593017],[135.74922,34.592975],[135.749882,34.592842],[135.750732,34.5925],[135.75162,34.591959],[135.751282,34.591759],[135.750657,34.591151],[135.750432,34.590767],[135.750407,34.590517],[135.75057,34.589884],[135.750845,34.589184],[135.751095,34.588059],[135.751232,34.587359],[135.75137,34.587201],[135.75162,34.587159],[135.751995,34.587134],[135.752245,34.587093],[135.752445,34.586951],[135.752745,34.586618],[135.75302,34.586501],[135.753257,34.585868],[135.75322,34.585618],[135.753132,34.585418],[135.75307,34.585368],[135.75267,34.585285],[135.75242,34.585168],[135.75202,34.584926],[135.751407,34.584926],[135.75122,34.584776],[135.75112,34.58441],[135.751058,34.583943],[135.75077,34.582993],[135.75062,34.582302],[135.750583,34.581827],[135.750633,34.581377],[135.750783,34.580918],[135.750933,34.58061],[135.752595,34.580669],[135.753207,34.58066],[135.753682,34.579802],[135.753707,34.579327],[135.75362,34.57906],[135.753433,34.57881],[135.752908,34.578519],[135.752595,34.578385],[135.752808,34.578186],[135.753908,34.577411],[135.754882,34.576819],[135.757682,34.575228],[135.758745,34.574544],[135.759295,34.574319],[135.760395,34.574111],[135.76092,34.574061],[135.76137,34.573903],[135.761795,34.573695],[135.762132,34.573445],[135.76262,34.572811],[135.763019,34.57277],[135.763507,34.572786],[135.763619,34.572137],[135.762982,34.572045],[135.763007,34.571462],[135.76312,34.571328],[135.761907,34.571762],[135.761595,34.570953],[135.761332,34.570003],[135.76127,34.569578],[135.761257,34.568962],[135.76147,34.568945],[135.76162,34.568962],[135.761795,34.568912],[135.761932,34.568737],[135.762007,34.568604],[135.762132,34.56842],[135.762395,34.568162],[135.762632,34.56797],[135.76327,34.567987],[135.76377,34.568079],[135.764132,34.568095],[135.764257,34.56762],[135.76427,34.566945],[135.76402,34.565979],[135.76402,34.565779],[135.763732,34.564721],[135.763632,34.564496],[135.76347,34.563463],[135.763432,34.561771],[135.763482,34.561496],[135.762995,34.561438],[135.762807,34.561371],[135.762782,34.561121],[135.762857,34.560288],[135.763345,34.559246],[135.76352,34.559088],[135.763645,34.558771],[135.763508,34.558163],[135.763045,34.557263],[135.762758,34.556588],[135.762633,34.556163],[135.762595,34.555755],[135.762658,34.554905],[135.76262,34.554314],[135.762433,34.55398],[135.762183,34.553689],[135.762083,34.553464],[135.76227,34.553055],[135.762633,34.552672],[135.763545,34.552422],[135.763908,34.552281],[135.764183,34.552097],[135.764395,34.551781],[135.764433,34.551647],[135.76427,34.551156],[135.764358,34.551039],[135.764433,34.550831],[135.76452,34.550497],[135.76457,34.550297],[135.764758,34.550131],[135.765145,34.549956],[135.765145,34.549873],[135.765195,34.549589],[135.765308,34.549248],[135.765383,34.549064],[135.76547,34.548823],[135.765483,34.548614],[135.765558,34.548406],[135.765695,34.548264],[135.765833,34.548214],[135.766008,34.548156],[135.76617,34.548056],[135.766345,34.547906],[135.766508,34.547698],[135.766645,34.547531],[135.766733,34.547431],[135.76682,34.547281],[135.76677,34.546881],[135.766608,34.54659],[135.766308,34.54639],[135.76557,34.546148],[135.765533,34.546081],[135.765533,34.54574],[135.765683,34.545198],[135.765745,34.545198],[135.76632,34.54544],[135.766783,34.545481],[135.767208,34.54544],[135.76752,34.545365],[135.767845,34.545048],[135.768207,34.544557],[135.76812,34.54399],[135.767795,34.543115],[135.767457,34.542307],[135.76742,34.541965],[135.767445,34.541632],[135.76757,34.541407],[135.767995,34.541015],[135.768507,34.54034],[135.76857,34.540049],[135.76847,34.53964],[135.768257,34.539324],[135.767845,34.539032],[135.767395,34.538791],[135.76687,34.538366],[135.766458,34.538074],[135.765883,34.537582],[135.765908,34.537449],[135.766395,34.536974],[135.767007,34.537466],[135.767382,34.537641],[135.76772,34.537666],[135.768082,34.537574],[135.76842,34.537324],[135.768532,34.537166],[135.769257,34.535808],[135.769557,34.535466],[135.76987,34.535266],[135.76952,34.534816],[135.769207,34.534524],[135.768782,34.534366],[135.768257,34.534233],[135.768045,34.534058],[135.767982,34.533691],[135.767995,34.5323],[135.767957,34.5318],[135.767807,34.531333],[135.767207,34.530458],[135.76687,34.530025],[135.76662,34.529483],[135.76652,34.52955],[135.764432,34.529475],[135.763358,34.529458],[135.763408,34.530283],[135.763383,34.530458],[135.763295,34.530458],[135.76287,34.530458],[135.760933,34.530491],[135.760858,34.531341],[135.760308,34.53135],[135.759758,34.531391],[135.75982,34.531983],[135.759795,34.5323],[135.759733,34.532275],[135.756883,34.5322],[135.752683,34.532041],[135.750909,34.532024],[135.750909,34.531216],[135.750509,34.5312],[135.750371,34.530591],[135.750309,34.53045],[135.748021,34.530425],[135.747183,34.530423],[135.745546,34.530483],[135.745521,34.528475],[135.744821,34.528475],[135.744521,34.528508],[135.744259,34.529225],[135.744122,34.529283],[135.742847,34.529316],[135.741984,34.52935],[135.740772,34.529291],[135.740722,34.529133],[135.740772,34.5283],[135.740497,34.528258],[135.738484,34.528175],[135.738397,34.528133],[135.738384,34.527441],[135.738447,34.527325],[135.737622,34.527266],[135.73601,34.527191],[135.735747,34.527291],[135.735722,34.5276],[135.735372,34.528608],[135.73521,34.529091],[135.734822,34.529149],[135.733885,34.529141],[135.73331,34.529299],[135.732722,34.529816],[135.73261,34.529841],[135.732272,34.529441],[135.732385,34.529308],[135.732847,34.529058],[135.733147,34.528833],[135.732922,34.528624],[135.732735,34.528633],[135.732522,34.528541],[135.732172,34.52795],[135.73186,34.527758],[135.73146,34.527691],[135.73116,34.527808],[135.731048,34.527924],[135.730873,34.528408],[135.730635,34.528691],[135.73041,34.528858],[135.730335,34.528974],[135.730398,34.529149],[135.730198,34.530383],[135.73001,34.530841],[135.729835,34.531041],[135.729598,34.531149],[135.729135,34.531274],[135.728648,34.531324],[135.72851,34.531274],[135.728648,34.531791],[135.72901,34.532124],[135.72906,34.532232],[135.728873,34.532399],[135.728848,34.532707],[135.72776,34.532907],[135.726998,34.533049],[135.727135,34.533774],[135.727335,34.53444],[135.72756,34.53474],[135.728023,34.535224],[135.728685,34.536032],[135.72916,34.536548],[135.72926,34.536723],[135.729523,34.53699],[135.729273,34.537107],[135.729023,34.53729],[135.728748,34.537423],[135.72856,34.537582],[135.725823,34.539273],[135.725748,34.539298],[135.726248,34.540465],[135.726935,34.541831],[135.727135,34.542506],[135.727948,34.544389],[135.727698,34.544456],[135.727398,34.544497],[135.723111,34.545747],[135.722448,34.545955],[135.722086,34.546022],[135.721711,34.546164],[135.721373,34.546389],[135.720711,34.546655],[135.720636,34.546655],[135.720561,34.547039],[135.720536,34.547672],[135.720273,34.551263],[135.719973,34.551288],[135.719773,34.551596],[135.719798,34.551646],[135.719873,34.552121],[135.719736,34.552721],[135.719848,34.553146],[135.720323,34.553621],[135.720623,34.553771],[135.722373,34.554304],[135.72256,34.554279],[135.72311,34.554371],[135.724035,34.554913],[135.724748,34.555238],[135.725598,34.555413],[135.72581,34.555504],[135.725998,34.555638],[135.726148,34.556288],[135.726098,34.556754],[135.725373,34.557504],[135.725285,34.557879],[135.72546,34.558371],[135.725773,34.559895],[135.726347,34.56142],[135.726685,34.561962],[135.726972,34.56252],[135.727272,34.562995],[135.727497,34.56377],[135.727685,34.564195],[135.728022,34.564578],[135.728247,34.565061],[135.728322,34.565178],[135.728735,34.56542],[135.729122,34.565836],[135.728797,34.566053],[135.727847,34.56682],[135.72766,34.567395],[135.72746,34.567894],[135.727185,34.568319],[135.726997,34.568686],[135.726885,34.569044],[135.726697,34.569086],[135.726122,34.569336],[135.72556,34.569694],[135.725147,34.570102],[135.724972,34.570602],[135.725247,34.570977],[135.725597,34.571286],[135.725522,34.572011],[135.72546,34.573152],[135.725697,34.573177],[135.726572,34.573169],[135.726847,34.573285],[135.727122,34.573485],[135.727072,34.574244],[135.727122,34.576685],[135.726984,34.577118],[135.726885,34.577202],[135.726447,34.57741],[135.725685,34.577393],[135.72506,34.57741],[135.724597,34.577552],[135.723935,34.577601],[135.722985,34.577518],[135.722685,34.577518],[135.72211,34.577601],[135.721897,34.577726],[135.720485,34.578651],[135.719785,34.579143],[135.718973,34.579684],[135.718998,34.580001],[135.718973,34.580559],[135.718873,34.581343],[135.718248,34.581393],[135.71721,34.581309],[135.717148,34.582117],[135.717085,34.582184],[135.716323,34.582209],[135.71316,34.582084],[135.712473,34.582092],[135.71261,34.582809],[135.712485,34.582917],[135.711961,34.582476],[135.711911,34.582501],[135.711273,34.582542],[135.710736,34.582676],[135.710048,34.582976],[135.709698,34.583251],[135.709461,34.583559],[135.709323,34.583825],[135.709298,34.584275],[135.709011,34.585334],[135.708886,34.585967],[135.708936,34.586342],[135.709023,34.5866],[135.709148,34.587617],[135.709311,34.588317],[135.709448,34.588658],[135.70991,34.588725],[135.71056,34.588958],[135.710773,34.589433],[135.710723,34.59015],[135.710935,34.590666],[135.71101,34.590716],[135.711448,34.590425],[135.71181,34.590066],[135.71181,34.589866],[135.71211,34.5893],[135.71236,34.589525],[135.712635,34.589841],[135.713148,34.5898],[135.713398,34.589916],[135.713423,34.590458],[135.713585,34.590658],[135.713635,34.590616],[135.714398,34.590441],[135.715297,34.59035],[135.715847,34.590466],[135.715922,34.590783],[135.716335,34.591233],[135.716385,34.591375],[135.716335,34.591666],[135.715835,34.592041],[135.715422,34.592475],[135.715347,34.592716],[135.715472,34.593483],[135.71571,34.593983],[135.715747,34.594224],[135.71566,34.594949]]]},"properties":{"id":"G02013","kuni":"大和","id_url":"G02013.html","kuni_url":"/kg/resource/K02.html","pref":"大阪府（奈良県）","kuni_id":"K02","yomi":"ひろせ","name":"広瀬"},"type":"Feature"}]}