{"features":[{"type":"Feature","geometry":{"coordinates":[[[135.651337,34.785532],[135.652813,34.785087],[135.6543,34.78414],[135.656171,34.782949],[135.658266,34.782467],[135.660446,34.78207],[135.662098,34.780353],[135.662098,34.779384],[135.660721,34.777205],[135.659499,34.774989],[135.659849,34.774131],[135.659937,34.773614],[135.659849,34.772773],[135.659849,34.772389],[135.660062,34.771939],[135.660399,34.771739],[135.660774,34.771448],[135.661437,34.770698],[135.661674,34.770356],[135.661812,34.77004],[135.661874,34.768756],[135.661999,34.76749],[135.662037,34.766923],[135.661949,34.766257],[135.661712,34.765523],[135.661562,34.765107],[135.661462,34.764898],[135.660787,34.76414],[135.660662,34.763849],[135.660625,34.762832],[135.66025,34.762324],[135.660175,34.762157],[135.660175,34.76194],[135.659962,34.761682],[135.659637,34.761116],[135.659525,34.761066],[135.659312,34.760907],[135.659037,34.760432],[135.658962,34.760049],[135.658637,34.759141],[135.6591,34.758024],[135.65915,34.757966],[135.659175,34.757833],[135.659125,34.757724],[135.659012,34.757658],[135.6589,34.757658],[135.658362,34.757924],[135.658162,34.757924],[135.658,34.757791],[135.657937,34.757633],[135.657975,34.756908],[135.658087,34.755983],[135.658187,34.755758],[135.658587,34.755483],[135.6587,34.755291],[135.6585,34.754533],[135.658462,34.754283],[135.65855,34.75395],[135.6588,34.7537],[135.659312,34.7533],[135.659387,34.75325],[135.659537,34.752966],[135.659837,34.752708],[135.660375,34.752458],[135.660475,34.75225],[135.660337,34.75205],[135.659787,34.751833],[135.659562,34.751792],[135.659462,34.751842],[135.6593,34.752042],[135.659137,34.752158],[135.65895,34.752092],[135.658887,34.751825],[135.658887,34.751642],[135.659362,34.751142],[135.659625,34.750617],[135.65975,34.750233],[135.659937,34.749958],[135.660237,34.749667],[135.660775,34.749234],[135.6615,34.748525],[135.661687,34.74845],[135.661825,34.748475],[135.662075,34.748609],[135.662575,34.749142],[135.66285,34.749317],[135.663075,34.749384],[135.663762,34.748492],[135.664062,34.7482],[135.6643,34.747859],[135.664375,34.747517],[135.6645,34.747225],[135.664962,34.746876],[135.665387,34.746442],[135.665962,34.746101],[135.666912,34.745976],[135.667912,34.745667],[135.668212,34.745526],[135.668349,34.745259],[135.668399,34.744917],[135.668524,34.744492],[135.668762,34.744443],[135.669174,34.744409],[135.669312,34.744434],[135.669924,34.744651],[135.670299,34.744734],[135.670637,34.744867],[135.670837,34.745109],[135.670949,34.745701],[135.671174,34.745876],[135.671424,34.745984],[135.671624,34.746159],[135.671786,34.746384],[135.672011,34.746559],[135.672474,34.746442],[135.672636,34.746242],[135.672649,34.745834],[135.672961,34.745059],[135.673036,34.744768],[135.673174,34.744634],[135.673449,34.744534],[135.673936,34.744509],[135.674999,34.744268],[135.675186,34.744401],[135.675161,34.744559],[135.675061,34.744701],[135.675011,34.744876],[135.675099,34.745076],[135.675174,34.745126],[135.675449,34.745118],[135.675674,34.745051],[135.675799,34.744868],[135.676261,34.744459],[135.676636,34.744251],[135.676823,34.744268],[135.677186,34.744626],[135.677273,34.744601],[135.677573,34.744351],[135.677786,34.744234],[135.678486,34.744109],[135.678673,34.743684],[135.678886,34.743476],[135.679136,34.743334],[135.679461,34.743218],[135.679698,34.743218],[135.680036,34.743326],[135.680223,34.743526],[135.680398,34.743926],[135.680461,34.744309],[135.680636,34.744534],[135.680886,34.744734],[135.681323,34.744934],[135.681798,34.745084],[135.682423,34.745343],[135.68281,34.745343],[135.682948,34.745251],[135.683048,34.744976],[135.682973,34.744118],[135.683073,34.743534],[135.683198,34.743176],[135.683273,34.74281],[135.683273,34.74256],[135.68346,34.742385],[135.683998,34.742126],[135.684573,34.74196],[135.684735,34.741985],[135.684898,34.742118],[135.685048,34.742335],[135.685523,34.74276],[135.685735,34.742893],[135.685935,34.74291],[135.686473,34.742768],[135.68656,34.742768],[135.68681,34.742968],[135.68731,34.74346],[135.68766,34.743585],[135.68816,34.74356],[135.688785,34.743576],[135.689085,34.743635],[135.689072,34.74411],[135.689135,34.744376],[135.689435,34.744626],[135.689547,34.744668],[135.689985,34.744643],[135.690285,34.744526],[135.69076,34.74411],[135.69136,34.743926],[135.691772,34.743893],[135.691985,34.743843],[135.69201,34.74351],[135.692222,34.74326],[135.692522,34.74301],[135.692822,34.742843],[135.693084,34.742776],[135.694184,34.742868],[135.694672,34.742776],[135.695222,34.742793],[135.695609,34.742918],[135.695747,34.743035],[135.695859,34.743551],[135.696147,34.74366],[135.696497,34.743718],[135.696797,34.743718],[135.696847,34.743693],[135.696872,34.743468],[135.696984,34.743493],[135.697097,34.743443],[135.697309,34.74326],[135.697409,34.743051],[135.697459,34.742785],[135.697147,34.741818],[135.697134,34.741485],[135.697347,34.74101],[135.697534,34.74071],[135.697609,34.740485],[135.697734,34.739893],[135.697997,34.739419],[135.698309,34.739052],[135.698497,34.738785],[135.699222,34.737985],[135.699434,34.737485],[135.699509,34.737194],[135.700246,34.735902],[135.700396,34.735402],[135.700421,34.735061],[135.700246,34.734844],[135.700134,34.734844],[135.699747,34.734511],[135.699909,34.733969],[135.700147,34.733669],[135.700047,34.733044],[135.700059,34.732411],[135.700184,34.731936],[135.700509,34.731344],[135.700759,34.730686],[135.700784,34.73017],[135.700834,34.729853],[135.701147,34.729511],[135.701696,34.728486],[135.701946,34.728153],[135.701871,34.727703],[135.701946,34.727337],[135.701984,34.727295],[135.701859,34.72707],[135.702434,34.725778],[135.702671,34.725412],[135.702971,34.724912],[135.703371,34.724795],[135.703459,34.72482],[135.703759,34.724587],[135.704146,34.723954],[135.704121,34.72377],[135.704009,34.72362],[135.703734,34.723395],[135.703034,34.723087],[135.702921,34.722979],[135.702896,34.722887],[135.702971,34.722687],[135.702896,34.722545],[135.702084,34.721795],[135.701809,34.721662],[135.701372,34.721529],[135.700947,34.721362],[135.700809,34.721271],[135.700572,34.721179],[135.700434,34.721204],[135.700022,34.721462],[135.699759,34.721512],[135.699372,34.721445],[135.698259,34.720854],[135.697847,34.720654],[135.697522,34.720387],[135.697059,34.719746],[135.696922,34.719271],[135.695897,34.718629],[135.695672,34.718404],[135.695147,34.718079],[135.694722,34.717679],[135.694535,34.717546],[135.693797,34.717354],[135.693085,34.716371],[135.692885,34.715879],[135.692772,34.715721],[135.692222,34.715613],[135.691485,34.715263],[135.69096,34.715138],[135.69076,34.714871],[135.690485,34.714713],[135.690073,34.714338],[135.68951,34.71378],[135.68931,34.713671],[135.689285,34.713555],[135.688985,34.713496],[135.688698,34.713138],[135.688535,34.71303],[135.688198,34.712488],[135.688035,34.712288],[135.68781,34.712155],[135.687498,34.711846],[135.68731,34.71158],[135.687198,34.711555],[135.686685,34.711746],[135.686548,34.711746],[135.68616,34.711505],[135.685823,34.711371],[135.684623,34.711388],[135.684048,34.71133],[135.683286,34.711538],[135.683148,34.711538],[135.682986,34.711496],[135.682511,34.711238],[135.682398,34.710963],[135.682261,34.71083],[135.681736,34.710546],[135.681511,34.710388],[135.680623,34.709455],[135.680123,34.709105],[135.679923,34.708997],[135.679561,34.708613],[135.679511,34.708505],[135.679499,34.70823],[135.679436,34.707938],[135.679074,34.707088],[135.678849,34.706847],[135.678099,34.706289],[135.677786,34.705955],[135.677361,34.705264],[135.676524,34.704355],[135.675999,34.703972],[135.675587,34.703889],[135.675199,34.703872],[135.675099,34.703805],[135.675037,34.703606],[135.675087,34.703289],[135.675074,34.702997],[135.674962,34.702797],[135.674799,34.702689],[135.674324,34.702531],[135.673724,34.702381],[135.673362,34.702206],[135.673199,34.701981],[135.673062,34.701714],[135.673024,34.701422],[135.673124,34.701239],[135.673312,34.701131],[135.673499,34.700922],[135.673499,34.700656],[135.673324,34.700223],[135.673137,34.700048],[135.672999,34.700523],[135.672962,34.700972],[135.672874,34.701089],[135.672637,34.701114],[135.672412,34.701072],[135.672275,34.700981],[135.671912,34.700581],[135.671362,34.700548],[135.670962,34.700573],[135.670225,34.700781],[135.670087,34.700764],[135.6698,34.700206],[135.669612,34.700098],[135.668675,34.699998],[135.66835,34.699889],[135.66815,34.699773],[135.667625,34.699581],[135.666975,34.699456],[135.666475,34.699323],[135.666063,34.699173],[135.665738,34.698948],[135.665375,34.698823],[135.664225,34.698989],[135.663651,34.698889],[135.663413,34.698873],[135.663163,34.698939],[135.662976,34.699148],[135.662663,34.699873],[135.662501,34.700097],[135.662076,34.700306],[135.661801,34.700622],[135.661426,34.700881],[135.660663,34.701206],[135.659663,34.701489],[135.659151,34.701606],[135.658089,34.701731],[135.656201,34.702139],[135.655801,34.702189],[135.655139,34.702197],[135.654701,34.702139],[135.654401,34.702139],[135.653726,34.702306],[135.653177,34.702405],[135.652852,34.70263],[135.652752,34.702722],[135.651652,34.70263],[135.651439,34.702514],[135.651177,34.70218],[135.651127,34.702022],[135.651014,34.701914],[135.650327,34.701881],[135.649452,34.701914],[135.648065,34.701839],[135.647152,34.701872],[135.646127,34.70198],[135.645052,34.701972],[135.643015,34.702089],[135.641703,34.702055],[135.64014,34.702105],[135.638878,34.702072],[135.638665,34.701989],[135.638628,34.701897],[135.638728,34.701422],[135.638753,34.701105],[135.638628,34.700497],[135.63869,34.700389],[135.638978,34.700272],[135.638953,34.700064],[135.638978,34.700022],[135.638828,34.699439],[135.638778,34.699414],[135.638141,34.699381],[135.638041,34.699289],[135.637916,34.698906],[135.637553,34.698622],[135.637416,34.698581],[135.635856,34.698582],[135.635856,34.699496],[135.635856,34.70225],[135.634668,34.70389],[135.634404,34.705774],[135.633746,34.707304],[135.632061,34.707705],[135.630095,34.707705],[135.629078,34.709298],[135.626983,34.711607],[135.626759,34.713613],[135.626395,34.716877],[135.626603,34.718638],[135.625134,34.719361],[135.623673,34.71975],[135.623259,34.72014],[135.621729,34.720692],[135.620519,34.720501],[135.619108,34.720501],[135.617771,34.720501],[135.616261,34.720813],[135.614786,34.721628],[135.614456,34.72286],[135.614456,34.7239],[135.615237,34.724941],[135.61607,34.725514],[135.617426,34.725514],[135.618327,34.725201],[135.619472,34.724802],[135.62001,34.723766],[135.621588,34.72274],[135.622701,34.722361],[135.623904,34.722361],[135.626485,34.721598],[135.626957,34.723907],[135.627503,34.724829],[135.629176,34.727654],[135.629716,34.728594],[135.629878,34.728502],[135.630728,34.728427],[135.630865,34.728511],[135.631078,34.728511],[135.631428,34.728411],[135.632303,34.728361],[135.633203,34.728211],[135.633728,34.728202],[135.633778,34.728227],[135.633815,34.728319],[135.63379,34.728836],[135.633828,34.729152],[135.633815,34.729844],[135.633403,34.729827],[135.632803,34.729885],[135.63279,34.730402],[135.632715,34.730877],[135.632028,34.73086],[135.632053,34.73091],[135.632003,34.732144],[135.631203,34.73216],[135.631278,34.732627],[135.631328,34.73281],[135.630728,34.732885],[135.630678,34.732927],[135.630603,34.733335],[135.63034,34.733835],[135.63034,34.733993],[135.630615,34.73401],[135.63084,34.734035],[135.630728,34.734193],[135.62964,34.734202],[135.629065,34.734168],[135.628603,34.734243],[135.628003,34.734452],[135.627616,34.734527],[135.627153,34.734527],[135.626528,34.734402],[135.625616,34.734168],[135.625203,34.734152],[135.624803,34.734243],[135.624666,34.73436],[135.624591,34.734585],[135.624591,34.736143],[135.624678,34.736318],[135.62473,34.736352],[135.624379,34.737443],[135.624379,34.739282],[135.624321,34.740546],[135.62363,34.742304],[135.622437,34.74345],[135.620647,34.744438],[135.619528,34.744876],[135.61593,34.746884],[135.61625,34.747859],[135.616732,34.749326],[135.619035,34.752596],[135.621129,34.754398],[135.621967,34.756443],[135.621571,34.757961],[135.622115,34.759104],[135.623012,34.760987],[135.624302,34.763697],[135.626044,34.765255],[135.629695,34.766274],[135.630854,34.766918],[135.631588,34.768268],[135.631781,34.769002],[135.631781,34.769426],[135.630325,34.769705],[135.629387,34.770731],[135.629739,34.77249],[135.631075,34.774398],[135.632428,34.775926],[135.634457,34.776278],[135.635706,34.77591],[135.638626,34.77591],[135.6411,34.776452],[135.643145,34.776452],[135.644694,34.775887],[135.646164,34.775351],[135.647494,34.775351],[135.648988,34.775724],[135.650475,34.777389],[135.650987,34.779149],[135.650761,34.782358],[135.650931,34.784275],[135.651337,34.785532]]],"type":"Polygon"},"properties":{"kuni_id":"K03","pref":"大阪府","name":"讃良","yomi":"さら","kuni":"河内","id":"G03002","kuni_url":"/kg/resource/K03.html","id_url":"G03002.html"}}],"type":"FeatureCollection"}