{"features":[{"type":"Feature","geometry":{"coordinates":[[[135.339837,35.02586],[135.340137,35.025927],[135.3412,35.025993],[135.341787,35.025902],[135.3423,35.025768],[135.3431,35.025385],[135.343512,35.025335],[135.343974,35.02536],[135.345074,35.025702],[135.345324,35.02581],[135.345762,35.026127],[135.346074,35.026418],[135.346349,35.026618],[135.346674,35.02671],[135.347224,35.026752],[135.348437,35.026802],[135.348762,35.02691],[135.349036,35.02696],[135.349286,35.026818],[135.349474,35.026552],[135.349724,35.025918],[135.349911,35.025893],[135.350499,35.026077],[135.350824,35.026052],[135.351149,35.025893],[135.351511,35.025852],[135.352336,35.025668],[135.352799,35.025535],[135.353648,35.025102],[135.354036,35.02506],[135.354361,35.02506],[135.354636,35.024994],[135.354811,35.024835],[135.354886,35.02461],[135.354586,35.024094],[135.354561,35.023819],[135.354636,35.023527],[135.354611,35.02321],[135.354773,35.02281],[135.354886,35.022402],[135.354886,35.021994],[135.354773,35.021277],[135.355073,35.020669],[135.355261,35.020127],[135.355536,35.019761],[135.355511,35.019561],[135.355098,35.019244],[135.354911,35.018861],[135.354961,35.018619],[135.355461,35.018144],[135.355398,35.017919],[135.355423,35.017694],[135.355561,35.017286],[135.355698,35.017194],[135.355786,35.017178],[135.355948,35.016969],[135.355948,35.016703],[135.355898,35.016453],[135.355586,35.016069],[135.355561,35.015819],[135.355698,35.015619],[135.355336,35.015145],[135.355236,35.014761],[135.355511,35.014045],[135.354898,35.01382],[135.354323,35.013461],[135.354023,35.013345],[135.353799,35.01312],[135.353824,35.012603],[135.353524,35.012061],[135.353549,35.011811],[135.353886,35.011562],[135.354298,35.011337],[135.354461,35.011162],[135.354398,35.010912],[135.354511,35.010345],[135.354536,35.009587],[135.354261,35.00902],[135.354261,35.008662],[135.354373,35.007829],[135.354473,35.007737],[135.354648,35.007487],[135.354811,35.007129],[135.354836,35.006629],[135.354673,35.006404],[135.354511,35.006245],[135.354336,35.006004],[135.354149,35.005912],[135.353786,35.005887],[135.353211,35.005937],[135.352661,35.005937],[135.352274,35.005795],[135.352274,35.00557],[135.352361,35.005279],[135.352249,35.004962],[135.352061,35.00472],[135.351699,35.004404],[135.351624,35.004204],[135.351699,35.003904],[135.351886,35.003662],[135.352474,35.003087],[135.352549,35.002704],[135.352774,35.002079],[135.353386,35.001113],[135.353474,35.000729],[135.352761,34.999629],[135.352711,34.999263],[135.352761,34.999104],[135.353561,34.99828],[135.353561,34.99783],[135.353399,34.997246],[135.353211,34.996746],[135.353086,34.99623],[135.353036,34.995213],[135.352761,34.994563],[135.352711,34.993797],[135.352849,34.993347],[135.353099,34.99303],[135.353561,34.992539],[135.353761,34.992247],[135.353811,34.991955],[135.353511,34.991597],[135.353299,34.99148],[135.352749,34.99103],[135.352636,34.99083],[135.352586,34.990355],[135.352761,34.989656],[135.353336,34.988622],[135.353699,34.988172],[135.354136,34.987839],[135.355011,34.987014],[135.355436,34.986314],[135.355686,34.985731],[135.356124,34.985414],[135.357499,34.984814],[135.358011,34.984506],[135.358648,34.98399],[135.359011,34.983515],[135.359423,34.982823],[135.359448,34.982531],[135.359373,34.982373],[135.358436,34.98149],[135.357974,34.981148],[135.357599,34.981107],[135.356549,34.981073],[135.355461,34.980782],[135.354774,34.980465],[135.354124,34.980057],[135.353387,34.979915],[135.352749,34.97964],[135.352512,34.979507],[135.351937,34.97944],[135.351362,34.979615],[135.350724,34.980082],[135.350587,34.980132],[135.350449,34.98024],[135.350237,34.979815],[135.349587,34.97889],[135.349362,34.978482],[135.349312,34.977607],[135.349212,34.976948],[135.348912,34.976249],[135.34875,34.97609],[135.348525,34.97564],[135.348975,34.974449],[135.348837,34.973799],[135.348787,34.973149],[135.34885,34.972491],[135.348825,34.971999],[135.348762,34.971841],[135.34795,34.970716],[135.347875,34.970532],[135.347513,34.970149],[135.34705,34.969874],[135.346913,34.969766],[135.34675,34.969399],[135.346763,34.968933],[135.3467,34.968591],[135.346563,34.968408],[135.3461,34.968249],[135.34575,34.968091],[135.345663,34.968024],[135.345175,34.966916],[135.346038,34.965283],[135.3465,34.964633],[135.346813,34.964566],[135.34725,34.964658],[135.347538,34.965016],[135.348013,34.965225],[135.348588,34.965225],[135.348913,34.965158],[135.349,34.965116],[135.349237,34.964733],[135.3496,34.964283],[135.350537,34.963475],[135.35075,34.963392],[135.3524,34.963325],[135.35325,34.9632],[135.3535,34.963108],[135.354049,34.962842],[135.354262,34.962658],[135.355199,34.96165],[135.356362,34.959992],[135.356824,34.959384],[135.357274,34.958692],[135.357874,34.957526],[135.358124,34.956917],[135.358187,34.956417],[135.358187,34.955901],[135.358599,34.955634],[135.359261,34.955343],[135.359699,34.954784],[135.359974,34.954609],[135.360499,34.954476],[135.360961,34.954518],[135.361561,34.954726],[135.362111,34.954951],[135.362574,34.955293],[135.363386,34.956018],[135.363936,34.956284],[135.364673,34.956176],[135.365248,34.956001],[135.365911,34.955868],[135.366486,34.955851],[135.366973,34.956076],[135.367523,34.956234],[135.368623,34.956059],[135.369198,34.955859],[135.369548,34.955568],[135.369935,34.954851],[135.369998,34.95456],[135.370248,34.954518],[135.370735,34.95461],[135.371085,34.954543],[135.371973,34.953868],[135.372209,34.95374],[135.372297,34.953768],[135.37291,34.953543],[135.372985,34.953543],[135.373297,34.953651],[135.373485,34.953926],[135.373972,34.954351],[135.375247,34.955051],[135.375597,34.955385],[135.375822,34.955685],[135.375935,34.956293],[135.37631,34.95606],[135.376647,34.955818],[135.37706,34.95566],[135.377747,34.955293],[135.378122,34.955226],[135.378672,34.95536],[135.379222,34.955426],[135.379909,34.955476],[135.380497,34.95586],[135.380572,34.955876],[135.381234,34.95581],[135.381509,34.955926],[135.381759,34.956126],[135.381897,34.956168],[135.382222,34.956168],[135.382522,34.95601],[135.382746,34.955968],[135.382934,34.95581],[135.383046,34.955426],[135.383096,34.955018],[135.383209,34.954726],[135.383709,34.95441],[135.384334,34.954235],[135.384921,34.95416],[135.385434,34.954277],[135.385634,34.954252],[135.385709,34.954068],[135.385771,34.953685],[135.386209,34.951927],[135.386421,34.951618],[135.386834,34.951385],[135.387284,34.95121],[135.387609,34.950919],[135.387934,34.95006],[135.387934,34.949902],[135.387746,34.94916],[135.387796,34.948844],[135.387971,34.948435],[135.388046,34.948011],[135.388021,34.947802],[135.387884,34.947377],[135.387634,34.946969],[135.387284,34.946652],[135.387221,34.946427],[135.387309,34.946069],[135.387609,34.945711],[135.388109,34.945419],[135.388409,34.944444],[135.388621,34.944061],[135.388984,34.943661],[135.389121,34.943611],[135.390271,34.943519],[135.390546,34.943428],[135.390846,34.942978],[135.391346,34.942869],[135.391646,34.942728],[135.391871,34.942236],[135.392221,34.941653],[135.392471,34.941353],[135.392696,34.941403],[135.394146,34.942278],[135.394721,34.942778],[135.394808,34.943136],[135.394621,34.943453],[135.394671,34.943769],[135.395708,34.944369],[135.396021,34.944444],[135.396783,34.944211],[135.39712,34.944053],[135.39722,34.944036],[135.398045,34.944144],[135.39857,34.944103],[135.400083,34.943894],[135.400633,34.943961],[135.40102,34.943894],[135.40137,34.943694],[135.402332,34.943553],[135.403932,34.943419],[135.404557,34.943528],[135.405057,34.943828],[135.405445,34.943978],[135.405832,34.944028],[135.406295,34.943961],[135.407307,34.943711],[135.407782,34.943486],[135.408057,34.943236],[135.408607,34.942428],[135.409094,34.942561],[135.409507,34.942628],[135.410444,34.942628],[135.410769,34.942695],[135.411157,34.943211],[135.411382,34.943844],[135.411182,34.944086],[135.410007,34.944544],[135.409369,34.944811],[135.408682,34.945219],[135.408607,34.945353],[135.408707,34.945486],[135.408769,34.945511],[135.409019,34.945511],[135.409182,34.945469],[135.409644,34.945219],[135.411482,34.944361],[135.411794,34.944136],[135.412069,34.943545],[135.412232,34.942778],[135.412144,34.942486],[135.411982,34.942245],[135.411682,34.942036],[135.411207,34.941878],[135.410744,34.941836],[135.409757,34.941811],[135.409507,34.941728],[135.409482,34.941503],[135.409557,34.941186],[135.410244,34.940036],[135.410494,34.93997],[135.411044,34.940036],[135.412444,34.94012],[135.412832,34.940278],[135.413132,34.940461],[135.413269,34.940503],[135.414044,34.94057],[135.415381,34.940728],[135.415906,34.940886],[135.416519,34.941245],[135.416956,34.941586],[135.417306,34.941761],[135.417619,34.941786],[135.417506,34.941061],[135.417506,34.940678],[135.417556,34.94037],[135.417944,34.939687],[135.417881,34.939378],[135.417806,34.939287],[135.417119,34.93897],[135.416956,34.93872],[135.416919,34.938387],[135.417006,34.93802],[135.417194,34.937637],[135.417856,34.936737],[135.417831,34.936403],[135.417856,34.936062],[135.418181,34.935112],[135.418294,34.934579],[135.418456,34.934054],[135.418594,34.933879],[135.418769,34.933945],[135.419281,34.933945],[135.420681,34.933854],[135.421231,34.933854],[135.421681,34.933895],[135.422468,34.934254],[135.423106,34.934345],[135.423431,34.934437],[135.424006,34.935137],[135.424693,34.935562],[135.424943,34.935787],[135.425106,34.93612],[135.425306,34.93637],[135.425693,34.93657],[135.426818,34.936978],[135.427255,34.937095],[135.42758,34.937045],[135.42808,34.936637],[135.42838,34.936479],[135.42898,34.936504],[135.429805,34.936753],[135.430443,34.936912],[135.43168,34.937062],[135.432393,34.936995],[135.432505,34.937045],[135.432917,34.937878],[135.433105,34.938053],[135.43388,34.93812],[135.43498,34.938278],[135.43533,34.938253],[135.435717,34.938053],[135.436105,34.937803],[135.43663,34.937578],[135.437667,34.937328],[135.438467,34.936945],[135.438817,34.936854],[135.439342,34.93717],[135.439679,34.937487],[135.440167,34.938053],[135.440604,34.938412],[135.441429,34.93897],[135.441704,34.939262],[135.441767,34.93942],[135.442042,34.939262],[135.443304,34.938203],[135.445416,34.936195],[135.447366,34.93462],[135.447854,34.934304],[135.448241,34.934262],[135.448904,34.934504],[135.449129,34.934529],[135.449266,34.934437],[135.449504,34.93387],[135.449666,34.933379],[135.449916,34.932971],[135.450191,34.932637],[135.451154,34.932204],[135.451704,34.931912],[135.452116,34.931487],[135.452278,34.931171],[135.452116,34.930921],[135.452004,34.930654],[135.452004,34.930337],[135.452191,34.930021],[135.452441,34.929888],[135.452916,34.929704],[135.453678,34.929571],[135.454641,34.929479],[135.455466,34.929254],[135.455903,34.929179],[135.456566,34.929246],[135.456978,34.929229],[135.457416,34.929046],[135.457828,34.928779],[135.45829,34.928396],[135.458653,34.92803],[135.459253,34.92763],[135.460215,34.927105],[135.460653,34.926771],[135.46104,34.926296],[135.461428,34.926388],[135.461803,34.92663],[135.462253,34.926855],[135.46304,34.926971],[135.463352,34.927171],[135.46349,34.927446],[135.463702,34.927671],[135.46384,34.927738],[135.464865,34.927913],[135.466565,34.928588],[135.466952,34.928771],[135.467115,34.928813],[135.46719,34.928746],[135.467552,34.928096],[135.467664,34.927913],[135.468264,34.927488],[135.468402,34.927305],[135.468314,34.926697],[135.468514,34.92638],[135.468564,34.926113],[135.468589,34.92543],[135.468477,34.925347],[135.468177,34.925347],[135.467877,34.925388],[135.467464,34.92523],[135.467215,34.925363],[135.467027,34.925347],[135.46604,34.924647],[135.465927,34.924513],[135.46579,34.924155],[135.465865,34.923747],[135.465902,34.923322],[135.465765,34.922555],[135.465977,34.922172],[135.466115,34.921764],[135.466165,34.921355],[135.46609,34.920997],[135.465702,34.920455],[135.465477,34.919897],[135.465215,34.919756],[135.464752,34.919597],[135.46434,34.919372],[135.46379,34.918689],[135.46344,34.918439],[135.462127,34.918097],[135.46094,34.91843],[135.460228,34.918222],[135.458915,34.918305],[135.457903,34.91828],[135.457216,34.918097],[135.456591,34.918072],[135.455841,34.918272],[135.455466,34.918522],[135.455216,34.918722],[135.454741,34.918964],[135.453928,34.919189],[135.452628,34.919338],[135.452391,34.919405],[135.451891,34.91963],[135.451466,34.919897],[135.450954,34.919997],[135.449904,34.920013],[135.448616,34.919947],[135.448116,34.920038],[135.447679,34.92018],[135.446742,34.92038],[135.446229,34.920405],[135.445654,34.920355],[135.444079,34.920088],[135.442079,34.920272],[135.441192,34.920205],[135.44078,34.920205],[135.44048,34.920247],[135.440155,34.920405],[135.43983,34.920472],[135.439467,34.920497],[135.43908,34.920388],[135.438367,34.919897],[135.438155,34.919822],[135.43783,34.919505],[135.43688,34.918413],[135.435867,34.917647],[135.435093,34.917097],[135.434305,34.916805],[135.433405,34.916847],[135.431668,34.916705],[135.430718,34.916472],[135.42998,34.916197],[135.429518,34.915813],[135.429018,34.915538],[135.428993,34.915588],[135.428331,34.915355],[135.427818,34.91513],[135.427218,34.914697],[135.426481,34.91443],[135.425706,34.914313],[135.425293,34.914172],[135.424756,34.91383],[135.424431,34.913155],[135.424268,34.912347],[135.424018,34.911688],[135.423693,34.91128],[135.423143,34.910922],[135.422569,34.910689],[135.422306,34.910672],[135.419806,34.910205],[135.419119,34.909847],[135.418819,34.909389],[135.418581,34.908805],[135.418769,34.908489],[135.419519,34.907814],[135.419681,34.907347],[135.419681,34.906805],[135.419969,34.906555],[135.420594,34.90663],[135.422406,34.906455],[135.422681,34.90648],[135.424456,34.906464],[135.425443,34.906739],[135.425943,34.906764],[135.426543,34.906339],[135.427143,34.906089],[135.427506,34.905505],[135.427431,34.90503],[135.427318,34.90463],[135.427455,34.90418],[135.428618,34.902272],[135.429668,34.900197],[135.430368,34.898672],[135.430968,34.897414],[135.431392,34.896981],[135.431967,34.896581],[135.432405,34.896022],[135.432405,34.895772],[135.432055,34.895364],[135.431405,34.894097],[135.430767,34.893739],[135.43053,34.893464],[135.43048,34.892831],[135.430617,34.892539],[135.430967,34.892314],[135.43168,34.892073],[135.432342,34.891898],[135.432805,34.891856],[135.433305,34.892214],[135.433955,34.893256],[135.434342,34.893506],[135.434942,34.894023],[135.435317,34.894681],[135.43573,34.895181],[135.43628,34.895431],[135.436929,34.895614],[135.438192,34.896089],[135.438879,34.895864],[135.439454,34.895981],[135.440817,34.897114],[135.441529,34.897456],[135.442379,34.898023],[135.443004,34.898631],[135.443242,34.898789],[135.443654,34.898931],[135.444429,34.898706],[135.445004,34.898465],[135.445666,34.897656],[135.445829,34.89709],[135.445829,34.896931],[135.445704,34.89644],[135.445204,34.895965],[135.445016,34.895623],[135.444966,34.89544],[135.444754,34.895273],[135.444654,34.895173],[135.444616,34.895065],[135.444566,34.894948],[135.444504,34.894806],[135.444404,34.894631],[135.444329,34.894481],[135.444291,34.894348],[135.444229,34.894198],[135.444179,34.894098],[135.444154,34.894015],[135.444141,34.893923],[135.444141,34.89384],[135.444129,34.893748],[135.444179,34.893556],[135.444266,34.893448],[135.444391,34.893306],[135.444429,34.893223],[135.444404,34.893131],[135.444504,34.892948],[135.444441,34.892823],[135.444404,34.892723],[135.444354,34.892631],[135.444304,34.89254],[135.444254,34.892406],[135.444216,34.892331],[135.444229,34.892223],[135.444229,34.892106],[135.444191,34.89194],[135.444179,34.891873],[135.444154,34.89174],[135.444129,34.891557],[135.444054,34.89144],[135.443954,34.891282],[135.443954,34.891165],[135.442954,34.891198],[135.442467,34.891131],[135.441942,34.890898],[135.441392,34.890606],[135.440954,34.89029],[135.440767,34.889656],[135.440392,34.888931],[135.440092,34.888098],[135.440067,34.887581],[135.439804,34.88634],[135.439779,34.885548],[135.439042,34.884582],[135.438929,34.884215],[135.439042,34.884057],[135.439079,34.88359],[135.438779,34.883223],[135.438529,34.882707],[135.438179,34.882257],[135.437929,34.882048],[135.437679,34.881598],[135.437792,34.88119],[135.437717,34.880807],[135.437504,34.880223],[135.437229,34.879115],[135.437179,34.878257],[135.436942,34.877632],[135.436967,34.87749],[135.437454,34.877132],[135.437517,34.877049],[135.437429,34.876599],[135.437192,34.876049],[135.436704,34.875624],[135.436017,34.875324],[135.43583,34.87519],[135.435367,34.874715],[135.434955,34.874174],[135.433955,34.872074],[135.433842,34.871441],[135.43398,34.871057],[135.434317,34.870724],[135.434567,34.870249],[135.434755,34.870141],[135.434292,34.869191],[135.43413,34.868691],[135.43408,34.868383],[135.434017,34.868291],[135.433805,34.868291],[135.433755,34.868241],[135.433592,34.867883],[135.433317,34.867499],[135.432905,34.866683],[135.432717,34.866191],[135.43258,34.865691],[135.43223,34.864725],[135.432043,34.86355],[135.43183,34.862983],[135.431343,34.862575],[135.430743,34.86215],[135.430305,34.86165],[135.43008,34.8612],[135.430218,34.860858],[135.430355,34.860725],[135.43083,34.86005],[135.431105,34.859559],[135.431468,34.858384],[135.431693,34.858025],[135.431693,34.857442],[135.431505,34.856467],[135.431455,34.856359],[135.431068,34.855976],[135.43058,34.855609],[135.43033,34.855517],[135.429593,34.855159],[135.428306,34.854342],[135.427156,34.853817],[135.426006,34.853567],[135.425843,34.853501],[135.425381,34.853093],[135.425143,34.852634],[135.424706,34.852318],[135.423831,34.852118],[135.422944,34.852018],[135.422706,34.851926],[135.421744,34.851768],[135.420731,34.851534],[135.420319,34.851559],[135.419606,34.851734],[135.418569,34.852118],[135.418506,34.852159],[135.417682,34.852384],[135.417132,34.852359],[135.416944,34.852267],[135.417057,34.852067],[135.417882,34.851234],[135.418244,34.850134],[135.418769,34.849251],[135.419431,34.848401],[135.420369,34.847343],[135.420731,34.846785],[135.421006,34.846152],[135.421144,34.844935],[135.421294,34.844535],[135.421594,34.844085],[135.422344,34.842602],[135.422869,34.841094],[135.424169,34.838353],[135.424281,34.837903],[135.424319,34.836569],[135.424219,34.836494],[135.423744,34.83482],[135.423619,34.834328],[135.423594,34.833961],[135.423681,34.83347],[135.423719,34.831912],[135.423694,34.831412],[135.423782,34.830287],[135.423707,34.829562],[135.423519,34.828887],[135.423294,34.82837],[135.422732,34.827437],[135.421932,34.826329],[135.421169,34.825329],[135.420719,34.824946],[135.419882,34.824196],[135.419582,34.823829],[135.419107,34.823512],[135.41742,34.821921],[135.417095,34.821538],[135.416895,34.821354],[135.41642,34.820763],[135.416107,34.820221],[135.416057,34.819521],[135.416108,34.817921],[135.416233,34.817263],[135.416358,34.816722],[135.416858,34.815105],[135.417982,34.81243],[135.419157,34.810131],[135.419357,34.809664],[135.420145,34.808314],[135.420632,34.807548],[135.42172,34.806023],[135.421982,34.805598],[135.422395,34.804181],[135.422857,34.803232],[135.423745,34.801973],[135.423945,34.801998],[135.424445,34.802023],[135.42517,34.80194],[135.426769,34.801932],[135.427244,34.801982],[135.427394,34.802048],[135.427594,34.802207],[135.427719,34.802457],[135.427844,34.80264],[135.428244,34.802682],[135.428344,34.802732],[135.428394,34.803073],[135.428494,34.803182],[135.428769,34.803182],[135.428769,34.802798],[135.428744,34.802557],[135.428769,34.802465],[135.429094,34.802465],[135.429582,34.802515],[135.429632,34.802515],[135.429532,34.801523],[135.429532,34.801274],[135.429682,34.801274],[135.429944,34.80119],[135.430019,34.80094],[135.430019,34.800649],[135.429894,34.800349],[135.429969,34.800174],[135.430369,34.800149],[135.430707,34.80009],[135.431107,34.799232],[135.431319,34.798374],[135.431544,34.798357],[135.432044,34.798382],[135.432569,34.798316],[135.432819,34.798141],[135.433131,34.797757],[135.433206,34.797691],[135.433406,34.797716],[135.434081,34.798174],[135.434306,34.798191],[135.434456,34.798124],[135.434531,34.798041],[135.434681,34.797182],[135.434481,34.797182],[135.434081,34.797132],[135.434044,34.796707],[135.434144,34.796482],[135.435231,34.795291],[135.436094,34.794483],[135.438344,34.792175],[135.438594,34.791883],[135.438994,34.791841],[135.439118,34.791866],[135.440643,34.791792],[135.441006,34.791742],[135.441081,34.79175],[135.441281,34.791792],[135.441393,34.791908],[135.441668,34.791975],[135.441743,34.79195],[135.441781,34.791708],[135.441756,34.7915],[135.441806,34.791325],[135.442106,34.791208],[135.442531,34.791242],[135.442856,34.791192],[135.442856,34.790992],[135.441831,34.790942],[135.441656,34.7908],[135.441481,34.790775],[135.441406,34.790733],[135.441381,34.790617],[135.441431,34.790508],[135.441618,34.790417],[135.441968,34.790425],[135.442268,34.790375],[135.442343,34.790175],[135.442743,34.790025],[135.442768,34.789842],[135.442418,34.78975],[135.442343,34.789683],[135.442406,34.789342],[135.442231,34.789317],[135.442068,34.789408],[135.442043,34.789583],[135.441943,34.789658],[135.441693,34.789675],[135.441593,34.789608],[135.441593,34.789317],[135.441731,34.78875],[135.442618,34.78695],[135.442856,34.786459],[135.442656,34.785959],[135.442606,34.785642],[135.442318,34.784876],[135.442268,34.784492],[135.442318,34.784309],[135.442368,34.784292],[135.443043,34.784267],[135.443806,34.784167],[135.443906,34.784117],[135.443868,34.782518],[135.443893,34.782226],[135.444243,34.782201],[135.444518,34.782251],[135.444568,34.782118],[135.444581,34.781459],[135.444856,34.781351],[135.445231,34.780585],[135.445243,34.780385],[135.445043,34.780226],[135.445018,34.779885],[135.445306,34.778943],[135.445406,34.778426],[135.445406,34.778243],[135.445543,34.777435],[135.446218,34.777235],[135.446268,34.77696],[135.446231,34.77606],[135.446256,34.775268],[135.446131,34.775202],[135.445906,34.775202],[135.445781,34.77516],[135.445668,34.774843],[135.445531,34.773444],[135.445568,34.772085],[135.445493,34.771636],[135.445293,34.771186],[135.444981,34.770619],[135.444681,34.770252],[135.444581,34.769961],[135.444531,34.769602],[135.444643,34.768786],[135.444743,34.768469],[135.444993,34.768519],[135.446143,34.768619],[135.447581,34.768444],[135.448331,34.768228],[135.449156,34.767736],[135.449543,34.767428],[135.450431,34.766328],[135.450481,34.766011],[135.450231,34.76567],[135.449956,34.765378],[135.449893,34.76497],[135.449918,34.764361],[135.450481,34.762628],[135.450493,34.762178],[135.450443,34.761703],[135.450318,34.76127],[135.450131,34.760795],[135.449981,34.760229],[135.450056,34.759962],[135.450306,34.759695],[135.450693,34.759379],[135.451093,34.758795],[135.451443,34.758462],[135.452081,34.758079],[135.452481,34.757837],[135.452706,34.757796],[135.453206,34.757821],[135.453331,34.75802],[135.453556,34.758637],[135.454018,34.759337],[135.454343,34.759679],[135.454793,34.76002],[135.455918,34.760504],[135.456143,34.760437],[135.456293,34.76032],[135.456443,34.760162],[135.456593,34.75987],[135.45673,34.758495],[135.456743,34.758162],[135.456618,34.757754],[135.456468,34.757462],[135.456105,34.756462],[135.455855,34.755629],[135.455818,34.755221],[135.455818,34.754638],[135.456218,34.753246],[135.456305,34.752771],[135.456468,34.752254],[135.456543,34.751846],[135.456705,34.751396],[135.456993,34.750913],[135.457355,34.751163],[135.457855,34.75163],[135.458318,34.751921],[135.458818,34.752055],[135.459143,34.752096],[135.45938,34.751938],[135.459705,34.751438],[135.459918,34.75103],[135.459868,34.750871],[135.459805,34.750871],[135.459093,34.750455],[135.459068,34.750246],[135.45928,34.749888],[135.46008,34.748305],[135.460155,34.747897],[135.460043,34.747197],[135.459868,34.746588],[135.45978,34.74598],[135.459743,34.74463],[135.45968,34.74393],[135.459668,34.743297],[135.459555,34.742672],[135.459518,34.742014],[135.459393,34.741247],[135.45933,34.740414],[135.459331,34.739631],[135.458968,34.737264],[135.458493,34.73614],[135.458493,34.735981],[135.458793,34.735773],[135.458831,34.735215],[135.458968,34.735123],[135.459106,34.73474],[135.459843,34.734506],[135.460318,34.733265],[135.460131,34.733307],[135.459768,34.733423],[135.459306,34.733498],[135.459068,34.733632],[135.458743,34.733906],[135.458331,34.733998],[135.457706,34.734631],[135.457381,34.734731],[135.456456,34.734798],[135.450706,34.734123],[135.449781,34.734106],[135.449294,34.73404],[135.448657,34.734023],[135.448169,34.733873],[135.447319,34.733331],[135.446619,34.732507],[135.446282,34.731765],[135.445607,34.72994],[135.445544,34.729315],[135.445594,34.728457],[135.446007,34.726916],[135.446244,34.726282],[135.446519,34.725724],[135.447669,34.723641],[135.447982,34.722624],[135.448057,34.721941],[135.447882,34.720866],[135.447682,34.7203],[135.447344,34.719716],[135.446907,34.719091],[135.446495,34.7186],[135.445995,34.718175],[135.445382,34.717792],[135.44407,34.717192],[135.44322,34.716933],[135.442345,34.7166],[135.44152,34.716333],[135.439195,34.715675],[135.437221,34.715008],[135.434421,34.71395],[135.432821,34.713242],[135.432134,34.712859],[135.431034,34.712325],[135.429446,34.71135],[135.428971,34.7109],[135.428834,34.710809],[135.427897,34.709692],[135.427059,34.708367],[135.426172,34.707159],[135.425697,34.706642],[135.425097,34.706192],[135.424547,34.705901],[135.421072,34.704868],[135.419035,34.704301],[135.41761,34.703834],[135.41756,34.703884],[135.414461,34.702751],[135.413586,34.702376],[135.412673,34.701934],[135.411436,34.701218],[135.410661,34.700659],[135.409311,34.699501],[135.408049,34.698201],[135.407349,34.697051],[135.406312,34.697601],[135.404937,34.695834],[135.404549,34.695793],[135.404412,34.695543],[135.404574,34.695451],[135.401637,34.691776],[135.401475,34.691868],[135.399013,34.688793],[135.399138,34.688726],[135.398788,34.688235],[135.39475,34.686976],[135.392751,34.688168],[135.393526,34.689218],[135.393663,34.689151],[135.3956,34.691618],[135.395275,34.691734],[135.396688,34.693509],[135.396688,34.693618],[135.396763,34.693768],[135.3971,34.694151],[135.397225,34.694342],[135.397275,34.694426],[135.397388,34.694417],[135.397538,34.694351],[135.397688,34.694426],[135.397813,34.694551],[135.397938,34.694692],[135.398112,34.694909],[135.40015,34.697559],[135.400287,34.697942],[135.401287,34.699192],[135.399275,34.699975],[135.399187,34.69995],[135.398837,34.700134],[135.398587,34.700317],[135.398587,34.70045],[135.398425,34.700475],[135.398262,34.70055],[135.3981,34.700325],[135.397175,34.700175],[135.39665,34.70015],[135.3961,34.700317],[135.396492,34.702913],[135.396959,34.705379],[135.39782,34.70876],[135.398827,34.71268],[135.399403,34.715054],[135.399799,34.716636],[135.399942,34.718326],[135.399966,34.720101],[135.400024,34.72145],[135.400151,34.72214],[135.40048,34.722937],[135.401111,34.72367],[135.402021,34.724825],[135.402761,34.726201],[135.402903,34.726766],[135.402963,34.728623],[135.40295,34.731074],[135.402263,34.732952],[135.40151,34.733946],[135.399852,34.735],[135.397863,34.736296],[135.395783,34.737504],[135.394331,34.738892],[135.39292,34.74045],[135.392611,34.741066],[135.39197,34.742101],[135.391268,34.742628],[135.388924,34.743742],[135.387195,34.744424],[135.386672,34.745152],[135.386558,34.746198],[135.386649,34.747449],[135.38681,34.747863],[135.387063,34.748346],[135.387616,34.748691],[135.388429,34.749068],[135.389215,34.749132],[135.390616,34.749068],[135.3924,34.749153],[135.393186,34.749599],[135.393569,34.750047],[135.393973,34.750931],[135.394646,34.751297],[135.396031,34.751489],[135.397205,34.75172],[135.397532,34.752181],[135.397648,34.75445],[135.397642,34.75648],[135.397437,34.759067],[135.39706,34.761586],[135.39671,34.761719],[135.39641,34.761877],[135.39621,34.762077],[135.396023,34.762461],[135.395898,34.762619],[135.395648,34.762727],[135.395173,34.762861],[135.394923,34.763086],[135.394635,34.763511],[135.394285,34.763511],[135.39406,34.763752],[135.393835,34.763911],[135.393261,34.764044],[135.393136,34.764135],[135.393123,34.764427],[135.392948,34.764694],[135.392623,34.764985],[135.392223,34.765227],[135.391898,34.765344],[135.391048,34.765177],[135.390661,34.765219],[135.390161,34.765377],[135.390061,34.76551],[135.390286,34.766119],[135.390273,34.76641],[135.390423,34.76691],[135.390836,34.767993],[135.390836,34.768243],[135.390661,34.768402],[135.390636,34.768577],[135.390736,34.76876],[135.390486,34.768985],[135.390398,34.769527],[135.390298,34.769776],[135.389948,34.770043],[135.389811,34.770468],[135.389761,34.77081],[135.389661,34.77081],[135.389386,34.77076],[135.389311,34.770643],[135.389186,34.77051],[135.388461,34.770435],[135.388111,34.770526],[135.387936,34.770726],[135.387786,34.770793],[135.387611,34.770768],[135.387511,34.770726],[135.387461,34.770543],[135.387461,34.770226],[135.387411,34.770043],[135.387186,34.770001],[135.386711,34.769976],[135.386636,34.769726],[135.386561,34.769676],[135.386336,34.76961],[135.387174,34.768893],[135.386774,34.768777],[135.386174,34.768685],[135.384174,34.768735],[135.384049,34.768852],[135.384011,34.769168],[135.384036,34.769435],[135.384011,34.769526],[135.382961,34.769476],[135.382936,34.769743],[135.382736,34.769835],[135.382749,34.770535],[135.382874,34.770693],[135.383774,34.77106],[135.383949,34.771285],[135.383936,34.772209],[135.383699,34.772884],[135.383399,34.772834],[135.383324,34.772859],[135.383099,34.773284],[135.383374,34.773626],[135.383611,34.774193],[135.383536,34.774234],[135.382536,34.774368],[135.381436,34.774451],[135.381286,34.774584],[135.381124,34.774851],[135.380924,34.775167],[135.380599,34.775367],[135.380049,34.775592],[135.379949,34.775701],[135.379712,34.776109],[135.379587,34.776851],[135.379549,34.777659],[135.379287,34.778517],[135.379062,34.7789],[135.378637,34.778692],[135.378112,34.778575],[135.378037,34.778934],[135.377612,34.7788],[135.377287,34.77875],[135.376637,34.778725],[135.376499,34.779284],[135.376499,34.779625],[135.376524,34.780192],[135.376462,34.780617],[135.376387,34.780617],[135.376362,34.780367],[135.376037,34.780392],[135.375837,34.780475],[135.375762,34.780683],[135.375687,34.780767],[135.375562,34.780817],[135.375462,34.780817],[135.375137,34.780567],[135.374562,34.780517],[135.374362,34.780558],[135.373962,34.780692],[135.373812,34.780825],[135.373575,34.781092],[135.373425,34.781475],[135.373087,34.783116],[135.372675,34.784133],[135.372362,34.784625],[135.37221,34.78478],[135.37155,34.785791],[135.371062,34.786783],[135.370175,34.789524],[135.369762,34.791415],[135.369737,34.791799],[135.3698,34.79254],[135.368476,34.795189],[135.367977,34.798643],[135.366352,34.801152],[135.365402,34.802523],[135.366542,34.803555],[135.367073,34.804795],[135.366697,34.806145],[135.366231,34.808336],[135.364202,34.810112],[135.361247,34.810615],[135.358889,34.812468],[135.355462,34.814258],[135.347752,34.814258],[135.337752,34.815687],[135.337777,34.815912],[135.337689,34.816112],[135.337564,34.816287],[135.337314,34.816853],[135.337014,34.81712],[135.336689,34.817262],[135.335977,34.817487],[135.335402,34.817728],[135.334964,34.818028],[135.334614,34.818453],[135.334127,34.818903],[135.333852,34.819461],[135.333339,34.82012],[135.333039,34.820186],[135.332714,34.820345],[135.33244,34.820661],[135.332377,34.821178],[135.332627,34.821711],[135.332927,34.821961],[135.332877,34.822228],[135.331902,34.822953],[135.331677,34.823153],[135.331515,34.823986],[135.32964,34.825161],[135.329065,34.826419],[135.328415,34.826527],[135.32789,34.826219],[135.32734,34.825769],[135.32704,34.825344],[135.326552,34.824936],[135.32564,34.824352],[135.324553,34.824852],[135.32444,34.824986],[135.32444,34.825144],[135.32464,34.825477],[135.32464,34.825635],[135.324503,34.825702],[135.32314,34.826177],[135.323165,34.826335],[135.323553,34.826719],[135.324778,34.828335],[135.325252,34.829168],[135.325227,34.829993],[135.324977,34.831251],[135.32504,34.831951],[135.325015,34.832826],[135.32479,34.833501],[135.324302,34.834426],[135.323765,34.835034],[135.323102,34.835459],[135.322127,34.835909],[135.321528,34.836134],[135.321065,34.836568],[135.32099,34.836642],[135.32084,34.837026],[135.320915,34.837701],[135.320953,34.838784],[135.320815,34.839625],[135.320565,34.840117],[135.32034,34.840317],[135.319378,34.84085],[135.319103,34.841392],[135.319065,34.84155],[135.318865,34.841842],[135.31854,34.842558],[135.318453,34.843258],[135.317953,34.843817],[135.317515,34.844425],[135.317415,34.844741],[135.317178,34.845166],[135.316878,34.845366],[135.316503,34.845725],[135.316378,34.846016],[135.316353,34.846241],[135.316378,34.846333],[135.31634,34.846608],[135.31609,34.846808],[135.31559,34.847166],[135.315215,34.847291],[135.31509,34.847291],[135.314628,34.847633],[135.313903,34.848349],[135.31369,34.848683],[135.313665,34.849091],[135.313865,34.849658],[135.31584,34.852216],[135.316115,34.852674],[135.315928,34.853682],[135.31564,34.854474],[135.31549,34.855124],[135.315515,34.855532],[135.315503,34.855957],[135.315403,34.856407],[135.314415,34.857665],[135.31399,34.858024],[135.313703,34.858157],[135.313228,34.858315],[135.312828,34.858265],[135.312153,34.85799],[135.310665,34.857032],[135.310266,34.856732],[135.309166,34.856049],[135.308166,34.85559],[135.307478,34.855224],[135.306878,34.854974],[135.306178,34.85474],[135.305754,34.854624],[135.304979,34.854532],[135.302891,34.854557],[135.302616,34.854515],[135.301791,34.854149],[135.301316,34.854032],[135.301016,34.854074],[135.300567,34.854207],[135.300067,34.854515],[135.299792,34.854765],[135.299604,34.855007],[135.299529,34.85544],[135.299679,34.856074],[135.299817,34.856365],[135.300067,34.856707],[135.301416,34.85789],[135.301654,34.858232],[135.301879,34.85864],[135.301829,34.858948],[135.301629,34.859107],[135.301117,34.859282],[135.300592,34.859307],[135.299842,34.859232],[135.298992,34.859023],[135.298292,34.858923],[135.297767,34.858807],[135.297017,34.85869],[135.296517,34.858707],[135.296217,34.858799],[135.295867,34.858998],[135.295567,34.859107],[135.295155,34.859173],[135.294555,34.859173],[135.293855,34.859124],[135.29333,34.859165],[135.29308,34.859382],[135.29298,34.859632],[135.29293,34.859882],[135.293017,34.860132],[135.293167,34.860332],[135.293692,34.860832],[135.293817,34.861148],[135.293792,34.861332],[135.293605,34.861582],[135.29328,34.861757],[135.293155,34.861757],[135.292955,34.861865],[135.29283,34.86214],[135.29278,34.862498],[135.292593,34.862832],[135.292093,34.863465],[135.291805,34.863915],[135.29168,34.864365],[135.29173,34.864657],[135.292068,34.865423],[135.292068,34.865765],[135.291918,34.86599],[135.291743,34.866148],[135.29138,34.866573],[135.29118,34.866773],[135.290755,34.866615],[135.29043,34.867173],[135.289868,34.867865],[135.289918,34.86839],[135.289693,34.86859],[135.289306,34.868815],[135.288931,34.868873],[135.288756,34.868873],[135.288356,34.86894],[135.288106,34.869048],[135.287781,34.869431],[135.287443,34.870173],[135.287218,34.870423],[135.287068,34.870465],[135.286843,34.870623],[135.286606,34.870981],[135.286506,34.87134],[135.286419,34.872198],[135.285831,34.87364],[135.285731,34.873998],[135.285819,34.87454],[135.285619,34.875373],[135.285381,34.875731],[135.285331,34.875889],[135.285156,34.876748],[135.285144,34.877239],[135.285269,34.877856],[135.285581,34.878714],[135.285606,34.878848],[135.285506,34.879139],[135.285332,34.879481],[135.285044,34.879723],[135.284919,34.879789],[135.284669,34.879989],[135.284469,34.880306],[135.284119,34.880531],[135.283757,34.880839],[135.283507,34.881248],[135.283094,34.882347],[135.282457,34.883656],[135.282232,34.884014],[135.281845,34.884322],[135.280382,34.885781],[135.280445,34.886731],[135.280345,34.887222],[135.280057,34.887989],[135.279657,34.888755],[135.27907,34.889364],[135.278445,34.889805],[135.277583,34.890272],[135.276645,34.890922],[135.276295,34.891214],[135.27587,34.891664],[135.275533,34.892038],[135.274958,34.892622],[135.274645,34.893122],[135.274645,34.893188],[135.27472,34.893413],[135.27472,34.893822],[135.274571,34.894113],[135.274433,34.89463],[135.274758,34.895172],[135.274783,34.895488],[135.274983,34.895622],[135.275308,34.895647],[135.275558,34.895763],[135.275583,34.895855],[135.275545,34.89608],[135.27542,34.896488],[135.275445,34.896755],[135.27577,34.897096],[135.275958,34.897388],[135.276158,34.897821],[135.276108,34.898096],[135.275696,34.89863],[135.275546,34.898921],[135.275596,34.89908],[135.275746,34.89938],[135.276058,34.900171],[135.276108,34.900871],[135.276558,34.901213],[135.276583,34.901296],[135.276546,34.902088],[135.276746,34.902429],[135.27757,34.902904],[135.277908,34.903246],[135.277908,34.903429],[135.277733,34.903538],[135.277083,34.904104],[135.277071,34.904371],[135.277545,34.905187],[135.27772,34.905662],[135.277583,34.905912],[135.276546,34.906804],[135.276421,34.907054],[135.276471,34.907596],[135.276421,34.907996],[135.276208,34.908562],[135.276133,34.90867],[135.276083,34.908895],[135.276258,34.909212],[135.277121,34.909812],[135.277721,34.910262],[135.27797,34.910604],[135.278045,34.91092],[135.27792,34.91112],[135.277508,34.911545],[135.276621,34.912245],[135.276521,34.912328],[135.276446,34.912578],[135.276621,34.91337],[135.276558,34.913778],[135.276258,34.914137],[135.276008,34.914562],[135.275996,34.914878],[135.275821,34.915261],[135.275721,34.91537],[135.275596,34.915686],[135.275433,34.91702],[135.275446,34.91747],[135.275646,34.918436],[135.275783,34.918778],[135.275858,34.919186],[135.276083,34.919528],[135.275908,34.919894],[135.275933,34.919953],[135.276058,34.920061],[135.276258,34.920169],[135.276496,34.920311],[135.276596,34.920369],[135.276771,34.920461],[135.277021,34.920561],[135.277233,34.920644],[135.27767,34.920661],[135.27822,34.920653],[135.278833,34.920603],[135.27907,34.920603],[135.279583,34.920603],[135.280083,34.920644],[135.280295,34.920653],[135.28042,34.920678],[135.280608,34.920761],[135.280808,34.920853],[135.281008,34.920894],[135.28132,34.920936],[135.281433,34.920953],[135.28157,34.921044],[135.281633,34.921119],[135.281833,34.921378],[135.281933,34.921578],[135.281958,34.921694],[135.28202,34.921803],[135.282158,34.921961],[135.282433,34.922128],[135.282645,34.922278],[135.28297,34.922453],[135.283195,34.922578],[135.28347,34.922703],[135.28357,34.922753],[135.283683,34.922819],[135.283833,34.922911],[135.283907,34.922978],[135.283982,34.922978],[135.284057,34.922894],[135.284095,34.922828],[135.284182,34.922703],[135.284445,34.922803],[135.284595,34.922878],[135.284907,34.923019],[135.285207,34.923111],[135.285345,34.923128],[135.28557,34.923178],[135.285745,34.923294],[135.28582,34.923344],[135.28617,34.923478],[135.286595,34.923586],[135.286832,34.923636],[135.286932,34.923703],[135.286982,34.923836],[135.287007,34.924178],[135.286995,34.924353],[135.28702,34.924686],[135.287007,34.924928],[135.28692,34.925219],[135.28687,34.925519],[135.286932,34.925769],[135.287045,34.925786],[135.287332,34.925886],[135.28777,34.925978],[135.288232,34.926119],[135.288507,34.926211],[135.288745,34.926311],[135.28892,34.926369],[135.289545,34.926869],[135.290444,34.926986],[135.291182,34.926903],[135.291807,34.927153],[135.293307,34.927919],[135.293994,34.928128],[135.294757,34.928153],[135.295369,34.927978],[135.296082,34.927819],[135.296519,34.927619],[135.298081,34.926686],[135.298306,34.926186],[135.299269,34.926103],[135.299669,34.925945],[135.300694,34.92402],[135.301031,34.923453],[135.301394,34.923187],[135.301881,34.92287],[135.302319,34.922512],[135.302431,34.922312],[135.302768,34.921303],[135.302843,34.921253],[135.303393,34.921328],[135.304043,34.921987],[135.304456,34.922637],[135.305006,34.923228],[135.305406,34.923495],[135.305493,34.923837],[135.305456,34.924353],[135.305618,34.924936],[135.305456,34.925186],[135.305431,34.92532],[135.305618,34.925795],[135.306156,34.926811],[135.306343,34.927053],[135.306831,34.927894],[135.307218,34.928278],[135.307656,34.928819],[135.307755,34.929669],[135.30808,34.930078],[135.30838,34.930711],[135.308268,34.931252],[135.308268,34.931452],[135.308843,34.932127],[135.308893,34.932577],[135.308668,34.932961],[135.30768,34.933161],[135.307355,34.933477],[135.307518,34.933927],[135.30803,34.934469],[135.307918,34.934719],[135.307705,34.93501],[135.306955,34.936694],[135.307005,34.936852],[135.308643,34.937419],[135.308943,34.937694],[135.30903,34.93821],[135.309043,34.939268],[135.309318,34.939785],[135.30923,34.94021],[135.309068,34.940618],[135.309093,34.941135],[135.30898,34.941401],[135.308543,34.941585],[135.308518,34.941668],[135.308543,34.941876],[135.308518,34.941985],[135.308705,34.942643],[135.308893,34.943026],[135.30883,34.94341],[135.308393,34.943993],[135.30828,34.944193],[135.308605,34.945409],[135.308605,34.945609],[135.30838,34.946059],[135.308293,34.946418],[135.30818,34.946509],[135.307743,34.946668],[135.307443,34.946818],[135.306843,34.947717],[135.306405,34.947851],[135.306318,34.947851],[135.306293,34.947942],[135.305905,34.948342],[135.30513,34.948951],[135.30488,34.949084],[135.303818,34.949059],[135.303605,34.949076],[135.30313,34.949234],[135.302993,34.949617],[135.302768,34.950042],[135.302443,34.950267],[135.302331,34.9506],[135.302406,34.951075],[135.302605,34.951642],[135.302868,34.952025],[135.30333,34.952475],[135.303493,34.952834],[135.304068,34.9534],[135.304555,34.953833],[135.304855,34.954033],[135.305018,34.954192],[135.30508,34.954417],[135.30463,34.955383],[135.304218,34.956008],[135.303968,34.95655],[135.303993,34.956975],[135.304155,34.957358],[135.30418,34.957516],[135.304018,34.958033],[135.304043,34.95855],[135.30433,34.959633],[135.304355,34.960108],[135.304218,34.960533],[135.304168,34.960891],[135.30433,34.961233],[135.304518,34.961366],[135.30498,34.961616],[135.305205,34.961841],[135.30528,34.962208],[135.305255,34.962433],[135.304593,34.962741],[135.30388,34.963008],[135.302618,34.963116],[135.302205,34.962958],[135.301905,34.963066],[135.301718,34.963566],[135.301655,34.964824],[135.30148,34.965407],[135.30118,34.965991],[135.301018,34.966149],[135.30068,34.966374],[135.300243,34.966732],[135.299993,34.967224],[135.299768,34.968457],[135.299743,34.96889],[135.29993,34.96934],[135.300305,34.969565],[135.300368,34.97004],[135.300543,34.971232],[135.30043,34.971657],[135.30008,34.972173],[135.29908,34.973231],[135.298568,34.973523],[135.298118,34.973881],[135.297868,34.974706],[135.298005,34.975831],[135.298055,34.975923],[135.298443,34.976173],[135.29868,34.976223],[135.299255,34.976156],[135.299705,34.975998],[135.30008,34.976381],[135.299918,34.976723],[135.29978,34.976856],[135.299393,34.977373],[135.29898,34.977681],[135.29878,34.977956],[135.298843,34.978314],[135.29903,34.978739],[135.299818,34.980256],[135.299918,34.980389],[135.300305,34.980522],[135.300905,34.980639],[135.30113,34.980706],[135.301392,34.981006],[135.30148,34.981947],[135.301442,34.982197],[135.301667,34.98233],[135.302817,34.982655],[135.304267,34.982947],[135.30473,34.982905],[135.305117,34.982747],[135.305655,34.982889],[135.306154,34.983247],[135.306642,34.983547],[135.307054,34.98368],[135.307679,34.983755],[135.308392,34.983755],[135.309079,34.983672],[135.309767,34.983472],[135.309792,34.983422],[135.309792,34.983539],[135.310304,34.98428],[135.310442,34.984664],[135.310417,34.984914],[135.310304,34.985072],[135.310054,34.985139],[135.309617,34.985405],[135.309292,34.985738],[135.309092,34.986213],[135.308792,34.986747],[135.308404,34.986863],[135.308242,34.987263],[135.307767,34.987555],[135.307854,34.988138],[135.307717,34.988347],[135.307304,34.988563],[135.306779,34.988697],[135.306229,34.988946],[135.305767,34.989238],[135.305517,34.989321],[135.304829,34.989505],[135.304442,34.989746],[135.304417,34.989905],[135.304492,34.990421],[135.304517,34.990988],[135.304329,34.991321],[135.304029,34.991521],[135.303642,34.991638],[135.303554,34.991704],[135.303479,34.991863],[135.303579,34.992246],[135.303529,34.992621],[135.303542,34.993521],[135.303129,34.994354],[135.302967,34.994854],[135.302717,34.995146],[135.302392,34.995137],[135.302029,34.994846],[135.301542,34.995096],[135.300604,34.995337],[135.300029,34.996029],[135.299204,34.996254],[135.298817,34.996496],[135.298429,34.996879],[135.297917,34.997171],[135.297342,34.997237],[135.296654,34.997212],[135.296129,34.996979],[135.295754,34.996779],[135.295142,34.996846],[135.294605,34.996821],[135.29378,34.996637],[135.293592,34.996637],[135.29318,34.996454],[135.292792,34.996429],[135.29258,34.996521],[135.292167,34.996787],[135.29153,34.996962],[135.29098,34.996937],[135.29033,34.996954],[135.289642,34.996846],[135.289455,34.996437],[135.289292,34.996212],[135.28893,34.996387],[135.287305,34.997512],[135.286655,34.997529],[135.286243,34.99757],[135.285792,34.998404],[135.285692,34.998512],[135.284892,34.999095],[135.28503,34.999454],[135.285355,34.999754],[135.286717,35.000095],[135.287242,35.000295],[135.28803,35.001137],[135.288055,35.00147],[135.287917,35.001853],[135.287967,35.00192],[135.28838,35.00217],[135.28863,35.002445],[135.288617,35.002803],[135.288492,35.00322],[135.288079,35.003636],[135.287942,35.003995],[135.288242,35.005328],[135.289017,35.006636],[135.289042,35.006744],[135.289017,35.007103],[135.289042,35.007486],[135.289229,35.008028],[135.289317,35.008094],[135.289617,35.008186],[135.290117,35.008436],[135.290192,35.008503],[135.290229,35.008686],[135.289566,35.009653],[135.289316,35.009944],[135.289066,35.010152],[135.287966,35.010394],[135.287591,35.010536],[135.287454,35.010761],[135.287479,35.011002],[135.287591,35.011277],[135.287804,35.011527],[135.287916,35.011527],[135.288379,35.011611],[135.288854,35.011861],[135.289616,35.012336],[135.290166,35.012719],[135.290691,35.012944],[135.291291,35.013052],[135.292366,35.013186],[135.293829,35.013552],[135.294591,35.013594],[135.296354,35.013185],[135.297091,35.013094],[135.299241,35.013185],[135.300028,35.013027],[135.300803,35.012685],[135.301241,35.012552],[135.301766,35.012619],[135.302291,35.012885],[135.302528,35.012794],[135.302978,35.01271],[135.303278,35.01271],[135.303553,35.012594],[135.303803,35.01241],[135.304078,35.012344],[135.304628,35.012319],[135.304866,35.012252],[135.305116,35.012027],[135.305303,35.011694],[135.305503,35.011552],[135.305916,35.011602],[135.306053,35.011577],[135.306241,35.011352],[135.306403,35.011036],[135.306903,35.010611],[135.307228,35.010161],[135.307641,35.009844],[135.308416,35.009594],[135.308966,35.009636],[135.309103,35.009686],[135.309341,35.009844],[135.309566,35.010244],[135.309728,35.010469],[135.310116,35.010586],[135.310416,35.010561],[135.310528,35.010627],[135.310553,35.011127],[135.310616,35.011194],[135.31089,35.011369],[135.311078,35.011419],[135.312178,35.011327],[135.313603,35.011344],[135.314128,35.011411],[135.314453,35.011636],[135.31454,35.011936],[135.314515,35.012269],[135.314428,35.012611],[135.314453,35.012944],[135.314353,35.013235],[135.314128,35.013644],[135.314103,35.01396],[135.314265,35.01421],[135.315177,35.014819],[135.315452,35.01511],[135.31564,35.015852],[135.315915,35.015944],[135.316052,35.015877],[135.316652,35.015444],[135.316877,35.015352],[135.318002,35.015127],[135.318477,35.014994],[135.31899,35.014677],[135.319789,35.014477],[135.320089,35.014361],[135.320364,35.014386],[135.320702,35.014452],[135.321327,35.014136],[135.321552,35.014069],[135.321652,35.014111],[135.321789,35.014561],[135.322427,35.015152],[135.322614,35.015486],[135.322977,35.015827],[135.323339,35.016069],[135.323389,35.016319],[135.322789,35.017044],[135.321939,35.017719],[135.321714,35.018169],[135.321502,35.018552],[135.321327,35.018977],[135.321227,35.020268],[135.321439,35.02051],[135.321639,35.020668],[135.321689,35.020943],[135.321614,35.021235],[135.321477,35.021477],[135.321164,35.021685],[135.321114,35.021793],[135.321177,35.022093],[135.321552,35.02261],[135.322301,35.023035],[135.322489,35.02326],[135.322514,35.023618],[135.322464,35.024051],[135.322576,35.024451],[135.322789,35.024676],[135.323064,35.024676],[135.323451,35.024568],[135.323839,35.02441],[135.324201,35.024385],[135.324689,35.024426],[135.325076,35.02441],[135.325401,35.024268],[135.325601,35.02391],[135.325901,35.02366],[135.326226,35.023527],[135.326614,35.023527],[135.327551,35.023327],[135.327626,35.023502],[135.327713,35.023868],[135.327326,35.024585],[135.327326,35.024835],[135.327438,35.024943],[135.328513,35.024876],[135.328976,35.024943],[135.329988,35.025301],[135.330213,35.025551],[135.330513,35.025751],[135.330713,35.025801],[135.331201,35.025818],[135.331863,35.025935],[135.332225,35.025935],[135.3325,35.025776],[135.3328,35.025526],[135.3331,35.025485],[135.3337,35.025485],[135.334588,35.02541],[135.3353,35.02546],[135.336013,35.025543],[135.336675,35.025727],[135.337575,35.025635],[135.338212,35.02561],[135.338837,35.02566],[135.339837,35.02586]]],"type":"Polygon"},"properties":{"pref":"兵庫県","kuni_id":"K05","yomi":"かはべ","name":"川辺","id":"G05011","kuni":"摂津","id_url":"G05011.html","kuni_url":"/kg/resource/K05.html"}}],"type":"FeatureCollection"}