{"type":"FeatureCollection","features":[{"type":"Feature","properties":{"kuni_url":"/kg/resource/K05.html","id_url":"G05005.html","kuni":"摂津","id":"G05005","name":"能勢","yomi":"のせ","kuni_id":"K05","pref":"大阪府"},"geometry":{"type":"Polygon","coordinates":[[[135.382158,35.030968],[135.382146,35.03071],[135.381896,35.030018],[135.381983,35.029668],[135.382158,35.029235],[135.382221,35.028744],[135.382096,35.02726],[135.381958,35.026535],[135.381833,35.026227],[135.381421,35.025944],[135.380696,35.025552],[135.380208,35.025377],[135.379996,35.025252],[135.379858,35.024961],[135.379733,35.024561],[135.379521,35.024211],[135.379396,35.023869],[135.379646,35.023486],[135.379896,35.023319],[135.380146,35.023086],[135.380246,35.022486],[135.380083,35.022144],[135.379771,35.021861],[135.379059,35.021494],[135.378821,35.021403],[135.378284,35.021094],[135.377809,35.020653],[135.377759,35.020353],[135.378184,35.018953],[135.378196,35.01867],[135.378009,35.018203],[135.378034,35.017953],[135.378246,35.017686],[135.378571,35.017386],[135.378684,35.01717],[135.378659,35.016861],[135.378771,35.016353],[135.379084,35.01607],[135.379384,35.015437],[135.379634,35.015428],[135.380109,35.015478],[135.380221,35.015453],[135.380446,35.015253],[135.380621,35.014912],[135.380733,35.01417],[135.380871,35.01377],[135.381371,35.012962],[135.381558,35.012537],[135.381646,35.011004],[135.381608,35.010512],[135.381633,35.010304],[135.381871,35.010212],[135.382246,35.01012],[135.382496,35.010137],[135.383296,35.010354],[135.384383,35.010379],[135.384783,35.010562],[135.385408,35.011112],[135.385771,35.01122],[135.388133,35.011329],[135.389183,35.011395],[135.389558,35.01107],[135.390395,35.010195],[135.39092,35.009846],[135.39152,35.009579],[135.392408,35.009296],[135.393295,35.008937],[135.393845,35.008779],[135.394132,35.008746],[135.39502,35.009012],[135.395307,35.009129],[135.395882,35.009429],[135.39627,35.009696],[135.396657,35.010262],[135.396932,35.01047],[135.397332,35.010679],[135.397607,35.01077],[135.398432,35.009921],[135.398807,35.009587],[135.399057,35.009221],[135.399157,35.008829],[135.399307,35.008546],[135.400132,35.008246],[135.400644,35.008021],[135.400844,35.007871],[135.401332,35.007613],[135.401869,35.007588],[135.402057,35.007463],[135.402269,35.007221],[135.402532,35.007029],[135.403394,35.006671],[135.403469,35.006696],[135.403906,35.007063],[135.405006,35.007838],[135.406331,35.008813],[135.407294,35.009579],[135.407694,35.009996],[135.407756,35.010271],[135.407844,35.010387],[135.408244,35.010762],[135.408781,35.011112],[135.409543,35.011487],[135.409818,35.011537],[135.410331,35.010971],[135.410668,35.010729],[135.411356,35.010354],[135.411556,35.010096],[135.411656,35.009713],[135.411843,35.009496],[135.411956,35.009429],[135.413006,35.009121],[135.413406,35.008946],[135.413768,35.008621],[135.414355,35.007921],[135.414655,35.007504],[135.414893,35.006805],[135.415493,35.006488],[135.415993,35.00613],[135.416293,35.005963],[135.416568,35.005671],[135.416805,35.005205],[135.417843,35.003547],[135.418042,35.003222],[135.41793,35.003055],[135.418142,35.00283],[135.418642,35.002647],[135.420705,35.00213],[135.42133,35.002039],[135.422455,35.002014],[135.422842,35.002039],[135.423004,35.00208],[135.423429,35.00228],[135.424142,35.002755],[135.424592,35.003222],[135.425767,35.003938],[135.425892,35.003972],[135.426404,35.004022],[135.427192,35.004247],[135.427854,35.004513],[135.428066,35.00473],[135.428341,35.005172],[135.428654,35.005405],[135.430166,35.00623],[135.431841,35.007055],[135.433416,35.007863],[135.433953,35.008013],[135.434628,35.007971],[135.434903,35.008005],[135.435216,35.008188],[135.435628,35.008313],[135.436116,35.008363],[135.436453,35.008296],[135.436691,35.008196],[135.43754,35.008163],[135.437865,35.008046],[135.43834,35.007713],[135.438865,35.007513],[135.439015,35.00748],[135.439303,35.00753],[135.439728,35.007713],[135.43999,35.007738],[135.44104,35.007421],[135.441465,35.007197],[135.442115,35.006655],[135.442428,35.006263],[135.442765,35.005747],[135.443065,35.005722],[135.44349,35.005747],[135.443902,35.005705],[135.444265,35.005555],[135.444665,35.005347],[135.44514,35.005188],[135.445715,35.005063],[135.446177,35.005038],[135.446365,35.005097],[135.446715,35.005297],[135.446977,35.00528],[135.447565,35.004938],[135.448165,35.004672],[135.448639,35.004389],[135.449102,35.004055],[135.450052,35.003222],[135.450152,35.002747],[135.450352,35.002547],[135.451477,35.00203],[135.451802,35.001756],[135.451964,35.001514],[135.452352,35.002047],[135.452552,35.002205],[135.454502,35.001731],[135.454801,35.001914],[135.455101,35.002164],[135.455301,35.002231],[135.456614,35.001756],[135.457251,35.001481],[135.457626,35.001414],[135.459414,35.001506],[135.459826,35.001481],[135.460214,35.001272],[135.461126,35.000489],[135.461701,35.000039],[135.462363,34.999631],[135.463376,34.998864],[135.463676,34.998681],[135.464588,34.998656],[135.464776,34.998523],[135.465076,34.998073],[135.465851,34.997439],[135.466426,34.997123],[135.467226,34.997123],[135.46755,34.997056],[135.467963,34.996806],[135.468463,34.996156],[135.468763,34.995948],[135.469263,34.995748],[135.469975,34.995273],[135.470325,34.99509],[135.47055,34.995115],[135.470688,34.995073],[135.4709,34.994773],[135.471175,34.99469],[135.472313,34.994731],[135.472688,34.99464],[135.473513,34.99464],[135.47465,34.994706],[135.4752,34.994681],[135.476675,34.994206],[135.4772,34.994231],[135.47795,34.99434],[135.47855,34.994523],[135.478875,34.994698],[135.479075,34.994923],[135.479262,34.995056],[135.479512,34.995081],[135.480774,34.99504],[135.481112,34.995173],[135.481499,34.995281],[135.481774,34.995306],[135.482124,34.995106],[135.482399,34.994723],[135.482624,34.994223],[135.482812,34.993115],[135.482887,34.992848],[135.484512,34.992598],[135.485124,34.992532],[135.486324,34.99264],[135.486911,34.992573],[135.487399,34.992307],[135.487761,34.991965],[135.488386,34.990948],[135.488499,34.990565],[135.488686,34.99034],[135.488886,34.990232],[135.488911,34.990074],[135.489074,34.990024],[135.489349,34.990049],[135.489674,34.989982],[135.490424,34.989549],[135.490724,34.989415],[135.491224,34.989324],[135.491799,34.989324],[135.492486,34.98939],[135.492786,34.989349],[135.493336,34.98894],[135.493523,34.98869],[135.493586,34.988374],[135.493411,34.988082],[135.493136,34.987765],[135.492236,34.987324],[135.491761,34.987115],[135.491049,34.986649],[135.490524,34.986441],[135.489724,34.986282],[135.488486,34.986107],[135.487937,34.985999],[135.487424,34.985791],[135.486424,34.985182],[135.485737,34.984349],[135.485137,34.983766],[135.483675,34.982533],[135.483512,34.982466],[135.483125,34.982174],[135.482987,34.981941],[135.483012,34.981833],[135.483537,34.981408],[135.4842,34.98095],[135.484337,34.980483],[135.484412,34.97915],[135.484437,34.978633],[135.484662,34.978541],[135.484962,34.978516],[135.485425,34.978341],[135.485587,34.978116],[135.485762,34.977592],[135.485787,34.977367],[135.485975,34.976875],[135.486274,34.976425],[135.487324,34.9757],[135.487462,34.975433],[135.487287,34.974842],[135.487074,34.9746],[135.486849,34.974417],[135.486737,34.974034],[135.486712,34.973584],[135.4868,34.972842],[135.486962,34.972634],[135.486962,34.972434],[135.48685,34.972142],[135.487262,34.971801],[135.487449,34.971534],[135.487562,34.970992],[135.4877,34.969934],[135.487675,34.969751],[135.4875,34.969418],[135.4875,34.969076],[135.488025,34.968109],[135.4883,34.967318],[135.488874,34.967434],[135.489287,34.967543],[135.489649,34.967726],[135.490112,34.968109],[135.490499,34.968309],[135.490962,34.968351],[135.491049,34.968268],[135.490749,34.967884],[135.490524,34.967676],[135.489999,34.967026],[135.489724,34.966826],[135.489399,34.96671],[135.489037,34.966668],[135.488925,34.966685],[135.488625,34.966668],[135.488462,34.966618],[135.488325,34.96601],[135.488075,34.965743],[135.487775,34.965493],[135.487525,34.965201],[135.487275,34.964727],[135.487025,34.964393],[135.4867,34.964127],[135.486287,34.963918],[135.4859,34.96381],[135.485712,34.963852],[135.48565,34.963902],[135.485575,34.964102],[135.485762,34.964527],[135.486562,34.965201],[135.487312,34.96631],[135.487362,34.966626],[135.487275,34.96676],[135.48695,34.966785],[135.485825,34.966601],[135.485412,34.966443],[135.484912,34.965793],[135.483875,34.964827],[135.483563,34.964685],[135.483263,34.964777],[135.482663,34.965093],[135.482325,34.96521],[135.48225,34.96521],[135.482138,34.965251],[135.48205,34.965251],[135.481863,34.965051],[135.481563,34.964035],[135.48125,34.962802],[135.48125,34.96246],[135.482688,34.961044],[135.483313,34.960544],[135.483613,34.960427],[135.483838,34.96041],[135.484325,34.960502],[135.484525,34.960477],[135.484525,34.960294],[135.484413,34.959977],[135.484413,34.959577],[135.48455,34.959369],[135.484825,34.959144],[135.484988,34.958877],[135.485013,34.958361],[135.485288,34.957527],[135.4854,34.957369],[135.485513,34.957344],[135.486775,34.957361],[135.48735,34.957252],[135.487487,34.957136],[135.487462,34.957052],[135.487125,34.956736],[135.4868,34.956486],[135.486663,34.956419],[135.486088,34.956353],[135.485888,34.956261],[135.485863,34.956061],[135.486025,34.955694],[135.485913,34.955403],[135.485663,34.955111],[135.485363,34.954886],[135.485113,34.954644],[135.484738,34.953945],[135.48465,34.953653],[135.484538,34.953536],[135.48405,34.953428],[135.483688,34.95322],[135.48305,34.952703],[135.482663,34.952253],[135.482251,34.951603],[135.481876,34.951153],[135.481563,34.950862],[135.481426,34.950612],[135.481288,34.950478],[135.481151,34.950545],[135.480938,34.950545],[135.480851,34.950428],[135.480851,34.950203],[135.481101,34.949803],[135.481426,34.949487],[135.481763,34.949237],[135.482251,34.949053],[135.482801,34.948987],[135.4831,34.948787],[135.483438,34.94842],[135.483925,34.947812],[135.484313,34.94757],[135.484663,34.947412],[135.485075,34.94727],[135.48615,34.946804],[135.486788,34.94662],[135.487913,34.946595],[135.488375,34.946479],[135.4887,34.946212],[135.488875,34.94587],[135.488838,34.944971],[135.489,34.944571],[135.489575,34.943579],[135.490187,34.942721],[135.490375,34.941887],[135.490425,34.941837],[135.4923,34.941771],[135.492925,34.941654],[135.493375,34.941429],[135.493725,34.941121],[135.494112,34.940938],[135.494437,34.940871],[135.494875,34.940888],[135.495349,34.941004],[135.495787,34.941071],[135.495974,34.941071],[135.496799,34.940888],[135.497198,34.940693],[135.497437,34.940679],[135.498087,34.940763],[135.498749,34.940946],[135.499562,34.941346],[135.499762,34.941479],[135.500337,34.942137],[135.500824,34.942487],[135.501486,34.942871],[135.501711,34.943029],[135.502061,34.943412],[135.502886,34.944645],[135.503224,34.945387],[135.503711,34.94617],[135.504011,34.94642],[135.504236,34.94642],[135.504474,34.94637],[135.505086,34.946062],[135.505899,34.945837],[135.506099,34.945712],[135.506311,34.94552],[135.506799,34.944929],[135.506986,34.944754],[135.507299,34.944637],[135.507549,34.944587],[135.507898,34.944587],[135.508173,34.94462],[135.508473,34.94462],[135.508911,34.944679],[135.509161,34.944654],[135.509398,34.944545],[135.510186,34.944021],[135.510573,34.943846],[135.511036,34.943729],[135.511311,34.943812],[135.511636,34.944087],[135.511973,34.944154],[135.512323,34.944037],[135.51276,34.943862],[135.513098,34.943796],[135.513523,34.943862],[135.513585,34.943904],[135.514273,34.944129],[135.51446,34.944129],[135.514548,34.943854],[135.514623,34.943271],[135.514598,34.942504],[135.514623,34.942046],[135.514923,34.941812],[135.51486,34.941137],[135.51481,34.941071],[135.514423,34.940871],[135.514373,34.940796],[135.514373,34.940596],[135.51456,34.940371],[135.51456,34.940171],[135.51461,34.939996],[135.514885,34.939588],[135.514885,34.939229],[135.514685,34.938529],[135.51466,34.938171],[135.514798,34.937313],[135.514998,34.936688],[135.51526,34.936188],[135.515535,34.935805],[135.515748,34.93558],[135.51611,34.93508],[135.51651,34.934346],[135.517085,34.933605],[135.517248,34.933463],[135.51756,34.933355],[135.51781,34.933305],[135.518097,34.933397],[135.518472,34.933705],[135.518647,34.933796],[135.518972,34.933796],[135.51931,34.933721],[135.520797,34.933705],[135.520822,34.933596],[135.52116,34.933105],[135.52126,34.932822],[135.52176,34.931613],[135.52221,34.930463],[135.522635,34.930113],[135.522797,34.930038],[135.523997,34.929313],[135.525197,34.928839],[135.525097,34.928147],[135.525147,34.927989],[135.525384,34.927622],[135.525497,34.927539],[135.525634,34.927314],[135.525609,34.927197],[135.525172,34.926789],[135.524947,34.926214],[135.525009,34.926097],[135.525359,34.925805],[135.525547,34.925522],[135.525572,34.925355],[135.525434,34.925064],[135.525384,34.924747],[135.525409,34.924497],[135.525534,34.924072],[135.525534,34.923872],[135.525409,34.923597],[135.525072,34.923289],[135.524834,34.922947],[135.524697,34.921847],[135.524747,34.921081],[135.524797,34.920972],[135.524847,34.920514],[135.524609,34.919898],[135.523985,34.919131],[135.523272,34.919164],[135.522935,34.918906],[135.522697,34.918364],[135.52261,34.917831],[135.522672,34.917698],[135.52231,34.917223],[135.521547,34.916731],[135.521085,34.916348],[135.520422,34.915623],[135.519985,34.915223],[135.519722,34.91484],[135.519572,34.914523],[135.519535,34.914365],[135.520047,34.913615],[135.52001,34.913415],[135.52006,34.912665],[135.519897,34.912473],[135.519785,34.912448],[135.51926,34.912198],[135.518598,34.911973],[135.51821,34.911798],[135.51781,34.911548],[135.51761,34.911481],[135.517198,34.911465],[135.516873,34.911481],[135.51676,34.91119],[135.516935,34.910198],[135.516935,34.909573],[135.516798,34.908981],[135.516298,34.90799],[135.516248,34.90774],[135.516248,34.907273],[135.516298,34.907132],[135.516985,34.906623],[135.51726,34.906282],[135.51786,34.905373],[135.518135,34.905132],[135.51836,34.904865],[135.51816,34.904548],[135.517485,34.903915],[135.517148,34.903732],[135.51696,34.903398],[135.516048,34.90299],[135.515923,34.902965],[135.514985,34.903107],[135.514335,34.903148],[135.51371,34.903082],[135.513048,34.90239],[135.51261,34.902048],[135.512223,34.901665],[135.511985,34.90124],[135.511223,34.900382],[135.511223,34.899798],[135.511685,34.898848],[135.511798,34.898507],[135.511685,34.89824],[135.51131,34.898148],[135.510398,34.898148],[135.509748,34.898198],[135.509336,34.89849],[135.509111,34.898823],[135.508623,34.898848],[135.508373,34.898823],[135.508336,34.898813],[135.507736,34.899076],[135.504199,34.899884],[135.501442,34.899884],[135.498793,34.89902],[135.495676,34.898003],[135.494194,34.896757],[135.491515,34.896274],[135.4872,34.896274],[135.486813,34.897532],[135.486888,34.89839],[135.486725,34.898365],[135.486063,34.898365],[135.4853,34.89859],[135.484613,34.898357],[135.483738,34.898265],[135.482613,34.89849],[135.482388,34.898557],[135.481263,34.89934],[135.480438,34.899782],[135.480001,34.899965],[135.479013,34.900815],[135.478576,34.901307],[135.478463,34.901357],[135.478026,34.901715],[135.477526,34.902182],[135.476014,34.903215],[135.475601,34.90364],[135.475951,34.904632],[135.475951,34.905173],[135.475614,34.905532],[135.475564,34.905823],[135.475264,34.906165],[135.474876,34.90634],[135.474701,34.907265],[135.474764,34.907315],[135.475189,34.908173],[135.475164,34.908348],[135.474701,34.908532],[135.473101,34.908907],[135.473439,34.909623],[135.473489,34.910506],[135.473289,34.910531],[135.472689,34.910731],[135.472089,34.910856],[135.471839,34.910681],[135.471676,34.910498],[135.470414,34.910223],[135.469702,34.910423],[135.469239,34.910373],[135.468664,34.910256],[135.467589,34.91014],[135.466764,34.910098],[135.465727,34.909681],[135.46559,34.909665],[135.465627,34.908915],[135.465102,34.908556],[135.464965,34.908056],[135.465302,34.90759],[135.46574,34.907115],[135.465715,34.906823],[135.46544,34.906257],[135.464515,34.904698],[135.463977,34.903615],[135.463727,34.903232],[135.463128,34.90289],[135.46269,34.90239],[135.462528,34.902323],[135.462178,34.902273],[135.46204,34.902207],[135.461215,34.901307],[135.460728,34.901057],[135.46004,34.901032],[135.459465,34.901157],[135.45889,34.901723],[135.458441,34.902015],[135.458391,34.901965],[135.458178,34.901473],[135.458178,34.901223],[135.458341,34.900657],[135.458216,34.900048],[135.457966,34.89969],[135.457991,34.899532],[135.457966,34.899082],[135.457728,34.898582],[135.457841,34.897957],[135.457816,34.897165],[135.457566,34.897032],[135.457041,34.897007],[135.456391,34.897049],[135.455753,34.897132],[135.455516,34.89709],[135.454991,34.896882],[135.454578,34.896815],[135.452828,34.894848],[135.452341,34.89439],[135.451928,34.894348],[135.450729,34.894723],[135.450454,34.894765],[135.450154,34.89409],[135.450241,34.893573],[135.450016,34.893507],[135.449716,34.893815],[135.449154,34.895165],[135.448479,34.895415],[135.447341,34.896106],[135.447041,34.896198],[135.446766,34.89574],[135.446304,34.895381],[135.446004,34.895223],[135.445429,34.895423],[135.444966,34.89544],[135.445016,34.895623],[135.445204,34.895965],[135.445704,34.89644],[135.445829,34.896931],[135.445829,34.89709],[135.445666,34.897656],[135.445004,34.898465],[135.444429,34.898706],[135.443654,34.898931],[135.443242,34.898789],[135.443004,34.898631],[135.442379,34.898023],[135.441529,34.897456],[135.440817,34.897114],[135.439454,34.895981],[135.438879,34.895864],[135.438192,34.896089],[135.436929,34.895614],[135.43628,34.895431],[135.43573,34.895181],[135.435317,34.894681],[135.434942,34.894023],[135.434342,34.893506],[135.433955,34.893256],[135.433305,34.892214],[135.432805,34.891856],[135.432342,34.891898],[135.43168,34.892073],[135.430967,34.892314],[135.430617,34.892539],[135.43048,34.892831],[135.43053,34.893464],[135.430767,34.893739],[135.431405,34.894097],[135.432055,34.895364],[135.432405,34.895772],[135.432405,34.896022],[135.431967,34.896581],[135.431392,34.896981],[135.430968,34.897414],[135.430368,34.898672],[135.429668,34.900197],[135.428618,34.902272],[135.427455,34.90418],[135.427318,34.90463],[135.427431,34.90503],[135.427506,34.905505],[135.427143,34.906089],[135.426543,34.906339],[135.425943,34.906764],[135.425443,34.906739],[135.424456,34.906464],[135.422681,34.90648],[135.422406,34.906455],[135.420594,34.90663],[135.419969,34.906555],[135.419681,34.906805],[135.419681,34.907347],[135.419519,34.907814],[135.418769,34.908489],[135.418581,34.908805],[135.418819,34.909389],[135.419119,34.909847],[135.419806,34.910205],[135.422306,34.910672],[135.422569,34.910689],[135.423143,34.910922],[135.423693,34.91128],[135.424018,34.911688],[135.424268,34.912347],[135.424431,34.913155],[135.424756,34.91383],[135.425293,34.914172],[135.425706,34.914313],[135.426481,34.91443],[135.427218,34.914697],[135.427818,34.91513],[135.428331,34.915355],[135.428993,34.915588],[135.429018,34.915538],[135.429518,34.915813],[135.42998,34.916197],[135.430718,34.916472],[135.431668,34.916705],[135.433405,34.916847],[135.434305,34.916805],[135.435093,34.917097],[135.435867,34.917647],[135.43688,34.918413],[135.43783,34.919505],[135.438155,34.919822],[135.438367,34.919897],[135.43908,34.920388],[135.439467,34.920497],[135.43983,34.920472],[135.440155,34.920405],[135.44048,34.920247],[135.44078,34.920205],[135.441192,34.920205],[135.442079,34.920272],[135.444079,34.920088],[135.445654,34.920355],[135.446229,34.920405],[135.446742,34.92038],[135.447679,34.92018],[135.448116,34.920038],[135.448616,34.919947],[135.449904,34.920013],[135.450954,34.919997],[135.451466,34.919897],[135.451891,34.91963],[135.452391,34.919405],[135.452628,34.919338],[135.453928,34.919189],[135.454741,34.918964],[135.455216,34.918722],[135.455466,34.918522],[135.455841,34.918272],[135.456591,34.918072],[135.457216,34.918097],[135.457903,34.91828],[135.458915,34.918305],[135.460228,34.918222],[135.46094,34.91843],[135.462127,34.918097],[135.46344,34.918439],[135.46379,34.918689],[135.46434,34.919372],[135.464752,34.919597],[135.465215,34.919756],[135.465477,34.919897],[135.465702,34.920455],[135.46609,34.920997],[135.466165,34.921355],[135.466115,34.921764],[135.465977,34.922172],[135.465765,34.922555],[135.465902,34.923322],[135.465865,34.923747],[135.46579,34.924155],[135.465927,34.924513],[135.46604,34.924647],[135.467027,34.925347],[135.467215,34.925363],[135.467464,34.92523],[135.467877,34.925388],[135.468177,34.925347],[135.468477,34.925347],[135.468589,34.92543],[135.468564,34.926113],[135.468514,34.92638],[135.468314,34.926697],[135.468402,34.927305],[135.468264,34.927488],[135.467664,34.927913],[135.467552,34.928096],[135.46719,34.928746],[135.467115,34.928813],[135.466952,34.928771],[135.466565,34.928588],[135.464865,34.927913],[135.46384,34.927738],[135.463702,34.927671],[135.46349,34.927446],[135.463352,34.927171],[135.46304,34.926971],[135.462253,34.926855],[135.461803,34.92663],[135.461428,34.926388],[135.46104,34.926296],[135.460653,34.926771],[135.460215,34.927105],[135.459253,34.92763],[135.458653,34.92803],[135.45829,34.928396],[135.457828,34.928779],[135.457416,34.929046],[135.456978,34.929229],[135.456566,34.929246],[135.455903,34.929179],[135.455466,34.929254],[135.454641,34.929479],[135.453678,34.929571],[135.452916,34.929704],[135.452441,34.929888],[135.452191,34.930021],[135.452004,34.930337],[135.452004,34.930654],[135.452116,34.930921],[135.452278,34.931171],[135.452116,34.931487],[135.451704,34.931912],[135.451154,34.932204],[135.450191,34.932637],[135.449916,34.932971],[135.449666,34.933379],[135.449504,34.93387],[135.449266,34.934437],[135.449129,34.934529],[135.448904,34.934504],[135.448241,34.934262],[135.447854,34.934304],[135.447366,34.93462],[135.445416,34.936195],[135.443304,34.938203],[135.442042,34.939262],[135.441767,34.93942],[135.441704,34.939262],[135.441429,34.93897],[135.440604,34.938412],[135.440167,34.938053],[135.439679,34.937487],[135.439342,34.93717],[135.438817,34.936854],[135.438467,34.936945],[135.437667,34.937328],[135.43663,34.937578],[135.436105,34.937803],[135.435717,34.938053],[135.43533,34.938253],[135.43498,34.938278],[135.43388,34.93812],[135.433105,34.938053],[135.432917,34.937878],[135.432505,34.937045],[135.432393,34.936995],[135.43168,34.937062],[135.430443,34.936912],[135.429805,34.936753],[135.42898,34.936504],[135.42838,34.936479],[135.42808,34.936637],[135.42758,34.937045],[135.427255,34.937095],[135.426818,34.936978],[135.425693,34.93657],[135.425306,34.93637],[135.425106,34.93612],[135.424943,34.935787],[135.424693,34.935562],[135.424006,34.935137],[135.423431,34.934437],[135.423106,34.934345],[135.422468,34.934254],[135.421681,34.933895],[135.421231,34.933854],[135.420681,34.933854],[135.419281,34.933945],[135.418769,34.933945],[135.418594,34.933879],[135.418456,34.934054],[135.418294,34.934579],[135.418181,34.935112],[135.417856,34.936062],[135.417831,34.936403],[135.417856,34.936737],[135.417194,34.937637],[135.417006,34.93802],[135.416919,34.938387],[135.416956,34.93872],[135.417119,34.93897],[135.417806,34.939287],[135.417881,34.939378],[135.417944,34.939687],[135.417556,34.94037],[135.417506,34.940678],[135.417506,34.941061],[135.417619,34.941786],[135.417306,34.941761],[135.416956,34.941586],[135.416519,34.941245],[135.415906,34.940886],[135.415381,34.940728],[135.414044,34.94057],[135.413269,34.940503],[135.413132,34.940461],[135.412832,34.940278],[135.412444,34.94012],[135.411044,34.940036],[135.410494,34.93997],[135.410244,34.940036],[135.409557,34.941186],[135.409482,34.941503],[135.409507,34.941728],[135.409757,34.941811],[135.410744,34.941836],[135.411207,34.941878],[135.411682,34.942036],[135.411982,34.942245],[135.412144,34.942486],[135.412232,34.942778],[135.412069,34.943545],[135.411794,34.944136],[135.411482,34.944361],[135.409644,34.945219],[135.409182,34.945469],[135.409019,34.945511],[135.408769,34.945511],[135.408707,34.945486],[135.408607,34.945353],[135.408682,34.945219],[135.409369,34.944811],[135.410007,34.944544],[135.411182,34.944086],[135.411382,34.943844],[135.411157,34.943211],[135.410769,34.942695],[135.410444,34.942628],[135.409507,34.942628],[135.409094,34.942561],[135.408607,34.942428],[135.408057,34.943236],[135.407782,34.943486],[135.407307,34.943711],[135.406295,34.943961],[135.405832,34.944028],[135.405445,34.943978],[135.405057,34.943828],[135.404557,34.943528],[135.403932,34.943419],[135.402332,34.943553],[135.40137,34.943694],[135.40102,34.943894],[135.400633,34.943961],[135.400083,34.943894],[135.39857,34.944103],[135.398045,34.944144],[135.39722,34.944036],[135.39712,34.944053],[135.396783,34.944211],[135.396021,34.944444],[135.395708,34.944369],[135.394671,34.943769],[135.394621,34.943453],[135.394808,34.943136],[135.394721,34.942778],[135.394146,34.942278],[135.392696,34.941403],[135.392471,34.941353],[135.392221,34.941653],[135.391871,34.942236],[135.391646,34.942728],[135.391346,34.942869],[135.390846,34.942978],[135.390546,34.943428],[135.390271,34.943519],[135.389121,34.943611],[135.388984,34.943661],[135.388621,34.944061],[135.388409,34.944444],[135.388109,34.945419],[135.387609,34.945711],[135.387309,34.946069],[135.387221,34.946427],[135.387284,34.946652],[135.387634,34.946969],[135.387884,34.947377],[135.388021,34.947802],[135.388046,34.948011],[135.387971,34.948435],[135.387796,34.948844],[135.387746,34.94916],[135.387934,34.949902],[135.387934,34.95006],[135.387609,34.950919],[135.387284,34.95121],[135.386834,34.951385],[135.386421,34.951618],[135.386209,34.951927],[135.385771,34.953685],[135.385709,34.954068],[135.385634,34.954252],[135.385434,34.954277],[135.384921,34.95416],[135.384334,34.954235],[135.383709,34.95441],[135.383209,34.954726],[135.383096,34.955018],[135.383046,34.955426],[135.382934,34.95581],[135.382746,34.955968],[135.382522,34.95601],[135.382222,34.956168],[135.381897,34.956168],[135.381759,34.956126],[135.381509,34.955926],[135.381234,34.95581],[135.380572,34.955876],[135.380497,34.95586],[135.379909,34.955476],[135.379222,34.955426],[135.378672,34.95536],[135.378122,34.955226],[135.377747,34.955293],[135.37706,34.95566],[135.376647,34.955818],[135.37631,34.95606],[135.375935,34.956293],[135.375822,34.955685],[135.375597,34.955385],[135.375247,34.955051],[135.373972,34.954351],[135.373485,34.953926],[135.373297,34.953651],[135.372985,34.953543],[135.37291,34.953543],[135.372297,34.953768],[135.372209,34.95374],[135.371973,34.953868],[135.371085,34.954543],[135.370735,34.95461],[135.370248,34.954518],[135.369998,34.95456],[135.369935,34.954851],[135.369548,34.955568],[135.369198,34.955859],[135.368623,34.956059],[135.367523,34.956234],[135.366973,34.956076],[135.366486,34.955851],[135.365911,34.955868],[135.365248,34.956001],[135.364673,34.956176],[135.363936,34.956284],[135.363386,34.956018],[135.362574,34.955293],[135.362111,34.954951],[135.361561,34.954726],[135.360961,34.954518],[135.360499,34.954476],[135.359974,34.954609],[135.359699,34.954784],[135.359261,34.955343],[135.358599,34.955634],[135.358187,34.955901],[135.358187,34.956417],[135.358124,34.956917],[135.357874,34.957526],[135.357274,34.958692],[135.356824,34.959384],[135.356362,34.959992],[135.355199,34.96165],[135.354262,34.962658],[135.354049,34.962842],[135.3535,34.963108],[135.35325,34.9632],[135.3524,34.963325],[135.35075,34.963392],[135.350537,34.963475],[135.3496,34.964283],[135.349237,34.964733],[135.349,34.965116],[135.348913,34.965158],[135.348588,34.965225],[135.348013,34.965225],[135.347538,34.965016],[135.34725,34.964658],[135.346813,34.964566],[135.3465,34.964633],[135.346038,34.965283],[135.345175,34.966916],[135.345663,34.968024],[135.34575,34.968091],[135.3461,34.968249],[135.346563,34.968408],[135.3467,34.968591],[135.346763,34.968933],[135.34675,34.969399],[135.346913,34.969766],[135.34705,34.969874],[135.347513,34.970149],[135.347875,34.970532],[135.34795,34.970716],[135.348762,34.971841],[135.348825,34.971999],[135.34885,34.972491],[135.348787,34.973149],[135.348837,34.973799],[135.348975,34.974449],[135.348525,34.97564],[135.34875,34.97609],[135.348912,34.976249],[135.349212,34.976948],[135.349312,34.977607],[135.349362,34.978482],[135.349587,34.97889],[135.350237,34.979815],[135.350449,34.98024],[135.350587,34.980132],[135.350724,34.980082],[135.351362,34.979615],[135.351937,34.97944],[135.352512,34.979507],[135.352749,34.97964],[135.353387,34.979915],[135.354124,34.980057],[135.354774,34.980465],[135.355461,34.980782],[135.356549,34.981073],[135.357599,34.981107],[135.357974,34.981148],[135.358436,34.98149],[135.359373,34.982373],[135.359448,34.982531],[135.359423,34.982823],[135.359011,34.983515],[135.358648,34.98399],[135.358011,34.984506],[135.357499,34.984814],[135.356124,34.985414],[135.355686,34.985731],[135.355436,34.986314],[135.355011,34.987014],[135.354136,34.987839],[135.353699,34.988172],[135.353336,34.988622],[135.352761,34.989656],[135.352586,34.990355],[135.352636,34.99083],[135.352749,34.99103],[135.353299,34.99148],[135.353511,34.991597],[135.353811,34.991955],[135.353761,34.992247],[135.353561,34.992539],[135.353099,34.99303],[135.352849,34.993347],[135.352711,34.993797],[135.352761,34.994563],[135.353036,34.995213],[135.353086,34.99623],[135.353211,34.996746],[135.353399,34.997246],[135.353561,34.99783],[135.353561,34.99828],[135.352761,34.999104],[135.352711,34.999263],[135.352761,34.999629],[135.353474,35.000729],[135.353386,35.001113],[135.352774,35.002079],[135.352549,35.002704],[135.352474,35.003087],[135.351886,35.003662],[135.351699,35.003904],[135.351624,35.004204],[135.351699,35.004404],[135.352061,35.00472],[135.352249,35.004962],[135.352361,35.005279],[135.352274,35.00557],[135.352274,35.005795],[135.352661,35.005937],[135.353211,35.005937],[135.353786,35.005887],[135.354149,35.005912],[135.354336,35.006004],[135.354511,35.006245],[135.354673,35.006404],[135.354836,35.006629],[135.354811,35.007129],[135.354648,35.007487],[135.354473,35.007737],[135.354373,35.007829],[135.354261,35.008662],[135.354261,35.00902],[135.354536,35.009587],[135.354511,35.010345],[135.354398,35.010912],[135.354461,35.011162],[135.354298,35.011337],[135.353886,35.011562],[135.353549,35.011811],[135.353524,35.012061],[135.353824,35.012603],[135.353799,35.01312],[135.354023,35.013345],[135.354323,35.013461],[135.354898,35.01382],[135.355511,35.014045],[135.355236,35.014761],[135.355336,35.015145],[135.355698,35.015619],[135.355561,35.015819],[135.355586,35.016069],[135.355898,35.016453],[135.355948,35.016703],[135.355948,35.016969],[135.355786,35.017178],[135.355698,35.017194],[135.355561,35.017286],[135.355423,35.017694],[135.355398,35.017919],[135.355461,35.018144],[135.354961,35.018619],[135.354911,35.018861],[135.355098,35.019244],[135.355511,35.019561],[135.355536,35.019761],[135.355261,35.020127],[135.355073,35.020669],[135.354773,35.021277],[135.354886,35.021994],[135.354886,35.022402],[135.354773,35.02281],[135.354611,35.02321],[135.354636,35.023527],[135.354561,35.023819],[135.354586,35.024094],[135.354886,35.02461],[135.354811,35.024835],[135.354636,35.024994],[135.354361,35.02506],[135.354036,35.02506],[135.353648,35.025102],[135.352799,35.025535],[135.352336,35.025668],[135.351511,35.025852],[135.351149,35.025893],[135.350824,35.026052],[135.350499,35.026077],[135.349911,35.025893],[135.349724,35.025918],[135.349474,35.026552],[135.349286,35.026818],[135.349036,35.02696],[135.348762,35.02691],[135.348437,35.026802],[135.347224,35.026752],[135.346674,35.02671],[135.346349,35.026618],[135.346074,35.026418],[135.345762,35.026127],[135.345324,35.02581],[135.345074,35.025702],[135.343974,35.02536],[135.343512,35.025335],[135.3431,35.025385],[135.3423,35.025768],[135.341787,35.025902],[135.3412,35.025993],[135.340137,35.025927],[135.339837,35.02586],[135.339562,35.02676],[135.339012,35.02796],[135.3383,35.029193],[135.338212,35.029535],[135.338237,35.029918],[135.338162,35.030318],[135.3378,35.030776],[135.337362,35.031176],[135.336975,35.031609],[135.336737,35.031993],[135.33665,35.032393],[135.336512,35.032734],[135.335413,35.033317],[135.33525,35.033434],[135.33435,35.034134],[135.3341,35.034542],[135.333963,35.034851],[135.3338,35.035034],[135.333463,35.035167],[135.333088,35.035192],[135.332675,35.035151],[135.332088,35.034926],[135.331438,35.034584],[135.33105,35.034476],[135.330825,35.034517],[135.33075,35.034584],[135.330475,35.035017],[135.330225,35.035259],[135.330863,35.035625],[135.331488,35.036092],[135.332563,35.037109],[135.332863,35.037625],[135.333338,35.038484],[135.3335,35.038867],[135.333687,35.039583],[135.333887,35.039767],[135.33435,35.0399],[135.33465,35.040033],[135.335312,35.040442],[135.336087,35.040733],[135.336437,35.040933],[135.336612,35.041342],[135.336612,35.041475],[135.336437,35.04195],[135.336637,35.042125],[135.3371,35.04235],[135.3376,35.042533],[135.33795,35.042733],[135.338062,35.043025],[135.338037,35.043617],[135.338924,35.0437],[135.339249,35.043658],[135.339437,35.043142],[135.339737,35.042892],[135.339824,35.042867],[135.340012,35.042933],[135.340324,35.043142],[135.340649,35.04325],[135.341174,35.043117],[135.341562,35.043075],[135.341999,35.043208],[135.342549,35.043608],[135.342799,35.043975],[135.343124,35.044625],[135.343449,35.044783],[135.343861,35.044916],[135.344249,35.044941],[135.344749,35.0448],[135.345049,35.044758],[135.345274,35.0448],[135.345574,35.044958],[135.345761,35.044983],[135.346536,35.0448],[135.346949,35.044917],[135.348161,35.0455],[135.348711,35.045858],[135.349036,35.0462],[135.349173,35.046508],[135.349086,35.046825],[135.349061,35.047208],[135.349173,35.047458],[135.349473,35.04775],[135.349511,35.047816],[135.349448,35.048091],[135.349586,35.048383],[135.349861,35.048608],[135.350023,35.048875],[135.349973,35.049441],[135.349836,35.049866],[135.349486,35.050633],[135.349423,35.050908],[135.349736,35.051108],[135.350148,35.051241],[135.350661,35.051283],[135.35171,35.051333],[135.352998,35.051216],[135.35426,35.051058],[135.354735,35.050941],[135.355523,35.0504],[135.356185,35.050225],[135.356848,35.050083],[135.357622,35.050016],[135.358135,35.050066],[135.358797,35.050175],[135.359347,35.050175],[135.359547,35.050133],[135.359897,35.04995],[135.360335,35.049591],[135.36086,35.049],[135.361935,35.04765],[135.362035,35.047375],[135.361985,35.047067],[135.361685,35.046525],[135.362722,35.04645],[135.363272,35.046317],[135.363822,35.046067],[135.364347,35.04575],[135.364972,35.045458],[135.365447,35.045167],[135.365822,35.044784],[135.366209,35.044692],[135.366572,35.044559],[135.366784,35.044284],[135.366922,35.044217],[135.367609,35.044017],[135.367997,35.044217],[135.368659,35.044375],[135.369071,35.044534],[135.369459,35.044784],[135.369946,35.045025],[135.370559,35.045209],[135.371221,35.045317],[135.371771,35.0453],[135.372207,35.045207],[135.372546,35.045167],[135.373909,35.044742],[135.374313,35.044631],[135.376033,35.044159],[135.376321,35.044],[135.376446,35.043742],[135.376483,35.043134],[135.376583,35.042826],[135.377258,35.042084],[135.377558,35.041692],[135.378183,35.040584],[135.378546,35.040242],[135.380058,35.039234],[135.380221,35.038951],[135.380521,35.037534],[135.380671,35.037059],[135.380733,35.036659],[135.380633,35.036318],[135.380433,35.036043],[135.380133,35.035768],[135.379983,35.035485],[135.380046,35.03511],[135.380608,35.034243],[135.380808,35.03336],[135.381021,35.032968],[135.381833,35.032118],[135.382083,35.031685],[135.382183,35.030977],[135.382158,35.030968]]]}}]}