{"type":"FeatureCollection","features":[{"type":"Feature","geometry":{"coordinates":[[[136.113195,34.869363],[136.112183,34.869638],[136.111708,34.869704],[136.111383,34.869887],[136.110445,34.870062],[136.11017,34.870062],[136.109658,34.869929],[136.109433,34.869796],[136.109208,34.869596],[136.10902,34.869571],[136.10897,34.869837],[136.108633,34.870179],[136.108333,34.870404],[136.108033,34.870537],[136.107946,34.870521],[136.107783,34.870404],[136.107321,34.869846],[136.107096,34.869704],[136.106846,34.869796],[136.106321,34.870087],[136.106133,34.870162],[136.105808,34.870137],[136.105396,34.870271],[136.105171,34.870246],[136.104871,34.870112],[136.104646,34.869954],[136.104458,34.869954],[136.104096,34.870096],[136.103546,34.870029],[136.103246,34.869821],[136.102971,34.869846],[136.102621,34.869962],[136.101959,34.87027],[136.101246,34.870345],[136.100771,34.870612],[136.100396,34.870679],[136.100171,34.870662],[136.099921,34.870479],[136.099459,34.870437],[136.099071,34.870479],[136.098884,34.87057],[136.098771,34.871062],[136.098521,34.87167],[136.098359,34.87197],[136.098309,34.872195],[136.097921,34.872128],[136.097621,34.87217],[136.097009,34.872445],[136.096659,34.87262],[136.096496,34.87307],[136.095921,34.873661],[136.095396,34.873453],[136.094647,34.873345],[136.093859,34.873386],[136.092997,34.873545],[136.092834,34.87362],[136.092447,34.873911],[136.092372,34.874045],[136.091934,34.874228],[136.091522,34.874611],[136.090447,34.875353],[136.090122,34.875736],[136.089847,34.875961],[136.089234,34.875919],[136.088772,34.875919],[136.088497,34.875986],[136.088135,34.876344],[136.087672,34.876461],[136.08666,34.876328],[136.086285,34.876261],[136.086197,34.876394],[136.086122,34.876494],[136.086072,34.876569],[136.085985,34.876686],[136.085922,34.876794],[136.085835,34.876852],[136.085747,34.876994],[136.085672,34.877102],[136.085635,34.877186],[136.085622,34.877302],[136.085597,34.877427],[136.085585,34.877602],[136.085572,34.877761],[136.085585,34.877836],[136.08546,34.877919],[136.085272,34.878019],[136.085235,34.878194],[136.085172,34.878427],[136.085172,34.878711],[136.085172,34.878886],[136.08526,34.879061],[136.085522,34.879336],[136.085622,34.879427],[136.085885,34.879644],[136.086135,34.879802],[136.08646,34.879994],[136.08686,34.88031],[136.087035,34.880502],[136.087235,34.880685],[136.087597,34.880427],[136.087897,34.88031],[136.088397,34.880602],[136.088947,34.880719],[136.089022,34.880877],[136.089059,34.88121],[136.089022,34.881869],[136.089547,34.882335],[136.089572,34.882627],[136.089434,34.882769],[136.088809,34.88306],[136.088347,34.883535],[136.088072,34.883918],[136.087847,34.884635],[136.087659,34.884977],[136.087384,34.885293],[136.087134,34.885743],[136.086909,34.885877],[136.086672,34.885927],[136.086059,34.885768],[136.085922,34.885768],[136.085784,34.885968],[136.085684,34.886376],[136.085409,34.886826],[136.085409,34.887001],[136.085622,34.887118],[136.086097,34.887476],[136.086397,34.887835],[136.086472,34.888218],[136.086509,34.888626],[136.086259,34.889168],[136.086309,34.889301],[136.086622,34.889368],[136.086947,34.889576],[136.087084,34.889751],[136.087334,34.890493],[136.087409,34.890584],[136.087684,34.890701],[136.088047,34.890676],[136.088409,34.890518],[136.088684,34.890243],[136.088984,34.889568],[136.089222,34.889093],[136.089447,34.888943],[136.089884,34.889051],[136.090159,34.889051],[136.090359,34.88896],[136.090572,34.888626],[136.091596,34.888326],[136.092284,34.888285],[136.092584,34.888218],[136.092884,34.887785],[136.093096,34.887693],[136.094534,34.887743],[136.094809,34.88781],[136.095109,34.88801],[136.095571,34.888618],[136.095959,34.888818],[136.096434,34.888952],[136.096896,34.888952],[136.097196,34.889002],[136.097609,34.88911],[136.098021,34.889335],[136.098433,34.889693],[136.098496,34.889852],[136.098546,34.890285],[136.098683,34.890576],[136.098796,34.890985],[136.099046,34.891318],[136.099458,34.891585],[136.099846,34.891901],[136.100096,34.892218],[136.100196,34.89251],[136.100096,34.893101],[136.100233,34.893235],[136.100446,34.893368],[136.100746,34.89346],[136.100858,34.893701],[136.100971,34.894134],[136.100996,34.894518],[136.100946,34.894876],[136.101171,34.895218],[136.101358,34.895593],[136.101383,34.895734],[136.101633,34.896118],[136.101833,34.896159],[136.101858,34.896134],[136.102733,34.896109],[136.103095,34.896334],[136.103395,34.896634],[136.103695,34.897168],[136.103945,34.897509],[136.104245,34.897776],[136.105408,34.898384],[136.105545,34.898567],[136.105383,34.899126],[136.105345,34.899467],[136.105545,34.899626],[136.105845,34.899692],[136.106095,34.900051],[136.10632,34.900142],[136.106595,34.900142],[136.107245,34.900209],[136.108183,34.900592],[136.108682,34.900726],[136.11027,34.900976],[136.110382,34.901059],[136.110632,34.901492],[136.110745,34.901825],[136.110957,34.901892],[136.111407,34.901942],[136.111957,34.90205],[136.112332,34.901942],[136.113132,34.901326],[136.113432,34.901151],[136.113545,34.900942],[136.113357,34.900451],[136.11327,34.900067],[136.113432,34.899751],[136.114345,34.899592],[136.114645,34.899434],[136.11487,34.899209],[136.11492,34.898943],[136.115269,34.898651],[136.11527,34.898443],[136.115107,34.898268],[136.11472,34.898201],[136.114532,34.897926],[136.114582,34.897676],[136.114782,34.897359],[136.115357,34.896685],[136.115495,34.896443],[136.115382,34.895968],[136.11497,34.895401],[136.114632,34.895068],[136.114495,34.894685],[136.114632,34.894326],[136.115045,34.89376],[136.115132,34.893402],[136.11507,34.893193],[136.115182,34.89306],[136.115657,34.892768],[136.115845,34.892518],[136.11617,34.892268],[136.116532,34.89216],[136.116782,34.892135],[136.11697,34.892227],[136.117245,34.892427],[136.117632,34.892543],[136.117982,34.892518],[136.119057,34.892227],[136.119557,34.891993],[136.119719,34.891769],[136.120432,34.891477],[136.120519,34.891319],[136.120482,34.891094],[136.120344,34.890869],[136.120269,34.890485],[136.120344,34.890152],[136.120732,34.889585],[136.120757,34.889335],[136.120982,34.889019],[136.121282,34.888819],[136.121532,34.888569],[136.121582,34.888052],[136.121694,34.887944],[136.122107,34.888102],[136.122142,34.888032],[136.122182,34.888011],[136.122319,34.888077],[136.123257,34.888736],[136.123582,34.888869],[136.123969,34.888802],[136.124656,34.888502],[136.124981,34.888436],[136.125419,34.888394],[136.125531,34.888327],[136.125756,34.887827],[136.125969,34.887561],[136.126444,34.887244],[136.127019,34.886811],[136.127069,34.886719],[136.127244,34.886586],[136.127244,34.886269],[136.127319,34.885886],[136.127656,34.885344],[136.127869,34.885119],[136.128756,34.88467],[136.129056,34.884403],[136.129356,34.884286],[136.129631,34.884286],[136.129856,34.884195],[136.131081,34.883136],[136.131256,34.88307],[136.131393,34.883087],[136.131831,34.883245],[136.132931,34.883786],[136.133281,34.884011],[136.134931,34.884845],[136.135156,34.885028],[136.135293,34.885228],[136.13518,34.885836],[136.135205,34.886378],[136.13538,34.88667],[136.136305,34.888044],[136.13653,34.888269],[136.136855,34.888403],[136.13703,34.888378],[136.137355,34.888219],[136.13908,34.887161],[136.139418,34.887053],[136.13983,34.887053],[136.14063,34.886936],[136.141005,34.88682],[136.141392,34.886645],[136.142005,34.886211],[136.142305,34.886053],[136.142717,34.885895],[136.143542,34.885645],[136.14393,34.885486],[136.144255,34.885262],[136.144505,34.884945],[136.144605,34.884678],[136.144642,34.884387],[136.144605,34.884112],[136.144692,34.883845],[136.144917,34.883712],[136.145155,34.88362],[136.146342,34.883303],[136.147192,34.882854],[136.147354,34.882604],[136.147417,34.882404],[136.147392,34.88202],[136.147492,34.881929],[136.147829,34.881862],[136.148104,34.881862],[136.148517,34.88197],[136.148654,34.882037],[136.149342,34.882512],[136.149717,34.882737],[136.150129,34.88287],[136.150517,34.882962],[136.151204,34.882962],[136.151542,34.883045],[136.152191,34.883387],[136.153291,34.884378],[136.153654,34.884553],[136.153904,34.884578],[136.154254,34.884553],[136.155554,34.884537],[136.156791,34.88462],[136.157228,34.884712],[136.157828,34.884779],[136.158441,34.884737],[136.159403,34.884729],[136.159453,34.88487],[136.159428,34.885812],[136.159516,34.886178],[136.159678,34.886378],[136.159891,34.886537],[136.160366,34.886737],[136.160778,34.886762],[136.161053,34.886828],[136.161566,34.887095],[136.161928,34.887212],[136.162178,34.887162],[136.162453,34.88707],[136.16289,34.886987],[136.163078,34.887003],[136.16314,34.887053],[136.163353,34.887095],[136.16459,34.88712],[136.16479,34.88707],[136.164928,34.887095],[136.16559,34.887812],[136.16569,34.887862],[136.166378,34.887928],[136.167178,34.887787],[136.167653,34.887495],[136.167927,34.887403],[136.16834,34.887387],[136.16864,34.887312],[136.168877,34.886978],[136.169102,34.886845],[136.16949,34.886754],[136.17004,34.886687],[136.170477,34.886729],[136.170802,34.886795],[136.171302,34.886954],[136.17194,34.887245],[136.172127,34.887287],[136.172727,34.887154],[136.174002,34.887262],[136.174352,34.887245],[136.174852,34.887104],[136.175177,34.886995],[136.175452,34.886945],[136.176164,34.887037],[136.176414,34.887012],[136.176989,34.886837],[136.177377,34.886837],[136.177702,34.886904],[136.178252,34.887079],[136.178589,34.887062],[136.178802,34.886987],[136.178977,34.886829],[136.179077,34.886654],[136.179164,34.886587],[136.179464,34.88647],[136.179739,34.886495],[136.180039,34.886445],[136.180376,34.886337],[136.180726,34.885995],[136.180789,34.885795],[136.180726,34.885595],[136.180451,34.885071],[136.180264,34.884512],[136.180102,34.884171],[136.179689,34.883704],[136.178552,34.882912],[136.178364,34.882687],[136.178314,34.882212],[136.178502,34.881721],[136.178827,34.881404],[136.179189,34.880996],[136.179189,34.880729],[136.178802,34.880254],[136.178689,34.880029],[136.178689,34.879913],[136.178752,34.879804],[136.178964,34.879688],[136.179164,34.879646],[136.179327,34.879646],[136.179627,34.879713],[136.179902,34.879738],[136.180177,34.879663],[136.180477,34.87953],[136.180702,34.879263],[136.180752,34.878855],[136.181002,34.878721],[136.181252,34.878671],[136.181827,34.878246],[136.182039,34.87813],[136.182452,34.878113],[136.183614,34.87838],[136.183914,34.87833],[136.184326,34.878221],[136.184489,34.878246],[136.184714,34.87838],[136.184901,34.878555],[136.185064,34.878646],[136.185126,34.878646],[136.185726,34.878288],[136.186051,34.87813],[136.186414,34.87808],[136.186689,34.878171],[136.186964,34.87833],[136.187101,34.878355],[136.187264,34.878288],[136.187651,34.877946],[136.187901,34.877855],[136.188526,34.877747],[136.188801,34.87738],[136.188889,34.876888],[136.188914,34.876122],[136.189076,34.875988],[136.189414,34.875938],[136.189851,34.875938],[136.190151,34.875872],[136.190426,34.875755],[136.190513,34.875672],[136.190501,34.875489],[136.190039,34.874497],[136.189851,34.874247],[136.189764,34.874047],[136.189764,34.873864],[136.189989,34.87348],[136.190539,34.873097],[136.191413,34.872697],[136.192038,34.872539],[136.193338,34.872622],[136.194413,34.872781],[136.194738,34.872756],[136.195176,34.872556],[136.195476,34.872356],[136.195751,34.872331],[136.196138,34.871881],[136.196301,34.871789],[136.196713,34.871764],[136.196826,34.871606],[136.196938,34.871064],[136.196988,34.870998],[136.197401,34.870664],[136.198176,34.869806],[136.198413,34.869806],[136.1988,34.869914],[136.199488,34.869889],[136.199788,34.870048],[136.2005,34.869598],[136.201025,34.869464],[136.201638,34.869531],[136.201825,34.869506],[136.201988,34.869414],[136.202125,34.869148],[136.20245,34.86874],[136.202975,34.86834],[136.203688,34.867931],[136.204,34.868315],[136.204213,34.86849],[136.204463,34.868581],[136.204763,34.868648],[136.205562,34.868698],[136.206025,34.868673],[136.206775,34.868556],[136.207262,34.868648],[136.207562,34.868556],[136.208287,34.868173],[136.209,34.868148],[136.209162,34.868106],[136.2104,34.866998],[136.210837,34.866865],[136.211025,34.86684],[136.211225,34.866773],[136.211387,34.86664],[136.211412,34.866573],[136.2118,34.866123],[136.211962,34.866032],[136.212262,34.865965],[136.212737,34.86594],[136.213224,34.865823],[136.213724,34.865582],[136.214549,34.86549],[136.214874,34.865557],[136.215237,34.865507],[136.215612,34.865532],[136.216137,34.865482],[136.216324,34.865374],[136.216599,34.865032],[136.216912,34.865099],[136.217512,34.865374],[136.218062,34.865507],[136.218561,34.86564],[136.218774,34.865324],[136.218836,34.86499],[136.218861,34.864474],[136.219486,34.863999],[136.219649,34.863816],[136.219849,34.863457],[136.219986,34.863366],[136.221436,34.863391],[136.222461,34.863316],[136.223086,34.863299],[136.223474,34.863249],[136.223799,34.863141],[136.224599,34.862707],[136.225061,34.862282],[136.225286,34.862033],[136.225748,34.861649],[136.226111,34.861466],[136.226598,34.861266],[136.227698,34.861016],[136.227861,34.861041],[136.227948,34.861016],[136.228173,34.861041],[136.228411,34.861174],[136.229048,34.861466],[136.229411,34.861508],[136.229961,34.861466],[136.230586,34.861508],[136.231435,34.861508],[136.231798,34.861441],[136.23221,34.861283],[136.232535,34.861099],[136.232923,34.860941],[136.23336,34.860941],[136.234785,34.861391],[136.235448,34.861524],[136.23561,34.861508],[136.235748,34.861441],[136.235922,34.861233],[136.236022,34.861033],[136.236222,34.860916],[136.236747,34.86085],[136.23696,34.860758],[136.23701,34.860675],[136.23726,34.859858],[136.237485,34.859608],[136.237735,34.859541],[136.238035,34.859525],[136.238335,34.859541],[136.238822,34.859791],[136.238997,34.859816],[136.23916,34.859791],[136.239685,34.859541],[136.24026,34.859383],[136.240672,34.859358],[136.241772,34.859675],[136.242097,34.8597],[136.242459,34.859675],[136.242697,34.859583],[136.242972,34.859383],[136.243147,34.859108],[136.243522,34.85875],[136.244047,34.858642],[136.244409,34.858658],[136.244647,34.858708],[136.245121,34.859042],[136.245509,34.859225],[136.245746,34.859242],[136.245996,34.859225],[136.246196,34.85915],[136.246571,34.858908],[136.246934,34.858817],[136.247132,34.858847],[136.247196,34.858808],[136.247396,34.85885],[136.248434,34.858667],[136.248683,34.858467],[136.249146,34.858083],[136.249758,34.8579],[136.250633,34.857833],[136.251733,34.8579],[136.252633,34.8581],[136.25407,34.8583],[136.254283,34.858367],[136.254458,34.858525],[136.254595,34.858867],[136.254758,34.859067],[136.25522,34.859358],[136.25657,34.859858],[136.256957,34.860058],[136.25822,34.86085],[136.258544,34.860958],[136.258844,34.861116],[136.259419,34.861275],[136.259644,34.861275],[136.260332,34.8615],[136.261132,34.861833],[136.262506,34.862533],[136.263031,34.862666],[136.263956,34.862783],[136.264181,34.862866],[136.265393,34.863566],[136.265743,34.863749],[136.266043,34.863858],[136.266656,34.863991],[136.267968,34.864441],[136.268243,34.864599],[136.26838,34.864741],[136.26888,34.865416],[136.268855,34.865774],[136.26888,34.867082],[136.268993,34.867849],[136.269205,34.868207],[136.269455,34.868457],[136.270005,34.868791],[136.270393,34.869082],[136.270667,34.869149],[136.271542,34.869132],[136.27248,34.869199],[136.272892,34.869265],[136.273055,34.869399],[136.273692,34.869757],[136.274017,34.869957],[136.274704,34.870682],[136.274929,34.87084],[136.275642,34.871199],[136.276104,34.871515],[136.276267,34.871715],[136.276354,34.871915],[136.276379,34.872232],[136.276517,34.872732],[136.276654,34.872865],[136.277041,34.873357],[136.277266,34.873832],[136.277291,34.87404],[136.277266,34.874215],[136.277541,34.87404],[136.277891,34.873882],[136.278191,34.873807],[136.279104,34.87379],[136.279516,34.87374],[136.279654,34.873648],[136.279816,34.873407],[136.280016,34.87329],[136.280528,34.873265],[136.280753,34.873199],[136.280978,34.87304],[136.281628,34.87239],[136.281716,34.872049],[136.281691,34.871374],[136.281603,34.871124],[136.281691,34.871107],[136.282291,34.871174],[136.282591,34.871174],[136.28344,34.870649],[136.283803,34.870332],[136.283828,34.870024],[136.283715,34.869207],[136.283278,34.868532],[136.28319,34.868332],[136.283228,34.867882],[136.283165,34.867632],[136.283053,34.867407],[136.282816,34.867066],[136.282541,34.866824],[136.282203,34.866599],[136.281353,34.866216],[136.281103,34.866032],[136.281028,34.865782],[136.280966,34.865316],[136.281053,34.865016],[136.281578,34.864591],[136.281516,34.864408],[136.281303,34.864141],[136.280778,34.863716],[136.280578,34.863508],[136.280528,34.863283],[136.280528,34.863058],[136.280441,34.862791],[136.280066,34.862408],[136.279866,34.862274],[136.279129,34.861191],[136.278879,34.860966],[136.278629,34.860808],[136.277779,34.860691],[136.277666,34.860241],[136.277754,34.859525],[136.277916,34.858916],[136.278054,34.858708],[136.278241,34.85855],[136.278829,34.858258],[136.279179,34.857966],[136.279479,34.8574],[136.279841,34.857],[136.280091,34.856883],[136.280504,34.85675],[136.280853,34.856475],[136.281053,34.856433],[136.282228,34.856633],[136.282591,34.856725],[136.282866,34.8567],[136.283141,34.856542],[136.283466,34.856275],[136.284403,34.855708],[136.284378,34.855525],[136.283991,34.8544],[136.283953,34.854133],[136.284041,34.85375],[136.284153,34.853658],[136.284265,34.853408],[136.28429,34.853208],[136.28454,34.852708],[136.285278,34.851717],[136.285553,34.851159],[136.285628,34.85055],[136.285828,34.84985],[136.286378,34.848742],[136.286728,34.847801],[136.28714,34.846718],[136.287303,34.846376],[136.287665,34.845884],[136.287715,34.845726],[136.28764,34.845343],[136.287715,34.845226],[136.288152,34.845051],[136.288565,34.844976],[136.289115,34.844959],[136.289477,34.844893],[136.289777,34.844734],[136.289802,34.844509],[136.289777,34.843918],[136.289802,34.84306],[136.289752,34.841802],[136.289965,34.840943],[136.289915,34.840852],[136.289477,34.84056],[136.289202,34.840243],[136.28909,34.840177],[136.288865,34.840135],[136.288153,34.839819],[136.288128,34.839777],[136.287853,34.839727],[136.287665,34.83966],[136.287165,34.839119],[136.286865,34.838602],[136.286315,34.83806],[136.285903,34.837611],[136.285603,34.837502],[136.285303,34.837527],[136.285216,34.837544],[136.284778,34.83786],[136.284553,34.837927],[136.283928,34.837952],[136.283728,34.837861],[136.283378,34.837369],[136.283341,34.837236],[136.283178,34.837011],[136.282629,34.836586],[136.282566,34.836477],[136.282341,34.836411],[136.282041,34.836361],[136.281541,34.836411],[136.281154,34.836386],[136.280779,34.836319],[136.280441,34.836161],[136.280366,34.835961],[136.280304,34.835578],[136.280167,34.835194],[136.280054,34.835128],[136.279154,34.835169],[136.278742,34.835086],[136.278542,34.834944],[136.278517,34.834678],[136.278542,34.834253],[136.278492,34.833869],[136.278267,34.833528],[136.278017,34.833236],[136.277642,34.832878],[136.277467,34.832586],[136.277642,34.83202],[136.27778,34.831861],[136.277855,34.83182],[136.277855,34.831545],[136.277805,34.831228],[136.277642,34.830845],[136.277305,34.830487],[136.277167,34.830395],[136.276917,34.830153],[136.276842,34.829928],[136.276867,34.829703],[136.276817,34.829337],[136.276892,34.828862],[136.277055,34.828437],[136.277467,34.827629],[136.277767,34.827354],[136.278542,34.826995],[136.278867,34.826879],[136.278955,34.82677],[136.279042,34.826429],[136.278905,34.826096],[136.278592,34.825529],[136.278542,34.825187],[136.27863,34.824829],[136.27863,34.824512],[136.27843,34.824196],[136.27813,34.823954],[136.277855,34.823663],[136.277743,34.823321],[136.277805,34.823121],[136.278243,34.822938],[136.278018,34.822688],[136.277743,34.821904],[136.277493,34.821563],[136.277331,34.821404],[136.277031,34.821205],[136.276643,34.821088],[136.276456,34.821071],[136.275956,34.821088],[136.275743,34.821138],[136.275543,34.821046],[136.275706,34.820413],[136.275493,34.820255],[136.275406,34.820238],[136.275268,34.820121],[136.275356,34.819696],[136.275181,34.819513],[136.274831,34.819405],[136.273594,34.819205],[136.273156,34.819021],[136.272931,34.819021],[136.272769,34.819063],[136.272544,34.819063],[136.272294,34.81918],[136.271969,34.819271],[136.271344,34.81938],[136.270757,34.81943],[136.270707,34.819405],[136.270132,34.81878],[136.269857,34.81853],[136.26952,34.818413],[136.26942,34.818413],[136.269145,34.818488],[136.268807,34.818713],[136.26807,34.818647],[136.267407,34.818647],[136.267082,34.81858],[136.26702,34.818355],[136.267045,34.81808],[136.26732,34.817722],[136.26732,34.817538],[136.26722,34.817272],[136.267183,34.817063],[136.267457,34.816255],[136.267458,34.815964],[136.26752,34.815847],[136.267757,34.815672],[136.268032,34.815622],[136.268507,34.815689],[136.26927,34.815689],[136.269407,34.815739],[136.26982,34.815755],[136.27027,34.815597],[136.270545,34.815555],[136.271007,34.815647],[136.271832,34.81553],[136.272107,34.815372],[136.272157,34.815255],[136.272219,34.814922],[136.272107,34.814672],[136.271919,34.814422],[136.272057,34.814222],[136.272407,34.814022],[136.272932,34.813839],[136.273157,34.813722],[136.273119,34.813522],[136.272907,34.81323],[136.272519,34.812847],[136.272544,34.812622],[136.272732,34.812347],[136.272982,34.812214],[136.273644,34.812056],[136.273919,34.812347],[136.274057,34.812414],[136.274144,34.812414],[136.274882,34.811964],[136.275044,34.811922],[136.275294,34.812014],[136.275656,34.812306],[136.275731,34.812322],[136.275894,34.812281],[136.276094,34.812097],[136.276419,34.812031],[136.276581,34.811922],[136.276581,34.811831],[136.276281,34.811381],[136.276306,34.811172],[136.276556,34.811039],[136.277031,34.810881],[136.277356,34.810614],[136.277469,34.810564],[136.277719,34.810548],[136.278131,34.810564],[136.278456,34.810364],[136.278781,34.810381],[136.279306,34.810523],[136.279506,34.810498],[136.279719,34.810406],[136.279968,34.810473],[136.280018,34.810448],[136.280043,34.810181],[136.280268,34.809664],[136.280518,34.809373],[136.280568,34.809148],[136.280456,34.808556],[136.280381,34.808514],[136.279881,34.808423],[136.279806,34.808331],[136.279606,34.807906],[136.279194,34.806556],[136.279056,34.806281],[136.278806,34.806106],[136.277844,34.805698],[136.277632,34.805406],[136.277407,34.804998],[136.277219,34.804798],[136.276582,34.804615],[136.275432,34.804598],[136.274994,34.804506],[136.274445,34.804173],[136.27427,34.804173],[136.27392,34.804331],[136.273557,34.804556],[136.272982,34.804981],[136.272407,34.805115],[136.271832,34.804981],[136.27142,34.804715],[136.270508,34.804215],[136.269908,34.803765],[136.269795,34.80354],[136.269683,34.803431],[136.26952,34.803431],[136.269333,34.803498],[136.268783,34.803431],[136.267983,34.803231],[136.267508,34.803073],[136.267183,34.802798],[136.266933,34.80244],[136.266771,34.802123],[136.266721,34.801607],[136.266771,34.800348],[136.266858,34.79994],[136.267271,34.79904],[136.267533,34.798765],[136.267708,34.79854],[136.267733,34.798407],[136.267646,34.797549],[136.267346,34.797232],[136.267046,34.797074],[136.266821,34.796849],[136.266796,34.796065],[136.266708,34.795774],[136.266546,34.795549],[136.266246,34.79539],[136.266021,34.795232],[136.265784,34.79494],[136.264959,34.794465],[136.264434,34.794332],[136.263771,34.794215],[136.263584,34.794057],[136.263384,34.79374],[136.262734,34.792907],[136.262372,34.792549],[136.262147,34.792166],[136.261984,34.791674],[136.261934,34.791224],[136.261709,34.790657],[136.261497,34.790407],[136.261022,34.790232],[136.259984,34.790366],[136.259847,34.790366],[136.259322,34.790232],[136.258472,34.789849],[136.257647,34.789582],[136.25751,34.789516],[136.256735,34.788841],[136.256435,34.788391],[136.256047,34.787324],[136.25586,34.786424],[136.255835,34.785724],[136.255748,34.785499],[136.25556,34.785208],[136.255498,34.784891],[136.255585,34.784533],[136.255448,34.784374],[136.254923,34.784083],[136.25456,34.783833],[136.254235,34.783499],[136.253873,34.783274],[136.253498,34.783158],[136.25311,34.783116],[136.253248,34.782799],[136.253273,34.782599],[136.25316,34.782374],[136.252835,34.782166],[136.252336,34.781941],[136.251298,34.781583],[136.251136,34.781291],[136.250961,34.780708],[136.250823,34.78055],[136.250636,34.780575],[136.250111,34.780841],[136.249673,34.780816],[136.249348,34.780591],[136.249148,34.780283],[136.248848,34.780141],[136.248623,34.780125],[136.248211,34.780166],[136.247836,34.780325],[136.247474,34.78055],[136.247199,34.780958],[136.247132,34.780929],[136.247111,34.781058],[136.246336,34.781058],[136.245686,34.781191],[136.245211,34.781308],[136.244311,34.781691],[136.243924,34.781708],[136.243586,34.781666],[136.243211,34.781549],[136.242162,34.781099],[136.241837,34.781016],[136.241474,34.780966],[136.241124,34.780991],[136.240512,34.780741],[136.240099,34.780541],[136.239637,34.780383],[136.239299,34.780383],[136.239024,34.780499],[136.238374,34.780883],[136.238174,34.780924],[136.237574,34.780749],[136.237437,34.780766],[136.237162,34.781016],[136.236912,34.781041],[136.236612,34.780949],[136.236449,34.780949],[136.23615,34.781066],[136.235375,34.781516],[136.235025,34.781649],[136.234637,34.781741],[136.2337,34.781874],[136.233237,34.782016],[136.232437,34.782349],[136.232,34.782307],[136.231662,34.782241],[136.231337,34.782216],[136.231037,34.782241],[136.230675,34.782332],[136.230487,34.782332],[136.229987,34.782124],[136.229712,34.782107],[136.228888,34.782174],[136.228588,34.782241],[136.2284,34.782357],[136.228238,34.782374],[136.227488,34.782241],[136.227188,34.782266],[136.226888,34.782374],[136.2262,34.782741],[136.225813,34.782291],[136.22535,34.781657],[136.225175,34.781566],[136.224488,34.781549],[136.224188,34.781482],[136.223975,34.781482],[136.223663,34.781432],[136.222926,34.780891],[136.222651,34.780782],[136.222401,34.780982],[136.222163,34.781299],[136.222101,34.781457],[136.221826,34.781907],[136.221751,34.781974],[136.221276,34.781707],[136.220838,34.781507],[136.220376,34.781366],[136.219851,34.781257],[136.219651,34.781191],[136.219301,34.781149],[136.219001,34.781616],[136.218638,34.78184],[136.218013,34.782382],[136.217788,34.782449],[136.217563,34.78234],[136.217076,34.781532],[136.216826,34.781307],[136.216551,34.781216],[136.216226,34.781241],[136.215888,34.781324],[136.215588,34.781507],[136.215201,34.781824],[136.214689,34.782407],[136.214464,34.782524],[136.214301,34.782565],[136.214101,34.782749],[136.213939,34.782974],[136.213701,34.783174],[136.213389,34.78329],[136.212601,34.78349],[136.212126,34.783674],[136.211826,34.783965],[136.211801,34.784574],[136.211826,34.78469],[136.211751,34.785165],[136.211689,34.785232],[136.211614,34.785248],[136.211251,34.785232],[136.211064,34.785298],[136.210839,34.785482],[136.210451,34.785948],[136.210264,34.786107],[136.209714,34.786132],[136.209414,34.786448],[136.209351,34.786582],[136.209139,34.78674],[136.208564,34.78694],[136.208226,34.78719],[136.207926,34.787307],[136.206939,34.787348],[136.204527,34.78769],[136.204464,34.787915],[136.204414,34.788415],[136.204352,34.788656],[136.204164,34.788881],[136.203539,34.789273],[136.203314,34.78954],[136.203264,34.789673],[136.202902,34.789965],[136.202214,34.790265],[136.201752,34.790306],[136.201864,34.790915],[136.202027,34.791339],[136.202052,34.791523],[136.201964,34.791614],[136.201802,34.791656],[136.201552,34.791998],[136.200014,34.792131],[136.199114,34.790515],[136.198777,34.79004],[136.198227,34.789406],[136.197902,34.789273],[136.197214,34.789073],[136.196915,34.788915],[136.19669,34.788715],[136.196415,34.788331],[136.196302,34.78804],[136.196165,34.787856],[136.195677,34.787406],[136.19509,34.786823],[136.194677,34.786281],[136.194427,34.786031],[136.194152,34.785848],[136.193877,34.785765],[136.193665,34.785781],[136.19279,34.786481],[136.191927,34.786823],[136.191515,34.787273],[136.191327,34.78739],[136.190977,34.787456],[136.19084,34.787565],[136.190665,34.788223],[136.19059,34.788381],[136.190502,34.788448],[136.188803,34.788764],[136.187678,34.789056],[136.187428,34.789148],[136.18724,34.789173],[136.18699,34.788739],[136.18674,34.788064],[136.186353,34.787573],[136.186078,34.787348],[136.18454,34.786715],[136.184353,34.78674],[136.184103,34.78699],[136.184015,34.786989],[136.18369,34.786898],[136.183053,34.787548],[136.182915,34.787823],[136.182753,34.788698],[136.182615,34.788948],[136.18234,34.789898],[136.182265,34.789689],[136.18209,34.789464],[136.181815,34.789264],[136.18124,34.789014],[136.180966,34.788614],[136.180803,34.788498],[136.180553,34.788389],[136.180166,34.788339],[136.179928,34.788339],[136.179653,34.788273],[136.179378,34.788006],[136.179153,34.787914],[136.179041,34.787823],[136.178928,34.787623],[136.178553,34.787106],[136.178028,34.785389],[136.177828,34.785031],[136.177616,34.784898],[136.177341,34.784831],[136.177066,34.784831],[136.176653,34.784739],[136.176491,34.784581],[136.176516,34.784406],[136.176866,34.783298],[136.176841,34.783298],[136.176816,34.782806],[136.176953,34.78249],[136.177553,34.781881],[136.177803,34.781498],[136.177941,34.781198],[136.177966,34.780973],[136.177891,34.780773],[136.177853,34.780523],[136.177941,34.780257],[136.178153,34.779873],[136.178241,34.779373],[136.178328,34.779173],[136.178491,34.77904],[136.179041,34.778948],[136.179091,34.778973],[136.179291,34.778948],[136.179566,34.778882],[136.179753,34.77874],[136.181041,34.777365],[136.181316,34.77719],[136.181641,34.777074],[136.181916,34.777032],[136.182191,34.77694],[136.182853,34.776332],[136.183103,34.775899],[136.183191,34.775674],[136.183178,34.775132],[136.183128,34.774932],[136.182828,34.774707],[136.181203,34.774191],[136.180128,34.773741],[136.179691,34.773474],[136.179341,34.773199],[136.179066,34.773091],[136.178241,34.773024],[136.177791,34.772957],[136.177691,34.772816],[136.177629,34.772591],[136.177516,34.772366],[136.177191,34.772099],[136.176554,34.771807],[136.176616,34.771607],[136.176866,34.771082],[136.176779,34.770749],[136.176966,34.770458],[136.177004,34.770366],[136.176916,34.770141],[136.176891,34.769691],[136.176754,34.769241],[136.176691,34.768941],[136.176716,34.768674],[136.176966,34.768091],[136.177029,34.767774],[136.176941,34.767724],[136.176754,34.767499],[136.176666,34.767233],[136.176691,34.766716],[136.176641,34.766175],[136.176529,34.765766],[136.176391,34.76545],[136.176029,34.764866],[136.176141,34.764775],[136.177329,34.764125],[136.177566,34.763941],[136.178141,34.76365],[136.178391,34.7636],[136.178729,34.7634],[136.178941,34.762992],[136.179029,34.762542],[136.179329,34.761933],[136.179579,34.761667],[136.178346,34.760792],[136.176525,34.761302],[136.174527,34.761302],[136.17154,34.760687],[136.168596,34.760081],[136.166681,34.7588],[136.166169,34.756835],[136.165927,34.755321],[136.164318,34.75385],[136.162803,34.752465],[136.162335,34.751595],[136.162335,34.750143],[136.162335,34.745533],[136.162335,34.74353],[136.161288,34.740756],[136.160025,34.739494],[136.156761,34.739494],[136.152158,34.738897],[136.148892,34.738897],[136.146885,34.7386],[136.143342,34.736222],[136.140849,34.735053],[136.138871,34.734376],[136.135766,34.733588],[136.132849,34.732594],[136.130433,34.731019],[136.12849,34.728723],[136.127505,34.728258],[136.125015,34.728723],[136.121654,34.729066],[136.12123,34.729369],[136.121048,34.730336],[136.121048,34.731621],[136.12063,34.73366],[136.117498,34.732269],[136.113792,34.730237],[136.111511,34.729631],[136.109207,34.729631],[136.107877,34.729631],[136.107259,34.729915],[136.105858,34.732561],[136.105105,34.734044],[136.104138,34.73485],[136.102713,34.735521],[136.100967,34.735521],[136.099488,34.735521],[136.098091,34.735145],[136.096503,34.734718],[136.094925,34.734294],[136.093791,34.734294],[136.091265,34.734294],[136.087563,34.733772],[136.085526,34.733283],[136.08329,34.733072],[136.081888,34.733072],[136.07997,34.733759],[136.07802,34.73492],[136.076522,34.736395],[136.073991,34.739219],[136.071666,34.740707],[136.070801,34.74126],[136.069402,34.741718],[136.067973,34.74199],[136.065537,34.741799],[136.063815,34.741663],[136.062673,34.742094],[136.061815,34.742524],[136.061452,34.742208],[136.061452,34.741983],[136.061615,34.741783],[136.061615,34.741583],[136.06154,34.741358],[136.061315,34.741199],[136.060127,34.740724],[136.058977,34.739933],[136.058677,34.739866],[136.058203,34.739866],[136.057765,34.739824],[136.05689,34.739558],[136.056528,34.739399],[136.056228,34.739216],[136.055765,34.738608],[136.055515,34.738433],[136.05524,34.738591],[136.054215,34.738633],[136.053941,34.738683],[136.053753,34.738766],[136.053528,34.738999],[136.053153,34.739691],[136.052928,34.740008],[136.052653,34.740166],[136.052353,34.740216],[136.051991,34.740099],[136.051391,34.739966],[136.050891,34.740016],[136.050453,34.740174],[136.050016,34.740374],[136.049603,34.740641],[136.048941,34.741274],[136.048753,34.741591],[136.048253,34.742249],[136.048003,34.742741],[136.047678,34.744115],[136.047566,34.744249],[136.046903,34.744615],[136.046528,34.744932],[136.046028,34.745407],[136.045703,34.745807],[136.044991,34.746373],[136.044578,34.746573],[136.044216,34.746715],[136.043853,34.746732],[136.043529,34.746715],[136.043304,34.746732],[136.043166,34.746873],[136.043091,34.747207],[136.043091,34.747523],[136.043003,34.747773],[136.042791,34.747957],[136.042179,34.748248],[136.041379,34.748498],[136.040941,34.748515],[136.040641,34.748631],[136.040116,34.748898],[136.039191,34.749465],[136.039016,34.749715],[136.038991,34.750098],[136.039129,34.750998],[136.038991,34.752148],[136.038854,34.752506],[136.038254,34.753256],[136.038054,34.753397],[136.037429,34.754097],[136.037404,34.754472],[136.037466,34.754747],[136.037754,34.755356],[136.037991,34.755689],[136.038203,34.756189],[136.038116,34.756389],[136.037941,34.756455],[136.037641,34.756389],[136.037204,34.756347],[136.036616,34.756389],[136.035616,34.756572],[136.034941,34.756822],[136.034616,34.756864],[136.034329,34.756864],[136.032592,34.756172],[136.031504,34.75588],[136.031117,34.755805],[136.030792,34.755789],[136.030529,34.755814],[136.030329,34.75588],[136.030117,34.756039],[136.029942,34.75628],[136.029592,34.756664],[136.028829,34.757255],[136.028679,34.75748],[136.028417,34.758397],[136.028567,34.758688],[136.028654,34.75878],[136.028779,34.759005],[136.029129,34.76013],[136.029242,34.760288],[136.029979,34.760696],[136.030604,34.761146],[136.030804,34.761388],[136.031079,34.76193],[136.031104,34.76213],[136.030991,34.762446],[136.030541,34.763038],[136.029929,34.764179],[136.029729,34.764429],[136.029429,34.764904],[136.029529,34.765263],[136.029704,34.765513],[136.029816,34.765829],[136.030029,34.766504],[136.030291,34.767037],[136.030554,34.768029],[136.030979,34.768929],[136.031654,34.769962],[136.032241,34.770687],[136.032566,34.770979],[136.032916,34.771204],[136.033178,34.77147],[136.033566,34.772104],[136.033891,34.772954],[136.033953,34.773387],[136.034128,34.774012],[136.034103,34.774303],[136.034016,34.774578],[136.033691,34.775095],[136.033666,34.77552],[136.033728,34.775812],[136.033753,34.777411],[136.033928,34.777886],[136.033941,34.778245],[136.033816,34.778895],[136.033528,34.779661],[136.033378,34.779728],[136.032791,34.779753],[136.032553,34.779844],[136.032416,34.780003],[136.032054,34.780111],[136.031829,34.780094],[136.031529,34.779961],[136.031204,34.779736],[136.031116,34.779553],[136.030854,34.779461],[136.030729,34.779578],[136.030554,34.779686],[136.030354,34.779753],[136.030116,34.779911],[136.029966,34.780228],[136.029916,34.780678],[136.029791,34.780953],[136.029741,34.780994],[136.029616,34.780953],[136.029504,34.780636],[136.029241,34.780544],[136.028241,34.780769],[136.028179,34.780744],[136.028091,34.780636],[136.026917,34.781019],[136.025442,34.781286],[136.025154,34.781444],[136.024592,34.781894],[136.023979,34.782277],[136.023867,34.782302],[136.023542,34.782261],[136.023392,34.782144],[136.02313,34.782036],[136.02278,34.782127],[136.022417,34.782352],[136.02228,34.782869],[136.02198,34.78341],[136.02198,34.78361],[136.021892,34.783944],[136.02143,34.784419],[136.02113,34.784894],[136.021017,34.785502],[136.020842,34.785727],[136.02023,34.786135],[136.019905,34.786402],[136.019842,34.78656],[136.01988,34.78681],[136.020317,34.787568],[136.020342,34.787727],[136.020317,34.787885],[136.020167,34.788018],[136.020117,34.788135],[136.020142,34.788268],[136.02053,34.788676],[136.02073,34.788901],[136.02073,34.78906],[136.020617,34.78926],[136.02038,34.789443],[136.020205,34.789643],[136.020005,34.790093],[136.020005,34.790293],[136.020092,34.79041],[136.02033,34.790501],[136.02068,34.790543],[136.021292,34.790568],[136.02173,34.79061],[136.02188,34.790718],[136.02203,34.791035],[136.022092,34.791576],[136.022292,34.791826],[136.022505,34.791918],[136.022742,34.791934],[136.02338,34.791826],[136.023742,34.791934],[136.023942,34.792068],[136.024155,34.792159],[136.024442,34.792134],[136.024467,34.792093],[136.025054,34.791776],[136.025354,34.791668],[136.026117,34.79146],[136.026442,34.79121],[136.026679,34.79076],[136.026904,34.790718],[136.027404,34.790851],[136.027617,34.790851],[136.028029,34.79076],[136.028142,34.79076],[136.028492,34.790893],[136.028642,34.791035],[136.028879,34.791101],[136.029416,34.791435],[136.029704,34.791685],[136.030054,34.791726],[136.030316,34.791818],[136.030879,34.792376],[136.031116,34.792626],[136.031741,34.792984],[136.032029,34.793209],[136.032241,34.793459],[136.032391,34.793776],[136.032616,34.794068],[136.032891,34.794243],[136.033116,34.794293],[136.034004,34.794334],[136.034353,34.794384],[136.034703,34.794268],[136.035241,34.793884],[136.035853,34.793926],[136.036266,34.793818],[136.036678,34.793768],[136.037203,34.793768],[136.038203,34.793884],[136.038853,34.794084],[136.039203,34.794268],[136.039478,34.794509],[136.039615,34.794734],[136.039653,34.794943],[136.039528,34.795101],[136.039303,34.795209],[136.039115,34.795343],[136.039003,34.795501],[136.039003,34.795684],[136.03924,34.795976],[136.039478,34.796084],[136.040628,34.796376],[136.04074,34.796534],[136.040865,34.797051],[136.040953,34.797351],[136.040953,34.797576],[136.04089,34.797776],[136.04104,34.798292],[136.04119,34.798476],[136.041453,34.798584],[136.04189,34.798701],[136.042515,34.798809],[136.04304,34.799034],[136.043515,34.799351],[136.043565,34.799367],[136.043752,34.799326],[136.044127,34.799126],[136.044452,34.799059],[136.045152,34.799259],[136.045627,34.799726],[136.045977,34.800251],[136.046015,34.800476],[136.046302,34.800742],[136.046402,34.801009],[136.046602,34.801284],[136.046815,34.801442],[136.047077,34.801551],[136.04749,34.801526],[136.048127,34.801234],[136.048277,34.801076],[136.04834,34.800901],[136.048277,34.800559],[136.048452,34.799817],[136.048714,34.799459],[136.049214,34.799459],[136.049889,34.799343],[136.050277,34.799234],[136.050714,34.799159],[136.051802,34.799143],[136.052064,34.799209],[136.052389,34.799343],[136.053364,34.799901],[136.053826,34.800109],[136.054689,34.800334],[136.054889,34.800443],[136.055014,34.800643],[136.055039,34.801392],[136.055014,34.801634],[136.055076,34.801859],[136.055214,34.802067],[136.055864,34.802401],[136.056451,34.803009],[136.057101,34.803567],[136.057338,34.803726],[136.057426,34.803751],[136.057551,34.803592],[136.057488,34.803009],[136.057576,34.802667],[136.057776,34.802442],[136.058101,34.802242],[136.058801,34.801993],[136.059338,34.801968],[136.059601,34.801926],[136.059776,34.801793],[136.059926,34.801584],[136.059976,34.801409],[136.059976,34.801134],[136.060038,34.800801],[136.060151,34.800551],[136.060388,34.800326],[136.0618,34.799835],[136.0625,34.799693],[136.062738,34.79981],[136.063088,34.80026],[136.063475,34.800735],[136.063625,34.801026],[136.06375,34.801676],[136.063925,34.801743],[136.064213,34.801768],[136.06495,34.802101],[136.06525,34.802151],[136.065688,34.802143],[136.066062,34.802234],[136.0666,34.802618],[136.066862,34.802868],[136.067212,34.803343],[136.067775,34.803634],[136.067987,34.803793],[136.068337,34.803993],[136.068537,34.803993],[136.068775,34.803901],[136.0691,34.803718],[136.069337,34.803518],[136.0696,34.80336],[136.069925,34.803335],[136.07025,34.803543],[136.070399,34.803768],[136.070537,34.804101],[136.070599,34.804101],[136.071312,34.804218],[136.071724,34.804368],[136.072187,34.804101],[136.072512,34.80406],[136.072899,34.804076],[136.072987,34.804143],[136.072987,34.804551],[136.072812,34.804843],[136.072687,34.805159],[136.072812,34.805359],[136.072899,34.805359],[136.073187,34.805476],[136.073424,34.805518],[136.073962,34.806059],[136.074661,34.807051],[136.074899,34.807293],[136.075311,34.807834],[136.075586,34.808018],[136.075874,34.808084],[136.076111,34.808109],[136.076349,34.808176],[136.076586,34.808284],[136.076936,34.808401],[136.077111,34.808376],[136.078074,34.808018],[136.078486,34.807701],[136.078699,34.807609],[136.078936,34.807585],[136.079136,34.807635],[136.079311,34.807743],[136.079786,34.808234],[136.080023,34.808234],[136.080223,34.808151],[136.080461,34.807943],[136.080961,34.807651],[136.081161,34.807651],[136.081461,34.807718],[136.082173,34.80826],[136.082848,34.809026],[136.083136,34.809609],[136.083261,34.809768],[136.083523,34.809859],[136.084348,34.809876],[136.084548,34.809968],[136.084735,34.810168],[136.085498,34.810843],[136.085735,34.810984],[136.086085,34.811026],[136.086285,34.810909],[136.086785,34.810893],[136.087585,34.810976],[136.087935,34.811093],[136.088435,34.811359],[136.08876,34.811584],[136.089172,34.811968],[136.089472,34.812084],[136.090322,34.812009],[136.09056,34.812351],[136.090885,34.813093],[136.09106,34.813834],[136.091097,34.814126],[136.090972,34.814126],[136.090622,34.813993],[136.090472,34.814018],[136.090385,34.814109],[136.090447,34.814443],[136.090485,34.815342],[136.090535,34.815659],[136.090747,34.816001],[136.091135,34.816334],[136.091597,34.816809],[136.092047,34.816942],[136.092135,34.816942],[136.092572,34.817101],[136.092897,34.817459],[136.093097,34.817751],[136.093872,34.818742],[136.094284,34.818901],[136.095284,34.818851],[136.095109,34.818942],[136.094222,34.819842],[136.093997,34.820209],[136.093759,34.82045],[136.093409,34.820609],[136.093134,34.820517],[136.092759,34.820317],[136.092609,34.820317],[136.092497,34.820367],[136.092347,34.820609],[136.092347,34.820859],[136.092497,34.821042],[136.092972,34.821375],[136.093109,34.82165],[136.092972,34.822025],[136.092672,34.822433],[136.092209,34.823017],[136.091947,34.823492],[136.091647,34.823833],[136.091235,34.823966],[136.09101,34.824008],[136.090772,34.824191],[136.090747,34.824616],[136.090622,34.824841],[136.09066,34.825025],[136.090747,34.825208],[136.090922,34.825358],[136.091072,34.825608],[136.091035,34.825858],[136.090922,34.826058],[136.090485,34.8264],[136.090047,34.826508],[136.089835,34.826508],[136.08966,34.826574],[136.089485,34.826783],[136.089422,34.827008],[136.089185,34.827208],[136.088897,34.827366],[136.088835,34.827433],[136.08866,34.828358],[136.08846,34.828691],[136.08796,34.829032],[136.087672,34.829616],[136.08741,34.830066],[136.087372,34.830224],[136.087435,34.830432],[136.08761,34.830541],[136.08811,34.830724],[136.088497,34.830741],[136.088997,34.830899],[136.089372,34.831099],[136.089647,34.831399],[136.089672,34.831691],[136.089522,34.832249],[136.089622,34.832749],[136.08976,34.832949],[136.089885,34.833265],[136.089822,34.833624],[136.089422,34.834099],[136.089185,34.834257],[136.08801,34.834507],[136.087747,34.834748],[136.087597,34.834957],[136.087247,34.83529],[136.087185,34.835473],[136.086985,34.835832],[136.086747,34.836032],[136.086485,34.83619],[136.085985,34.836573],[136.086085,34.836581],[136.086085,34.837081],[136.08601,34.837531],[136.086122,34.837665],[136.08636,34.837731],[136.086535,34.837823],[136.086772,34.838115],[136.087347,34.838073],[136.087822,34.837931],[136.08826,34.837731],[136.088422,34.837615],[136.08881,34.837506],[136.089222,34.837456],[136.089522,34.83739],[136.089772,34.837282],[136.09021,34.836582],[136.09016,34.836573],[136.090247,34.836548],[136.09051,34.836373],[136.090897,34.836348],[136.091034,34.836415],[136.091272,34.836582],[136.091334,34.83674],[136.091447,34.836848],[136.091659,34.836823],[136.092209,34.836848],[136.092384,34.837098],[136.092622,34.837257],[136.092759,34.837498],[136.092847,34.837907],[136.093034,34.838248],[136.093422,34.838515],[136.093534,34.838632],[136.093672,34.83894],[136.094084,34.83944],[136.094359,34.839823],[136.094797,34.840065],[136.095209,34.840248],[136.095459,34.840248],[136.095822,34.84014],[136.096609,34.839773],[136.097021,34.839665],[136.097959,34.839507],[136.098459,34.839365],[136.099034,34.839074],[136.099446,34.839165],[136.099796,34.839165],[136.100134,34.839115],[136.100321,34.83959],[136.100484,34.839865],[136.100984,34.840198],[136.101121,34.840423],[136.101284,34.840515],[136.101721,34.840557],[136.102083,34.84054],[136.102471,34.840424],[136.103396,34.84054],[136.103646,34.840674],[136.104008,34.84074],[136.104421,34.840624],[136.104721,34.840832],[136.104971,34.84114],[136.105021,34.841415],[136.105108,34.842607],[136.105321,34.843032],[136.105383,34.843057],[136.105933,34.843082],[136.106233,34.843173],[136.106458,34.843415],[136.106596,34.843782],[136.107146,34.844748],[136.107446,34.84569],[136.107496,34.846257],[136.107721,34.846973],[136.107721,34.847448],[136.107783,34.84799],[136.107808,34.84894],[136.107896,34.849273],[136.108083,34.849631],[136.108196,34.849723],[136.108358,34.850106],[136.108446,34.850423],[136.108308,34.850831],[136.108058,34.851298],[136.108033,34.851731],[136.107621,34.851981],[136.107321,34.851981],[136.107096,34.852023],[136.106958,34.852314],[136.107071,34.852589],[136.107158,34.852672],[136.107396,34.852789],[136.108196,34.852764],[136.108496,34.852948],[136.109383,34.853889],[136.109496,34.854181],[136.109546,34.854497],[136.109846,34.854814],[136.110046,34.854814],[136.110321,34.854772],[136.110483,34.854856],[136.110783,34.855381],[136.11092,34.855531],[136.111495,34.855531],[136.112683,34.855964],[136.113033,34.856122],[136.113283,34.856164],[136.113508,34.856114],[136.113583,34.856072],[136.113995,34.855956],[136.114358,34.855939],[136.114883,34.856181],[136.115233,34.856322],[136.115483,34.856322],[136.115683,34.856272],[136.11587,34.856181],[136.116357,34.855623],[136.116582,34.855531],[136.116882,34.855506],[136.117182,34.855639],[136.117382,34.855848],[136.11757,34.856431],[136.117732,34.856631],[136.11782,34.856922],[136.118095,34.857447],[136.118532,34.857806],[136.118945,34.857981],[136.119445,34.858031],[136.119832,34.858322],[136.12022,34.858431],[136.120457,34.858589],[136.120632,34.858839],[136.120932,34.859556],[136.121145,34.859781],[136.121419,34.859872],[136.121532,34.859872],[136.121807,34.859939],[136.121969,34.860056],[136.122143,34.860101],[136.122232,34.860106],[136.123057,34.860314],[136.123944,34.860489],[136.124182,34.860581],[136.124432,34.860739],[136.125119,34.860922],[136.125669,34.861322],[136.126907,34.861822],[136.127019,34.861906],[136.126382,34.862222],[136.126107,34.862606],[136.126057,34.862747],[136.125557,34.863264],[136.125344,34.863597],[136.125119,34.864072],[136.125007,34.864547],[136.123882,34.865338],[136.123282,34.865813],[136.122919,34.866238],[136.122894,34.866463],[136.122919,34.866738],[136.123332,34.866913],[136.123469,34.867005],[136.123694,34.867363],[136.123832,34.86748],[136.124044,34.867522],[136.124457,34.867747],[136.124794,34.868022],[136.125282,34.86903],[136.125594,34.869546],[136.125757,34.869688],[136.126007,34.869796],[136.126032,34.86993],[136.125919,34.870205],[136.125782,34.870613],[136.125669,34.871329],[136.125557,34.871463],[136.125369,34.871538],[136.124957,34.871579],[136.124594,34.871713],[136.124544,34.871804],[136.124594,34.871921],[136.124632,34.872163],[136.124569,34.872213],[136.124132,34.872504],[136.123907,34.872529],[136.123469,34.872479],[136.123307,34.872504],[136.122782,34.872779],[136.122594,34.872821],[136.122142,34.872816],[136.121257,34.872538],[136.121007,34.872396],[136.120807,34.871879],[136.120619,34.871838],[136.119932,34.871929],[136.119795,34.871904],[136.119882,34.871496],[136.11952,34.871204],[136.119295,34.871071],[136.119132,34.870754],[136.118857,34.870663],[136.118532,34.870738],[136.118057,34.870896],[136.11787,34.871029],[136.117795,34.871163],[136.117595,34.871046],[136.117295,34.871071],[136.116932,34.871279],[136.116882,34.871612],[136.11672,34.871746],[136.116357,34.871904],[136.115782,34.872021],[136.115507,34.871979],[136.115232,34.871821],[136.115232,34.871637],[136.115345,34.871212],[136.115232,34.871029],[136.114657,34.871004],[136.114458,34.870871],[136.114383,34.870263],[136.114408,34.869971],[136.114345,34.869704],[136.113933,34.869638],[136.113695,34.869521],[136.113445,34.869363],[136.113195,34.869363]]],"type":"Polygon"},"properties":{"kuni_url":"/kg/resource/K06.html","id_url":"G06001.html","kuni":"伊賀","id":"G06001","name":"阿拝","yomi":"あえ","kuni_id":"K06","pref":"三重県"}}]}