{"features":[{"type":"Feature","properties":{"pref":"三重県","kuni_id":"K07","yomi":"あさけ","name":"朝明","id":"G07003","kuni":"伊勢","id_url":"G07003.html","kuni_url":"/kg/resource/K07.html"},"geometry":{"coordinates":[[[136.442194,35.086686],[136.442781,35.086911],[136.444781,35.088153],[136.445218,35.087969],[136.445831,35.087519],[136.446206,35.087311],[136.446843,35.086886],[136.447143,35.086594],[136.447281,35.086561],[136.447693,35.085969],[136.447843,35.085653],[136.448143,35.08557],[136.448393,35.085295],[136.448906,35.08517],[136.44963,35.085311],[136.450605,35.085611],[136.451443,35.08602],[136.452243,35.086295],[136.453093,35.086561],[136.453405,35.086728],[136.453705,35.086728],[136.45448,35.086586],[136.45478,35.086611],[136.45508,35.086678],[136.45558,35.086561],[136.45573,35.086428],[136.456205,35.08637],[136.457005,35.086461],[136.45758,35.086486],[136.457992,35.086336],[136.458417,35.085978],[136.458892,35.085728],[136.459567,35.08592],[136.460592,35.086445],[136.460967,35.086561],[136.461179,35.086653],[136.461754,35.086811],[136.462092,35.086828],[136.462254,35.086945],[136.472665,35.09092],[136.473028,35.091078],[136.473415,35.091195],[136.473765,35.091595],[136.47434,35.09167],[136.475228,35.09182],[136.475665,35.092028],[136.476402,35.092478],[136.47709,35.092678],[136.478002,35.092703],[136.479015,35.092386],[136.48009,35.09252],[136.481677,35.092311],[136.483002,35.09247],[136.483877,35.092536],[136.484952,35.092336],[136.486126,35.092178],[136.486926,35.092128],[136.488214,35.091903],[136.489264,35.091811],[136.489976,35.091562],[136.490739,35.091245],[136.491676,35.091087],[136.492313,35.091045],[136.492638,35.091203],[136.493188,35.091295],[136.495663,35.091337],[136.496126,35.091287],[136.497101,35.091008],[136.497825,35.090728],[136.498425,35.090595],[136.499588,35.090487],[136.500113,35.09042],[136.501675,35.090554],[136.504287,35.08937],[136.50595,35.088546],[136.506712,35.088296],[136.5074,35.087987],[136.507512,35.087962],[136.507674,35.088237],[136.508224,35.089662],[136.508274,35.089729],[136.508687,35.08982],[136.510112,35.089804],[136.511712,35.089446],[136.512324,35.089462],[136.512899,35.089721],[136.513424,35.089904],[136.515099,35.089087],[136.515674,35.088979],[136.515924,35.088887],[136.516249,35.088704],[136.516724,35.088662],[136.517411,35.089204],[136.517736,35.089621],[136.517986,35.089529],[136.518148,35.089621],[136.518473,35.089729],[136.518636,35.089487],[136.519436,35.088721],[136.520211,35.088263],[136.521861,35.087446],[136.522548,35.087204],[136.52421,35.086563],[136.525423,35.086479],[136.52596,35.086388],[136.526273,35.086388],[136.526735,35.085955],[136.527085,35.085771],[136.527335,35.085346],[136.527823,35.085163],[136.52821,35.08498],[136.528623,35.084638],[136.529047,35.083938],[136.528935,35.083263],[136.529135,35.082772],[136.529322,35.082405],[136.529073,35.082088],[136.528773,35.081872],[136.52926,35.081372],[136.529647,35.081097],[136.529397,35.080855],[136.529285,35.080172],[136.529035,35.079097],[136.528835,35.078464],[136.527985,35.077672],[136.527848,35.07693],[136.527873,35.076439],[136.528585,35.076047],[136.529573,35.075597],[136.531922,35.074714],[136.534272,35.073464],[136.53501,35.073189],[136.535835,35.072448],[136.536947,35.071314],[136.537334,35.071064],[136.537822,35.070814],[136.538259,35.070631],[136.538809,35.070498],[136.539709,35.070223],[136.540347,35.069948],[136.541084,35.069948],[136.542834,35.070373],[136.543609,35.070206],[136.544421,35.069873],[136.545496,35.069373],[136.546284,35.06914],[136.547921,35.068823],[136.548584,35.068573],[136.548859,35.068323],[136.549259,35.067715],[136.549696,35.066857],[136.549896,35.066673],[136.550708,35.066515],[136.551583,35.066265],[136.552408,35.06619],[136.553096,35.066007],[136.553583,35.06594],[136.553996,35.065965],[136.554321,35.065915],[136.554871,35.065624],[136.555258,35.065282],[136.555558,35.065257],[136.555583,35.065324],[136.555833,35.065415],[136.556046,35.065324],[136.556571,35.06519],[136.556758,35.065299],[136.557058,35.065365],[136.557333,35.065232],[136.557633,35.064982],[136.558183,35.064665],[136.558895,35.064441],[136.559545,35.064482],[136.559908,35.064632],[136.560645,35.064749],[136.561633,35.064699],[136.562645,35.064541],[136.563308,35.064374],[136.56317,35.063907],[136.563045,35.062774],[136.56297,35.062124],[136.562958,35.061716],[136.563158,35.061674],[136.564795,35.061533],[136.56622,35.061591],[136.567182,35.061499],[136.567432,35.061433],[136.567895,35.061366],[136.568132,35.061074],[136.568157,35.060574],[136.568082,35.059966],[136.568107,35.059266],[136.568557,35.057208],[136.56872,35.056667],[136.568995,35.056108],[136.569407,35.055633],[136.570195,35.05495],[136.571207,35.054275],[136.571532,35.054117],[136.572545,35.05375],[136.574107,35.053317],[136.575519,35.052975],[136.577332,35.05265],[136.578119,35.052534],[136.579381,35.052259],[136.580944,35.051784],[136.581844,35.051667],[136.582694,35.0516],[136.584256,35.051392],[136.585293,35.051209],[136.587406,35.050476],[136.587618,35.050434],[136.588218,35.050226],[136.588418,35.050109],[136.590793,35.049651],[136.592217,35.049334],[136.594492,35.049351],[136.594817,35.049326],[136.596654,35.049317],[136.597854,35.049117],[136.598404,35.048976],[136.600241,35.048609],[136.601441,35.048518],[136.603029,35.048309],[136.603766,35.048235],[136.604128,35.048143],[136.604828,35.047851],[136.606741,35.046827],[136.607378,35.046468],[136.608215,35.046127],[136.608553,35.046102],[136.608715,35.046193],[136.608665,35.046535],[136.608578,35.046735],[136.608528,35.047235],[136.609403,35.047635],[136.609603,35.047902],[136.609515,35.048493],[136.610153,35.048851],[136.610365,35.048868],[136.610615,35.04876],[136.611103,35.047585],[136.61164,35.046452],[136.612002,35.046094],[136.612165,35.046044],[136.612765,35.046002],[136.613477,35.046069],[136.615177,35.04651],[136.615815,35.046919],[136.616365,35.04721],[136.617077,35.047427],[136.617814,35.047519],[136.618364,35.047452],[136.619239,35.046969],[136.619477,35.046927],[136.620214,35.046927],[136.620827,35.046719],[136.621314,35.046469],[136.621914,35.046444],[136.622088,35.046474],[136.623026,35.046603],[136.623201,35.046619],[136.623451,35.046636],[136.624301,35.046678],[136.624314,35.046586],[136.624626,35.046569],[136.624689,35.046561],[136.625376,35.046511],[136.626089,35.046428],[136.626626,35.046386],[136.626789,35.046361],[136.627539,35.046286],[136.627926,35.046036],[136.628189,35.045903],[136.628426,35.045728],[136.628526,35.045603],[136.628751,35.045278],[136.628851,35.045119],[136.629051,35.044911],[136.629176,35.044828],[136.629351,35.044753],[136.629589,35.044686],[136.629939,35.044628],[136.630364,35.044619],[136.630539,35.044553],[136.630776,35.044319],[136.630964,35.044244],[136.631264,35.044186],[136.631439,35.044169],[136.631651,35.044144],[136.632064,35.044086],[136.632639,35.044044],[136.632826,35.044044],[136.633064,35.044053],[136.633201,35.044078],[136.633289,35.044153],[136.633451,35.044444],[136.633539,35.044586],[136.633626,35.044652],[136.633664,35.044677],[136.633951,35.044794],[136.634451,35.044969],[136.634763,35.045086],[136.634988,35.045186],[136.635651,35.045561],[136.635976,35.045719],[136.636113,35.045736],[136.636188,35.045719],[136.636276,35.045611],[136.636351,35.045386],[136.636438,35.045227],[136.636513,35.045086],[136.636688,35.044836],[136.636813,35.044736],[136.636988,35.044577],[136.637076,35.044536],[136.637188,35.044519],[136.637401,35.044502],[136.637876,35.044569],[136.638188,35.044694],[136.638376,35.044752],[136.638538,35.044752],[136.638788,35.044736],[136.639188,35.044644],[136.639501,35.044561],[136.639663,35.044569],[136.639863,35.044619],[136.640113,35.044661],[136.640588,35.044711],[136.640738,35.044677],[136.640826,35.044377],[136.640813,35.044177],[136.640826,35.044086],[136.640888,35.044019],[136.641288,35.043969],[136.641488,35.043769],[136.641501,35.043477],[136.641488,35.043394],[136.641501,35.043294],[136.641588,35.043127],[136.641713,35.043036],[136.641863,35.042977],[136.642013,35.042952],[136.642163,35.042977],[136.642351,35.042936],[136.642601,35.042894],[136.642788,35.042877],[136.643038,35.042936],[136.643126,35.042994],[136.643263,35.043144],[136.643413,35.043227],[136.643713,35.043252],[136.643963,35.043294],[136.644213,35.043327],[136.64445,35.043377],[136.644638,35.043336],[136.64495,35.043111],[136.645288,35.042936],[136.645475,35.042852],[136.64595,35.042502],[136.646075,35.042444],[136.646288,35.042427],[136.646513,35.042486],[136.646688,35.042536],[136.646913,35.042519],[136.647,35.042502],[136.647163,35.042427],[136.64725,35.042294],[136.6473,35.042177],[136.647475,35.041861],[136.64755,35.041644],[136.647638,35.041527],[136.647725,35.041469],[136.6479,35.041436],[136.6482,35.041519],[136.648613,35.041619],[136.648763,35.041653],[136.648963,35.041686],[136.649175,35.041694],[136.649475,35.041636],[136.649625,35.041528],[136.649638,35.041494],[136.6498,35.041353],[136.649938,35.041203],[136.65005,35.041111],[136.650163,35.041094],[136.65025,35.041128],[136.65065,35.041269],[136.651225,35.041486],[136.651275,35.041503],[136.6521,35.041794],[136.652737,35.042011],[136.65295,35.042053],[136.65315,35.041761],[136.653237,35.041686],[136.653675,35.041828],[136.654225,35.042061],[136.6547,35.042286],[136.654925,35.04237],[136.655075,35.042428],[136.655275,35.042536],[136.655712,35.042686],[136.655862,35.04272],[136.656075,35.04272],[136.656275,35.042678],[136.656725,35.042511],[136.656887,35.04247],[136.657012,35.042445],[136.65725,35.042428],[136.657412,35.042478],[136.657975,35.042611],[136.658362,35.042761],[136.658537,35.042786],[136.65855,35.042786],[136.65875,35.042645],[136.6589,35.042495],[136.659025,35.04197],[136.659212,35.041862],[136.659437,35.041803],[136.659787,35.041778],[136.659949,35.04172],[136.659999,35.04157],[136.659999,35.04122],[136.660024,35.041045],[136.660137,35.040912],[136.660237,35.04087],[136.660299,35.040837],[136.660387,35.040995],[136.660437,35.041178],[136.660524,35.041445],[136.660624,35.041695],[136.660874,35.041962],[136.660974,35.04212],[136.660937,35.042253],[136.660737,35.042445],[136.660637,35.042512],[136.660574,35.042662],[136.660562,35.042795],[136.660799,35.043436],[136.660962,35.043703],[136.660899,35.044203],[136.660762,35.044795],[136.660712,35.045403],[136.660524,35.046211],[136.660487,35.046378],[136.660549,35.04652],[136.660674,35.046611],[136.660849,35.046736],[136.661049,35.046778],[136.661224,35.046811],[136.661462,35.046845],[136.661637,35.046878],[136.661849,35.046945],[136.662037,35.047003],[136.662237,35.04707],[136.662537,35.04717],[136.662737,35.047211],[136.663312,35.047303],[136.663837,35.047478],[136.663974,35.047528],[136.664224,35.047595],[136.664449,35.047545],[136.664662,35.047503],[136.664974,35.047453],[136.665224,35.047361],[136.665399,35.047253],[136.665686,35.047045],[136.666149,35.04672],[136.666311,35.046603],[136.666486,35.046503],[136.666736,35.04647],[136.666899,35.046461],[136.667061,35.046478],[136.667249,35.046536],[136.667524,35.046661],[136.667674,35.046745],[136.667874,35.046845],[136.668236,35.047028],[136.668424,35.047103],[136.668824,35.047236],[136.669274,35.047286],[136.669611,35.047303],[136.669911,35.047303],[136.670136,35.047311],[136.670311,35.047286],[136.670461,35.046587],[136.671048,35.046478],[136.671024,35.04627],[136.670986,35.045887],[136.670949,35.045678],[136.670874,35.04552],[136.671074,35.045462],[136.672536,35.04507],[136.672686,35.04502],[136.672748,35.045012],[136.672836,35.045137],[136.672898,35.045353],[136.672948,35.045528],[136.673136,35.045728],[136.674486,35.04652],[136.674623,35.046603],[136.674898,35.046778],[136.675161,35.046437],[136.675648,35.045737],[136.676073,35.045095],[136.676186,35.044887],[136.676223,35.04482],[136.676248,35.044795],[136.676461,35.044395],[136.676673,35.044054],[136.676923,35.043587],[136.67721,35.043112],[136.67741,35.042795],[136.677498,35.04267],[136.677585,35.042529],[136.677898,35.042062],[136.678523,35.041337],[136.67871,35.041162],[136.67946,35.040429],[136.679835,35.040112],[136.680198,35.039796],[136.680748,35.039354],[136.68091,35.039263],[136.681173,35.038979],[136.681785,35.038429],[136.68221,35.038038],[136.682348,35.037929],[136.682473,35.037829],[136.682723,35.037646],[136.683373,35.037296],[136.684047,35.036988],[136.68436,35.036846],[136.684697,35.036655],[136.686397,35.035555],[136.687035,35.035088],[136.687235,35.03493],[136.687785,35.034438],[136.687997,35.034288],[136.688885,35.033697],[136.68921,35.03353],[136.689959,35.033122],[136.690484,35.032789],[136.691297,35.032089],[136.691797,35.031514],[136.692247,35.030947],[136.692472,35.030647],[136.693034,35.029889],[136.693147,35.029797],[136.693472,35.029364],[136.693584,35.029222],[136.694172,35.028506],[136.694397,35.028239],[136.695059,35.027506],[136.695322,35.027273],[136.695472,35.027081],[136.695822,35.026698],[136.696434,35.025948],[136.696646,35.025673],[136.697096,35.024906],[136.697334,35.024423],[136.697634,35.023965],[136.697971,35.023423],[136.698146,35.02314],[136.698396,35.022865],[136.698746,35.022415],[136.698984,35.022148],[136.699371,35.021749],[136.699696,35.021482],[136.700309,35.021024],[136.697559,35.020465],[136.698846,35.016382],[136.698846,35.016324],[136.698109,35.015991],[136.698209,35.015708],[136.697959,35.015658],[136.697884,35.015941],[136.697834,35.015966],[136.697634,35.015882],[136.697522,35.015832],[136.697334,35.015724],[136.697272,35.015666],[136.697172,35.015558],[136.697622,35.014174],[136.698422,35.011758],[136.698772,35.010733],[136.699934,35.007217],[136.693735,35.005792],[136.692735,35.00555],[136.686148,35.004117],[136.685935,35.004825],[136.685698,35.00555],[136.684785,35.0082],[136.681461,35.007999],[136.681348,35.007941],[136.681248,35.007916],[136.681061,35.007899],[136.680811,35.007899],[136.680536,35.007949],[136.680248,35.008049],[136.679998,35.008108],[136.679523,35.008241],[136.679261,35.008291],[136.678623,35.008416],[136.677998,35.008474],[136.677411,35.008516],[136.676686,35.008566],[136.676199,35.008524],[136.676349,35.009083],[136.676086,35.009124],[136.676024,35.009124],[136.675961,35.008841],[136.675874,35.008566],[136.675799,35.008474],[136.675674,35.008433],[136.675386,35.007333],[136.675311,35.006999],[136.675236,35.006808],[136.673986,35.006258],[136.673236,35.005924],[136.672274,35.005499],[136.671899,35.005358],[136.670862,35.004883],[136.670112,35.004583],[136.669787,35.004433],[136.669112,35.004133],[136.668212,35.003733],[136.667687,35.003525],[136.667187,35.0037],[136.666924,35.004524],[136.666749,35.004999],[136.666212,35.004899],[136.666025,35.005483],[136.665937,35.005674],[136.665762,35.005649],[136.665612,35.005599],[136.665587,35.005566],[136.665025,35.005208],[136.666187,35.00405],[136.665987,35.003883],[136.665812,35.003766],[136.665737,35.003716],[136.665462,35.003558],[136.664712,35.004283],[136.664075,35.003841],[136.664487,35.003441],[136.664325,35.003241],[136.661038,35.000983],[136.660713,35.001125],[136.657375,34.99885],[136.657213,34.999075],[136.656963,34.998942],[136.656775,34.999125],[136.656638,34.999075],[136.656863,34.998825],[136.656725,34.998758],[136.656476,34.998967],[136.656338,34.998875],[136.656588,34.998625],[136.655563,34.998017],[136.655901,34.9977],[136.656276,34.997525],[136.656413,34.9975],[136.651714,34.993084],[136.652151,34.992884],[136.652426,34.992976],[136.652763,34.992909],[136.653888,34.992317],[136.662875,34.998642],[136.6631,34.998575],[136.6637,34.995642],[136.661863,34.994359],[136.661338,34.993417],[136.664138,34.992401],[136.663863,34.991926],[136.664088,34.991859],[136.663838,34.991501],[136.666612,34.990435],[136.667087,34.991243],[136.669375,34.99041],[136.671887,34.989443],[136.671412,34.988618],[136.673945,34.98753],[136.674258,34.988139],[136.674095,34.988189],[136.674283,34.988563],[136.674908,34.988322],[136.674795,34.988072],[136.675358,34.987922],[136.675508,34.988047],[136.677033,34.987514],[136.676983,34.987264],[136.677658,34.987022],[136.676508,34.984939],[136.67542,34.985272],[136.674783,34.984147],[136.673121,34.982289],[136.672433,34.982614],[136.6657,34.972862],[136.655476,34.97512],[136.654539,34.975436],[136.653801,34.975711],[136.650277,34.977269],[136.650202,34.977361],[136.652764,34.991759],[136.651964,34.992117],[136.651876,34.992251],[136.651939,34.992542],[136.651464,34.992776],[136.650501,34.991467],[136.650339,34.991126],[136.649951,34.987118],[136.649814,34.986618],[136.646489,34.977769],[136.64604,34.976461],[136.639963,34.981693],[136.638384,34.983343],[136.636854,34.984152],[136.63555,34.983875],[136.634385,34.983628],[136.633221,34.983875],[136.632652,34.984485],[136.632486,34.985178],[136.632486,34.986011],[136.631308,34.986661],[136.629938,34.987863],[136.628997,34.990379],[136.628219,34.991813],[136.626663,34.993566],[136.625016,34.995154],[136.624616,34.995755],[136.624018,34.997665],[136.623769,34.99888],[136.623429,34.999632],[136.622803,35.000769],[136.62184,35.001004],[136.620542,35.00062],[136.619449,34.999479],[136.618951,34.99846],[136.618769,34.996773],[136.61856,34.995796],[136.618188,34.995414],[136.617778,34.995414],[136.617299,34.995493],[136.616953,34.995839],[136.616799,34.996195],[136.616799,34.996971],[136.617049,34.99933],[136.617049,35.001081],[136.616671,35.002034],[136.615626,35.004674],[136.61594,35.008374],[136.616785,35.010595],[136.618388,35.01161],[136.619449,35.012853],[136.61933,35.014807],[136.618925,35.016896],[136.618594,35.017737],[136.616665,35.019158],[136.615378,35.020551],[136.614447,35.021396],[136.612772,35.022351],[136.611932,35.022829],[136.609822,35.023459],[136.607709,35.023801],[136.606369,35.023952],[136.604947,35.023952],[136.603703,35.023754],[136.602386,35.02437],[136.6018,35.025183],[136.601242,35.025439],[136.599893,35.025439],[136.599138,35.025249],[136.598378,35.024659],[136.596694,35.022685],[136.595681,35.022203],[136.59427,35.021818],[136.593317,35.02126],[136.592507,35.021029],[136.592144,35.020665],[136.592144,35.01984],[136.591863,35.019246],[136.591351,35.020401],[136.591103,35.021788],[136.590574,35.022976],[136.589955,35.024042],[136.58905,35.024864],[136.586477,35.02629],[136.584635,35.026968],[136.583081,35.02775],[136.581676,35.029186],[136.579788,35.032785],[136.579294,35.033787],[136.57875,35.034891],[136.577305,35.036422],[136.574863,35.038853],[136.572414,35.040853],[136.570817,35.041692],[136.569443,35.042208],[136.567165,35.042806],[136.563482,35.042806],[136.559496,35.043429],[136.557196,35.043429],[136.554192,35.043848],[136.550246,35.044293],[136.547686,35.045256],[136.545425,35.045756],[136.543793,35.045958],[136.542149,35.045958],[136.539112,35.045744],[136.53521,35.045726],[136.533377,35.045841],[136.532307,35.045507],[136.530227,35.04504],[136.528739,35.044924],[136.527841,35.044924],[136.525846,35.045345],[136.524841,35.045557],[136.523743,35.045788],[136.52207,35.045496],[136.519726,35.045086],[136.51803,35.045086],[136.516652,35.044962],[136.515542,35.045137],[136.514356,35.045741],[136.512982,35.046611],[136.510688,35.047308],[136.508868,35.046933],[136.507647,35.046933],[136.506659,35.047152],[136.505068,35.048029],[136.504352,35.048434],[136.502165,35.048434],[136.499729,35.048047],[136.497659,35.047718],[136.495743,35.046802],[136.494526,35.04622],[136.49303,35.04622],[136.492117,35.045807],[136.490262,35.04636],[136.489127,35.047466],[136.48808,35.048676],[136.486776,35.048676],[136.485149,35.048676],[136.483124,35.048415],[136.478893,35.047347],[136.477202,35.04692],[136.475915,35.04692],[136.473346,35.048135],[136.472039,35.049058],[136.470828,35.049229],[136.469088,35.049476],[136.465593,35.050112],[136.464438,35.050721],[136.463336,35.051736],[136.461186,35.054039],[136.459871,35.055679],[136.458506,35.056226],[136.453809,35.056539],[136.450713,35.056539],[136.448872,35.057472],[136.445895,35.058202],[136.433757,35.06158],[136.434357,35.061922],[136.434795,35.062105],[136.435032,35.06213],[136.435457,35.062088],[136.435707,35.062072],[136.435757,35.062138],[136.43587,35.062522],[136.43602,35.062772],[136.43622,35.062997],[136.43632,35.06318],[136.436445,35.063288],[136.436645,35.063363],[136.43697,35.063405],[136.437545,35.063588],[136.437645,35.06368],[136.438045,35.064047],[136.438145,35.064138],[136.438132,35.064613],[136.438457,35.065246],[136.438582,35.065338],[136.438732,35.065313],[136.439132,35.065338],[136.439382,35.06523],[136.439557,35.065163],[136.439782,35.065163],[136.439857,35.065121],[136.439957,35.064897],[136.440094,35.064713],[136.440294,35.064605],[136.441019,35.064247],[136.441094,35.064272],[136.441119,35.064363],[136.441094,35.064655],[136.441219,35.06493],[136.441469,35.06513],[136.441407,35.065405],[136.441507,35.06588],[136.441807,35.066555],[136.441719,35.066846],[136.441619,35.066963],[136.441419,35.067363],[136.441394,35.067546],[136.441407,35.068021],[136.441107,35.068938],[136.441082,35.069254],[136.441269,35.070179],[136.441144,35.070313],[136.440969,35.070313],[136.440844,35.070363],[136.440682,35.070671],[136.439844,35.072204],[136.439719,35.072496],[136.439769,35.072654],[136.440082,35.073154],[136.440157,35.073487],[136.440332,35.073721],[136.440457,35.073829],[136.440507,35.073962],[136.440482,35.074262],[136.440557,35.074437],[136.440519,35.074662],[136.440069,35.074954],[136.439994,35.075071],[136.439869,35.075454],[136.439607,35.07572],[136.439182,35.075987],[136.438907,35.07632],[136.438707,35.076412],[136.438332,35.076429],[136.438057,35.07652],[136.437819,35.076837],[136.437569,35.07697],[136.437519,35.077079],[136.437544,35.077512],[136.437469,35.077645],[136.437519,35.07787],[136.437457,35.077937],[136.437182,35.078095],[136.437082,35.078187],[136.436957,35.078562],[136.436832,35.078653],[136.436757,35.078878],[136.436394,35.07897],[136.436344,35.079012],[136.436344,35.079195],[136.436319,35.079303],[136.435995,35.079728],[136.435969,35.080045],[136.436182,35.080836],[136.436182,35.081203],[136.436019,35.081603],[136.435894,35.081803],[136.435495,35.082236],[136.43542,35.082436],[136.43547,35.082595],[136.435644,35.082778],[136.435869,35.082753],[136.436169,35.08267],[136.436369,35.082686],[136.436669,35.082853],[136.436794,35.08287],[136.437044,35.082895],[136.437269,35.082945],[136.437519,35.082945],[136.437694,35.083036],[136.438169,35.083111],[136.438344,35.083153],[136.438469,35.08327],[136.438469,35.083361],[136.438307,35.083653],[136.438357,35.083828],[136.438582,35.08397],[136.439282,35.084111],[136.439507,35.084286],[136.439657,35.084536],[136.440031,35.084861],[136.440556,35.085244],[136.440756,35.085294],[136.441231,35.085319],[136.441481,35.085361],[136.441881,35.085544],[136.442306,35.085619],[136.442306,35.085778],[136.442144,35.086561],[136.442144,35.086644],[136.442194,35.086686]]],"type":"Polygon"}}],"type":"FeatureCollection"}