{"type":"FeatureCollection","features":[{"type":"Feature","geometry":{"coordinates":[[[136.289609,34.707907],[136.289659,34.708599],[136.289747,34.708899],[136.289921,34.709041],[136.290796,34.709174],[136.291571,34.710407],[136.292809,34.711315],[136.293159,34.711474],[136.294121,34.711507],[136.294371,34.71159],[136.294483,34.711682],[136.294708,34.712015],[136.294858,34.712407],[136.294958,34.71284],[136.295108,34.713199],[136.295008,34.713399],[136.294696,34.713465],[136.294546,34.713557],[136.294471,34.713724],[136.294396,34.714074],[136.294271,34.714482],[136.294296,34.714865],[136.294471,34.71529],[136.294783,34.715632],[136.295158,34.715857],[136.295421,34.71589],[136.295771,34.715673],[136.296321,34.715457],[136.296908,34.715423],[136.297296,34.715573],[136.297833,34.715848],[136.298308,34.716132],[136.29852,34.716223],[136.299008,34.716365],[136.300045,34.716323],[136.300208,34.716348],[136.300345,34.716482],[136.30037,34.71659],[136.300332,34.716823],[136.299883,34.717507],[136.299745,34.717882],[136.299783,34.718173],[136.299983,34.71839],[136.30012,34.718606],[136.300332,34.719065],[136.30062,34.719315],[136.300945,34.719406],[136.301532,34.71934],[136.302007,34.719365],[136.302357,34.719598],[136.302832,34.72004],[136.303044,34.72039],[136.303044,34.720706],[136.303382,34.721206],[136.303694,34.721889],[136.303969,34.722248],[136.304557,34.722681],[136.304882,34.722823],[136.305107,34.722898],[136.305619,34.722948],[136.305906,34.723023],[136.306194,34.723181],[136.306431,34.723414],[136.306769,34.723623],[136.307781,34.724106],[136.309006,34.724497],[136.309381,34.724689],[136.309581,34.724847],[136.309643,34.724972],[136.309818,34.724939],[136.31033,34.724747],[136.311318,34.724247],[136.311943,34.724156],[136.313005,34.724139],[136.313455,34.724056],[136.313855,34.723889],[136.314205,34.723597],[136.31453,34.723197],[136.314692,34.722789],[136.314955,34.722448],[136.315142,34.722298],[136.315442,34.722231],[136.316292,34.722173],[136.316454,34.722131],[136.316754,34.721981],[136.317004,34.721789],[136.317179,34.721731],[136.317692,34.721864],[136.318179,34.722056],[136.318504,34.722139],[136.319104,34.722064],[136.319291,34.722089],[136.319466,34.722214],[136.319716,34.722272],[136.320553,34.722189],[136.320753,34.722214],[136.320878,34.722272],[136.322091,34.722064],[136.322278,34.722131],[136.322453,34.722314],[136.322603,34.722339],[136.32284,34.722222],[136.322915,34.722022],[136.322903,34.721806],[136.322965,34.721656],[136.32319,34.721614],[136.323328,34.721622],[136.323553,34.721714],[136.323828,34.721997],[136.324053,34.722164],[136.32444,34.722164],[136.324715,34.722122],[136.325278,34.722131],[136.32574,34.722056],[136.326052,34.722064],[136.326327,34.722131],[136.326265,34.722981],[136.326277,34.723272],[136.32634,34.723381],[136.32654,34.723581],[136.326927,34.723672],[136.327539,34.723672],[136.328202,34.723614],[136.328539,34.723955],[136.329464,34.724464],[136.329901,34.724647],[136.330289,34.72468],[136.330626,34.724589],[136.330864,34.724622],[136.331214,34.724622],[136.331301,34.724597],[136.331376,34.72448],[136.331489,34.724447],[136.331639,34.724505],[136.331839,34.724672],[136.332001,34.724972],[136.332038,34.72523],[136.332226,34.72558],[136.332326,34.72563],[136.332726,34.725722],[136.333126,34.725772],[136.333701,34.725955],[136.333988,34.725863],[136.33435,34.725638],[136.3347,34.725555],[136.335225,34.72558],[136.335688,34.725705],[136.336075,34.726113],[136.336788,34.726472],[136.337313,34.726963],[136.337762,34.727605],[136.338062,34.727955],[136.338487,34.728222],[136.3397,34.72878],[136.340799,34.729188],[136.341237,34.72928],[136.341949,34.729113],[136.342424,34.728922],[136.343449,34.728247],[136.343874,34.728055],[136.344237,34.727955],[136.344387,34.727972],[136.344624,34.728239],[136.345062,34.72818],[136.345424,34.728055],[136.346099,34.72788],[136.346437,34.727955],[136.346762,34.72808],[136.347311,34.72813],[136.347549,34.728247],[136.348349,34.728939],[136.348536,34.729005],[136.348849,34.729014],[136.349374,34.72898],[136.350274,34.728814],[136.351124,34.728264],[136.351686,34.728097],[136.351924,34.728072],[136.353148,34.727847],[136.353573,34.727789],[136.353736,34.727822],[136.353998,34.728356],[136.354211,34.728581],[136.354486,34.728672],[136.354911,34.728697],[136.355336,34.728656],[136.356473,34.728431],[136.357036,34.728281],[136.35761,34.727981],[136.357935,34.727731],[136.358198,34.727622],[136.358923,34.727556],[136.359585,34.727231],[136.36051,34.726923],[136.361448,34.726506],[136.36196,34.726339],[136.362623,34.726231],[136.36266,34.726264],[136.362798,34.726198],[136.362973,34.725648],[136.363485,34.724598],[136.363535,34.723815],[136.363898,34.723715],[136.36496,34.723598],[136.365485,34.72354],[136.365935,34.723398],[136.366435,34.723373],[136.367222,34.723498],[136.368097,34.72354],[136.368697,34.723481],[136.369135,34.723356],[136.369647,34.72329],[136.370147,34.723281],[136.370485,34.723298],[136.370684,34.723356],[136.370672,34.722965],[136.37071,34.722623],[136.370835,34.722373],[136.371072,34.72219],[136.371584,34.721948],[136.371759,34.721698],[136.371822,34.721431],[136.37166,34.720898],[136.371722,34.720673],[136.371872,34.720531],[136.371972,34.72049],[136.372159,34.720423],[136.372222,34.720331],[136.372297,34.71979],[136.372634,34.719473],[136.372934,34.719357],[136.373072,34.719207],[136.373234,34.718682],[136.373259,34.718365],[136.373147,34.718007],[136.373234,34.717874],[136.373597,34.717715],[136.374797,34.717465],[136.375409,34.717624],[136.375709,34.717599],[136.376422,34.717415],[136.376722,34.717415],[136.377059,34.71749],[136.377384,34.717532],[136.378121,34.716857],[136.378484,34.716649],[136.379034,34.716474],[136.380759,34.715816],[136.381009,34.715816],[136.381234,34.715999],[136.381446,34.716291],[136.381696,34.716532],[136.382034,34.716674],[136.382383,34.716716],[136.383071,34.716874],[136.383546,34.716824],[136.384058,34.716599],[136.384396,34.716533],[136.384721,34.716574],[136.384971,34.716733],[136.385158,34.717008],[136.385408,34.717049],[136.385633,34.716958],[136.385771,34.716799],[136.386021,34.716666],[136.386733,34.716558],[136.386945,34.716416],[136.387195,34.716191],[136.388183,34.715608],[136.388458,34.715383],[136.388708,34.714933],[136.388895,34.714816],[136.38912,34.714433],[136.389483,34.714233],[136.389695,34.71405],[136.390195,34.713933],[136.39077,34.713242],[136.390858,34.713192],[136.391207,34.713125],[136.39157,34.713125],[136.391457,34.713533],[136.39157,34.713617],[136.391895,34.713667],[136.392495,34.713708],[136.392745,34.713667],[136.39322,34.713458],[136.394007,34.713033],[136.395032,34.7124],[136.395632,34.711884],[136.396594,34.711184],[136.396894,34.711025],[136.397369,34.711342],[136.397944,34.711092],[136.398382,34.711025],[136.398769,34.710884],[136.399094,34.710725],[136.399119,34.710434],[136.400356,34.709626],[136.400931,34.709376],[136.401106,34.709259],[136.402644,34.708634],[136.403081,34.708318],[136.403956,34.708176],[136.404256,34.708068],[136.404368,34.708001],[136.404731,34.707634],[136.405031,34.707476],[136.406293,34.707143],[136.406593,34.706985],[136.406956,34.706985],[136.407343,34.706843],[136.408443,34.706368],[136.408793,34.706326],[136.408905,34.706193],[136.409018,34.705968],[136.409593,34.705943],[136.409893,34.705268],[136.410693,34.705652],[136.41078,34.705652],[136.410993,34.70531],[136.410993,34.705268],[136.41108,34.705219],[136.41168,34.706143],[136.412005,34.706527],[136.412255,34.706952],[136.41243,34.707202],[136.41278,34.707093],[136.41303,34.70691],[136.413143,34.706618],[136.41328,34.706477],[136.413518,34.706435],[136.413743,34.706527],[136.413905,34.706727],[136.414105,34.706843],[136.414755,34.706544],[136.41503,34.706544],[136.41523,34.706635],[136.415392,34.70686],[136.415667,34.707135],[136.41613,34.70706],[136.416467,34.706819],[136.416817,34.706319],[136.417017,34.706186],[136.417155,34.706136],[136.417392,34.706211],[136.418055,34.706794],[136.418142,34.706744],[136.418392,34.706452],[136.418605,34.706069],[136.418742,34.705977],[136.419017,34.705911],[136.41913,34.705819],[136.419217,34.705661],[136.419317,34.704653],[136.419267,34.704286],[136.41913,34.703928],[136.418792,34.703386],[136.41828,34.702778],[136.41808,34.70247],[136.418168,34.70222],[136.418105,34.702128],[136.41778,34.702061],[136.41753,34.70197],[136.417068,34.701586],[136.416355,34.701411],[136.416268,34.70127],[136.416218,34.701045],[136.416243,34.70087],[136.416518,34.700303],[136.417068,34.699945],[136.41748,34.699828],[136.417668,34.699804],[136.418518,34.699829],[136.418655,34.69972],[136.41863,34.699379],[136.418768,34.699087],[136.419068,34.698679],[136.420143,34.697579],[136.420668,34.697146],[136.420943,34.697188],[136.421218,34.697171],[136.421493,34.697054],[136.421655,34.696921],[136.421705,34.696629],[136.421905,34.696313],[136.42223,34.696038],[136.422068,34.695955],[136.421843,34.695955],[136.421593,34.695996],[136.421318,34.69593],[136.42143,34.695546],[136.421455,34.695096],[136.421543,34.694671],[136.42168,34.694438],[136.42173,34.69388],[136.421955,34.693588],[136.422443,34.693338],[136.422805,34.693313],[136.423218,34.693338],[136.423243,34.694372],[136.423405,34.694688],[136.42368,34.69498],[136.42393,34.69518],[136.424567,34.695322],[136.425742,34.695722],[136.42618,34.695788],[136.426455,34.695722],[136.426542,34.695655],[136.427142,34.69538],[136.42778,34.69523],[136.428142,34.695205],[136.428442,34.695272],[136.429155,34.695764],[136.42948,34.696055],[136.42973,34.696355],[136.430529,34.696622],[136.430892,34.696714],[136.431054,34.696489],[136.430992,34.695964],[136.431017,34.695514],[136.431355,34.695289],[136.431905,34.695064],[136.432642,34.694839],[136.432892,34.694864],[136.433517,34.695222],[136.434542,34.696031],[136.434729,34.696306],[136.434979,34.696997],[136.435204,34.697047],[136.435392,34.696997],[136.435754,34.696547],[136.435779,34.696281],[136.435554,34.695447],[136.435617,34.695264],[136.435854,34.695081],[136.436304,34.694906],[136.436842,34.694723],[136.437254,34.694656],[136.437779,34.694723],[136.438304,34.694606],[136.438529,34.694523],[136.438804,34.694314],[136.439066,34.694023],[136.440366,34.693573],[136.440416,34.693389],[136.440391,34.693323],[136.440229,34.693189],[136.440116,34.693031],[136.439929,34.692464],[136.439891,34.692198],[136.439754,34.691973],[136.439616,34.691856],[136.440229,34.691406],[136.440779,34.691048],[136.441191,34.69039],[136.441516,34.689782],[136.442004,34.689398],[136.442141,34.689157],[136.442316,34.688973],[136.443028,34.688857],[136.443516,34.688682],[136.443878,34.688632],[136.444091,34.688657],[136.444591,34.688615],[136.444953,34.688407],[136.445303,34.688248],[136.445553,34.688223],[136.445628,34.688365],[136.445603,34.688973],[136.445228,34.689557],[136.445228,34.689823],[136.445278,34.68994],[136.445191,34.69019],[136.445166,34.69044],[136.445253,34.69064],[136.445441,34.690815],[136.445441,34.690865],[136.445578,34.691023],[136.445853,34.691181],[136.445916,34.69134],[136.446103,34.691448],[136.446403,34.691565],[136.446628,34.691723],[136.447015,34.69219],[136.447178,34.692239],[136.447265,34.692323],[136.447178,34.692573],[136.446853,34.693181],[136.446878,34.693389],[136.446815,34.693564],[136.44649,34.694014],[136.446415,34.694264],[136.44644,34.694423],[136.44709,34.694448],[136.448028,34.694448],[136.448578,34.694514],[136.448828,34.694581],[136.448878,34.694714],[136.448853,34.695006],[136.448915,34.695347],[136.449302,34.696064],[136.44979,34.696672],[136.449877,34.69683],[136.449852,34.697305],[136.449927,34.697639],[136.449902,34.697955],[136.449927,34.698405],[136.45004,34.698838],[136.450227,34.699013],[136.45059,34.698988],[136.451777,34.698472],[136.452102,34.698405],[136.452289,34.698497],[136.452427,34.698763],[136.452839,34.699105],[136.453039,34.699197],[136.453777,34.698897],[136.453914,34.698813],[136.454464,34.69858],[136.454902,34.698514],[136.454964,34.698539],[136.455177,34.69903],[136.455477,34.69928],[136.455676,34.699347],[136.455864,34.699255],[136.456301,34.698672],[136.456339,34.698539],[136.456276,34.697747],[136.456189,34.69743],[136.456189,34.697297],[136.456739,34.696714],[136.457076,34.696506],[136.457376,34.696439],[136.457739,34.696489],[136.457951,34.696556],[136.458864,34.697114],[136.459101,34.697114],[136.459376,34.697005],[136.459601,34.696864],[136.459826,34.696889],[136.460101,34.697022],[136.460238,34.697339],[136.460476,34.697522],[136.461226,34.69743],[136.461388,34.69768],[136.461826,34.697814],[136.462188,34.69788],[136.462788,34.697764],[136.463426,34.697739],[136.463425,34.697736],[136.463388,34.697381],[136.463888,34.697114],[136.464213,34.696997],[136.465375,34.697114],[136.465925,34.697089],[136.466175,34.697022],[136.466413,34.696706],[136.466825,34.696956],[136.466963,34.696881],[136.46705,34.696706],[136.467763,34.696772],[136.468175,34.696706],[136.468562,34.696747],[136.469275,34.697064],[136.469637,34.697131],[136.46985,34.697131],[136.470425,34.697422],[136.470675,34.697464],[136.471062,34.697422],[136.471662,34.697447],[136.471999,34.697622],[136.472324,34.697714],[136.472437,34.697689],[136.472599,34.697581],[136.472712,34.697306],[136.472849,34.697131],[136.472924,34.697106],[136.473374,34.697122],[136.473749,34.697197],[136.473999,34.696964],[136.474024,34.696698],[136.474112,34.696564],[136.474437,34.696273],[136.474849,34.696089],[136.475124,34.696114],[136.475237,34.696156],[136.475699,34.696498],[136.475836,34.696339],[136.476274,34.695481],[136.476449,34.695256],[136.476549,34.69519],[136.477761,34.695206],[136.477924,34.695231],[136.478149,34.695323],[136.478511,34.695814],[136.478924,34.695748],[136.479324,34.695523],[136.479736,34.695048],[136.480236,34.69489],[136.481448,34.694215],[136.481936,34.693582],[136.482186,34.693398],[136.483011,34.692998],[136.483673,34.692723],[136.484873,34.69234],[136.485098,34.692298],[136.485535,34.692274],[136.486848,34.69234],[136.487872,34.69234],[136.48806,34.69214],[136.488472,34.691415],[136.488835,34.69099],[136.489347,34.690557],[136.490197,34.689949],[136.489847,34.689616],[136.489485,34.689366],[136.489235,34.689116],[136.488848,34.688399],[136.488748,34.688124],[136.488748,34.687857],[136.488848,34.687291],[136.489148,34.687041],[136.489835,34.686658],[136.490148,34.686458],[136.490448,34.686099],[136.491547,34.6854],[136.492335,34.685333],[136.49291,34.685333],[136.49346,34.685558],[136.493597,34.685558],[136.494235,34.68535],[136.49426,34.685325],[136.49451,34.685466],[136.494697,34.685708],[136.495034,34.685825],[136.495697,34.68585],[136.496484,34.685933],[136.497034,34.686141],[136.497111,34.68602],[136.497347,34.686016],[136.497784,34.685858],[136.498372,34.685425],[136.498509,34.685358],[136.498946,34.685433],[136.499246,34.685408],[136.499446,34.68535],[136.499534,34.685183],[136.501022,34.683754],[136.502366,34.68335],[136.503941,34.68335],[136.504967,34.683595],[136.506152,34.683436],[136.507544,34.682489],[136.508768,34.681974],[136.509992,34.681974],[136.511513,34.682257],[136.512916,34.682981],[136.515214,34.682754],[136.51627,34.682996],[136.518645,34.683905],[136.520092,34.684005],[136.523956,34.68345],[136.524256,34.682992],[136.524994,34.682134],[136.525144,34.681984],[136.524981,34.681817],[136.525506,34.681384],[136.525731,34.681117],[136.525881,34.680859],[136.525981,34.680543],[136.526019,34.680034],[136.525956,34.679843],[136.525769,34.679609],[136.525357,34.679443],[136.524207,34.679318],[136.524019,34.678784],[136.524182,34.678493],[136.524169,34.678243],[136.525532,34.677976],[136.525682,34.678018],[136.526007,34.677968],[136.527594,34.679859],[136.527881,34.681567],[136.529943,34.684059],[136.532768,34.682559],[136.532893,34.681984],[136.536093,34.680284],[136.536331,34.679526],[136.535131,34.678168],[136.535393,34.677985],[136.535781,34.677793],[136.536631,34.677301],[136.53918,34.680401],[136.539555,34.680234],[136.540293,34.681076],[136.539943,34.681326],[136.540155,34.681593],[136.540555,34.681401],[136.54103,34.682026],[136.540705,34.682209],[136.541355,34.683042],[136.54678,34.679993],[136.54543,34.678268],[136.544942,34.678526],[136.544292,34.677618],[136.544567,34.67746],[136.542368,34.674627],[136.549318,34.670819],[136.552142,34.674235],[136.55213,34.674485],[136.553242,34.675819],[136.553442,34.675835],[136.553692,34.676152],[136.557404,34.671477],[136.556192,34.669944],[136.55408,34.66732],[136.548105,34.666211],[136.548643,34.66392],[136.548756,34.663062],[136.549031,34.662653],[136.549081,34.66232],[136.548918,34.661712],[136.548556,34.661129],[136.548643,34.660787],[136.548781,34.660695],[136.548993,34.660629],[136.548806,34.658271],[136.548494,34.656946],[136.548394,34.656113],[136.548394,34.655863],[136.548144,34.654446],[136.547894,34.653413],[136.547806,34.65258],[136.547806,34.651946],[136.547619,34.650796],[136.547532,34.649363],[136.547719,34.646664],[136.547882,34.645739],[136.547957,34.644947],[136.548182,34.643714],[136.548807,34.641464],[136.54957,34.639081],[136.549832,34.63809],[136.549782,34.63809],[136.549307,34.63559],[136.549282,34.63489],[136.549232,34.634757],[136.548708,34.632107],[136.548495,34.63174],[136.548158,34.631249],[136.547945,34.630841],[136.547945,34.630707],[136.547646,34.629491],[136.547446,34.628574],[136.547283,34.627983],[136.545396,34.625283],[136.545008,34.624675],[136.544521,34.623441],[136.544471,34.623216],[136.544246,34.622766],[136.544083,34.622292],[136.543996,34.6222],[136.543758,34.622183],[136.543159,34.622225],[136.542796,34.622092],[136.542884,34.622425],[136.542259,34.622675],[136.540096,34.623391],[136.539496,34.623616],[136.539096,34.622925],[136.539009,34.622291],[136.538734,34.621458],[136.537609,34.616642],[136.537522,34.616442],[136.537522,34.616325],[136.531934,34.616642],[136.531547,34.616442],[136.531472,34.616234],[136.529797,34.613559],[136.529447,34.611576],[136.529247,34.610834],[136.528222,34.610967],[136.527347,34.611034],[136.52726,34.610634],[136.528597,34.610426],[136.528597,34.610201],[136.529035,34.609751],[136.52911,34.609709],[136.529522,34.610001],[136.52996,34.609709],[136.529935,34.609643],[136.529385,34.609234],[136.529035,34.608901],[136.529335,34.608426],[136.529822,34.608518],[136.530447,34.608784],[136.530972,34.608943],[136.531135,34.608926],[136.532147,34.609018],[136.534297,34.60931],[136.53548,34.609492],[136.534533,34.608945],[136.532758,34.607919],[136.530983,34.606472],[136.528868,34.604844],[136.527668,34.603073],[136.526982,34.601473],[136.526239,34.600759],[136.52541,34.600387],[136.524467,34.600387],[136.523695,34.600616],[136.523466,34.601359],[136.523581,34.602216],[136.523124,34.603158],[136.522095,34.603215],[136.521223,34.602685],[136.521248,34.602376],[136.521436,34.602151],[136.52171,34.601993],[136.521773,34.601901],[136.521935,34.601043],[136.521898,34.60071],[136.521798,34.600368],[136.521873,34.60021],[136.522386,34.598277],[136.522086,34.598118],[136.521598,34.597785],[136.520186,34.596977],[136.519711,34.596902],[136.519036,34.596452],[136.518511,34.596185],[136.518348,34.596052],[136.517211,34.595418],[136.516961,34.595393],[136.516986,34.595352],[136.516899,34.595168],[136.514686,34.592743],[136.514611,34.592627],[136.513661,34.593193],[136.510649,34.59006],[136.507987,34.591676],[136.506787,34.59116],[136.506587,34.591093],[136.506512,34.591301],[136.506399,34.591385],[136.506024,34.591926],[136.50585,34.592285],[136.505725,34.592735],[136.505637,34.593118],[136.504,34.595034],[136.497114,34.593539],[136.496475,34.593401],[136.496226,34.594143],[136.495651,34.594026],[136.492488,34.593243],[136.491039,34.592926],[136.490351,34.592726],[136.487552,34.592051],[136.487327,34.59196],[136.487164,34.592793],[136.487077,34.592726],[136.486114,34.592485],[136.485289,34.592193],[136.484639,34.591693],[136.483727,34.591201],[136.48309,34.590976],[136.482402,34.59091],[136.48219,34.590926],[136.48066,34.590035],[136.478838,34.589349],[136.476186,34.588986],[136.474101,34.588251],[136.471338,34.587476],[136.468429,34.586687],[136.465834,34.58648],[136.463741,34.586721],[136.461749,34.587293],[136.459384,34.587935],[136.457613,34.588108],[136.455734,34.588036],[136.454144,34.58739],[136.453173,34.586303],[136.453081,34.586152],[136.452906,34.585552],[136.452944,34.585335],[136.453056,34.585077],[136.453406,34.584677],[136.453444,34.584535],[136.453231,34.584035],[136.453156,34.583935],[136.453094,34.583277],[136.453081,34.582952],[136.453006,34.582643],[136.452994,34.582302],[136.453031,34.581968],[136.452931,34.58166],[136.452619,34.581127],[136.452306,34.580777],[136.452106,34.58031],[136.451756,34.579785],[136.451506,34.579518],[136.451206,34.579277],[136.450744,34.579102],[136.450232,34.579035],[136.449882,34.578885],[136.449682,34.578685],[136.449594,34.578435],[136.448844,34.577918],[136.448069,34.577177],[136.447682,34.576627],[136.447219,34.57601],[136.447244,34.575335],[136.447194,34.575019],[136.446982,34.574727],[136.446757,34.574569],[136.446345,34.574377],[136.44602,34.574319],[136.445557,34.574319],[136.445295,34.574177],[136.444907,34.573694],[136.444657,34.573619],[136.444257,34.57356],[136.443845,34.573377],[136.443507,34.57321],[136.442945,34.573027],[136.442658,34.572894],[136.442558,34.572735],[136.442533,34.572327],[136.442433,34.572052],[136.442233,34.571885],[136.441558,34.571744],[136.441195,34.571694],[136.440833,34.571569],[136.44057,34.571227],[136.440508,34.570985],[136.440183,34.570444],[136.440095,34.57011],[136.439858,34.569652],[136.439271,34.569044],[136.438483,34.568469],[136.438183,34.568344],[136.437458,34.568227],[136.437746,34.56796],[136.437996,34.56771],[136.438158,34.567435],[136.438858,34.566552],[136.439958,34.564952],[136.440221,34.564636],[136.440521,34.564419],[136.440796,34.564161],[136.440808,34.563994],[136.440733,34.563786],[136.440496,34.563461],[136.440608,34.563253],[136.440783,34.563053],[136.440933,34.562794],[136.440971,34.562603],[136.440908,34.562394],[136.440433,34.561953],[136.439946,34.561653],[136.439646,34.561419],[136.439421,34.561344],[136.438933,34.561328],[136.438708,34.561136],[136.438574,34.560915],[136.438334,34.560711],[136.438009,34.560569],[136.437084,34.560394],[136.436259,34.560028],[136.435784,34.559894],[136.435409,34.559736],[136.434971,34.559611],[136.434734,34.559486],[136.434047,34.558944],[136.433897,34.558736],[136.434022,34.558094],[136.433922,34.557911],[136.433759,34.557786],[136.433547,34.557711],[136.433222,34.557678],[136.432559,34.557819],[136.432234,34.557819],[136.431822,34.557719],[136.431597,34.557728],[136.431447,34.557786],[136.431347,34.557919],[136.431272,34.558311],[136.430934,34.558744],[136.430797,34.558986],[136.430609,34.559203],[136.430497,34.559261],[136.430272,34.559211],[136.429784,34.558978],[136.429384,34.558861],[136.429084,34.558919],[136.428772,34.559019],[136.428509,34.559044],[136.428172,34.558986],[136.427884,34.558969],[136.427809,34.559003],[136.427422,34.559303],[136.427172,34.559586],[136.427022,34.559844],[136.426684,34.560044],[136.426297,34.560094],[136.426097,34.560077],[136.425972,34.560127],[136.425922,34.560202],[136.425659,34.560394],[136.425459,34.560494],[136.425209,34.560569],[136.424959,34.560744],[136.424722,34.561344],[136.424522,34.561477],[136.423759,34.561686],[136.423522,34.561886],[136.422797,34.562635],[136.422397,34.563002],[136.421972,34.563277],[136.420197,34.564019],[136.419885,34.564194],[136.419685,34.564394],[136.419585,34.56461],[136.419697,34.565177],[136.419697,34.565468],[136.419622,34.56576],[136.419422,34.566127],[136.418872,34.566793],[136.418547,34.567085],[136.417772,34.567493],[136.417135,34.567902],[136.416885,34.56801],[136.416272,34.568002],[136.415697,34.567868],[136.415072,34.567593],[136.414772,34.567552],[136.414035,34.567651],[136.413322,34.567535],[136.41306,34.567535],[136.412672,34.567635],[136.412272,34.567685],[136.41211,34.567635],[136.411472,34.567193],[136.411285,34.566968],[136.411223,34.566685],[136.41126,34.565868],[136.411185,34.565577],[136.410523,34.564568],[136.409998,34.563985],[136.409735,34.563793],[136.409348,34.563702],[136.40911,34.563685],[136.408185,34.563902],[136.407623,34.563993],[136.40716,34.564018],[136.40656,34.563943],[136.406285,34.564085],[136.406223,34.56421],[136.40626,34.564368],[136.406373,34.564568],[136.40636,34.565235],[136.40631,34.565643],[136.406373,34.565935],[136.406573,34.566185],[136.406773,34.566318],[136.406723,34.566493],[136.406448,34.566693],[136.405823,34.567393],[136.40551,34.567635],[136.404748,34.567926],[136.404523,34.568118],[136.404348,34.56846],[136.403461,34.569093],[136.403336,34.569384],[136.403436,34.570109],[136.403386,34.570334],[136.403186,34.570551],[136.402448,34.570809],[136.402411,34.570968],[136.402561,34.571393],[136.402636,34.571926],[136.403173,34.572342],[136.403261,34.572492],[136.403261,34.572701],[136.403136,34.572992],[136.402936,34.573242],[136.402611,34.573501],[136.402148,34.573692],[136.401711,34.573667],[136.401336,34.573592],[136.401111,34.573592],[136.400848,34.573659],[136.400023,34.573959],[136.399523,34.574076],[136.398873,34.573984],[136.398661,34.574084],[136.398523,34.574375],[136.398186,34.574817],[136.397936,34.574909],[136.397336,34.575025],[136.397123,34.574975],[136.397048,34.574784],[136.397036,34.57455],[136.396711,34.574059],[136.395999,34.573259],[136.395711,34.572892],[136.395311,34.572067],[136.395199,34.571767],[136.395174,34.571526],[136.395636,34.570292],[136.396036,34.569609],[136.396061,34.569309],[136.396036,34.569076],[136.395536,34.568443],[136.394911,34.567751],[136.394711,34.567476],[136.393924,34.567059],[136.393361,34.566984],[136.392749,34.566943],[136.392411,34.566859],[136.392074,34.566684],[136.391887,34.566434],[136.391849,34.565984],[136.391637,34.565543],[136.391449,34.565268],[136.391337,34.564984],[136.391274,34.564668],[136.391337,34.56416],[136.391612,34.563901],[136.392262,34.56346],[136.392399,34.563285],[136.392512,34.562793],[136.392512,34.562526],[136.392674,34.562401],[136.393336,34.562193],[136.393311,34.562026],[136.393211,34.561835],[136.392637,34.561526],[136.392437,34.561385],[136.392412,34.561235],[136.392474,34.56051],[136.392624,34.560218],[136.393136,34.55956],[136.393236,34.55931],[136.393249,34.558918],[136.393299,34.558627],[136.393499,34.558027],[136.393511,34.557502],[136.393386,34.556769],[136.393286,34.556485],[136.393274,34.556252],[136.393386,34.555969],[136.393161,34.55551],[136.393074,34.555036],[136.392962,34.554786],[136.392612,34.554677],[136.392224,34.554344],[136.391787,34.554144],[136.391424,34.553786],[136.391187,34.553711],[136.390724,34.553627],[136.390712,34.553444],[136.390499,34.552886],[136.390487,34.552727],[136.390649,34.552469],[136.390874,34.552286],[136.390987,34.552094],[136.391037,34.551569],[136.391162,34.551303],[136.391237,34.551036],[136.391249,34.550628],[136.391212,34.550353],[136.391274,34.549961],[136.391387,34.549628],[136.391374,34.549394],[136.391224,34.549036],[136.390774,34.548511],[136.390749,34.548045],[136.390824,34.547253],[136.391074,34.547095],[136.391137,34.546986],[136.391162,34.546645],[136.391512,34.54632],[136.391512,34.546111],[136.391424,34.545936],[136.391649,34.54547],[136.391637,34.545195],[136.391537,34.54502],[136.391374,34.544903],[136.391137,34.544828],[136.390912,34.544795],[136.390737,34.544637],[136.390624,34.544462],[136.390624,34.544403],[136.389924,34.544137],[136.389562,34.544012],[136.389274,34.543987],[136.388787,34.544112],[136.388587,34.544087],[136.388499,34.544028],[136.388199,34.543978],[136.387762,34.54392],[136.387337,34.543787],[136.386937,34.543712],[136.386562,34.543603],[136.386337,34.543503],[136.386112,34.543287],[136.385637,34.542987],[136.385187,34.542895],[136.38435,34.542928],[136.383775,34.54302],[136.382775,34.543262],[136.381963,34.543395],[136.381663,34.54337],[136.381275,34.54327],[136.381038,34.54312],[136.38095,34.542928],[136.381038,34.542387],[136.380913,34.541878],[136.381025,34.541495],[136.381138,34.54127],[136.381163,34.541087],[136.381013,34.540829],[136.380975,34.54007],[136.380863,34.539887],[136.380825,34.539662],[136.380838,34.539304],[136.380751,34.539029],[136.380476,34.538654],[136.380251,34.538462],[136.380226,34.538262],[136.380501,34.537737],[136.380513,34.537679],[136.380401,34.537546],[136.380163,34.537412],[136.380013,34.537204],[136.379938,34.536837],[136.379938,34.536779],[136.379788,34.536529],[136.378901,34.535887],[136.378613,34.535796],[136.378139,34.535771],[136.376926,34.535862],[136.376464,34.535937],[136.375964,34.536071],[136.374864,34.536279],[136.374189,34.536471],[136.374039,34.536604],[136.373852,34.536721],[136.373589,34.536721],[136.373214,34.536537],[136.372914,34.536354],[136.372664,34.536262],[136.372514,34.536262],[136.372214,34.536479],[136.372129,34.536467],[136.371839,34.536421],[136.371214,34.536171],[136.37089,34.536121],[136.369877,34.536371],[136.369477,34.536396],[136.368877,34.536596],[136.369015,34.536054],[136.369227,34.535737],[136.369527,34.535487],[136.369827,34.535312],[136.36994,34.535062],[136.369752,34.534321],[136.36964,34.533954],[136.369577,34.533213],[136.36959,34.532854],[136.369752,34.532738],[136.370265,34.532604],[136.370452,34.532404],[136.370702,34.532046],[136.370677,34.531821],[136.370565,34.531705],[136.370265,34.531546],[136.370152,34.531521],[136.369915,34.531321],[136.36989,34.53103],[136.370427,34.530038],[136.370677,34.529496],[136.370727,34.52918],[136.370427,34.527897],[136.370427,34.527422],[136.370727,34.526547],[136.370515,34.52598],[136.37049,34.525622],[136.371065,34.524855],[136.370952,34.524497],[136.37084,34.524314],[136.370765,34.523347],[136.37049,34.522914],[136.370328,34.522739],[136.37014,34.522597],[136.370028,34.522464],[136.36989,34.522014],[136.369728,34.521656],[136.36929,34.521406],[136.369053,34.521156],[136.368853,34.520273],[136.36889,34.519848],[136.369265,34.519198],[136.369403,34.518831],[136.36959,34.518523],[136.369865,34.518406],[136.370303,34.518456],[136.370765,34.51839],[136.370978,34.518115],[136.37099,34.517031],[136.370903,34.51674],[136.370765,34.51649],[136.370653,34.516065],[136.370828,34.515723],[136.371315,34.514732],[136.371553,34.51424],[136.371853,34.512932],[136.372028,34.511766],[136.372103,34.511582],[136.372129,34.511287],[136.37219,34.511291],[136.372315,34.511057],[136.372403,34.510732],[136.372565,34.510557],[136.372978,34.510391],[136.373178,34.510266],[136.373628,34.509433],[136.37389,34.509041],[136.373953,34.509033],[136.373303,34.508691],[136.37314,34.508674],[136.372678,34.508708],[136.372178,34.508633],[136.371728,34.508558],[136.371565,34.508491],[136.37134,34.508158],[136.370853,34.508016],[136.370366,34.507791],[136.370066,34.507566],[136.370016,34.507433],[136.369766,34.5073],[136.369553,34.506983],[136.369466,34.5066],[136.369328,34.506441],[136.369091,34.50635],[136.368678,34.506325],[136.367891,34.506575],[136.367666,34.506683],[136.367429,34.506999],[136.367041,34.507116],[136.366366,34.507249],[136.365704,34.507399],[136.365379,34.507516],[136.365404,34.508008],[136.365241,34.508441],[136.365029,34.508683],[136.364216,34.509366],[136.363779,34.509432],[136.363642,34.509357],[136.363254,34.509249],[136.362717,34.509699],[136.362392,34.509807],[136.361817,34.509766],[136.361492,34.509832],[136.361379,34.509899],[136.361079,34.510216],[136.360804,34.51039],[136.36048,34.51039],[136.360092,34.510524],[136.359717,34.510707],[136.35963,34.510707],[136.359042,34.510549],[136.35868,34.51059],[136.358192,34.51084],[136.357642,34.510974],[136.357293,34.511015],[136.356968,34.510974],[136.35653,34.510615],[136.356118,34.51039],[136.35588,34.510382],[136.355493,34.510565],[136.35533,34.510682],[136.355005,34.510815],[136.35438,34.510832],[136.353893,34.510632],[136.353318,34.510274],[136.352643,34.509957],[136.352181,34.509799],[136.351931,34.50964],[136.351881,34.509565],[136.351631,34.508799],[136.351356,34.508574],[136.350956,34.508374],[136.349994,34.508099],[136.349344,34.508149],[136.348969,34.508099],[136.348669,34.507899],[136.348581,34.507807],[136.348181,34.507599],[136.347819,34.50749],[136.347419,34.507424],[136.346407,34.506966],[136.346132,34.506741],[136.345644,34.505749],[136.345294,34.505457],[136.345269,34.505257],[136.345544,34.504466],[136.345544,34.504349],[136.345432,34.504016],[136.345207,34.503608],[136.345044,34.503449],[136.344969,34.503291],[136.344894,34.503249],[136.344269,34.502608],[136.343982,34.502208],[136.343869,34.501758],[136.343769,34.500875],[136.343532,34.499858],[136.343357,34.499367],[136.343007,34.498958],[136.342294,34.498458],[136.342007,34.498033],[136.341757,34.497758],[136.341632,34.497442],[136.341332,34.497217],[136.341107,34.4971],[136.340732,34.496717],[136.340594,34.496625],[136.340357,34.496284],[136.339757,34.495925],[136.339607,34.495784],[136.338957,34.495059],[136.338307,34.494859],[136.338145,34.49465],[136.337795,34.494042],[136.337045,34.492734],[136.336957,34.492684],[136.336207,34.492476],[136.335982,34.492367],[136.33537,34.491576],[136.334482,34.490709],[136.334183,34.490617],[136.33402,34.490617],[136.333583,34.490726],[136.332683,34.491109],[136.332133,34.491151],[136.331758,34.491259],[136.331183,34.491592],[136.330558,34.491159],[136.329333,34.490542],[136.328933,34.490384],[136.328221,34.490242],[136.327796,34.490084],[136.326858,34.490284],[136.325746,34.490226],[136.325209,34.490159],[136.324746,34.490134],[136.324546,34.490042],[136.324496,34.489834],[136.324634,34.489501],[136.324646,34.489009],[136.324734,34.488442],[136.325121,34.487951],[136.325171,34.487767],[136.325196,34.487817],[136.325196,34.487634],[136.325046,34.487318],[136.324696,34.486959],[136.324421,34.486593],[136.324346,34.486301],[136.324346,34.486168],[136.324483,34.485584],[136.324771,34.484734],[136.324608,34.484143],[136.324558,34.483535],[136.324483,34.483151],[136.324458,34.482768],[136.324271,34.482051],[136.324221,34.481485],[136.324371,34.480652],[136.324346,34.480543],[136.324383,34.479485],[136.324058,34.479035],[136.323333,34.478602],[136.322921,34.478218],[136.322408,34.477585],[136.321983,34.477177],[136.321771,34.477018],[136.321446,34.476652],[136.321033,34.476335],[136.320608,34.47611],[136.320033,34.475852],[136.319334,34.475444],[136.318896,34.475327],[136.318459,34.47526],[136.317871,34.475052],[136.316859,34.474552],[136.316321,34.474394],[136.315946,34.474185],[136.315884,34.474069],[136.315834,34.473735],[136.315684,34.473302],[136.314846,34.471794],[136.314471,34.471269],[136.314046,34.470935],[136.313821,34.470594],[136.313721,34.470277],[136.313809,34.469961],[136.313884,34.469827],[136.314059,34.469269],[136.314084,34.468927],[136.314234,34.468569],[136.314284,34.468302],[136.314346,34.468236],[136.313746,34.467936],[136.313284,34.467461],[136.312909,34.467369],[136.312609,34.466961],[136.312121,34.466736],[136.311634,34.466777],[136.311284,34.466503],[136.311097,34.466053],[136.311159,34.465178],[136.311084,34.464678],[136.310871,34.464203],[136.310459,34.463819],[136.309734,34.463794],[136.309247,34.463611],[136.308459,34.463419],[136.307884,34.463353],[136.307072,34.463119],[136.306522,34.463003],[136.306309,34.462753],[136.306184,34.462053],[136.305459,34.461353],[136.305134,34.461303],[136.304585,34.461344],[136.304072,34.461211],[136.303172,34.461228],[136.302685,34.461311],[136.302085,34.461486],[136.301747,34.461619],[136.30116,34.461569],[136.30051,34.461386],[136.299898,34.461928],[136.29936,34.462053],[136.298948,34.462236],[136.298048,34.462386],[136.29761,34.462311],[136.29756,34.462336],[136.296985,34.462177],[136.29636,34.462077],[136.295485,34.462236],[136.294861,34.462386],[136.294236,34.462586],[136.293723,34.462627],[136.293261,34.462511],[136.292798,34.462127],[136.292386,34.461961],[136.291873,34.461936],[136.291198,34.461819],[136.290973,34.461702],[136.290823,34.461369],[136.290711,34.460919],[136.290448,34.460552],[136.290086,34.460552],[136.289361,34.460686],[136.288873,34.460344],[136.288223,34.460044],[136.287736,34.459886],[136.287574,34.459727],[136.287524,34.458894],[136.287336,34.458686],[136.287099,34.457919],[136.286511,34.457019],[136.286599,34.456611],[136.286549,34.455936],[136.286174,34.455594],[136.284949,34.454936],[136.284112,34.454703],[136.283862,34.454569],[136.283487,34.454411],[136.283299,34.454386],[136.282699,34.453836],[136.282362,34.453345],[136.281899,34.453095],[136.281212,34.45297],[136.2807,34.45297],[136.28035,34.453169],[136.279712,34.453394],[136.27925,34.453411],[136.278662,34.453336],[136.277863,34.453403],[136.277863,34.453378],[136.276563,34.453011],[136.2758,34.452869],[136.275151,34.452619],[136.274776,34.452369],[136.274238,34.452228],[136.274013,34.452203],[136.273338,34.452311],[136.272851,34.452419],[136.272388,34.452353],[136.271564,34.452386],[136.271076,34.452319],[136.270651,34.452069],[136.270189,34.451753],[136.269376,34.451478],[136.268801,34.451136],[136.268376,34.450969],[136.267802,34.451036],[136.267227,34.451278],[136.266602,34.451319],[136.265952,34.451269],[136.265102,34.451444],[136.263877,34.451528],[136.263302,34.451478],[136.262627,34.451136],[136.261415,34.450861],[136.26054,34.450561],[136.259865,34.450394],[136.258503,34.450161],[136.258228,34.450136],[136.256378,34.450236],[136.256028,34.450186],[136.255866,34.450119],[136.255053,34.449486],[136.254516,34.449303],[136.253978,34.448986],[136.253491,34.448528],[136.253491,34.448486],[136.252566,34.447936],[136.252191,34.447753],[136.250691,34.44797],[136.248817,34.447911],[136.248629,34.44787],[136.248304,34.44802],[136.247842,34.448061],[136.247143,34.44785],[136.247117,34.447903],[136.246904,34.447936],[136.246179,34.447853],[136.245717,34.447728],[136.245167,34.447478],[136.244842,34.44737],[136.244555,34.447411],[136.244055,34.44757],[136.243617,34.447795],[136.242667,34.448403],[136.242205,34.448628],[136.241742,34.448736],[136.241093,34.448578],[136.23998,34.448186],[136.23943,34.448086],[136.238793,34.448095],[136.238055,34.448228],[136.237818,34.448294],[136.237181,34.448394],[136.235731,34.448419],[136.234393,34.448619],[136.233768,34.448644],[136.233006,34.448569],[136.232044,34.448544],[136.231419,34.448628],[136.229331,34.448819],[136.228669,34.448944],[136.227944,34.448986],[136.224769,34.448636],[136.22407,34.448628],[136.223482,34.448644],[136.222195,34.448594],[136.220782,34.448169],[136.220158,34.448111],[136.219708,34.448169],[136.21927,34.448328],[136.218783,34.448611],[136.217533,34.449586],[136.217233,34.449744],[136.21702,34.449744],[136.21687,34.449694],[136.216533,34.449686],[136.216258,34.449761],[136.215883,34.449936],[136.215495,34.449969],[136.215196,34.449878],[136.214833,34.449678],[136.214483,34.449569],[136.213971,34.449511],[136.212933,34.449311],[136.212521,34.449278],[136.211746,34.449369],[136.211358,34.449286],[136.210571,34.448911],[136.210071,34.448728],[136.209509,34.448628],[136.208996,34.448503],[136.208259,34.448328],[136.207771,34.448311],[136.206247,34.448628],[136.206459,34.448894],[136.206521,34.449178],[136.206521,34.449511],[136.206421,34.450269],[136.206484,34.450561],[136.207521,34.451869],[136.207684,34.452194],[136.207771,34.452719],[136.207834,34.453569],[136.208059,34.453927],[136.208296,34.454202],[136.208471,34.454544],[136.208596,34.454919],[136.208584,34.45546],[136.208413,34.456314],[136.208334,34.45671],[136.208371,34.457027],[136.208484,34.45736],[136.208459,34.457527],[136.208271,34.45801],[136.207996,34.458168],[136.207546,34.458268],[136.207359,34.45836],[136.207284,34.458902],[136.207321,34.459443],[136.207334,34.460302],[136.207371,34.460643],[136.207534,34.460843],[136.208246,34.461368],[136.208558,34.461693],[136.208846,34.462218],[136.208946,34.462518],[136.209021,34.46296],[136.209071,34.464001],[136.209183,34.464409],[136.209583,34.465009],[136.209633,34.465868],[136.209521,34.466559],[136.209358,34.466951],[136.209383,34.467176],[136.210246,34.468717],[136.210783,34.469184],[136.211083,34.469526],[136.21152,34.470101],[136.211645,34.470409],[136.211858,34.470584],[136.212245,34.470767],[136.21297,34.47105],[136.213308,34.471417],[136.213658,34.471675],[136.21397,34.472234],[136.214158,34.472459],[136.214707,34.4727],[136.21482,34.4729],[136.21487,34.473233],[136.214857,34.473883],[136.214807,34.474158],[136.214195,34.474833],[136.214107,34.475117],[136.214357,34.475567],[136.214445,34.475658],[136.214632,34.47605],[136.214907,34.47695],[136.215095,34.477325],[136.21532,34.477616],[136.21542,34.477883],[136.215395,34.478183],[136.215145,34.478475],[136.214957,34.479283],[136.214907,34.479708],[136.215107,34.480066],[136.215432,34.480824],[136.215732,34.481416],[136.216132,34.481666],[136.21627,34.481707],[136.216545,34.482007],[136.21682,34.482407],[136.217332,34.483057],[136.217695,34.483282],[136.218144,34.483474],[136.218419,34.483632],[136.218469,34.48369],[136.218344,34.484074],[136.218357,34.484582],[136.218569,34.484849],[136.219532,34.485332],[136.220182,34.485515],[136.220744,34.485599],[136.221307,34.48584],[136.221769,34.486073],[136.222194,34.486357],[136.222744,34.486823],[136.223157,34.486873],[136.223806,34.486832],[136.224244,34.486898],[136.224719,34.487157],[136.225369,34.487723],[136.225744,34.487948],[136.226506,34.488257],[136.226844,34.488432],[136.227694,34.48874],[136.228506,34.488948],[136.228718,34.489107],[136.228931,34.48974],[136.229306,34.490323],[136.229381,34.491006],[136.229793,34.491906],[136.229993,34.492623],[136.229993,34.492998],[136.229931,34.493356],[136.229718,34.493714],[136.229356,34.494181],[136.229306,34.494539],[136.229193,34.494814],[136.228856,34.494914],[136.228018,34.495014],[136.227831,34.495081],[136.227606,34.495281],[136.227168,34.495497],[136.226231,34.495547],[136.225619,34.495531],[136.224756,34.495539],[136.224106,34.495656],[136.223581,34.495789],[136.223156,34.496039],[136.222419,34.496589],[136.222119,34.496656],[136.221831,34.496606],[136.220532,34.496456],[136.220007,34.496464],[136.219682,34.496522],[136.219007,34.496847],[136.218257,34.497022],[136.218094,34.497164],[136.217969,34.49768],[136.217732,34.498022],[136.217569,34.498164],[136.216732,34.49883],[136.215769,34.499405],[136.215532,34.499947],[136.215194,34.500413],[136.215219,34.500622],[136.215157,34.500788],[136.214694,34.501188],[136.214619,34.501413],[136.214819,34.501955],[136.214819,34.502046],[136.214694,34.502396],[136.214607,34.502888],[136.215019,34.503288],[136.215157,34.503688],[136.215194,34.504221],[136.215344,34.504796],[136.215132,34.505421],[136.215094,34.505871],[136.215344,34.506246],[136.215894,34.506629],[136.216044,34.506779],[136.215982,34.507004],[136.215832,34.507288],[136.215757,34.507612],[136.215769,34.507746],[136.216082,34.508021],[136.217019,34.508504],[136.217494,34.508837],[136.218382,34.509571],[136.219144,34.510037],[136.219406,34.510396],[136.219506,34.510837],[136.219556,34.512912],[136.219531,34.513445],[136.219681,34.514528],[136.219769,34.515436],[136.219756,34.515911],[136.218931,34.518544],[136.218619,34.519627],[136.218219,34.520611],[136.217657,34.521477],[136.216319,34.522885],[136.216069,34.523202],[136.216057,34.523393],[136.216132,34.523668],[136.216482,34.524235],[136.216519,34.524368],[136.216519,34.524677],[136.216332,34.52541],[136.216319,34.525776],[136.216607,34.528143],[136.216557,34.528243],[136.216369,34.528359],[136.214957,34.528718],[136.214332,34.528843],[136.21377,34.528893],[136.212695,34.528818],[136.211882,34.528884],[136.210832,34.529001],[136.210207,34.529051],[136.209845,34.528909],[136.20922,34.528517],[136.208795,34.528442],[136.208645,34.528442],[136.20837,34.528367],[136.207932,34.528059],[136.20757,34.527868],[136.207233,34.527751],[136.206845,34.527718],[136.206508,34.527543],[136.206145,34.527393],[136.20547,34.527359],[136.204695,34.527051],[136.204283,34.527001],[136.203833,34.526876],[136.202908,34.526509],[136.202008,34.526276],[136.200571,34.525684],[136.199658,34.525401],[136.199108,34.525276],[136.198446,34.525218],[136.198208,34.525176],[136.197858,34.524926],[136.197608,34.52461],[136.197121,34.524218],[136.196646,34.523985],[136.196233,34.52386],[136.195784,34.523793],[136.195221,34.523668],[136.193996,34.52351],[136.193421,34.523476],[136.192821,34.523493],[136.192421,34.52356],[136.191146,34.523551],[136.190746,34.523685],[136.190247,34.523909],[136.189909,34.523968],[136.189584,34.523851],[136.189297,34.523651],[136.188684,34.523376],[136.188322,34.523051],[136.187734,34.52266],[136.187272,34.522426],[136.186934,34.52221],[136.186659,34.521868],[136.186372,34.521202],[136.186159,34.520935],[136.185997,34.520793],[136.184985,34.520143],[136.183622,34.519235],[136.183247,34.518918],[136.182697,34.518252],[136.182497,34.51791],[136.18241,34.517585],[136.18241,34.517169],[136.18231,34.516777],[136.182222,34.516727],[136.181697,34.516685],[136.180785,34.516794],[136.180235,34.516994],[136.178423,34.51736],[136.175936,34.517718],[136.175311,34.517843],[136.174798,34.518002],[136.174461,34.518035],[136.173836,34.517885],[136.173261,34.517885],[136.172211,34.518043],[136.171724,34.518218],[136.171199,34.518468],[136.170449,34.51901],[136.169961,34.519526],[136.169424,34.519718],[136.168874,34.519818],[136.168124,34.51981],[136.167799,34.519901],[136.167387,34.520101],[136.167674,34.520701],[136.167699,34.521151],[136.167349,34.523142],[136.167149,34.524409],[136.167199,34.524742],[136.167649,34.52575],[136.167824,34.525975],[136.168599,34.526484],[136.169511,34.527],[136.169824,34.527233],[136.169999,34.52745],[136.170061,34.527767],[136.170061,34.528108],[136.170149,34.528617],[136.170574,34.529408],[136.170636,34.529616],[136.170474,34.530041],[136.170361,34.530716],[136.170424,34.530966],[136.170586,34.531199],[136.171124,34.531674],[136.171324,34.531933],[136.171261,34.532183],[136.171111,34.532516],[136.171074,34.532899],[136.171111,34.533291],[136.171236,34.533641],[136.171324,34.533766],[136.171574,34.533949],[136.171786,34.534241],[136.171861,34.534516],[136.171848,34.534649],[136.171636,34.535374],[136.171224,34.536932],[136.171049,34.537382],[136.170799,34.537723],[136.170086,34.538507],[136.169649,34.53889],[136.168511,34.539515],[136.168124,34.539565],[136.167486,34.539515],[136.167099,34.53959],[136.166836,34.539806],[136.166449,34.540423],[136.165962,34.540956],[136.165912,34.541114],[136.165712,34.541439],[136.165512,34.541531],[136.164599,34.541564],[136.164474,34.541656],[136.164337,34.541898],[136.164237,34.542264],[136.164087,34.542623],[136.163824,34.542897],[136.163374,34.543214],[136.162187,34.544131],[136.161912,34.544214],[136.161712,34.544414],[136.161199,34.54513],[136.160724,34.546022],[136.160399,34.546322],[136.159925,34.546639],[136.1597,34.546838],[136.159825,34.546955],[136.160324,34.547088],[136.160599,34.54733],[136.160887,34.54783],[136.161112,34.548097],[136.161799,34.548397],[136.161837,34.548372],[136.161737,34.548322],[136.162387,34.54828],[136.162899,34.548347],[136.163424,34.548505],[136.163562,34.54858],[136.163837,34.548805],[136.164187,34.54938],[136.164361,34.550388],[136.164524,34.550546],[136.164974,34.550813],[136.165136,34.55118],[136.165186,34.551879],[136.165374,34.552146],[136.166436,34.553096],[136.166611,34.553404],[136.167199,34.554154],[136.167274,34.554454],[136.167161,34.554729],[136.166924,34.554996],[136.166824,34.555262],[136.166936,34.555537],[136.167411,34.556245],[136.167749,34.557012],[136.168036,34.557295],[136.168436,34.557354],[136.168598,34.557462],[136.168686,34.557895],[136.168798,34.558145],[136.169386,34.558504],[136.169423,34.558762],[136.169536,34.558912],[136.170073,34.559237],[136.170173,34.55942],[136.170198,34.559745],[136.170611,34.560278],[136.170761,34.560645],[136.170673,34.561511],[136.170748,34.561728],[136.170948,34.561761],[136.171673,34.561795],[136.172136,34.561703],[136.172611,34.561653],[136.172873,34.561728],[136.17346,34.561953],[136.173948,34.562236],[136.174148,34.562511],[136.174298,34.56287],[136.174273,34.562886],[136.174485,34.563695],[136.17466,34.564103],[136.175223,34.564861],[136.175523,34.565403],[136.176273,34.566403],[136.176673,34.566853],[136.176985,34.568344],[136.17741,34.568277],[136.178672,34.568244],[136.179172,34.568194],[136.179597,34.568069],[136.18021,34.567828],[136.181885,34.567561],[136.183272,34.567336],[136.183722,34.567136],[136.183972,34.566911],[136.184297,34.566761],[136.184572,34.566761],[136.184847,34.567028],[136.184984,34.567328],[136.185047,34.568403],[136.185209,34.568719],[136.185384,34.568911],[136.185709,34.569002],[136.185934,34.569002],[136.187222,34.568861],[136.187709,34.568828],[136.189071,34.568878],[136.189871,34.568786],[136.190846,34.568603],[136.191434,34.568444],[136.192146,34.568103],[136.192559,34.567819],[136.192884,34.567469],[136.193671,34.566445],[136.193921,34.566236],[136.194171,34.56617],[136.194559,34.566203],[136.194734,34.566261],[136.195471,34.566611],[136.196083,34.56652],[136.196446,34.566511],[136.196633,34.566445],[136.196833,34.566153],[136.197058,34.565678],[136.197246,34.56497],[136.197346,34.564053],[136.197533,34.563495],[136.197871,34.563495],[136.198158,34.563612],[136.198408,34.563837],[136.198471,34.564062],[136.198521,34.564445],[136.198646,34.564845],[136.199021,34.565511],[136.199258,34.566086],[136.199396,34.56617],[136.201358,34.566845],[136.20162,34.566745],[136.20177,34.56662],[136.202533,34.565586],[136.202758,34.565103],[136.202995,34.564187],[136.203033,34.564162],[136.203183,34.564312],[136.203383,34.564595],[136.203683,34.564828],[136.20412,34.564878],[136.20497,34.564786],[136.205208,34.564886],[136.20587,34.565428],[136.206908,34.56592],[136.20787,34.566545],[136.208395,34.566711],[136.20867,34.566736],[136.208957,34.566345],[136.20907,34.565936],[136.20932,34.565586],[136.209895,34.565595],[136.21022,34.565328],[136.210932,34.564445],[136.211095,34.564037],[136.211357,34.563687],[136.211707,34.563428],[136.21287,34.563003],[136.21322,34.562678],[136.213669,34.562154],[136.213744,34.562012],[136.214032,34.561795],[136.214582,34.561729],[136.214807,34.561529],[136.214857,34.561262],[136.214707,34.56107],[136.214594,34.560712],[136.214757,34.560529],[136.214869,34.560495],[136.215419,34.560137],[136.215632,34.560112],[136.216194,34.560196],[136.216494,34.559954],[136.216919,34.559521],[136.217607,34.558962],[136.219069,34.557863],[136.219482,34.557604],[136.219819,34.557546],[136.219994,34.557579],[136.220019,34.557954],[136.219744,34.559262],[136.219619,34.560062],[136.218957,34.561095],[136.218757,34.561479],[136.218744,34.561779],[136.218819,34.562004],[136.219282,34.562654],[136.219419,34.56302],[136.219256,34.563295],[136.218457,34.563903],[136.218307,34.564153],[136.218394,34.564312],[136.219294,34.565253],[136.219494,34.565703],[136.219169,34.56647],[136.219231,34.566636],[136.219319,34.567336],[136.219444,34.567578],[136.219506,34.567853],[136.219531,34.568203],[136.219731,34.568328],[136.220306,34.568486],[136.221181,34.56877],[136.221756,34.56902],[136.222206,34.569336],[136.222606,34.569744],[136.222794,34.570061],[136.222756,34.570361],[136.222781,34.571086],[136.222944,34.571461],[136.223006,34.571836],[136.223019,34.572644],[136.223281,34.573277],[136.223481,34.573644],[136.223668,34.573836],[136.224343,34.574036],[136.224393,34.574086],[136.224493,34.574369],[136.224531,34.574761],[136.224768,34.575627],[136.225018,34.576086],[136.225206,34.576535],[136.225543,34.577894],[136.225756,34.578435],[136.225993,34.578919],[136.226506,34.579469],[136.226931,34.579602],[136.227368,34.579602],[136.228118,34.579377],[136.229043,34.579252],[136.229743,34.578927],[136.230155,34.578894],[136.230405,34.579085],[136.230568,34.579394],[136.23078,34.57961],[136.23128,34.579677],[136.231955,34.579585],[136.232518,34.579452],[136.233005,34.579377],[136.233242,34.57941],[136.233617,34.579519],[136.234017,34.579594],[136.234442,34.57951],[136.234905,34.579294],[136.23523,34.579002],[136.235442,34.578994],[136.236067,34.579161],[136.236492,34.579161],[136.237367,34.578919],[136.237542,34.578961],[136.237805,34.579119],[136.237892,34.579386],[136.23813,34.579653],[136.238917,34.580369],[136.239267,34.580628],[136.239642,34.580711],[136.240204,34.580711],[136.240517,34.580845],[136.240904,34.581153],[136.241304,34.581345],[136.241867,34.58142],[136.242329,34.581478],[136.242604,34.581595],[136.242867,34.581953],[136.243017,34.582011],[136.243904,34.582095],[136.245067,34.582378],[136.245454,34.582437],[136.246579,34.582303],[136.246904,34.582312],[136.247129,34.58238],[136.247241,34.582304],[136.247379,34.58217],[136.247679,34.581962],[136.248041,34.581879],[136.248204,34.58192],[136.248254,34.58197],[136.248529,34.582487],[136.248629,34.58262],[136.249116,34.583137],[136.249454,34.583229],[136.249854,34.583137],[136.250154,34.583229],[136.250941,34.583704],[136.251116,34.583729],[136.251579,34.583687],[136.252066,34.583437],[136.252203,34.583412],[136.253016,34.583712],[136.253541,34.583779],[136.253941,34.583754],[136.254241,34.583646],[136.254703,34.583512],[136.254978,34.583596],[136.255278,34.583804],[136.255766,34.583962],[136.255966,34.584162],[136.255928,34.584529],[136.256153,34.584796],[136.256153,34.585021],[136.255578,34.585629],[136.255516,34.586237],[136.255416,34.586354],[136.254978,34.586612],[136.254816,34.586854],[136.254428,34.586787],[136.253578,34.586762],[136.251904,34.586803],[136.251541,34.586878],[136.251304,34.586962],[136.250891,34.587262],[136.251241,34.588928],[136.251466,34.589245],[136.251766,34.589511],[136.252591,34.590145],[136.252779,34.590436],[136.253029,34.590611],[136.253254,34.590661],[136.253853,34.590661],[136.254178,34.590703],[136.255003,34.59102],[136.255591,34.591287],[136.256678,34.592037],[136.257866,34.592795],[136.258366,34.593178],[136.258991,34.594311],[136.259128,34.594486],[136.258853,34.594736],[136.258328,34.595053],[136.257566,34.595278],[136.257366,34.595411],[136.257291,34.595661],[136.257428,34.596086],[136.257428,34.596336],[136.257153,34.596586],[136.256353,34.596944],[136.255916,34.597169],[136.254654,34.598278],[136.253991,34.598594],[136.253829,34.598702],[136.253529,34.599111],[136.253279,34.599177],[136.252291,34.599252],[136.251266,34.599427],[136.250916,34.599427],[136.250479,34.599386],[136.250317,34.599452],[136.250204,34.599652],[136.250117,34.599952],[136.249979,34.600852],[136.249979,34.601102],[136.250617,34.602002],[136.250529,34.602202],[136.250179,34.602652],[136.249704,34.603085],[136.249567,34.603152],[136.249317,34.60351],[136.249242,34.603935],[136.249354,34.604235],[136.249592,34.60466],[136.249567,34.60491],[136.249292,34.60536],[136.249317,34.60556],[136.249679,34.605785],[136.249929,34.606035],[136.250142,34.606552],[136.250691,34.60691],[136.250779,34.607002],[136.250866,34.607185],[136.250891,34.607451],[136.250866,34.607726],[136.250366,34.608535],[136.250279,34.608985],[136.250141,34.609301],[136.250116,34.609643],[136.250179,34.610109],[136.250316,34.610476],[136.251279,34.611693],[136.251516,34.612317],[136.251441,34.612392],[136.250891,34.612342],[136.250666,34.612392],[136.250641,34.612459],[136.250254,34.612659],[136.249766,34.612792],[136.249491,34.612934],[136.249404,34.613201],[136.249404,34.613476],[136.249516,34.613767],[136.249704,34.614009],[136.249816,34.614101],[136.249979,34.61435],[136.250116,34.614867],[136.249979,34.615367],[136.249654,34.6162],[136.249654,34.616309],[136.249979,34.61735],[136.250091,34.618133],[136.250279,34.618383],[136.250504,34.618583],[136.250641,34.618792],[136.250641,34.619041],[136.250529,34.619308],[136.250366,34.619575],[136.249841,34.6201],[136.249791,34.62035],[136.249904,34.620883],[136.249454,34.621249],[136.249354,34.621424],[136.249266,34.621766],[136.249291,34.622058],[136.249591,34.622624],[136.249541,34.623074],[136.249379,34.623366],[136.249216,34.623816],[136.249016,34.624224],[136.248854,34.624357],[136.248466,34.624491],[136.248141,34.624557],[136.247891,34.624674],[136.247779,34.624791],[136.247541,34.624741],[136.247229,34.624582],[136.247138,34.624578],[136.247116,34.624624],[136.246816,34.624557],[136.246591,34.624757],[136.245854,34.625224],[136.245754,34.625474],[136.245829,34.625749],[136.245904,34.626532],[136.245841,34.626715],[136.245866,34.627032],[136.245966,34.627215],[136.246566,34.627648],[136.246691,34.627848],[136.246616,34.62794],[136.246341,34.627957],[136.245979,34.628048],[136.245979,34.628248],[136.246129,34.628473],[136.246329,34.62864],[136.246079,34.629265],[136.245841,34.629607],[136.245416,34.629981],[136.245341,34.630181],[136.245266,34.630706],[136.245279,34.63079],[136.245529,34.630906],[136.247138,34.631211],[136.247428,34.631365],[136.247953,34.632115],[136.248191,34.632181],[136.248366,34.632181],[136.248641,34.63229],[136.248741,34.632448],[136.248991,34.632673],[136.249178,34.63279],[136.249453,34.632765],[136.250003,34.632831],[136.250116,34.632898],[136.250003,34.632965],[136.249791,34.633031],[136.249653,34.63324],[136.249791,34.633439],[136.250003,34.633573],[136.250316,34.633639],[136.250965,34.633573],[136.251378,34.633506],[136.251465,34.633573],[136.251415,34.633956],[136.251515,34.634156],[136.251515,34.634298],[136.25144,34.634456],[136.251053,34.634631],[136.250753,34.634698],[136.250528,34.634814],[136.250415,34.634923],[136.250365,34.635198],[136.250415,34.635289],[136.250665,34.635464],[136.25069,34.635648],[136.25064,34.635806],[136.250503,34.635898],[136.249953,34.636006],[136.249865,34.636056],[136.24984,34.636189],[136.250003,34.636456],[136.25004,34.636981],[136.250178,34.637222],[136.250115,34.637431],[136.25004,34.637564],[136.25004,34.637747],[136.250278,34.638172],[136.250278,34.638939],[136.250365,34.639255],[136.250365,34.639614],[136.250315,34.639864],[136.25034,34.640089],[136.250503,34.640605],[136.250553,34.641305],[136.25069,34.641505],[136.251028,34.641797],[136.251215,34.641913],[136.251377,34.642113],[136.25119,34.642588],[136.251102,34.64268],[136.251102,34.64288],[136.25119,34.643222],[136.25144,34.643988],[136.25174,34.644213],[136.252177,34.644388],[136.252927,34.644755],[136.253165,34.644796],[136.254952,34.644122],[136.255289,34.644047],[136.255564,34.644072],[136.255839,34.644188],[136.256052,34.644338],[136.256552,34.644838],[136.256877,34.644947],[136.257402,34.645221],[136.257702,34.645313],[136.258039,34.645355],[136.258364,34.645446],[136.258477,34.645621],[136.258389,34.645738],[136.258064,34.645963],[136.257927,34.646213],[136.257814,34.646821],[136.257702,34.647046],[136.257464,34.64718],[136.257189,34.64738],[136.256852,34.647746],[136.257127,34.647854],[136.257289,34.647988],[136.257539,34.648288],[136.257839,34.649521],[136.257976,34.649813],[136.258201,34.649996],[136.258614,34.650154],[136.259139,34.650262],[136.259464,34.650512],[136.259664,34.650737],[136.259876,34.651479],[136.259901,34.651821],[136.260076,34.652071],[136.260726,34.652612],[136.260701,34.652837],[136.260813,34.653554],[136.261088,34.654162],[136.261138,34.654437],[136.261001,34.655062],[136.261001,34.655379],[136.261138,34.655629],[136.261363,34.655879],[136.261726,34.656079],[136.262901,34.656187],[136.263538,34.656187],[136.263863,34.65612],[136.264776,34.656212],[136.26585,34.656162],[136.2667,34.65652],[136.267138,34.65677],[136.267825,34.657245],[136.268263,34.657262],[136.268288,34.657354],[136.26815,34.657987],[136.268188,34.659004],[136.268238,34.65932],[136.268188,34.659612],[136.26805,34.65972],[136.267738,34.659837],[136.267363,34.659928],[136.2672,34.660062],[136.267113,34.66022],[136.267138,34.660487],[136.267225,34.660562],[136.267475,34.660553],[136.2678,34.660487],[136.268438,34.66047],[136.268788,34.660603],[136.269088,34.660895],[136.269263,34.661187],[136.269363,34.661545],[136.269312,34.662295],[136.269087,34.66297],[136.269062,34.663328],[136.269125,34.663512],[136.269287,34.663645],[136.270162,34.664136],[136.2705,34.664186],[136.270737,34.664112],[136.270912,34.663978],[136.27085,34.663262],[136.270987,34.662987],[136.271212,34.66267],[136.271462,34.66242],[136.271625,34.662312],[136.271875,34.662287],[136.272562,34.662562],[136.272975,34.662762],[136.27325,34.662987],[136.273462,34.66312],[136.2738,34.663145],[136.274212,34.66312],[136.274974,34.663145],[136.275112,34.663278],[136.275087,34.663387],[136.274449,34.664745],[136.273662,34.665961],[136.273737,34.666228],[136.273874,34.666436],[136.274149,34.666678],[136.274149,34.66682],[136.273349,34.667245],[136.272887,34.667286],[136.272637,34.667403],[136.272312,34.667811],[136.271737,34.668394],[136.271375,34.668619],[136.271187,34.668686],[136.270887,34.668911],[136.27055,34.669369],[136.270162,34.669436],[136.26995,34.669411],[136.269725,34.669528],[136.26955,34.669936],[136.269375,34.670119],[136.269087,34.670169],[136.26885,34.670169],[136.267925,34.670586],[136.267575,34.670802],[136.267225,34.671219],[136.267062,34.671786],[136.26625,34.672136],[136.266037,34.672344],[136.2658,34.673344],[136.265762,34.673769],[136.265912,34.67391],[136.266362,34.674152],[136.26675,34.674419],[136.2672,34.674927],[136.267462,34.67556],[136.267712,34.675635],[136.268125,34.675685],[136.268525,34.675685],[136.268862,34.675585],[136.269674,34.675402],[136.270137,34.675194],[136.270687,34.675035],[136.271012,34.675102],[136.271274,34.67541],[136.271337,34.675702],[136.271337,34.675985],[136.271524,34.676369],[136.271862,34.67646],[136.272762,34.67651],[136.273087,34.676577],[136.273062,34.676777],[136.272824,34.677085],[136.272674,34.67736],[136.272699,34.67761],[136.272899,34.677927],[136.272887,34.678193],[136.272737,34.67846],[136.272762,34.678652],[136.272962,34.678793],[136.273062,34.678968],[136.273062,34.67941],[136.273149,34.679577],[136.273349,34.679835],[136.273387,34.680152],[136.273337,34.680493],[136.272849,34.681451],[136.272824,34.681718],[136.272887,34.681976],[136.272887,34.68231],[136.272774,34.682935],[136.272637,34.683293],[136.272399,34.683718],[136.271399,34.684884],[136.270562,34.686126],[136.270462,34.686401],[136.270512,34.686518],[136.270637,34.686551],[136.270912,34.686443],[136.271274,34.686176],[136.271562,34.685743],[136.271662,34.685651],[136.272024,34.685718],[136.272649,34.685901],[136.272999,34.686226],[136.273399,34.686534],[136.273999,34.686651],[136.274424,34.686793],[136.275036,34.687159],[136.275774,34.687668],[136.275949,34.687926],[136.276298,34.688817],[136.276386,34.689192],[136.276398,34.689492],[136.276611,34.689601],[136.277598,34.689717],[136.278323,34.689701],[136.278673,34.689751],[136.278848,34.690009],[136.278886,34.690134],[136.278798,34.690917],[136.278836,34.691292],[136.279236,34.691934],[136.279461,34.693384],[136.279748,34.693684],[136.280773,34.694359],[136.28131,34.694675],[136.281748,34.6948],[136.282685,34.694825],[136.28281,34.6949],[136.283298,34.69585],[136.283173,34.696125],[136.282135,34.696417],[136.281798,34.696725],[136.281773,34.696975],[136.28201,34.697258],[136.28321,34.698308],[136.283572,34.699067],[136.283722,34.6996],[136.283972,34.700158],[136.284897,34.701041],[136.284885,34.701316],[136.28461,34.7018],[136.284635,34.702041],[136.285122,34.702291],[136.285372,34.702491],[136.285772,34.703491],[136.286047,34.703874],[136.286397,34.704041],[136.286884,34.704216],[136.287309,34.704324],[136.287447,34.704391],[136.287634,34.704608],[136.287784,34.704974],[136.288122,34.706191],[136.288484,34.707058],[136.288722,34.707407],[136.289059,34.707574],[136.289534,34.707707],[136.289609,34.707907]]],"type":"Polygon"},"properties":{"name":"一志","yomi":"いちし","kuni_id":"K07","pref":"三重県","kuni_url":"/kg/resource/K07.html","id_url":"G07009.html","id":"G07009","kuni":"伊勢"}}]}