{"type":"FeatureCollection","features":[{"type":"Feature","properties":{"yomi":"いいの","name":"飯野","pref":"三重県","kuni_id":"K07","id_url":"G07011.html","kuni_url":"/kg/resource/K07.html","id":"G07011","kuni":"伊勢"},"geometry":{"coordinates":[[[136.561707,34.60896],[136.565094,34.607769],[136.565944,34.608219],[136.567631,34.60921],[136.568369,34.609685],[136.569156,34.610244],[136.570331,34.610944],[136.570468,34.611077],[136.571131,34.611235],[136.571431,34.61126],[136.571943,34.61106],[136.572793,34.61061],[136.574318,34.609685],[136.574531,34.609302],[136.574856,34.608919],[136.575543,34.608269],[136.57598,34.608019],[136.576418,34.607861],[136.576543,34.607461],[136.57748,34.606719],[136.57788,34.606561],[136.57808,34.606269],[136.578943,34.605661],[136.579143,34.605594],[136.579568,34.605303],[136.580005,34.605094],[136.580143,34.605078],[136.580668,34.605253],[136.581105,34.605819],[136.582105,34.605169],[136.582705,34.604761],[136.58353,34.604128],[136.584317,34.603678],[136.58526,34.601916],[136.584859,34.601149],[136.584859,34.599282],[136.584859,34.597381],[136.584859,34.596254],[136.584237,34.594921],[136.584237,34.592184],[136.58597,34.588161],[136.599477,34.583358],[136.601454,34.582056],[136.602761,34.580698],[136.602761,34.579132],[136.602761,34.576669],[136.603625,34.575817],[136.606667,34.575372],[136.609278,34.573615],[136.609165,34.573256],[136.608815,34.572856],[136.608503,34.572231],[136.608353,34.571556],[136.608378,34.571181],[136.60864,34.570523],[136.608728,34.570481],[136.60889,34.570548],[136.608778,34.570656],[136.608728,34.570815],[136.608728,34.570948],[136.608815,34.571065],[136.608865,34.571081],[136.609003,34.57099],[136.609165,34.57079],[136.60979,34.570515],[136.610253,34.570423],[136.610878,34.570457],[136.611828,34.570382],[136.612265,34.570315],[136.613028,34.570282],[136.613628,34.570298],[136.61379,34.570282],[136.61369,34.569448],[136.614303,34.569582],[136.615302,34.569707],[136.61569,34.569723],[136.615927,34.569673],[136.616277,34.569382],[136.61639,34.569182],[136.616402,34.568324],[136.616515,34.568057],[136.616915,34.567849],[136.616877,34.567474],[136.616952,34.567024],[136.617177,34.566682],[136.616815,34.566349],[136.616565,34.566082],[136.61634,34.565565],[136.616352,34.565049],[136.61649,34.564691],[136.616515,34.564266],[136.616477,34.563866],[136.616677,34.562224],[136.616678,34.562091],[136.61664,34.562116],[136.616153,34.562141],[136.61534,34.562166],[136.614815,34.562149],[136.613865,34.562341],[136.613603,34.562541],[136.613228,34.562999],[136.61309,34.563091],[136.612978,34.563066],[136.612728,34.562866],[136.612615,34.562732],[136.612153,34.562582],[136.611853,34.562516],[136.611603,34.562424],[136.611215,34.562049],[136.61089,34.561982],[136.610615,34.561899],[136.610378,34.561699],[136.610091,34.561407],[136.609553,34.561282],[136.609378,34.561191],[136.609078,34.560699],[136.608966,34.560274],[136.608866,34.559399],[136.608766,34.559382],[136.608403,34.559091],[136.607978,34.558266],[136.607666,34.557033],[136.607578,34.556858],[136.607653,34.556299],[136.607753,34.555825],[136.607778,34.5556],[136.607228,34.554891],[136.607078,34.554216],[136.607016,34.553608],[136.607041,34.553341],[136.607253,34.552933],[136.607603,34.552483],[136.607728,34.55215],[136.607691,34.550867],[136.607729,34.550084],[136.607704,34.549992],[136.606979,34.549217],[136.606654,34.549334],[136.606554,34.549309],[136.606329,34.549134],[136.606404,34.549042],[136.606679,34.548925],[136.606654,34.548792],[136.606429,34.548367],[136.606291,34.548084],[136.606254,34.548034],[136.606016,34.548084],[136.605841,34.547634],[136.605654,34.547617],[136.605454,34.546784],[136.605304,34.546067],[136.605079,34.545559],[136.604667,34.545026],[136.604554,34.544959],[136.604367,34.544734],[136.604167,34.544576],[136.604004,34.544492],[136.603842,34.544451],[136.603554,34.543776],[136.603229,34.543201],[136.602617,34.542618],[136.602529,34.542218],[136.601867,34.541259],[136.601967,34.541126],[136.601992,34.540835],[136.601942,34.540651],[136.601579,34.540118],[136.601492,34.539826],[136.601455,34.539018],[136.601667,34.538951],[136.601967,34.538926],[136.602267,34.53881],[136.602692,34.538543],[136.602692,34.538402],[136.60228,34.53756],[136.602105,34.537402],[136.60208,34.537427],[136.601667,34.537385],[136.60148,34.536985],[136.60128,34.536785],[136.600955,34.536627],[136.600792,34.53661],[136.600655,34.536743],[136.600105,34.536593],[136.59948,34.536435],[136.59918,34.536393],[136.598717,34.536152],[136.598055,34.535618],[136.597505,34.535135],[136.597418,34.535002],[136.597393,34.534802],[136.597443,34.534527],[136.597893,34.533744],[136.59818,34.533002],[136.598293,34.532844],[136.598393,34.53246],[136.598218,34.531627],[136.597968,34.531386],[136.597918,34.531386],[136.597305,34.531077],[136.596793,34.530836],[136.596768,34.530769],[136.596593,34.530677],[136.596518,34.530569],[136.596405,34.530236],[136.596393,34.529969],[136.596368,34.529944],[136.596293,34.528394],[136.596343,34.528219],[136.596318,34.528036],[136.596155,34.527836],[136.595055,34.527311],[136.594643,34.527178],[136.593693,34.527078],[136.593093,34.526969],[136.592018,34.526886],[136.591531,34.526803],[136.590143,34.526394],[136.589568,34.526194],[136.589044,34.525795],[136.588819,34.525528],[136.588706,34.525261],[136.588681,34.524995],[136.588706,34.524878],[136.588581,34.524161],[136.588419,34.523986],[136.588331,34.523828],[136.588056,34.52352],[136.587844,34.523411],[136.587206,34.523211],[136.586769,34.522995],[136.586469,34.522903],[136.585956,34.52282],[136.585569,34.52282],[136.585106,34.522936],[136.584357,34.523395],[136.583969,34.523486],[136.583619,34.523511],[136.583232,34.52347],[136.582994,34.523411],[136.582607,34.523145],[136.582194,34.523053],[136.581182,34.522861],[136.580857,34.522886],[136.580644,34.522936],[136.579969,34.523211],[136.57937,34.52317],[136.579232,34.52322],[136.578982,34.52322],[136.578745,34.523178],[136.578682,34.52322],[136.578445,34.523245],[136.578282,34.523361],[136.57817,34.523386],[136.578145,34.523361],[136.576857,34.523061],[136.57492,34.522745],[136.573645,34.52262],[136.572383,34.522428],[136.567883,34.52182],[136.567121,34.521761],[136.565734,34.52157],[136.565296,34.521445],[136.564821,34.521245],[136.564309,34.520936],[136.563234,34.520095],[136.561684,34.518737],[136.559922,34.516853],[136.559122,34.516187],[136.557147,34.51477],[136.556097,34.514154],[136.554885,34.513245],[136.55431,34.512887],[136.553797,34.512695],[136.553522,34.512629],[136.552898,34.512612],[136.55216,34.512687],[136.551048,34.51272],[136.54946,34.512237],[136.548935,34.512129],[136.548498,34.512004],[136.547898,34.511645],[136.547673,34.511429],[136.547186,34.510779],[136.546036,34.509046],[136.545761,34.508304],[136.545623,34.508087],[136.545211,34.507771],[136.544249,34.507154],[136.543149,34.506696],[136.540636,34.506021],[136.540124,34.505921],[136.539649,34.505787],[136.539212,34.505612],[136.538474,34.505462],[136.538099,34.505421],[136.537549,34.505404],[136.537037,34.505496],[136.536412,34.505546],[136.536087,34.505621],[136.534725,34.505854],[136.534487,34.505837],[136.533862,34.505887],[136.533037,34.505871],[136.531625,34.505796],[136.531025,34.505662],[136.530912,34.505662],[136.530263,34.505512],[136.527888,34.504912],[136.526813,34.504737],[136.525863,34.504746],[136.523826,34.50497],[136.522551,34.505254],[136.520676,34.505604],[136.518989,34.505795],[136.518364,34.505937],[136.517989,34.505987],[136.517439,34.505945],[136.516951,34.505662],[136.516289,34.505104],[136.515964,34.504929],[136.515552,34.50462],[136.515052,34.504179],[136.514964,34.50407],[136.514089,34.503254],[136.513489,34.502804],[136.511802,34.501837],[136.51134,34.501679],[136.509502,34.500829],[136.509002,34.500629],[136.50699,34.499929],[136.506028,34.499746],[136.50504,34.499637],[136.502815,34.499662],[136.500591,34.499937],[136.500066,34.500137],[136.499791,34.500362],[136.499628,34.500612],[136.499403,34.501404],[136.499103,34.502437],[136.498941,34.503203],[136.498891,34.503295],[136.498866,34.503412],[136.498678,34.503637],[136.498441,34.504112],[136.498203,34.505095],[136.497703,34.50602],[136.497441,34.506561],[136.497366,34.506853],[136.497278,34.506961],[136.497228,34.507186],[136.497291,34.507528],[136.497266,34.507728],[136.497153,34.507861],[136.497153,34.507903],[136.497115,34.507948],[136.497066,34.508094],[136.496691,34.508686],[136.496416,34.508878],[136.496141,34.508978],[136.495566,34.509019],[136.494928,34.508853],[136.492682,34.517448],[136.489877,34.518542],[136.487702,34.518542],[136.486012,34.519281],[136.485358,34.520589],[136.483584,34.52139],[136.482211,34.522213],[136.482211,34.523163],[136.48464,34.524175],[136.489761,34.526463],[136.492413,34.526918],[136.494315,34.526035],[136.49544,34.526035],[136.49702,34.526928],[136.49965,34.526928],[136.500755,34.526409],[136.50215,34.525754],[136.503006,34.524915],[136.503997,34.522364],[136.504636,34.521693],[136.506147,34.522281],[136.507827,34.522683],[136.508953,34.522499],[136.511185,34.521915],[136.512234,34.521915],[136.513178,34.522334],[136.514285,34.523055],[136.514406,34.523831],[136.514645,34.525359],[136.514954,34.527854],[136.51604,34.529723],[136.517125,34.531782],[136.519021,34.53389],[136.520375,34.535265],[136.522934,34.536661],[136.525514,34.53737],[136.528115,34.53737],[136.530544,34.537048],[136.532149,34.537611],[136.534503,34.538361],[136.536022,34.539128],[136.537916,34.539502],[136.539793,34.539502],[136.543031,34.539502],[136.544529,34.539645],[136.545331,34.540179],[136.546361,34.54118],[136.547685,34.542651],[136.549149,34.543013],[136.55009,34.542768],[136.550472,34.542196],[136.550472,34.541283],[136.551576,34.540534],[136.552926,34.540534],[136.554153,34.540806],[136.555121,34.541351],[136.555557,34.542073],[136.555832,34.543138],[136.556126,34.544814],[136.556576,34.546317],[136.557406,34.546559],[136.558171,34.546169],[136.558599,34.545056],[136.558945,34.544158],[136.559948,34.544158],[136.56064,34.544434],[136.561188,34.544891],[136.561993,34.545524],[136.562675,34.545695],[136.563553,34.545317],[136.563991,34.54567],[136.563991,34.546097],[136.563991,34.547022],[136.563991,34.547984],[136.565273,34.549182],[136.565658,34.549828],[136.565658,34.550446],[136.564943,34.551449],[136.564379,34.552673],[136.56387,34.553511],[136.564338,34.554088],[136.565328,34.554679],[136.566594,34.554679],[136.566971,34.554875],[136.567896,34.556061],[136.568259,34.55735],[136.568436,34.558411],[136.568192,34.559979],[136.5679,34.560827],[136.567246,34.561763],[136.566352,34.562608],[136.564038,34.563766],[136.561857,34.564798],[136.560467,34.566018],[136.559228,34.567826],[136.558742,34.569034],[136.558742,34.569992],[136.559024,34.570992],[136.558545,34.571626],[136.557826,34.572133],[136.556895,34.572555],[136.5565,34.573077],[136.5565,34.573936],[136.556174,34.574628],[136.555428,34.575457],[136.555293,34.576458],[136.555293,34.577235],[136.555518,34.577843],[136.556708,34.57831],[136.557986,34.578905],[136.558185,34.579811],[136.557469,34.580443],[136.55709,34.5819],[136.557391,34.583477],[136.558327,34.585753],[136.558612,34.587857],[136.558419,34.588662],[136.558006,34.589232],[136.556935,34.590102],[136.555599,34.590841],[136.555156,34.591486],[136.555414,34.592135],[136.55595,34.593479],[136.561707,34.60896]]],"type":"Polygon"}}]}