{"type":"FeatureCollection","features":[{"type":"Feature","properties":{"yomi":"はくり","name":"羽栗","pref":"愛知県","kuni_id":"K09","id_url":"G09006.html","kuni_url":"/kg/resource/K09.html","id":"G09006","kuni":"尾張"},"geometry":{"coordinates":[[[136.880988,35.375644],[136.880808,35.370059],[136.880968,35.364869],[136.880808,35.363352],[136.880362,35.360031],[136.879338,35.357363],[136.877825,35.354961],[136.875887,35.353612],[136.873839,35.353212],[136.871524,35.353079],[136.868142,35.351567],[136.86605,35.35041],[136.863513,35.349788],[136.859997,35.34961],[136.857726,35.348943],[136.854959,35.346658],[136.853935,35.344435],[136.852511,35.341944],[136.848842,35.339315],[136.84537,35.338069],[136.83896,35.337714],[136.833219,35.336602],[136.831928,35.334289],[136.829418,35.328143],[136.827834,35.326617],[136.82659,35.325826],[136.823762,35.325092],[136.820063,35.324298],[136.818819,35.323733],[136.818366,35.322659],[136.815934,35.322094],[136.813559,35.321698],[136.812145,35.320738],[136.809656,35.316838],[136.808469,35.314804],[136.807337,35.313674],[136.806432,35.3139],[136.805471,35.315369],[136.804736,35.316895],[136.804962,35.318873],[136.804679,35.319777],[136.803718,35.320003],[136.802417,35.320399],[136.802077,35.321416],[136.80236,35.322546],[136.803378,35.324015],[136.805075,35.325993],[136.805584,35.326671],[136.805188,35.327632],[136.804509,35.327915],[136.803509,35.328011],[136.802359,35.326402],[136.799944,35.325943],[136.79753,35.326517],[136.795,35.327207],[136.791895,35.327207],[136.787756,35.327896],[136.784881,35.327896],[136.780971,35.327321],[136.777981,35.32847],[136.774301,35.32847],[136.769587,35.327551],[136.766942,35.328585],[136.765265,35.330948],[136.76329,35.331364],[136.762878,35.331481],[136.761753,35.331689],[136.761428,35.331664],[136.760928,35.331464],[136.759916,35.331248],[136.759466,35.331114],[136.758228,35.330873],[136.756866,35.330723],[136.756616,35.330723],[136.756366,35.330639],[136.756116,35.330456],[136.755978,35.330414],[136.755753,35.330414],[136.755453,35.330506],[136.754879,35.330489],[136.753941,35.330423],[136.753916,35.330448],[136.753916,35.330739],[136.753429,35.330739],[136.752929,35.330698],[136.751779,35.330681],[136.751229,35.330731],[136.751016,35.330781],[136.749917,35.331414],[136.748579,35.332073],[136.747704,35.332414],[136.747892,35.332798],[136.748592,35.333939],[136.749042,35.334723],[136.749267,35.335039],[136.749567,35.335689],[136.749767,35.336006],[136.749904,35.336314],[136.750067,35.336539],[136.753866,35.344939],[136.758428,35.356012],[136.758891,35.357003],[136.759303,35.35772],[136.759578,35.358086],[136.759978,35.358761],[136.761103,35.360353],[136.76224,35.361927],[136.762965,35.362777],[136.763703,35.363477],[136.765515,35.364935],[136.76609,35.365452],[136.766652,35.365893],[136.767365,35.366543],[136.768827,35.367602],[136.769764,35.368202],[136.770552,35.368652],[136.771851,35.36921],[136.772764,35.369477],[136.773626,35.369452],[136.773701,35.36946],[136.773876,35.369477],[136.774126,35.369493],[136.774551,35.369643],[136.774767,35.369623],[136.775064,35.36961],[136.775326,35.36961],[136.775826,35.369602],[136.776238,35.369585],[136.776613,35.369543],[136.777163,35.369543],[136.777163,35.369527],[136.777501,35.369502],[136.778113,35.369477],[136.778501,35.369402],[136.779001,35.36936],[136.779501,35.369352],[136.779701,35.369344],[136.779788,35.369327],[136.780113,35.369269],[136.780813,35.369127],[136.780938,35.369135],[136.781488,35.369077],[136.782263,35.369036],[136.782738,35.369044],[136.783788,35.369011],[136.7842,35.369044],[136.785112,35.369011],[136.7852,35.369002],[136.7857,35.368952],[136.786562,35.368861],[136.787587,35.368727],[136.78815,35.368678],[136.788575,35.368644],[136.789662,35.368619],[136.790312,35.368619],[136.791337,35.368594],[136.791912,35.368553],[136.792424,35.368503],[136.792699,35.368469],[136.793012,35.368469],[136.793474,35.368469],[136.794074,35.36842],[136.794311,35.36837],[136.794436,35.368353],[136.794499,35.368336],[136.794386,35.367711],[136.794336,35.367553],[136.794274,35.366903],[136.794312,35.366711],[136.792937,35.363637],[136.792799,35.363478],[136.793524,35.36327],[136.794274,35.363087],[136.794874,35.362904],[136.795649,35.362762],[136.796999,35.362421],[136.798424,35.361896],[136.798749,35.361729],[136.801324,35.360746],[136.801836,35.360587],[136.802511,35.360429],[136.803586,35.360287],[136.805385,35.360096],[136.805598,35.360046],[136.80636,35.359979],[136.807185,35.359863],[136.808648,35.359763],[136.811935,35.359654],[136.815134,35.359479],[136.817534,35.359288],[136.820759,35.358654],[136.821596,35.358471],[136.824208,35.357963],[136.826896,35.357313],[136.82832,35.357038],[136.830095,35.35683],[136.831045,35.356638],[136.83367,35.355905],[136.83402,35.35588],[136.834157,35.355922],[136.837019,35.357372],[136.839457,35.35858],[136.843544,35.360655],[136.845968,35.361638],[136.846456,35.36188],[136.848356,35.362688],[136.849243,35.362971],[136.850943,35.363688],[136.85338,35.364596],[136.854018,35.364913],[136.854342,35.365021],[136.85643,35.366029],[136.858992,35.367121],[136.859804,35.367521],[136.860942,35.368213],[136.861592,35.368687],[136.861892,35.369004],[136.862304,35.369537],[136.862654,35.369921],[136.862904,35.370346],[136.863579,35.371004],[136.864041,35.371537],[136.864616,35.372304],[136.864804,35.372554],[136.865041,35.372637],[136.866716,35.372654],[136.866741,35.372679],[136.867416,35.372645],[136.869765,35.37277],[136.87184,35.372962],[136.872054,35.373067],[136.872415,35.373187],[136.872665,35.373204],[136.873378,35.373362],[136.875715,35.373879],[136.878552,35.374737],[136.880089,35.37532],[136.880988,35.375644]]],"type":"Polygon"}}]}