{"type":"FeatureCollection","features":[{"geometry":{"coordinates":[[[136.822803,35.21537],[136.822928,35.214336],[136.822903,35.213595],[136.822965,35.212828],[136.82294,35.212628],[136.823053,35.211745],[136.823178,35.21002],[136.823303,35.208737],[136.823328,35.207995],[136.823278,35.207879],[136.82279,35.207812],[136.822703,35.207745],[136.822728,35.207695],[136.822703,35.207562],[136.822765,35.206529],[136.822828,35.206279],[136.822828,35.205962],[136.82289,35.205446],[136.822915,35.205046],[136.822978,35.204237],[136.823032,35.204227],[136.823115,35.204212],[136.82369,35.204237],[136.823828,35.204212],[136.824265,35.204237],[136.825203,35.204337],[136.826415,35.204296],[136.82649,35.204321],[136.826903,35.204296],[136.827265,35.204321],[136.82729,35.204346],[136.82879,35.204396],[136.829102,35.204354],[136.829402,35.204196],[136.829565,35.204271],[136.83074,35.204521],[136.831477,35.204546],[136.831677,35.204596],[136.832202,35.204596],[136.832777,35.204646],[136.832877,35.204621],[136.833127,35.204671],[136.834039,35.204696],[136.835327,35.204721],[136.836039,35.204679],[136.836364,35.204704],[136.836889,35.204821],[136.837301,35.204871],[136.837276,35.204513],[136.837526,35.204446],[136.837689,35.204446],[136.837764,35.204513],[136.837789,35.204779],[136.837851,35.204921],[136.838176,35.204988],[136.838226,35.204896],[136.838539,35.204288],[136.838764,35.203755],[136.838789,35.203463],[136.838689,35.203238],[136.838276,35.202846],[136.837926,35.202421],[136.837814,35.202221],[136.837764,35.201905],[136.837926,35.20163],[136.838014,35.201205],[136.838201,35.20098],[136.838676,35.200063],[136.839101,35.199572],[136.839151,35.199413],[136.839126,35.19928],[136.838501,35.198464],[136.838201,35.198172],[136.838064,35.197947],[136.837764,35.197564],[136.837664,35.197289],[136.837664,35.19713],[136.837714,35.196972],[136.837889,35.196755],[136.838851,35.195972],[136.839264,35.195722],[136.840589,35.194697],[136.841389,35.194231],[136.842326,35.193848],[136.842601,35.193781],[136.843226,35.193806],[136.843776,35.193923],[136.843826,35.193906],[136.844388,35.193073],[136.844663,35.192606],[136.844688,35.19249],[136.844363,35.19204],[136.844238,35.191606],[136.844213,35.191381],[136.844288,35.191006],[136.844601,35.190506],[136.845376,35.189723],[136.845651,35.18964],[136.845901,35.18944],[136.846088,35.189057],[136.846126,35.188857],[136.846013,35.188398],[136.845938,35.18829],[136.845713,35.188398],[136.845513,35.188532],[136.844726,35.188665],[136.844588,35.188665],[136.844388,35.188598],[136.844288,35.188348],[136.844338,35.188082],[136.845113,35.187299],[136.845251,35.18709],[136.845088,35.186824],[136.845038,35.18664],[136.845188,35.185965],[136.845188,35.185765],[136.845051,35.185541],[136.844863,35.184799],[136.844863,35.184549],[136.844976,35.184074],[136.844901,35.183699],[136.844413,35.182724],[136.844438,35.182591],[136.844663,35.182433],[136.845076,35.182324],[136.845426,35.182149],[136.845213,35.181674],[136.845051,35.181449],[136.844838,35.181266],[136.844813,35.181108],[136.845663,35.180683],[136.846626,35.180708],[136.847251,35.180783],[136.84775,35.180741],[136.847988,35.180608],[136.849496,35.177323],[136.850091,35.173914],[136.849562,35.170607],[136.84903,35.167415],[136.84903,35.165885],[136.847833,35.162384],[136.847966,35.159126],[136.847833,35.1562],[136.846768,35.153606],[136.848099,35.150215],[136.845703,35.147821],[136.844971,35.145493],[136.846701,35.142767],[136.849234,35.140605],[136.848368,35.136814],[136.846172,35.135883],[136.838917,35.134952],[136.835523,35.130364],[136.835124,35.126839],[136.83485,35.120354],[136.835981,35.115899],[136.837379,35.113904],[136.844167,35.110113],[136.844833,35.107985],[136.847599,35.099368],[136.846295,35.087779],[136.841332,35.082768],[136.839194,35.08238],[136.838919,35.082321],[136.838269,35.082254],[136.837932,35.082213],[136.833807,35.081863],[136.833707,35.081854],[136.833145,35.081796],[136.832745,35.081754],[136.832607,35.081763],[136.832482,35.081779],[136.832382,35.081796],[136.83207,35.081862],[136.83187,35.081896],[136.83167,35.081929],[136.83072,35.082112],[136.830507,35.082146],[136.829708,35.082337],[136.828783,35.082629],[136.828395,35.082754],[136.82762,35.083054],[136.827483,35.083112],[136.825183,35.080637],[136.824783,35.080229],[136.824283,35.080587],[136.824171,35.080662],[136.823383,35.081304],[136.823271,35.081412],[136.823171,35.081495],[136.818759,35.08507],[136.818359,35.085361],[136.818046,35.085645],[136.817821,35.085778],[136.817046,35.08647],[136.816371,35.087061],[136.814971,35.088319],[136.813072,35.090144],[136.811734,35.09186],[136.811159,35.092494],[136.810272,35.093235],[136.809622,35.093618],[136.808822,35.093977],[136.808022,35.094385],[136.807197,35.094752],[136.806272,35.095068],[136.80531,35.095335],[136.803735,35.095693],[136.802672,35.095851],[136.80061,35.096018],[136.799673,35.096218],[136.799285,35.096334],[136.797948,35.096893],[136.79726,35.097342],[136.79671,35.097484],[136.79621,35.097551],[136.796373,35.098134],[136.796485,35.099126],[136.796435,35.099484],[136.793848,35.101517],[136.792998,35.102309],[136.791961,35.103142],[136.791136,35.10375],[136.789511,35.10515],[136.788911,35.105575],[136.788523,35.105916],[136.788448,35.106366],[136.788111,35.107091],[136.788136,35.107225],[136.787973,35.107333],[136.787973,35.107675],[136.787586,35.107875],[136.787261,35.108125],[136.787073,35.108508],[136.786686,35.108941],[136.786086,35.109774],[136.785361,35.111008],[136.784873,35.111391],[136.783411,35.111916],[136.782698,35.112207],[136.782348,35.112324],[136.782348,35.112232],[136.782236,35.111941],[136.781574,35.112232],[136.780974,35.112574],[136.780399,35.113107],[136.780286,35.113107],[136.780199,35.113066],[136.779649,35.113024],[136.778936,35.113024],[136.778224,35.113132],[136.777811,35.113091],[136.777586,35.112891],[136.777399,35.112824],[136.776049,35.113074],[136.775999,35.113141],[136.775999,35.113341],[136.776186,35.113366],[136.776386,35.113432],[136.776324,35.113724],[136.775037,35.114149],[136.774849,35.11424],[136.774437,35.114532],[136.774299,35.11469],[136.773912,35.114582],[136.773849,35.114607],[136.773112,35.115549],[136.772449,35.116274],[136.771049,35.117715],[136.770337,35.118165],[136.769974,35.118307],[136.769649,35.118415],[136.768749,35.118507],[136.767924,35.118482],[136.767337,35.118415],[136.766687,35.118282],[136.766137,35.11804],[136.764975,35.117315],[136.76435,35.116999],[136.763188,35.116324],[136.76295,35.116215],[136.762013,35.116057],[136.761238,35.116124],[136.760638,35.116282],[136.760363,35.116399],[136.759375,35.116915],[136.758325,35.117549],[136.75775,35.117999],[136.757313,35.118498],[136.756675,35.119415],[136.756513,35.119782],[136.756438,35.119873],[136.756325,35.119823],[136.755888,35.119823],[136.755476,35.119823],[136.755413,35.119873],[136.755338,35.120098],[136.755163,35.121181],[136.755138,35.12179],[136.75525,35.122531],[136.755525,35.123523],[136.755938,35.124514],[136.756188,35.125006],[136.756375,35.125531],[136.75665,35.126606],[136.7563,35.126564],[136.7566,35.128164],[136.756625,35.128681],[136.756575,35.129222],[136.756437,35.129314],[136.755225,35.129722],[136.754475,35.130014],[136.7536,35.128439],[136.753463,35.128414],[136.7528,35.128464],[136.752613,35.128372],[136.751925,35.127739],[136.75105,35.126748],[136.7505,35.127089],[136.750025,35.127514],[136.74945,35.128464],[136.74915,35.129114],[136.748788,35.129614],[136.748275,35.129997],[136.747775,35.130247],[136.747138,35.130447],[136.7466,35.130664],[136.746526,35.130664],[136.746463,35.130572],[136.746413,35.130114],[136.745838,35.130356],[136.745451,35.130331],[136.745088,35.130181],[136.744788,35.130181],[136.744351,35.130239],[136.743826,35.130147],[136.743713,35.130097],[136.743638,35.129706],[136.743663,35.129489],[136.744288,35.129339],[136.744076,35.129156],[136.743301,35.129081],[136.742926,35.128473],[136.740501,35.128706],[136.740401,35.128539],[136.740339,35.128539],[136.739951,35.128898],[136.739789,35.128931],[136.739289,35.128723],[136.738651,35.128514],[136.738439,35.128298],[136.738302,35.128039],[136.738002,35.127906],[136.737752,35.127848],[136.737327,35.127331],[136.737264,35.127198],[136.737289,35.126789],[136.737952,35.125889],[136.738377,35.125481],[136.738539,35.125364],[136.738702,35.125056],[136.738677,35.124823],[136.738027,35.124098],[136.737689,35.124481],[136.737052,35.125048],[136.736477,35.125498],[136.736364,35.125623],[136.736664,35.126039],[136.736664,35.126081],[136.736502,35.126264],[136.736002,35.126689],[136.735889,35.126964],[136.735477,35.127389],[136.735002,35.127748],[136.734677,35.127923],[136.734339,35.127973],[136.734064,35.127906],[136.733852,35.127606],[136.73274,35.128822],[136.732577,35.129072],[136.732577,35.129456],[136.732527,35.129664],[136.732414,35.129747],[136.730852,35.130022],[136.730127,35.130114],[136.729715,35.129972],[136.730252,35.129489],[136.73034,35.129314],[136.730102,35.128739],[136.729877,35.128447],[136.729577,35.128289],[136.728578,35.128014],[136.72724,35.128255],[136.725415,35.128655],[136.725003,35.127589],[136.723666,35.127847],[136.722253,35.128205],[136.722176,35.128229],[136.722328,35.128722],[136.721091,35.128947],[136.721391,35.129938],[136.720753,35.13003],[136.721103,35.13138],[136.720528,35.131363],[136.719553,35.131521],[136.719178,35.131696],[136.718878,35.131979],[136.718603,35.132096],[136.718116,35.132121],[136.717703,35.132204],[136.717203,35.132363],[136.716803,35.132363],[136.716216,35.132179],[136.715716,35.132063],[136.715191,35.132129],[136.713666,35.132529],[136.713566,35.131979],[136.714166,35.131904],[136.714204,35.131471],[136.714641,35.131471],[136.714679,35.131104],[136.714929,35.131088],[136.714816,35.130571],[136.715029,35.130571],[136.715029,35.130204],[136.714429,35.130213],[136.713654,35.130171],[136.713604,35.129946],[136.712692,35.130079],[136.712629,35.129904],[136.712067,35.130054],[136.712167,35.130396],[136.711704,35.130396],[136.711729,35.130512],[136.711129,35.130596],[136.710967,35.130029],[136.710167,35.130154],[136.709842,35.128671],[136.709704,35.128279],[136.711004,35.127996],[136.711079,35.128496],[136.711192,35.128713],[136.711242,35.128738],[136.711517,35.128629],[136.711692,35.128271],[136.711742,35.127971],[136.711654,35.127771],[136.710829,35.127471],[136.71038,35.127146],[136.70998,35.127088],[136.708717,35.127104],[136.709117,35.126646],[136.708667,35.126671],[136.707942,35.127912],[136.707792,35.128271],[136.707667,35.128429],[136.70723,35.128204],[136.706842,35.128087],[136.704605,35.128029],[136.704068,35.129195],[136.704855,35.133778],[136.704105,35.133836],[136.706191,35.145002],[136.707566,35.144777],[136.708003,35.146343],[136.70839,35.147468],[136.708553,35.148318],[136.708653,35.148759],[136.708328,35.148826],[136.708865,35.150301],[136.709277,35.151684],[136.709352,35.152092],[136.709627,35.151984],[136.709927,35.153067],[136.710552,35.154742],[136.710715,35.155417],[136.711414,35.157442],[136.711839,35.158933],[136.712152,35.159816],[136.712289,35.160358],[136.712339,35.160858],[136.712127,35.163816],[136.712014,35.164332],[136.711764,35.164266],[136.711277,35.164057],[136.710639,35.163899],[136.709977,35.163691],[136.709989,35.164099],[136.709889,35.165682],[136.709639,35.167515],[136.710014,35.167332],[136.711177,35.166907],[136.710864,35.167465],[136.710364,35.168707],[136.709777,35.16989],[136.709489,35.170523],[136.709239,35.17129],[136.709764,35.171398],[136.709639,35.171648],[136.709152,35.172889],[136.708914,35.173364],[136.708539,35.174264],[136.708302,35.174897],[136.707927,35.175756],[136.707652,35.176481],[136.708264,35.176639],[136.708102,35.176931],[136.707964,35.177289],[136.707064,35.179305],[136.706952,35.179647],[136.707277,35.179572],[136.707402,35.180313],[136.707689,35.181647],[136.707689,35.181963],[136.707951,35.183196],[136.708039,35.183938],[136.708126,35.184255],[136.708339,35.185696],[136.708426,35.185946],[136.708451,35.186213],[136.708539,35.186463],[136.709064,35.189137],[136.709101,35.189637],[136.709151,35.189837],[136.709164,35.190087],[136.709364,35.191004],[136.709526,35.191454],[136.709913,35.191812],[136.709488,35.192362],[136.708976,35.192904],[136.708589,35.193379],[136.709613,35.193887],[136.709426,35.19407],[136.708851,35.194754],[136.708638,35.194954],[136.708476,35.195187],[136.708226,35.195412],[136.707901,35.195845],[136.707576,35.196162],[136.708188,35.196512],[136.708626,35.196712],[136.708088,35.197262],[136.707576,35.197895],[136.707026,35.198553],[136.706514,35.199228],[136.706314,35.199353],[136.706326,35.199428],[136.706551,35.199595],[136.707001,35.199903],[136.707413,35.20017],[136.707663,35.20032],[136.707751,35.200353],[136.708288,35.200286],[136.708426,35.200253],[136.708388,35.200661],[136.708551,35.200811],[136.708738,35.200953],[136.708751,35.201036],[136.708401,35.201528],[136.708001,35.202045],[136.707501,35.202678],[136.706938,35.203328],[136.706651,35.203653],[136.706563,35.20377],[136.706663,35.203878],[136.707063,35.20407],[136.707166,35.204092],[136.706813,35.204411],[136.706276,35.204786],[136.706051,35.205153],[136.705951,35.205403],[136.705638,35.205919],[136.705513,35.206161],[136.705413,35.206661],[136.705376,35.207269],[136.705513,35.207728],[136.705701,35.208228],[136.705938,35.208578],[136.706138,35.208844],[136.706476,35.209161],[136.706988,35.209411],[136.707438,35.209511],[136.707875,35.209552],[136.7082,35.209536],[136.708425,35.209486],[136.708575,35.209444],[136.708775,35.209369],[136.709138,35.209086],[136.709513,35.208769],[136.709838,35.208502],[136.710163,35.208252],[136.710375,35.208161],[136.710513,35.208102],[136.711,35.208011],[136.711338,35.208044],[136.712038,35.208002],[136.712625,35.208027],[136.712863,35.208069],[136.713088,35.208102],[136.713088,35.208219],[136.713362,35.208811],[136.713587,35.209461],[136.713787,35.210202],[136.71385,35.210835],[136.713937,35.211077],[136.71385,35.211194],[136.713825,35.211469],[136.7135,35.21221],[136.713212,35.212752],[136.7128,35.213252],[136.711825,35.214385],[136.711687,35.21461],[136.7115,35.215069],[136.7114,35.21561],[136.71155,35.216035],[136.711987,35.216885],[136.712412,35.217402],[136.712637,35.21756],[136.713187,35.217868],[136.7139,35.21816],[136.714762,35.218377],[136.715499,35.21876],[136.716274,35.219318],[136.716587,35.219651],[136.717037,35.22026],[136.717262,35.22091],[136.717324,35.22116],[136.717724,35.221134],[136.718037,35.221126],[136.718799,35.221034],[136.719599,35.220801],[136.719699,35.220601],[136.720062,35.220459],[136.720524,35.220326],[136.720849,35.220301],[136.721049,35.220343],[136.721524,35.220793],[136.721736,35.221101],[136.721911,35.221393],[136.722074,35.221526],[136.722299,35.221576],[136.722986,35.221526],[136.723836,35.221268],[136.723886,35.221226],[136.725011,35.220926],[136.725474,35.220717],[136.725998,35.220626],[136.726211,35.220534],[136.726461,35.220367],[136.727111,35.220234],[136.727386,35.220142],[136.727561,35.220117],[136.728398,35.219859],[136.728598,35.219834],[136.729261,35.219967],[136.729336,35.220059],[136.729511,35.220101],[136.729648,35.220101],[136.729923,35.220417],[136.730148,35.220501],[136.730286,35.220434],[136.730386,35.220234],[136.730498,35.220117],[136.730611,35.220159],[136.730823,35.220342],[136.731098,35.220384],[136.731573,35.2204],[136.731985,35.220467],[136.73286,35.219942],[136.73316,35.219809],[136.732885,35.219559],[136.732435,35.219292],[136.731973,35.219067],[136.731023,35.218559],[136.730661,35.218292],[136.730386,35.217976],[136.730048,35.217393],[136.729873,35.216743],[136.729948,35.216151],[136.730273,35.215518],[136.730323,35.215343],[136.730273,35.215226],[136.730223,35.215226],[136.730023,35.215343],[136.729698,35.215551],[136.729511,35.215643],[136.729123,35.215709],[136.728898,35.215709],[136.728873,35.214901],[136.728961,35.21391],[136.729098,35.213343],[136.729361,35.212776],[136.729473,35.212418],[136.729598,35.212118],[136.729761,35.211577],[136.730111,35.210543],[136.730336,35.209235],[136.730348,35.20806],[136.730261,35.207477],[136.730098,35.206977],[136.730061,35.206727],[136.729499,35.205994],[136.729161,35.205319],[136.729024,35.205136],[136.728586,35.204827],[136.727836,35.204536],[136.726761,35.204027],[136.726149,35.203852],[136.725661,35.203744],[136.725087,35.203652],[136.725849,35.203219],[136.726036,35.203127],[136.725149,35.202886],[136.724462,35.202644],[136.723824,35.202269],[136.723637,35.202136],[136.723387,35.202069],[136.723199,35.201953],[136.722837,35.201661],[136.722474,35.201236],[136.722899,35.200494],[136.723362,35.199769],[136.723549,35.199586],[136.724074,35.199378],[136.725837,35.198261],[136.727012,35.197803],[136.727049,35.197828],[136.727512,35.197645],[136.729699,35.196745],[136.730874,35.196312],[136.731336,35.196103],[136.733986,35.195095],[136.734698,35.194887],[136.734423,35.194637],[136.734423,35.194553],[136.734561,35.194412],[136.735023,35.194228],[136.735273,35.194187],[136.735461,35.194179],[136.735986,35.194087],[136.736311,35.19397],[136.736636,35.193787],[136.736911,35.193854],[136.737136,35.193945],[136.737336,35.194279],[136.737473,35.194645],[136.737586,35.194845],[136.737861,35.195137],[136.738061,35.195203],[136.739698,35.195212],[136.740223,35.195295],[136.740473,35.19527],[136.740635,35.195179],[136.740773,35.195045],[136.74091,35.19482],[136.74101,35.194754],[136.741873,35.194879],[136.742835,35.194945],[136.742935,35.194987],[136.742923,35.195504],[136.742798,35.19627],[136.743148,35.196295],[136.743485,35.196353],[136.743785,35.196353],[136.74471,35.196187],[136.744822,35.196145],[136.745372,35.19607],[136.745622,35.19607],[136.745397,35.196387],[136.745372,35.196503],[136.745435,35.196703],[136.745597,35.19697],[136.74586,35.19767],[136.746085,35.197937],[136.746222,35.198053],[136.746147,35.198503],[136.746197,35.19902],[136.746372,35.199603],[136.746622,35.200011],[136.74696,35.200236],[136.74701,35.200236],[136.747072,35.20031],[136.74726,35.200353],[136.747535,35.200495],[136.747934,35.200828],[136.748047,35.201011],[136.749234,35.202636],[136.749347,35.202661],[136.749734,35.20257],[136.750034,35.202578],[136.750147,35.202661],[136.750247,35.202869],[136.750359,35.203411],[136.750384,35.203411],[136.750572,35.203861],[136.750734,35.203953],[136.750959,35.203994],[136.751034,35.204044],[136.751284,35.204086],[136.751422,35.204244],[136.751634,35.204653],[136.751909,35.204969],[136.752371,35.204903],[136.752646,35.204769],[136.752596,35.204294],[136.753034,35.204211],[136.753471,35.204144],[136.754221,35.203969],[136.754684,35.203903],[136.754934,35.204219],[136.754959,35.204336],[136.755029,35.204369],[136.755234,35.204419],[136.756246,35.204519],[136.757483,35.204661],[136.758521,35.204711],[136.758658,35.204686],[136.759071,35.204711],[136.759533,35.204803],[136.759921,35.204945],[136.760296,35.205036],[136.760771,35.205086],[136.761895,35.205295],[136.762295,35.205403],[136.762683,35.205478],[136.76367,35.205611],[136.76477,35.20587],[136.764958,35.205845],[136.765833,35.205578],[136.766245,35.205561],[136.76652,35.205745],[136.768432,35.206561],[136.76917,35.206945],[136.77052,35.206936],[136.771757,35.206986],[136.772657,35.207011],[136.773344,35.207061],[136.774957,35.20707],[136.775819,35.207154],[136.775807,35.207228],[136.775919,35.207278],[136.776519,35.207303],[136.776882,35.207345],[136.776969,35.207328],[136.777319,35.20737],[136.777456,35.207353],[136.777869,35.207395],[136.777981,35.207445],[136.778394,35.20747],[136.779044,35.207587],[136.779481,35.20772],[136.779756,35.207903],[136.779844,35.207928],[136.780544,35.208378],[136.780656,35.208403],[136.780881,35.208561],[136.781206,35.208878],[136.781719,35.209261],[136.781994,35.209378],[136.782656,35.209511],[136.783468,35.209628],[136.783856,35.209795],[136.784456,35.209978],[136.785556,35.210495],[136.786531,35.211045],[136.786693,35.211086],[136.787193,35.211095],[136.788206,35.211028],[136.789055,35.211036],[136.789118,35.211011],[136.789493,35.21122],[136.789818,35.211486],[136.791005,35.211986],[136.79168,35.21242],[136.79253,35.212736],[136.794005,35.213195],[136.794505,35.213403],[136.79563,35.213003],[136.79593,35.212936],[136.79678,35.212945],[136.797355,35.21292],[136.797767,35.212945],[136.798105,35.212928],[136.799492,35.213178],[136.799767,35.213095],[136.800317,35.212828],[136.800955,35.212578],[136.801942,35.212295],[136.802117,35.212178],[136.802192,35.212203],[136.802217,35.212178],[136.802629,35.212453],[136.803267,35.212437],[136.803679,35.212478],[136.804492,35.212687],[136.804792,35.212737],[136.804879,35.212803],[136.805179,35.21292],[136.805404,35.213095],[136.805617,35.21332],[136.805804,35.213395],[136.806079,35.21337],[136.806142,35.213395],[136.806517,35.21337],[136.806542,35.21362],[136.806467,35.213778],[136.806342,35.214411],[136.806379,35.21452],[136.806479,35.214636],[136.807442,35.214861],[136.807629,35.214953],[136.807691,35.21507],[136.807629,35.215111],[136.807516,35.215428],[136.807316,35.216303],[136.807341,35.21637],[136.808029,35.21687],[136.808141,35.216911],[136.808466,35.216895],[136.808554,35.216961],[136.808604,35.217094],[136.808541,35.217319],[136.808566,35.217453],[136.808816,35.217503],[136.809341,35.217503],[136.809566,35.217419],[136.810391,35.217286],[136.810929,35.217311],[136.811479,35.217203],[136.812479,35.216828],[136.812866,35.21662],[136.814016,35.215886],[136.814953,35.215645],[136.815141,35.215761],[136.815366,35.215778],[136.815728,35.215736],[136.815803,35.215695],[136.816278,35.215603],[136.816853,35.215453],[136.817178,35.215186],[136.817566,35.215028],[136.817703,35.215095],[136.817728,35.215228],[136.817566,35.215661],[136.817528,35.215861],[136.817616,35.21597],[136.817778,35.216178],[136.817716,35.216378],[136.817303,35.217028],[136.817166,35.217136],[136.816916,35.217228],[136.816941,35.217294],[136.817141,35.217411],[136.817241,35.217411],[136.817516,35.217211],[136.818228,35.217553],[136.81864,35.217686],[136.818978,35.217736],[136.819415,35.217694],[136.820015,35.217561],[136.820928,35.217453],[136.821115,35.217361],[136.821715,35.217278],[136.821753,35.217228],[136.821715,35.217186],[136.821753,35.217078],[136.821728,35.216895],[136.821753,35.216486],[136.821815,35.216286],[136.822053,35.216336],[136.822578,35.216336],[136.822665,35.216295],[136.822715,35.215995],[136.822778,35.215911],[136.822803,35.21537]]],"type":"Polygon"},"properties":{"name":"海東","yomi":"かいとう","kuni_id":"K09","pref":"愛知県","kuni_url":"/kg/resource/K09.html","id_url":"G09008.html","id":"G09008","kuni":"尾張"},"type":"Feature"}]}