{"type":"FeatureCollection","features":[{"type":"Feature","geometry":{"type":"Polygon","coordinates":[[[136.747704,35.332414],[136.748579,35.332073],[136.749917,35.331414],[136.751016,35.330781],[136.751229,35.330731],[136.751779,35.330681],[136.752929,35.330698],[136.753429,35.330739],[136.753916,35.330739],[136.753916,35.330448],[136.753941,35.330423],[136.754879,35.330489],[136.755453,35.330506],[136.755753,35.330414],[136.755978,35.330414],[136.756116,35.330456],[136.756366,35.330639],[136.756616,35.330723],[136.756866,35.330723],[136.758228,35.330873],[136.759466,35.331114],[136.759916,35.331248],[136.760928,35.331464],[136.761428,35.331664],[136.761753,35.331689],[136.762878,35.331481],[136.76329,35.331364],[136.765265,35.330948],[136.766942,35.328585],[136.769587,35.327551],[136.774301,35.32847],[136.777981,35.32847],[136.780971,35.327321],[136.784881,35.327896],[136.787756,35.327896],[136.791895,35.327207],[136.795,35.327207],[136.79753,35.326517],[136.799944,35.325943],[136.802359,35.326402],[136.803509,35.328011],[136.804509,35.327915],[136.805188,35.327632],[136.805584,35.326671],[136.805075,35.325993],[136.803378,35.324015],[136.80236,35.322546],[136.802077,35.321416],[136.802417,35.320399],[136.803718,35.320003],[136.804679,35.319777],[136.804962,35.318873],[136.804736,35.316895],[136.805471,35.315369],[136.806432,35.3139],[136.807337,35.313674],[136.807719,35.313287],[136.809132,35.313834],[136.810454,35.315064],[136.812049,35.315747],[136.813371,35.315337],[136.813781,35.314472],[136.813599,35.313105],[136.81287,35.31183],[136.812733,35.310874],[136.812824,35.309735],[136.813963,35.308915],[136.814738,35.309325],[136.815741,35.310555],[136.816151,35.311876],[136.817382,35.312468],[136.818658,35.312878],[136.819297,35.312468],[136.819342,35.311329],[136.818932,35.309416],[136.818066,35.307594],[136.817519,35.305135],[136.817063,35.303769],[136.816607,35.302949],[136.816516,35.301856],[136.816653,35.301218],[136.818111,35.301081],[136.819707,35.301309],[136.822305,35.300444],[136.822769,35.299639],[136.822539,35.297517],[136.821678,35.295739],[136.82076,35.294363],[136.819268,35.293273],[136.817374,35.292987],[136.815193,35.292585],[136.814102,35.292012],[136.813873,35.291094],[136.813988,35.288284],[136.813522,35.284736],[136.812432,35.28227],[136.811283,35.279919],[136.809562,35.277281],[136.80893,35.276249],[136.809287,35.276204],[136.810712,35.275588],[136.811087,35.275496],[136.811562,35.275471],[136.812099,35.275488],[136.812649,35.275463],[136.812971,35.275558],[136.813381,35.275943],[136.813574,35.276013],[136.813824,35.275963],[136.814087,35.275921],[136.814362,35.275846],[136.814699,35.275763],[136.814799,35.275729],[136.814949,35.275688],[136.815036,35.275671],[136.815086,35.275754],[136.815161,35.275829],[136.815199,35.275888],[136.815311,35.275888],[136.815486,35.275888],[136.815574,35.275896],[136.815699,35.275871],[136.815811,35.275863],[136.816024,35.275821],[136.816161,35.275813],[136.816336,35.275754],[136.816524,35.275721],[136.816661,35.275671],[136.816861,35.275671],[136.817049,35.275654],[136.817219,35.275644],[136.817399,35.275596],[136.817761,35.27553],[136.817936,35.275488],[136.818224,35.275413],[136.818499,35.275363],[136.818686,35.275305],[136.818886,35.275271],[136.819011,35.275255],[136.819124,35.275255],[136.819199,35.275213],[136.819261,35.275296],[136.819299,35.275388],[136.819349,35.275505],[136.819399,35.275605],[136.819411,35.27568],[136.819474,35.275763],[136.819511,35.275871],[136.820674,35.27603],[136.821386,35.276163],[136.821723,35.276296],[136.821998,35.276338],[136.822236,35.276246],[136.822461,35.276046],[136.822861,35.27593],[136.823036,35.27593],[136.823336,35.276038],[136.823836,35.27628],[136.824986,35.276638],[136.825561,35.276705],[136.825786,35.276546],[136.825836,35.276405],[136.825648,35.276296],[136.825536,35.276163],[136.825536,35.27603],[136.825611,35.27578],[136.825586,35.275688],[136.825361,35.275738],[136.825286,35.27578],[136.825061,35.27583],[136.824986,35.275871],[136.824736,35.275896],[136.824736,35.275871],[136.824948,35.27578],[136.825086,35.275513],[136.824648,35.275196],[136.824786,35.274946],[136.824148,35.27448],[136.824011,35.274305],[136.823973,35.274122],[136.824249,35.27358],[136.824849,35.272813],[136.825084,35.272723],[136.825199,35.272605],[136.825524,35.272047],[136.825911,35.272222],[136.826411,35.27238],[136.827036,35.272663],[136.827836,35.272955],[136.828223,35.273022],[136.828823,35.27293],[136.829098,35.272813],[136.829811,35.272222],[136.829911,35.272022],[136.830048,35.271614],[136.830073,35.271322],[136.830036,35.270764],[136.829823,35.270472],[136.829736,35.270089],[136.829649,35.269955],[136.829049,35.269464],[136.828524,35.269197],[136.828211,35.269131],[136.828086,35.269372],[136.827674,35.269197],[136.827336,35.269114],[136.827549,35.268797],[136.827799,35.268339],[136.827636,35.268231],[136.827899,35.267647],[136.828224,35.267306],[136.829061,35.267581],[136.829049,35.267389],[136.829049,35.267289],[136.829074,35.267206],[136.829074,35.267072],[136.829074,35.266914],[136.829099,35.266722],[136.829099,35.266531],[136.829099,35.266389],[136.829074,35.266214],[136.829036,35.266098],[136.829011,35.266006],[136.828911,35.265864],[136.828836,35.265781],[136.828687,35.265631],[136.828562,35.265523],[136.828474,35.265473],[136.828462,35.265398],[136.828437,35.265248],[136.828462,35.265114],[136.828462,35.265048],[136.828449,35.264981],[136.828324,35.264923],[136.828287,35.264781],[136.828512,35.264748],[136.828737,35.264756],[136.828862,35.264764],[136.828849,35.264698],[136.828837,35.264548],[136.828849,35.264314],[136.828862,35.264139],[136.828899,35.263931],[136.828937,35.263823],[136.828974,35.263631],[136.829074,35.263598],[136.829137,35.263506],[136.829137,35.263323],[136.829112,35.262973],[136.829174,35.262656],[136.829224,35.262398],[136.829274,35.262156],[136.829287,35.261965],[136.829287,35.261873],[136.829262,35.261748],[136.829112,35.261706],[136.828949,35.261723],[136.828687,35.261715],[136.828549,35.261731],[136.828412,35.261731],[136.828412,35.261648],[136.828399,35.26154],[136.828412,35.261398],[136.828424,35.261248],[136.828462,35.26104],[136.828487,35.260931],[136.828499,35.260865],[136.828624,35.260781],[136.828774,35.260698],[136.828862,35.260456],[136.828899,35.260323],[136.828949,35.26024],[136.828975,35.260181],[136.829037,35.26019],[136.829137,35.260157],[136.829299,35.260132],[136.829449,35.26014],[136.829774,35.260148],[136.829949,35.260165],[136.830237,35.260007],[136.830437,35.259923],[136.830574,35.259882],[136.830662,35.259873],[136.830762,35.259857],[136.830799,35.259715],[136.830849,35.259557],[136.830862,35.259332],[136.830887,35.259148],[136.830899,35.259073],[136.831124,35.25909],[136.831374,35.259065],[136.831712,35.259065],[136.831924,35.259073],[136.832174,35.259082],[136.832299,35.259082],[136.832462,35.259115],[136.832462,35.25924],[136.832449,35.259357],[136.832687,35.259473],[136.832887,35.259565],[136.833049,35.259573],[136.833124,35.259582],[136.833199,35.25954],[136.833337,35.259382],[136.833512,35.259182],[136.833637,35.259032],[136.833749,35.258898],[136.833824,35.258773],[136.833912,35.258623],[136.833949,35.258507],[136.833887,35.258423],[136.833749,35.258298],[136.833599,35.258215],[136.833524,35.258165],[136.833487,35.258082],[136.833499,35.257915],[136.833549,35.25769],[136.833599,35.257524],[136.833649,35.257299],[136.833674,35.257232],[136.833812,35.25719],[136.834074,35.257207],[136.834324,35.25724],[136.834449,35.25724],[136.834487,35.257174],[136.834574,35.25699],[136.834624,35.256865],[136.834637,35.256799],[136.834687,35.256607],[136.834724,35.25644],[136.834737,35.256349],[136.834737,35.256157],[136.834737,35.255974],[136.834562,35.255907],[136.834474,35.255882],[136.834349,35.255849],[136.834362,35.255749],[136.834399,35.255615],[136.834437,35.255432],[136.834512,35.255315],[136.834575,35.255207],[136.834687,35.255032],[136.834762,35.254932],[136.834875,35.254791],[136.835025,35.254799],[136.835349,35.254824],[136.835524,35.254832],[136.835662,35.254857],[136.835762,35.254849],[136.835849,35.254674],[136.835862,35.254616],[136.835899,35.254441],[136.835937,35.254299],[136.835962,35.254157],[136.835987,35.254066],[136.836012,35.253907],[136.836062,35.253807],[136.8361,35.253691],[136.836137,35.253541],[136.836175,35.253374],[136.836175,35.253216],[136.83645,35.252449],[136.836487,35.252224],[136.83665,35.251616],[136.836712,35.251574],[136.8368,35.250941],[136.836775,35.250741],[136.836736,35.250572],[136.836712,35.250466],[136.8365,35.249949],[136.836262,35.249616],[136.835712,35.249183],[136.835187,35.248933],[136.83505,35.248908],[136.835,35.248841],[136.834775,35.248725],[136.834612,35.248525],[136.834612,35.248458],[136.834375,35.248075],[136.834113,35.2469],[136.83405,35.246675],[136.833788,35.246583],[136.832775,35.245992],[136.831325,35.245017],[136.830638,35.2447],[136.830288,35.244433],[136.829788,35.244108],[136.829001,35.24325],[136.828951,35.243092],[136.828976,35.242717],[136.829013,35.242467],[136.829338,35.241992],[136.829701,35.241634],[136.829876,35.241117],[136.829851,35.24085],[136.829626,35.24035],[136.829463,35.240126],[136.829251,35.239926],[136.829038,35.239634],[136.829088,35.239134],[136.829401,35.238309],[136.829464,35.237701],[136.829851,35.237293],[136.830014,35.237093],[136.829939,35.236918],[136.829851,35.236776],[136.829851,35.236643],[136.830189,35.236376],[136.830376,35.236243],[136.830626,35.236151],[136.831263,35.235634],[136.831651,35.234984],[136.831876,35.234385],[136.832451,35.233751],[136.832901,35.233243],[136.833263,35.232793],[136.833726,35.232435],[136.834276,35.232143],[136.834801,35.231785],[136.835713,35.23116],[136.836188,35.230868],[136.837076,35.230202],[136.8385,35.229419],[136.8387,35.229285],[136.838838,35.229244],[136.83895,35.229152],[136.838975,35.229044],[136.838925,35.228819],[136.838863,35.228794],[136.838675,35.228835],[136.838313,35.22886],[136.838263,35.22881],[136.838288,35.228635],[136.838401,35.228477],[136.838401,35.22841],[136.837988,35.22836],[136.837826,35.228294],[136.837638,35.228269],[136.837476,35.228202],[136.837001,35.22786],[136.836901,35.227769],[136.836813,35.227902],[136.836563,35.22811],[136.836401,35.22826],[136.836401,35.22831],[136.836751,35.22856],[136.836563,35.228852],[136.835901,35.229427],[136.835726,35.229652],[136.835263,35.230102],[136.835151,35.230102],[136.834876,35.229877],[136.834488,35.229627],[136.834438,35.22951],[136.834501,35.229202],[136.834551,35.22911],[136.835051,35.22866],[136.835251,35.228369],[136.835576,35.227944],[136.835776,35.22781],[136.835913,35.227785],[136.836051,35.227702],[136.836301,35.227385],[136.836413,35.226827],[136.836363,35.226394],[136.835826,35.224927],[136.835501,35.224211],[136.835226,35.223377],[136.835101,35.222769],[136.835002,35.22242],[136.834989,35.222361],[136.834964,35.222319],[136.834114,35.222244],[136.833726,35.222036],[136.833676,35.221953],[136.833489,35.221794],[136.833126,35.221786],[136.833014,35.222011],[136.832276,35.222077],[136.831839,35.222077],[136.831726,35.222052],[136.829689,35.222152],[136.829289,35.222177],[136.828952,35.222152],[136.828877,35.221861],[136.827777,35.221894],[136.826627,35.221961],[136.826565,35.221977],[136.826265,35.221936],[136.826227,35.220628],[136.826302,35.220178],[136.826315,35.219978],[136.826452,35.219103],[136.826427,35.218444],[136.826402,35.218286],[136.82644,35.217611],[136.825915,35.217678],[136.82534,35.217428],[136.824965,35.21727],[136.82474,35.217153],[136.824715,35.216978],[136.824765,35.216778],[136.82474,35.216728],[136.824852,35.216345],[136.82499,35.216395],[136.825052,35.21637],[136.825152,35.216395],[136.825215,35.215695],[136.825215,35.215678],[136.82489,35.215628],[136.82484,35.21547],[136.824427,35.21547],[136.824365,35.215445],[136.82429,35.21547],[136.823603,35.215395],[136.823165,35.215395],[136.823103,35.21537],[136.822949,35.215378],[136.822803,35.21537],[136.822778,35.215911],[136.822715,35.215995],[136.822665,35.216295],[136.822578,35.216336],[136.822053,35.216336],[136.821815,35.216286],[136.821753,35.216486],[136.821728,35.216895],[136.821753,35.217078],[136.821715,35.217186],[136.821753,35.217228],[136.821715,35.217278],[136.821115,35.217361],[136.820928,35.217453],[136.820015,35.217561],[136.819415,35.217694],[136.818978,35.217736],[136.81864,35.217686],[136.818228,35.217553],[136.817516,35.217211],[136.817241,35.217411],[136.817141,35.217411],[136.816941,35.217294],[136.816916,35.217228],[136.817166,35.217136],[136.817303,35.217028],[136.817716,35.216378],[136.817778,35.216178],[136.817616,35.21597],[136.817528,35.215861],[136.817566,35.215661],[136.817728,35.215228],[136.817703,35.215095],[136.817566,35.215028],[136.817178,35.215186],[136.816853,35.215453],[136.816278,35.215603],[136.815803,35.215695],[136.815728,35.215736],[136.815366,35.215778],[136.815141,35.215761],[136.814953,35.215645],[136.814016,35.215886],[136.812866,35.21662],[136.812479,35.216828],[136.811479,35.217203],[136.810929,35.217311],[136.810391,35.217286],[136.809566,35.217419],[136.809341,35.217503],[136.808816,35.217503],[136.808566,35.217453],[136.808541,35.217319],[136.808604,35.217094],[136.808554,35.216961],[136.808466,35.216895],[136.808141,35.216911],[136.808029,35.21687],[136.807341,35.21637],[136.807316,35.216303],[136.807516,35.215428],[136.807629,35.215111],[136.807691,35.21507],[136.807629,35.214953],[136.807442,35.214861],[136.806479,35.214636],[136.806379,35.21452],[136.806342,35.214411],[136.806467,35.213778],[136.806542,35.21362],[136.806517,35.21337],[136.806142,35.213395],[136.806079,35.21337],[136.805804,35.213395],[136.805617,35.21332],[136.805404,35.213095],[136.805179,35.21292],[136.804879,35.212803],[136.804792,35.212737],[136.804492,35.212687],[136.803679,35.212478],[136.803267,35.212437],[136.802629,35.212453],[136.802217,35.212178],[136.802192,35.212203],[136.802117,35.212178],[136.801942,35.212295],[136.800955,35.212578],[136.800317,35.212828],[136.799767,35.213095],[136.799492,35.213178],[136.798105,35.212928],[136.797767,35.212945],[136.797355,35.21292],[136.79678,35.212945],[136.79593,35.212936],[136.79563,35.213003],[136.794505,35.213403],[136.794005,35.213195],[136.79253,35.212736],[136.79168,35.21242],[136.791005,35.211986],[136.789818,35.211486],[136.789493,35.21122],[136.789118,35.211011],[136.789055,35.211036],[136.788206,35.211028],[136.787193,35.211095],[136.786693,35.211086],[136.786531,35.211045],[136.785556,35.210495],[136.784456,35.209978],[136.783856,35.209795],[136.783468,35.209628],[136.782656,35.209511],[136.781994,35.209378],[136.781719,35.209261],[136.781206,35.208878],[136.780881,35.208561],[136.780656,35.208403],[136.780544,35.208378],[136.779844,35.207928],[136.779756,35.207903],[136.779481,35.20772],[136.779044,35.207587],[136.778394,35.20747],[136.777981,35.207445],[136.777869,35.207395],[136.777456,35.207353],[136.777319,35.20737],[136.776969,35.207328],[136.776882,35.207345],[136.776519,35.207303],[136.775919,35.207278],[136.775807,35.207228],[136.775819,35.207154],[136.774957,35.20707],[136.773344,35.207061],[136.772657,35.207011],[136.771757,35.206986],[136.77052,35.206936],[136.76917,35.206945],[136.768432,35.206561],[136.76652,35.205745],[136.766245,35.205561],[136.765833,35.205578],[136.764958,35.205845],[136.76477,35.20587],[136.76367,35.205611],[136.762683,35.205478],[136.762295,35.205403],[136.761895,35.205295],[136.760771,35.205086],[136.760296,35.205036],[136.759921,35.204945],[136.759533,35.204803],[136.759071,35.204711],[136.758658,35.204686],[136.758521,35.204711],[136.757483,35.204661],[136.756246,35.204519],[136.755234,35.204419],[136.755029,35.204369],[136.754959,35.204336],[136.754934,35.204219],[136.754684,35.203903],[136.754221,35.203969],[136.753471,35.204144],[136.753034,35.204211],[136.752596,35.204294],[136.752646,35.204769],[136.752371,35.204903],[136.751909,35.204969],[136.751634,35.204653],[136.751422,35.204244],[136.751284,35.204086],[136.751034,35.204044],[136.750959,35.203994],[136.750734,35.203953],[136.750572,35.203861],[136.750384,35.203411],[136.750359,35.203411],[136.750247,35.202869],[136.750147,35.202661],[136.750034,35.202578],[136.749734,35.20257],[136.749347,35.202661],[136.749234,35.202636],[136.748047,35.201011],[136.747934,35.200828],[136.747535,35.200495],[136.74726,35.200353],[136.747072,35.20031],[136.74701,35.200236],[136.74696,35.200236],[136.746622,35.200011],[136.746372,35.199603],[136.746197,35.19902],[136.746147,35.198503],[136.746222,35.198053],[136.746085,35.197937],[136.74586,35.19767],[136.745597,35.19697],[136.745435,35.196703],[136.745372,35.196503],[136.745397,35.196387],[136.745622,35.19607],[136.745372,35.19607],[136.744822,35.196145],[136.74471,35.196187],[136.743785,35.196353],[136.743485,35.196353],[136.743148,35.196295],[136.742798,35.19627],[136.742923,35.195504],[136.742935,35.194987],[136.742835,35.194945],[136.741873,35.194879],[136.74101,35.194754],[136.74091,35.19482],[136.740773,35.195045],[136.740635,35.195179],[136.740473,35.19527],[136.740223,35.195295],[136.739698,35.195212],[136.738061,35.195203],[136.737861,35.195137],[136.737586,35.194845],[136.737473,35.194645],[136.737336,35.194279],[136.737136,35.193945],[136.736911,35.193854],[136.736636,35.193787],[136.736311,35.19397],[136.735986,35.194087],[136.735461,35.194179],[136.735273,35.194187],[136.735023,35.194228],[136.734561,35.194412],[136.734423,35.194553],[136.734423,35.194637],[136.734698,35.194887],[136.733986,35.195095],[136.731336,35.196103],[136.730874,35.196312],[136.729699,35.196745],[136.727512,35.197645],[136.727049,35.197828],[136.727012,35.197803],[136.725837,35.198261],[136.724074,35.199378],[136.723549,35.199586],[136.723362,35.199769],[136.722899,35.200494],[136.722474,35.201236],[136.722837,35.201661],[136.723199,35.201953],[136.723387,35.202069],[136.723637,35.202136],[136.723824,35.202269],[136.724462,35.202644],[136.725149,35.202886],[136.726036,35.203127],[136.725849,35.203219],[136.725087,35.203652],[136.725661,35.203744],[136.726149,35.203852],[136.726761,35.204027],[136.727836,35.204536],[136.728586,35.204827],[136.729024,35.205136],[136.729161,35.205319],[136.729499,35.205994],[136.730061,35.206727],[136.730098,35.206977],[136.730261,35.207477],[136.730348,35.20806],[136.730336,35.209235],[136.730111,35.210543],[136.729761,35.211577],[136.729598,35.212118],[136.729473,35.212418],[136.729361,35.212776],[136.729098,35.213343],[136.728961,35.21391],[136.728873,35.214901],[136.728898,35.215709],[136.729123,35.215709],[136.729511,35.215643],[136.729698,35.215551],[136.730023,35.215343],[136.730223,35.215226],[136.730273,35.215226],[136.730323,35.215343],[136.730273,35.215518],[136.729948,35.216151],[136.729873,35.216743],[136.730048,35.217393],[136.730386,35.217976],[136.730661,35.218292],[136.731023,35.218559],[136.731973,35.219067],[136.732435,35.219292],[136.732885,35.219559],[136.73316,35.219809],[136.73286,35.219942],[136.731985,35.220467],[136.731573,35.2204],[136.731098,35.220384],[136.730823,35.220342],[136.730611,35.220159],[136.730498,35.220117],[136.730386,35.220234],[136.730286,35.220434],[136.730148,35.220501],[136.729923,35.220417],[136.729648,35.220101],[136.729511,35.220101],[136.729336,35.220059],[136.729261,35.219967],[136.728598,35.219834],[136.728398,35.219859],[136.727561,35.220117],[136.727386,35.220142],[136.727111,35.220234],[136.726461,35.220367],[136.726211,35.220534],[136.725998,35.220626],[136.725474,35.220717],[136.725011,35.220926],[136.723886,35.221226],[136.723836,35.221268],[136.722986,35.221526],[136.722299,35.221576],[136.722074,35.221526],[136.721911,35.221393],[136.721736,35.221101],[136.721524,35.220793],[136.721049,35.220343],[136.720849,35.220301],[136.720524,35.220326],[136.720062,35.220459],[136.719699,35.220601],[136.719599,35.220801],[136.718799,35.221034],[136.718037,35.221126],[136.717724,35.221134],[136.717324,35.22116],[136.717324,35.221559],[136.717562,35.223026],[136.717812,35.223726],[136.718074,35.224284],[136.718399,35.224734],[136.718574,35.225068],[136.719136,35.225901],[136.719436,35.226459],[136.719836,35.227092],[136.720111,35.227742],[136.720561,35.228484],[136.720674,35.228801],[136.721011,35.229425],[136.721099,35.2299],[136.721061,35.231367],[136.720911,35.232225],[136.720749,35.234792],[136.720249,35.234908],[136.719486,35.234984],[136.718311,35.2349],[136.718124,35.234909],[136.717899,35.234909],[136.717736,35.234909],[136.717661,35.234884],[136.717624,35.234784],[136.717586,35.234642],[136.717524,35.234509],[136.717461,35.23435],[136.717386,35.2343],[136.717261,35.234317],[136.717074,35.234334],[136.717011,35.234225],[136.716911,35.234034],[136.716861,35.2339],[136.716737,35.233725],[136.716624,35.23355],[136.716549,35.233417],[136.716499,35.233325],[136.716399,35.233109],[136.716287,35.232917],[136.716187,35.232684],[136.716099,35.232492],[136.715999,35.232375],[136.715874,35.232375],[136.715737,35.232375],[136.715474,35.232392],[136.715212,35.232375],[136.715099,35.2324],[136.715012,35.232425],[136.714924,35.23245],[136.714824,35.232509],[136.714787,35.232342],[136.714774,35.232225],[136.714737,35.232017],[136.714662,35.231842],[136.714612,35.231726],[136.714924,35.231617],[136.714912,35.231526],[136.714874,35.231409],[136.714824,35.231201],[136.714737,35.231151],[136.714599,35.231201],[136.714549,35.231017],[136.714549,35.230884],[136.714724,35.230842],[136.714924,35.230767],[136.714874,35.230701],[136.714824,35.230501],[136.714774,35.230217],[136.714737,35.230117],[136.714637,35.230159],[136.714387,35.230142],[136.713862,35.230209],[136.713862,35.230134],[136.713824,35.230051],[136.713824,35.229842],[136.713699,35.229859],[136.713424,35.229901],[136.712987,35.229892],[136.712624,35.229967],[136.711375,35.230142],[136.7102,35.230201],[136.710062,35.230242],[136.71,35.229842],[136.709425,35.229884],[136.708925,35.229917],[136.709075,35.230884],[136.707787,35.231051],[136.707462,35.231142],[136.707125,35.231192],[136.7068,35.231284],[136.706525,35.231392],[136.705738,35.231651],[136.70535,35.231742],[136.704088,35.232226],[136.703875,35.232359],[136.701925,35.233117],[136.701138,35.233417],[136.700125,35.233851],[136.699301,35.2341],[136.699438,35.234484],[136.699409,35.234486],[136.699301,35.2344],[136.699001,35.234442],[136.698701,35.23445],[136.698451,35.234609],[136.697988,35.234609],[136.698076,35.234742],[136.697776,35.234834],[136.697601,35.234834],[136.697438,35.234117],[136.697188,35.234117],[136.696638,35.234192],[136.696613,35.234234],[136.696663,35.234509],[136.696638,35.23475],[136.696676,35.234975],[136.695713,35.235009],[136.695601,35.235259],[136.695363,35.235575],[136.695338,35.23575],[136.695251,35.235825],[136.695001,35.235917],[136.694601,35.235984],[136.694538,35.23535],[136.694476,35.235309],[136.694264,35.235334],[136.694226,35.23495],[136.693464,35.235067],[136.693301,35.235342],[136.692639,35.235409],[136.691126,35.235559],[136.690576,35.235584],[136.689839,35.235675],[136.689564,35.235684],[136.689451,35.235275],[136.689252,35.23525],[136.688352,35.235375],[136.68834,35.235244],[136.688264,35.234967],[136.688227,35.234717],[136.688202,35.234334],[136.688139,35.234042],[136.687864,35.23405],[136.687039,35.234117],[136.687014,35.233692],[136.686927,35.233267],[136.686802,35.232284],[136.686802,35.232217],[136.686789,35.232134],[136.686764,35.231984],[136.686677,35.231817],[136.686677,35.231742],[136.686839,35.231767],[136.687102,35.231734],[136.687214,35.231726],[136.687452,35.231726],[136.687752,35.231701],[136.688014,35.231667],[136.688127,35.231676],[136.688289,35.231609],[136.688377,35.231584],[136.688189,35.231417],[136.688039,35.231267],[136.687889,35.231084],[136.687739,35.230901],[136.687564,35.230667],[136.687539,35.230567],[136.687464,35.230326],[136.687377,35.230159],[136.687314,35.230076],[136.687264,35.230009],[136.687139,35.229892],[136.686927,35.229734],[136.686764,35.229626],[136.686539,35.229517],[136.686339,35.229434],[136.686102,35.229401],[136.685877,35.229401],[136.685727,35.229542],[136.685627,35.229701],[136.685527,35.229792],[136.68539,35.229776],[136.685252,35.229726],[136.684877,35.229342],[136.68464,35.229059],[136.68449,35.228942],[136.684402,35.228942],[136.684027,35.228867],[136.683577,35.228792],[136.68339,35.228734],[136.681815,35.228542],[136.680103,35.228242],[136.679915,35.228176],[136.67959,35.228967],[136.679203,35.230409],[136.67904,35.231067],[136.678828,35.231742],[136.678603,35.233525],[136.67834,35.234875],[136.678115,35.236683],[136.678003,35.237133],[136.678015,35.2374],[136.67784,35.238983],[136.67779,35.240224],[136.677915,35.241008],[136.67794,35.241416],[136.67814,35.242133],[136.678177,35.242408],[136.678427,35.243007],[136.679665,35.245099],[136.68044,35.245749],[136.681027,35.246307],[136.681377,35.246574],[136.681602,35.246824],[136.682964,35.248032],[136.683689,35.248565],[136.684464,35.24919],[136.685577,35.250015],[136.685652,35.250107],[136.686289,35.250574],[136.686401,35.25069],[136.688839,35.252115],[136.689089,35.25229],[136.689939,35.25274],[136.690276,35.252982],[136.690501,35.253098],[136.690676,35.253215],[136.691613,35.254015],[136.693538,35.255973],[136.695363,35.257889],[136.696525,35.259331],[136.697337,35.260564],[136.69815,35.262164],[136.698662,35.263297],[136.699637,35.265363],[136.700424,35.267488],[136.700924,35.268521],[136.701462,35.269579],[136.701649,35.270054],[136.702187,35.270996],[136.703024,35.272712],[136.703499,35.273729],[136.704336,35.275237],[136.704611,35.275553],[136.705373,35.276878],[136.705873,35.277645],[136.706848,35.278928],[136.707523,35.279719],[136.708248,35.280486],[136.709473,35.281836],[136.710348,35.282694],[136.710623,35.282894],[136.711573,35.283527],[136.712073,35.283794],[136.712747,35.284227],[136.71456,35.285485],[136.715847,35.286294],[136.717459,35.287377],[136.718709,35.288318],[136.720309,35.289602],[136.721171,35.290343],[136.722846,35.292168],[136.723133,35.292551],[136.723683,35.29321],[136.724246,35.293926],[136.72547,35.295443],[136.726483,35.296951],[136.727008,35.297717],[136.727383,35.298342],[136.727908,35.299042],[136.728332,35.299792],[136.728945,35.301075],[136.729195,35.301525],[136.729595,35.302317],[136.731969,35.306841],[136.733231,35.309641],[136.733481,35.310091],[136.733656,35.310541],[136.733931,35.311241],[136.734219,35.311716],[136.734494,35.312432],[136.735868,35.314866],[136.736981,35.316899],[136.738043,35.318432],[136.738968,35.320032],[136.739868,35.32129],[136.740855,35.32294],[136.741405,35.323656],[136.741717,35.324181],[136.74253,35.325265],[136.744292,35.32779],[136.74463,35.328165],[136.746192,35.330423],[136.747029,35.331389],[136.747342,35.331856],[136.747454,35.332123],[136.747704,35.332414]]]},"properties":{"pref":"愛知県","kuni_id":"K09","yomi":"なかしま","name":"中島","kuni":"尾張","id":"G09007","id_url":"G09007.html","kuni_url":"/kg/resource/K09.html"}}]}