{"features":[{"type":"Feature","properties":{"id_url":"G10010.html","kuni_url":"/kg/resource/K10.html","kuni":"三河","id":"G10010","yomi":"あつみ","name":"渥美","pref":"愛知県","kuni_id":"K10"},"geometry":{"coordinates":[[[137.32664,34.772538],[137.336376,34.775903],[137.347921,34.779755],[137.353085,34.780631],[137.358834,34.780144],[137.362926,34.780144],[137.366531,34.781702],[137.370039,34.783261],[137.374424,34.783747],[137.378126,34.783942],[137.381159,34.783635],[137.385536,34.782334],[137.391333,34.780029],[137.395651,34.778787],[137.401093,34.778728],[137.405905,34.77935],[137.407916,34.780194],[137.411094,34.780154],[137.414192,34.780315],[137.417411,34.780516],[137.420428,34.780074],[137.423405,34.778787],[137.425497,34.777339],[137.42779,34.775811],[137.429084,34.775407],[137.431224,34.775427],[137.433832,34.775719],[137.436008,34.775688],[137.438371,34.775338],[137.440646,34.774114],[137.443358,34.771447],[137.445589,34.769129],[137.447164,34.767861],[137.448652,34.767598],[137.449888,34.767826],[137.451658,34.767442],[137.452598,34.766165],[137.454065,34.764966],[137.457965,34.763733],[137.464896,34.762568],[137.469782,34.761404],[137.472726,34.760142],[137.476678,34.758803],[137.47664,34.758262],[137.476715,34.758087],[137.477065,34.757545],[137.477203,34.757278],[137.477453,34.756937],[137.477403,34.756695],[137.477228,34.756487],[137.476978,34.756354],[137.475553,34.755637],[137.475041,34.755279],[137.474916,34.755095],[137.474866,34.754887],[137.474953,34.753829],[137.475028,34.753379],[137.475141,34.752887],[137.475403,34.751646],[137.475416,34.751263],[137.475316,34.751063],[137.474266,34.750038],[137.474216,34.749946],[137.474291,34.749696],[137.474591,34.749246],[137.475366,34.748388],[137.475591,34.748246],[137.475766,34.747171],[137.476153,34.74648],[137.476391,34.746246],[137.476903,34.745996],[137.478078,34.745613],[137.479041,34.743747],[137.479366,34.743247],[137.479478,34.743022],[137.479528,34.742638],[137.479416,34.74223],[137.479428,34.742122],[137.480166,34.741422],[137.480578,34.740905],[137.480653,34.740655],[137.480103,34.740339],[137.479528,34.740147],[137.479303,34.740005],[137.479304,34.739239],[137.479416,34.736814],[137.479491,34.736514],[137.479466,34.736481],[137.479079,34.736364],[137.478429,34.736081],[137.477954,34.735739],[137.478004,34.735539],[137.478579,34.734614],[137.478916,34.733872],[137.478979,34.733872],[137.479891,34.732914],[137.480604,34.732289],[137.481004,34.732039],[137.481141,34.731831],[137.481354,34.731156],[137.480704,34.730898],[137.480554,34.730806],[137.481041,34.730148],[137.480491,34.729598],[137.480329,34.729473],[137.480429,34.729115],[137.480616,34.728098],[137.480804,34.727448],[137.480879,34.72729],[137.481141,34.72644],[137.481229,34.726407],[137.481666,34.726407],[137.482291,34.726257],[137.481979,34.725373],[137.481929,34.72499],[137.482404,34.723015],[137.482304,34.722407],[137.482117,34.722115],[137.481542,34.721666],[137.481554,34.721307],[137.481804,34.720741],[137.481929,34.720516],[137.482392,34.719924],[137.482804,34.719657],[137.482992,34.719591],[137.484766,34.718674],[137.485604,34.718008],[137.486879,34.717483],[137.487016,34.717416],[137.487579,34.7169],[137.488329,34.715275],[137.488566,34.714533],[137.488641,34.713967],[137.488616,34.713808],[137.488816,34.71245],[137.489604,34.711717],[137.489729,34.711192],[137.489529,34.708917],[137.489679,34.707593],[137.489754,34.707409],[137.489904,34.706151],[137.490279,34.705001],[137.490541,34.704526],[137.491054,34.703918],[137.491566,34.703118],[137.491779,34.702452],[137.491779,34.70236],[137.491504,34.701727],[137.491416,34.701143],[137.491441,34.701035],[137.491242,34.70026],[137.491042,34.698969],[137.490817,34.69831],[137.490392,34.696419],[137.490354,34.696327],[137.490492,34.695702],[137.490704,34.695128],[137.490617,34.694753],[137.490117,34.694011],[137.489692,34.692594],[137.489492,34.691495],[137.489205,34.690778],[137.488905,34.689495],[137.489005,34.689178],[137.48933,34.688953],[137.489167,34.688862],[137.488092,34.687528],[137.487655,34.687062],[137.487455,34.686903],[137.486855,34.68652],[137.48613,34.685987],[137.48608,34.68592],[137.485943,34.68547],[137.485843,34.684704],[137.48568,34.68452],[137.485305,34.684304],[137.484718,34.684087],[137.484505,34.683829],[137.484393,34.683454],[137.48463,34.682937],[137.485155,34.682379],[137.485493,34.682096],[137.485843,34.681479],[137.48593,34.680987],[137.485943,34.680329],[137.485805,34.679838],[137.484931,34.677296],[137.484418,34.67488],[137.484168,34.674213],[137.484106,34.673897],[137.483943,34.673855],[137.482881,34.673713],[137.481956,34.673722],[137.481843,34.67368],[137.480756,34.673547],[137.479256,34.673488],[137.477069,34.673263],[137.475119,34.672888],[137.473182,34.672563],[137.47152,34.672322],[137.47042,34.672255],[137.470045,34.672255],[137.468157,34.67208],[137.46717,34.671922],[137.466795,34.67183],[137.465483,34.671663],[137.464533,34.671463],[137.463595,34.671313],[137.463183,34.671313],[137.462308,34.67118],[137.461171,34.670872],[137.458134,34.67068],[137.457921,34.670713],[137.457671,34.670971],[137.457421,34.670696],[137.457059,34.670505],[137.455946,34.670255],[137.455034,34.669972],[137.450084,34.66918],[137.44836,34.668913],[137.446347,34.668688],[137.446197,34.668696],[137.446097,34.668871],[137.445932,34.669338],[137.445772,34.669338],[137.445772,34.66923],[137.445772,34.668913],[137.445735,34.66873],[137.44556,34.668546],[137.445247,34.668438],[137.444497,34.66833],[137.443585,34.668205],[137.443148,34.668121],[137.442785,34.668105],[137.44216,34.668013],[137.441485,34.66793],[137.440935,34.667913],[137.440585,34.667921],[137.44041,34.667855],[137.440223,34.667763],[137.439873,34.667655],[137.439498,34.667621],[137.439298,34.667621],[137.438786,34.668071],[137.438748,34.668071],[137.438698,34.667996],[137.438673,34.667805],[137.438598,34.66758],[137.438436,34.667463],[137.438123,34.667338],[137.437861,34.66728],[137.437536,34.667188],[137.436473,34.666963],[137.436261,34.66688],[137.435936,34.666871],[137.435423,34.666805],[137.434524,34.666655],[137.434236,34.666588],[137.434011,34.666505],[137.433549,34.66643],[137.432836,34.666271],[137.432174,34.666188],[137.431836,34.666096],[137.431374,34.66603],[137.431086,34.665996],[137.430586,34.665971],[137.429936,34.665905],[137.429299,34.665763],[137.428937,34.665646],[137.428774,34.665546],[137.428162,34.66543],[137.427687,34.665371],[137.427449,34.665346],[137.427237,34.665288],[137.426974,34.665146],[137.426549,34.66503],[137.426024,34.664921],[137.425549,34.664863],[137.425187,34.664796],[137.424912,34.66478],[137.424549,34.66473],[137.424174,34.664638],[137.423824,34.664538],[137.423225,34.664496],[137.422887,34.66443],[137.422487,34.664346],[137.422287,34.66438],[137.422175,34.664413],[137.42195,34.66438],[137.421475,34.664196],[137.420862,34.664005],[137.420212,34.66383],[137.4195,34.66368],[137.41875,34.663596],[137.418387,34.663596],[137.418037,34.663646],[137.417925,34.663596],[137.417637,34.66343],[137.417275,34.663338],[137.416837,34.66328],[137.41645,34.66323],[137.4157,34.663105],[137.415188,34.662988],[137.414713,34.662813],[137.414375,34.662721],[137.413688,34.662638],[137.412975,34.662555],[137.412375,34.662496],[137.411663,34.662355],[137.410775,34.662146],[137.409901,34.661905],[137.409101,34.661688],[137.408188,34.661463],[137.407326,34.661313],[137.406313,34.661096],[137.405913,34.661054],[137.405451,34.661071],[137.405238,34.661054],[137.405001,34.660971],[137.404576,34.660821],[137.403913,34.660704],[137.403026,34.660513],[137.402564,34.660454],[137.401614,34.660338],[137.400864,34.660213],[137.400189,34.660121],[137.399814,34.660096],[137.399539,34.660021],[137.398601,34.659804],[137.397189,34.659446],[137.396489,34.659304],[137.395939,34.659129],[137.395739,34.659054],[137.395464,34.659038],[137.395102,34.659046],[137.394777,34.658988],[137.394314,34.658896],[137.393852,34.658804],[137.393264,34.658646],[137.393002,34.658629],[137.392639,34.658563],[137.392064,34.658404],[137.391214,34.658229],[137.390252,34.658046],[137.389815,34.657996],[137.389565,34.657938],[137.389227,34.657829],[137.38884,34.657729],[137.388477,34.657604],[137.388177,34.657529],[137.387752,34.657496],[137.387352,34.657429],[137.386077,34.657104],[137.385815,34.657088],[137.385352,34.657013],[137.384527,34.656821],[137.383877,34.656646],[137.383265,34.656413],[137.38164,34.656121],[137.380528,34.655788],[137.376041,34.654863],[137.375666,34.654838],[137.375416,34.654863],[137.375291,34.654938],[137.372026,34.654341],[137.371928,34.654271],[137.371366,34.654138],[137.370604,34.654046],[137.369404,34.653804],[137.366604,34.653288],[137.365954,34.653196],[137.364279,34.652721],[137.363342,34.652413],[137.361455,34.651912],[137.357043,34.651196],[137.356068,34.650904],[137.353043,34.650162],[137.350593,34.649646],[137.349243,34.649404],[137.348069,34.649112],[137.347269,34.648862],[137.346269,34.648704],[137.345331,34.648663],[137.344656,34.648413],[137.342981,34.647963],[137.341307,34.647696],[137.339157,34.647338],[137.338569,34.647138],[137.338069,34.647021],[137.337482,34.646846],[137.335857,34.646255],[137.335332,34.646146],[137.334707,34.646055],[137.33412,34.64588],[137.332945,34.645605],[137.332033,34.645363],[137.33032,34.644846],[137.328995,34.644371],[137.327208,34.643896],[137.326321,34.643763],[137.324709,34.643429],[137.321409,34.642529],[137.319384,34.642038],[137.316972,34.641613],[137.313297,34.640846],[137.312498,34.640779],[137.311585,34.640604],[137.310173,34.640262],[137.309173,34.639946],[137.308111,34.639612],[137.307911,34.639504],[137.307023,34.639212],[137.306611,34.639137],[137.306436,34.639137],[137.305848,34.639004],[137.305173,34.638804],[137.304673,34.638604],[137.304086,34.638471],[137.303324,34.638354],[137.301136,34.637862],[137.299699,34.637479],[137.297349,34.636804],[137.294549,34.636112],[137.293375,34.63577],[137.292875,34.635754],[137.29105,34.635187],[137.2904,34.635079],[137.289025,34.634654],[137.28855,34.634429],[137.287875,34.634245],[137.2872,34.634137],[137.286288,34.633862],[137.284013,34.633237],[137.283113,34.633012],[137.280513,34.632203],[137.279876,34.631953],[137.279138,34.631778],[137.277776,34.631553],[137.277463,34.631437],[137.276751,34.631287],[137.273489,34.630253],[137.272951,34.629937],[137.272364,34.629737],[137.271751,34.629595],[137.271514,34.629578],[137.270951,34.629462],[137.269751,34.629103],[137.269014,34.628812],[137.266689,34.628253],[137.265902,34.627978],[137.265039,34.62762],[137.263714,34.627195],[137.260515,34.626295],[137.259477,34.626053],[137.25819,34.625761],[137.257252,34.625486],[137.256565,34.625245],[137.254952,34.624728],[137.25284,34.623986],[137.252103,34.623786],[137.251928,34.623761],[137.251365,34.62367],[137.24924,34.622928],[137.248515,34.622595],[137.24819,34.622545],[137.247915,34.622545],[137.247541,34.622436],[137.247416,34.62237],[137.247038,34.622231],[137.246466,34.622136],[137.246016,34.62197],[137.245141,34.62172],[137.242003,34.620636],[137.239829,34.620011],[137.237104,34.619053],[137.232329,34.617528],[137.230579,34.616886],[137.227517,34.615903],[137.224805,34.614961],[137.22388,34.61457],[137.222417,34.613795],[137.22158,34.613486],[137.22073,34.613303],[137.22038,34.613328],[137.220055,34.61352],[137.219518,34.614186],[137.219118,34.614478],[137.218605,34.614611],[137.217968,34.614578],[137.215281,34.614036],[137.213743,34.613719],[137.208581,34.612303],[137.205619,34.611428],[137.19697,34.608436],[137.19477,34.60772],[137.19257,34.606895],[137.190733,34.606261],[137.189971,34.606078],[137.189596,34.606028],[137.189533,34.605986],[137.189696,34.606836],[137.188808,34.607145],[137.188283,34.607786],[137.188858,34.608336],[137.188171,34.608919],[137.187258,34.608344],[137.186721,34.608769],[137.184908,34.607703],[137.185871,34.606536],[137.187633,34.607178],[137.188433,34.606245],[137.188096,34.605586],[137.187996,34.605536],[137.187521,34.605428],[137.182309,34.603695],[137.180447,34.603103],[137.176122,34.601495],[137.174897,34.600961],[137.173497,34.600395],[137.169235,34.59897],[137.167073,34.597936],[137.164898,34.597145],[137.161786,34.596145],[137.158324,34.594878],[137.157386,34.594453],[137.156662,34.594186],[137.155712,34.593986],[137.154899,34.593786],[137.152649,34.593028],[137.152,34.592711],[137.151537,34.592345],[137.150812,34.592195],[137.150062,34.59222],[137.149995,34.592224],[137.149937,34.592228],[137.149887,34.592245],[137.148837,34.592028],[137.148012,34.591745],[137.147275,34.59157],[137.146625,34.591378],[137.145188,34.590653],[137.144563,34.59047],[137.143188,34.590236],[137.141538,34.589711],[137.140863,34.589678],[137.140189,34.58977],[137.139814,34.589711],[137.139539,34.589495],[137.139364,34.589411],[137.138976,34.589311],[137.138351,34.589345],[137.137676,34.589261],[137.137014,34.589061],[137.136427,34.589128],[137.135714,34.589128],[137.134952,34.588661],[137.134377,34.588411],[137.133565,34.588253],[137.132952,34.588186],[137.13184,34.587936],[137.130865,34.587986],[137.129665,34.587978],[137.128915,34.588078],[137.128053,34.588094],[137.127315,34.588053],[137.124966,34.587611],[137.124116,34.587436],[137.123453,34.587436],[137.123204,34.587478],[137.122829,34.587628],[137.122616,34.587603],[137.122079,34.587478],[137.122033,34.587436],[137.121691,34.587569],[137.121379,34.587369],[137.121179,34.587319],[137.121004,34.587203],[137.120579,34.587161],[137.120117,34.587169],[137.119942,34.587094],[137.119854,34.587186],[137.119692,34.587094],[137.119504,34.587169],[137.118829,34.587252],[137.118642,34.587219],[137.118567,34.587161],[137.118317,34.587061],[137.117917,34.587011],[137.117717,34.587102],[137.117467,34.586969],[137.117317,34.586952],[137.116192,34.587327],[137.11593,34.587327],[137.115605,34.587177],[137.115217,34.587136],[137.114892,34.587269],[137.114817,34.587394],[137.114655,34.587394],[137.114542,34.587494],[137.114542,34.587644],[137.114355,34.587677],[137.114255,34.587752],[137.114217,34.587877],[137.11403,34.587877],[137.11368,34.587977],[137.113555,34.587969],[137.112955,34.588094],[137.112455,34.588127],[137.111955,34.58811],[137.111655,34.588152],[137.111318,34.588385],[137.111243,34.58836],[137.111155,34.588402],[137.111305,34.58871],[137.111143,34.588719],[137.111105,34.588777],[137.110905,34.588802],[137.110843,34.588835],[137.110505,34.588802],[137.109893,34.58856],[137.109818,34.588494],[137.109581,34.588369],[137.109318,34.588377],[137.109081,34.588444],[137.108806,34.588394],[137.108606,34.588285],[137.108318,34.588219],[137.108031,34.588035],[137.107893,34.587919],[137.107706,34.587827],[137.107481,34.588127],[137.107393,34.58816],[137.106444,34.58786],[137.106106,34.587869],[137.105831,34.58791],[137.105644,34.588102],[137.105269,34.588169],[137.105206,34.588235],[137.105281,34.588343],[137.105644,34.588352],[137.105756,34.588568],[137.105619,34.58876],[137.105381,34.588868],[137.104844,34.588977],[137.103856,34.589002],[137.102857,34.58911],[137.102719,34.589227],[137.102619,34.58916],[137.102432,34.589185],[137.102257,34.589285],[137.101782,34.589352],[137.101157,34.589868],[137.100919,34.589976],[137.100882,34.590018],[137.100632,34.590076],[137.099795,34.59011],[137.099445,34.590168],[137.098995,34.590201],[137.098695,34.590268],[137.098482,34.590426],[137.098082,34.590651],[137.097807,34.59076],[137.097582,34.590885],[137.09732,34.591101],[137.095495,34.591209],[137.09512,34.591268],[137.094745,34.591518],[137.094395,34.591809],[137.094258,34.591826],[137.094108,34.591718],[137.094033,34.591301],[137.092846,34.591093],[137.092721,34.590959],[137.091883,34.590676],[137.090996,34.590434],[137.088146,34.589884],[137.083784,34.589093],[137.08161,34.588643],[137.080897,34.588518],[137.07766,34.587826],[137.076948,34.587643],[137.075598,34.587384],[137.074586,34.587226],[137.073948,34.587151],[137.073436,34.587151],[137.072924,34.587093],[137.071136,34.586684],[137.070299,34.586593],[137.068262,34.586059],[137.066899,34.585668],[137.06495,34.585276],[137.06405,34.585018],[137.063125,34.584701],[137.061363,34.584284],[137.060025,34.584018],[137.053851,34.582526],[137.051464,34.582009],[137.049002,34.581543],[137.047539,34.581226],[137.047052,34.581151],[137.044502,34.580601],[137.041902,34.579926],[137.04064,34.579568],[137.03804,34.578793],[137.037515,34.578443],[137.037303,34.578143],[137.036815,34.577801],[137.036553,34.577851],[137.036303,34.577926],[137.036003,34.577893],[137.035916,34.577968],[137.035516,34.578009],[137.035041,34.577976],[137.034628,34.578059],[137.034466,34.578269],[137.034216,34.57821],[137.033954,34.578285],[137.033916,34.578501],[137.034041,34.578743],[137.033741,34.578984],[137.033653,34.579393],[137.034028,34.579434],[137.033916,34.579742],[137.033641,34.580259],[137.033278,34.580551],[137.032566,34.580759],[137.031628,34.580859],[137.030604,34.580901],[137.029541,34.580801],[137.026154,34.580367],[137.024829,34.580251],[137.022317,34.579992],[137.021067,34.579809],[137.02033,34.579534],[137.019617,34.578942],[137.019492,34.578776],[137.017705,34.578359],[137.01718,34.578276],[137.016843,34.578534],[137.016143,34.579326],[137.015668,34.579659],[137.015368,34.580134],[137.015318,34.580667],[137.01548,34.581159],[137.016068,34.581709],[137.01723,34.582475],[137.017692,34.582892],[137.018342,34.583183],[137.01823,34.584375],[137.018392,34.5846],[137.019692,34.584258],[137.019892,34.584708],[137.020042,34.584675],[137.019792,34.584192],[137.020817,34.583908],[137.022767,34.584442],[137.023217,34.585225],[137.022854,34.585433],[137.022904,34.585583],[137.023317,34.585483],[137.023729,34.586291],[137.023754,34.586283],[137.024066,34.586633],[137.024529,34.586983],[137.025954,34.588366],[137.026316,34.588791],[137.026929,34.589816],[137.027328,34.590724],[137.027928,34.591957],[137.029191,34.595074],[137.02954,34.596232],[137.029828,34.59734],[137.03029,34.599106],[137.03049,34.600165],[137.03064,34.601314],[137.03079,34.602023],[137.030928,34.602473],[137.031152,34.602898],[137.03174,34.603564],[137.032077,34.604297],[137.03249,34.604997],[137.03329,34.606455],[137.034852,34.608905],[137.035102,34.609438],[137.035464,34.609972],[137.036751,34.612263],[137.037114,34.612771],[137.038676,34.615538],[137.040113,34.617962],[137.040438,34.618662],[137.041538,34.620629],[137.041838,34.621204],[137.042175,34.621695],[137.042625,34.622487],[137.042913,34.62287],[137.043475,34.623812],[137.044375,34.62562],[137.04475,34.626161],[137.045787,34.627936],[137.046137,34.628503],[137.04705,34.629736],[137.047399,34.630219],[137.047662,34.630719],[137.048024,34.631611],[137.048637,34.632794],[137.048949,34.633327],[137.049037,34.63356],[137.050474,34.635993],[137.051449,34.637735],[137.052211,34.638876],[137.052661,34.639859],[137.053398,34.641159],[137.054173,34.642834],[137.05446,34.643351],[137.054773,34.644092],[137.055398,34.645042],[137.05566,34.645601],[137.055823,34.645884],[137.056147,34.646709],[137.056722,34.648134],[137.056772,34.648159],[137.056835,34.648267],[137.056935,34.6485],[137.057085,34.648817],[137.057247,34.649159],[137.057435,34.649558],[137.057672,34.649958],[137.057909,34.6504],[137.058159,34.650808],[137.058372,34.651283],[137.058534,34.651675],[137.058784,34.652208],[137.059072,34.652633],[137.059397,34.6529],[137.059747,34.653058],[137.060234,34.653225],[137.060621,34.653333],[137.060796,34.653341],[137.062071,34.6547],[137.062459,34.655158],[137.062858,34.655533],[137.063808,34.656616],[137.064308,34.657108],[137.065508,34.6581],[137.066608,34.659075],[137.067395,34.659683],[137.069045,34.660783],[137.069757,34.661166],[137.070707,34.661583],[137.071445,34.661791],[137.074244,34.662325],[137.075606,34.662508],[137.076281,34.662566],[137.077581,34.662583],[137.078669,34.662483],[137.079818,34.662291],[137.080793,34.662],[137.081356,34.661733],[137.081468,34.661892],[137.081656,34.661825],[137.081806,34.661992],[137.082143,34.661858],[137.081881,34.661508],[137.082368,34.661267],[137.083406,34.66055],[137.083943,34.660242],[137.084768,34.659875],[137.085355,34.659634],[137.085843,34.659342],[137.08638,34.658892],[137.086305,34.658709],[137.087118,34.658059],[137.087418,34.657626],[137.08778,34.657392],[137.088393,34.657167],[137.088955,34.657001],[137.089593,34.656884],[137.090455,34.656809],[137.090267,34.656559],[137.09048,34.656234],[137.090567,34.655918],[137.090443,34.655668],[137.09043,34.655518],[137.09063,34.654643],[137.090668,34.654051],[137.090555,34.653984],[137.090393,34.654059],[137.09048,34.654143],[137.090505,34.654276],[137.09038,34.654493],[137.090293,34.654693],[137.08983,34.655351],[137.08978,34.654518],[137.089655,34.653634],[137.08938,34.651393],[137.089381,34.651001],[137.089256,34.650085],[137.088443,34.649768],[137.087281,34.649418],[137.087393,34.649076],[137.086344,34.648751],[137.086044,34.649001],[137.085794,34.64886],[137.086206,34.648385],[137.085194,34.647201],[137.084919,34.647235],[137.084544,34.64666],[137.084632,34.646626],[137.085294,34.646602],[137.085831,34.646685],[137.086181,34.64666],[137.086569,34.646377],[137.087056,34.646343],[137.087281,34.646852],[137.087306,34.647152],[137.087531,34.647868],[137.087794,34.647868],[137.087806,34.647285],[137.089043,34.647227],[137.089756,34.647243],[137.090293,34.647285],[137.091243,34.64711],[137.091868,34.647044],[137.093168,34.646985],[137.09368,34.64701],[137.094868,34.647169],[137.095043,34.646985],[137.09518,34.646435],[137.095343,34.646194],[137.095767,34.646036],[137.09638,34.645902],[137.097567,34.645761],[137.098155,34.645786],[137.099329,34.645927],[137.100092,34.645986],[137.100504,34.645919],[137.101079,34.645761],[137.101841,34.645411],[137.102566,34.644869],[137.103391,34.644411],[137.103616,34.644261],[137.105153,34.643578],[137.106016,34.643028],[137.106503,34.642653],[137.106578,34.642553],[137.106416,34.641587],[137.106391,34.641512],[137.105804,34.64097],[137.105266,34.64057],[137.104704,34.64022],[137.103642,34.639412],[137.103442,34.639428],[137.103367,34.639303],[137.102154,34.639553],[137.101979,34.638895],[137.101867,34.637995],[137.101917,34.637362],[137.102055,34.636529],[137.102217,34.635129],[137.102492,34.632846],[137.102517,34.632729],[137.10258,34.632663],[137.103604,34.632746],[137.103867,34.632821],[137.103729,34.634312],[137.105167,34.634363],[137.105591,34.635221],[137.106316,34.635887],[137.107091,34.636562],[137.107616,34.636704],[137.107853,34.636712],[137.109241,34.636663],[137.109916,34.636638],[137.110828,34.636696],[137.111478,34.636479],[137.112378,34.636346],[137.112902,34.636163],[137.113802,34.635738],[137.11399,34.635705],[137.11444,34.635696],[137.115377,34.635821],[137.115427,34.635863],[137.115852,34.636013],[137.117676,34.636421],[137.117876,34.636446],[137.117626,34.636146],[137.117289,34.635921],[137.116764,34.635696],[137.116877,34.635313],[137.117052,34.635313],[137.117377,34.634938],[137.117727,34.634838],[137.118739,34.634863],[137.118939,34.634797],[137.119089,34.634113],[137.119139,34.634072],[137.119301,34.634172],[137.119564,34.634513],[137.119851,34.634797],[137.120064,34.635088],[137.120338,34.635313],[137.120626,34.635455],[137.121051,34.63558],[137.121338,34.635713],[137.122051,34.636038],[137.122526,34.636305],[137.1243,34.637105],[137.124988,34.637372],[137.125712,34.63758],[137.126425,34.637905],[137.12715,34.638022],[137.1283,34.637964],[137.128949,34.63803],[137.129637,34.63818],[137.129987,34.638489],[137.130112,34.63853],[137.130324,34.638422],[137.130487,34.63843],[137.131512,34.638814],[137.133336,34.639347],[137.133897,34.639755],[137.134249,34.640055],[137.134686,34.640289],[137.135436,34.640605],[137.136236,34.640864],[137.137011,34.641147],[137.137286,34.64158],[137.137636,34.642514],[137.137973,34.643038],[137.138486,34.643488],[137.139073,34.643838],[137.139723,34.644972],[137.140185,34.645272],[137.14071,34.645488],[137.140998,34.645705],[137.140773,34.646097],[137.140123,34.646855],[137.13826,34.649221],[137.13781,34.649929],[137.13726,34.650504],[137.13666,34.650871],[137.13601,34.651129],[137.135698,34.651171],[137.134598,34.651071],[137.134011,34.651212],[137.133711,34.65137],[137.133111,34.651762],[137.132423,34.651912],[137.131086,34.651737],[137.130474,34.651754],[137.129924,34.651962],[137.129536,34.652345],[137.129161,34.652795],[137.128999,34.653212],[137.128786,34.653395],[137.128461,34.653587],[137.128199,34.65387],[137.127574,34.65407],[137.127262,34.654228],[137.127212,34.654328],[137.127387,34.654486],[137.127862,34.654803],[137.129961,34.655636],[137.131099,34.656028],[137.131886,34.65612],[137.132623,34.656112],[137.132986,34.656053],[137.134823,34.655862],[137.13691,34.655579],[137.138498,34.655129],[137.14046,34.654654],[137.141335,34.654487],[137.142122,34.654262],[137.14451,34.653713],[137.145409,34.653621],[137.147172,34.653913],[137.149334,34.654163],[137.150634,34.654346],[137.151896,34.654605],[137.152934,34.654788],[137.153384,34.654905],[137.154459,34.655263],[137.155284,34.655605],[137.156233,34.656013],[137.157033,34.656272],[137.157008,34.656213],[137.156521,34.655763],[137.156446,34.655447],[137.156483,34.65518],[137.156658,34.655063],[137.156808,34.655147],[137.156896,34.655355],[137.157046,34.655347],[137.156971,34.655122],[137.156771,34.654847],[137.156858,34.654722],[137.157158,34.654555],[137.157558,34.654389],[137.158146,34.654322],[137.158933,34.65438],[137.160008,34.654605],[137.160921,34.654855],[137.160971,34.654714],[137.161508,34.654664],[137.162096,34.654764],[137.163145,34.655105],[137.164233,34.655439],[137.165558,34.655697],[137.167145,34.656072],[137.167995,34.656331],[137.16942,34.656581],[137.17012,34.656764],[137.170682,34.657039],[137.171945,34.657772],[137.173145,34.658506],[137.173732,34.658806],[137.174394,34.659006],[137.175094,34.659164],[137.175282,34.659281],[137.177444,34.661047],[137.177744,34.661047],[137.178156,34.661114],[137.178519,34.661281],[137.178662,34.661334],[137.178919,34.661497],[137.179419,34.662097],[137.181319,34.664155],[137.182381,34.664989],[137.183143,34.665689],[137.183356,34.666055],[137.183856,34.666564],[137.184556,34.667339],[137.185068,34.668213],[137.186043,34.66913],[137.18658,34.669513],[137.187111,34.669767],[137.187518,34.669963],[137.187955,34.670122],[137.18838,34.670188],[137.18873,34.670172],[137.189155,34.669963],[137.189193,34.669872],[137.189493,34.669605],[137.18993,34.669513],[137.19013,34.669538],[137.190692,34.669672],[137.19083,34.66973],[137.191255,34.669672],[137.19233,34.668772],[137.19293,34.668339],[137.19363,34.668005],[137.19433,34.667889],[137.19508,34.667922],[137.195729,34.668114],[137.196267,34.668347],[137.196767,34.668464],[137.197342,34.668722],[137.197804,34.669164],[137.198254,34.669505],[137.198604,34.669564],[137.198942,34.669689],[137.199192,34.669864],[137.199354,34.670022],[137.200141,34.671022],[137.200766,34.671564],[137.201704,34.672589],[137.202054,34.67313],[137.202604,34.673747],[137.203191,34.674247],[137.203416,34.674513],[137.203691,34.675063],[137.204066,34.675422],[137.204266,34.675722],[137.204328,34.675963],[137.204453,34.67613],[137.204828,34.676422],[137.205053,34.676538],[137.205278,34.676763],[137.205378,34.676988],[137.205628,34.677305],[137.205703,34.677355],[137.205891,34.67758],[137.206366,34.678172],[137.206616,34.678305],[137.206641,34.678305],[137.206716,34.67833],[137.207116,34.67838],[137.207391,34.678472],[137.207991,34.678588],[137.208141,34.678588],[137.208728,34.678163],[137.209053,34.678005],[137.209228,34.677988],[137.210278,34.678105],[137.210378,34.678088],[137.210678,34.678155],[137.210878,34.678297],[137.211328,34.678705],[137.211915,34.679272],[137.21204,34.679205],[137.21234,34.679163],[137.21249,34.679097],[137.212653,34.678822],[137.212753,34.678713],[137.213303,34.678488],[137.213603,34.678264],[137.21409,34.677955],[137.214515,34.677622],[137.214715,34.677464],[137.214965,34.677439],[137.215165,34.677355],[137.21534,34.677222],[137.216302,34.676889],[137.216352,34.676847],[137.216977,34.676689],[137.217852,34.676581],[137.217952,34.676539],[137.218002,34.676472],[137.218177,34.676406],[137.218552,34.676339],[137.21889,34.676256],[137.219215,34.676006],[137.21954,34.675922],[137.21999,34.675856],[137.22029,34.675881],[137.220963,34.675837],[137.22149,34.675664],[137.22179,34.675608],[137.222252,34.675597],[137.223027,34.675722],[137.223377,34.675831],[137.223677,34.675789],[137.224177,34.675973],[137.224502,34.676181],[137.224714,34.676339],[137.225639,34.676889],[137.226539,34.677506],[137.226789,34.677756],[137.227189,34.677731],[137.227564,34.677981],[137.227714,34.678164],[137.227964,34.678306],[137.228214,34.678397],[137.228327,34.678581],[137.228652,34.678781],[137.229102,34.679014],[137.229427,34.679106],[137.229752,34.679239],[137.229901,34.679397],[137.230001,34.679672],[137.230176,34.679897],[137.230476,34.680372],[137.231164,34.681056],[137.232026,34.682322],[137.232176,34.682506],[137.230676,34.683272],[137.234233,34.688194],[137.235588,34.687414],[137.235901,34.687597],[137.235938,34.687722],[137.236288,34.68788],[137.236713,34.68813],[137.237213,34.688297],[137.237538,34.688522],[137.237863,34.688955],[137.238388,34.689205],[137.238513,34.689297],[137.238538,34.689247],[137.238513,34.689088],[137.238438,34.688797],[137.238513,34.68873],[137.238863,34.68853],[137.239038,34.688489],[137.239463,34.688447],[137.239863,34.688564],[137.240013,34.688789],[137.240388,34.688747],[137.240438,34.688589],[137.2414,34.688614],[137.241425,34.688639],[137.2414,34.68873],[137.2428,34.68883],[137.2436,34.688855],[137.243613,34.689689],[137.243588,34.690147],[137.243213,34.690139],[137.242938,34.69018],[137.242563,34.690205],[137.241725,34.690313],[137.24105,34.690347],[137.239725,34.690522],[137.239525,34.690788],[137.238988,34.691372],[137.239088,34.691355],[137.239238,34.691422],[137.240063,34.691355],[137.2405,34.691272],[137.24155,34.691213],[137.24285,34.691063],[137.24355,34.691022],[137.24395,34.690955],[137.244175,34.690955],[137.244513,34.69078],[137.244513,34.690714],[137.244688,34.69038],[137.245063,34.68993],[137.245375,34.689705],[137.245425,34.689589],[137.245425,34.689455],[137.2452,34.68873],[137.245225,34.688597],[137.245375,34.688439],[137.245513,34.688239],[137.245963,34.687997],[137.246488,34.687839],[137.246838,34.687847],[137.246938,34.687914],[137.247019,34.68737],[137.2471,34.687406],[137.247438,34.687314],[137.24765,34.687272],[137.247875,34.687314],[137.248912,34.687831],[137.249187,34.687989],[137.250175,34.688239],[137.250837,34.688347],[137.251275,34.688597],[137.251775,34.688939],[137.25205,34.689231],[137.2529,34.689997],[137.253475,34.690764],[137.254274,34.691889],[137.254499,34.692022],[137.254849,34.692155],[137.254937,34.692155],[137.255174,34.692222],[137.255424,34.69238],[137.255949,34.692897],[137.256087,34.693122],[137.256449,34.693555],[137.256637,34.693939],[137.257374,34.69583],[137.257461,34.69628],[137.257597,34.696398],[137.257761,34.696388],[137.258133,34.696358],[137.258699,34.696297],[137.258924,34.696347],[137.258949,34.696505],[137.259224,34.696522],[137.259274,34.696255],[137.260811,34.695755],[137.261111,34.696413],[137.262524,34.696838],[137.262186,34.697538],[137.262436,34.697647],[137.262874,34.696947],[137.263349,34.697088],[137.263486,34.696839],[137.265261,34.697288],[137.265574,34.696655],[137.265874,34.696722],[137.266011,34.696789],[137.266448,34.697264],[137.266723,34.697489],[137.267086,34.697938],[137.267298,34.698005],[137.267661,34.698522],[137.268011,34.699197],[137.267986,34.69918],[137.267961,34.699988],[137.267848,34.70033],[137.267461,34.700663],[137.267411,34.700663],[137.266886,34.700955],[137.266636,34.701163],[137.266361,34.701255],[137.266061,34.701271],[137.265511,34.701388],[137.265161,34.701613],[137.264823,34.701996],[137.264136,34.702355],[137.264136,34.702446],[137.264198,34.702538],[137.263973,34.702655],[137.266973,34.708529],[137.261773,34.715861],[137.284908,34.730934],[137.301045,34.727902],[137.301057,34.721303],[137.30082,34.721278],[137.300833,34.713004],[137.30097,34.712737],[137.301108,34.711862],[137.301083,34.711296],[137.301196,34.711071],[137.301033,34.710054],[137.300996,34.709604],[137.301133,34.709196],[137.301083,34.708771],[137.301021,34.708746],[137.300996,34.708279],[137.301058,34.70753],[137.300971,34.706855],[137.300908,34.706046],[137.300946,34.70598],[137.300996,34.697731],[137.301234,34.697706],[137.301234,34.697214],[137.300996,34.697164],[137.300984,34.693806],[137.290635,34.693798],[137.290597,34.693681],[137.290581,34.693576],[137.290572,34.693389],[137.290547,34.693139],[137.29041,34.692781],[137.290735,34.69269],[137.290872,34.692623],[137.29101,34.692423],[137.291235,34.691606],[137.291147,34.69109],[137.290822,34.690373],[137.290685,34.690165],[137.290573,34.689873],[137.290435,34.689698],[137.28991,34.688657],[137.289385,34.68789],[137.288948,34.687215],[137.288535,34.686765],[137.28826,34.68654],[137.287323,34.685574],[137.286911,34.68519],[137.286811,34.684924],[137.286973,34.68469],[137.287361,34.683882],[137.287523,34.683249],[137.287486,34.682757],[137.286998,34.681474],[137.286798,34.681116],[137.286661,34.680774],[137.286523,34.680524],[137.286148,34.680141],[137.285461,34.679624],[137.284799,34.678991],[137.284799,34.678924],[137.285011,34.678591],[137.285286,34.678408],[137.285461,34.678341],[137.285561,34.678341],[137.285899,34.678524],[137.286498,34.679016],[137.287248,34.679624],[137.287736,34.680032],[137.288148,34.680299],[137.288973,34.680724],[137.289823,34.680949],[137.290348,34.681041],[137.290811,34.681066],[137.291423,34.681132],[137.292385,34.681307],[137.292798,34.681357],[137.293398,34.681374],[137.29411,34.681282],[137.29431,34.681282],[137.294273,34.68374],[137.296998,34.682857],[137.297435,34.682749],[137.298347,34.682457],[137.298722,34.682341],[137.299685,34.681982],[137.300735,34.681641],[137.301085,34.681599],[137.301447,34.681508],[137.302435,34.681416],[137.303997,34.681099],[137.305597,34.680874],[137.306534,34.680691],[137.306747,34.680533],[137.306809,34.680175],[137.306747,34.679608],[137.306609,34.678908],[137.306634,34.67855],[137.306747,34.678416],[137.306884,34.678366],[137.307109,34.678458],[137.307134,34.678508],[137.307434,34.679658],[137.307709,34.680125],[137.308097,34.680758],[137.308397,34.681166],[137.308697,34.681408],[137.309446,34.681841],[137.310684,34.682308],[137.310846,34.682333],[137.311096,34.682308],[137.311334,34.682216],[137.311559,34.682374],[137.311534,34.682399],[137.311559,34.682966],[137.311534,34.683191],[137.311559,34.683366],[137.312384,34.684899],[137.312821,34.685666],[137.314058,34.687357],[137.314258,34.687599],[137.314446,34.687782],[137.315845,34.688416],[137.315883,34.688416],[137.31557,34.688999],[137.315495,34.688957],[137.315296,34.688974],[137.315108,34.68904],[137.314883,34.689199],[137.313621,34.689657],[137.312771,34.690057],[137.311483,34.69069],[137.310746,34.690965],[137.310196,34.691215],[137.309808,34.69144],[137.308571,34.691998],[137.308521,34.692065],[137.308571,34.692248],[137.310996,34.695473],[137.311658,34.696281],[137.311758,34.696323],[137.311895,34.696323],[137.312883,34.696006],[137.31327,34.695915],[137.315008,34.695373],[137.31572,34.69524],[137.317832,34.695373],[137.318307,34.69544],[137.31882,34.695415],[137.321432,34.694315],[137.325281,34.701381],[137.325256,34.702281],[137.31622,34.702205],[137.316132,34.699764],[137.315745,34.699472],[137.311845,34.699522],[137.31187,34.700739],[137.309845,34.700697],[137.30902,34.701939],[137.30907,34.702589],[137.308995,34.702572],[137.308608,34.702589],[137.308583,34.702614],[137.308495,34.703855],[137.308608,34.703872],[137.308933,34.703872],[137.309045,34.703897],[137.309045,34.705388],[137.308745,34.705813],[137.30867,34.705855],[137.308583,34.705855],[137.308582,34.711946],[137.309057,34.711962],[137.309132,34.714104],[137.308532,34.714154],[137.30862,34.716653],[137.308532,34.716787],[137.308457,34.716828],[137.308457,34.71857],[137.308595,34.71857],[137.308657,34.724561],[137.308457,34.724627],[137.308407,34.724827],[137.308432,34.724919],[137.309507,34.724894],[137.309482,34.724536],[137.310407,34.724536],[137.310444,34.724894],[137.310931,34.724944],[137.310906,34.724736],[137.313269,34.724711],[137.313269,34.724894],[137.316981,34.724911],[137.317643,34.724619],[137.32943,34.724628],[137.329655,34.724678],[137.329905,34.724611],[137.330042,34.724536],[137.330142,34.724536],[137.330317,34.724653],[137.330867,34.724603],[137.331242,34.724536],[137.331417,34.72447],[137.331417,34.72422],[137.331242,34.724045],[137.330092,34.72377],[137.329842,34.723686],[137.329792,34.723636],[137.329755,34.721253],[137.33138,34.721178],[137.33138,34.719062],[137.332892,34.71897],[137.33298,34.721137],[137.340616,34.721062],[137.342241,34.720229],[137.342516,34.720112],[137.342704,34.720137],[137.342904,34.720404],[137.343479,34.721395],[137.344578,34.723512],[137.344828,34.723962],[137.345016,34.724095],[137.345541,34.72432],[137.345741,34.72437],[137.346253,34.724345],[137.346428,34.724387],[137.346728,34.724612],[137.347216,34.72522],[137.347491,34.72547],[137.347803,34.725653],[137.349478,34.726411],[137.349865,34.726478],[137.350215,34.726478],[137.350553,34.726436],[137.350653,34.726386],[137.35074,34.726386],[137.351703,34.72747],[137.34849,34.729436],[137.347365,34.731961],[137.338779,34.728452],[137.32883,34.73026],[137.32903,34.731144],[137.32053,34.732701],[137.320568,34.732843],[137.320393,34.732926],[137.321255,34.735951],[137.32078,34.736109],[137.320643,34.736243],[137.320593,34.736418],[137.320679,34.75329],[137.320917,34.75439],[137.320917,34.755648],[137.320892,34.756198],[137.320904,34.756248],[137.320904,34.756431],[137.321079,34.770563],[137.321091,34.770871],[137.321104,34.771038],[137.321478,34.771038],[137.321778,34.771029],[137.322816,34.771004],[137.323441,34.770979],[137.324278,34.770954],[137.324791,34.77093],[137.325803,34.770905],[137.325928,34.77113],[137.32664,34.772538]]],"type":"Polygon"}}],"type":"FeatureCollection"}