{"features":[{"type":"Feature","properties":{"kuni_id":"K11","pref":"静岡県","name":"引佐","yomi":"いなさ","kuni":"遠江","id":"G11004","kuni_url":"/kg/resource/K11.html","id_url":"G11004.html"},"geometry":{"coordinates":[[[137.704224,34.969994],[137.704299,34.969877],[137.704387,34.969386],[137.704224,34.968486],[137.704024,34.967877],[137.704049,34.967627],[137.704137,34.967444],[137.704599,34.967061],[137.704799,34.966861],[137.705374,34.965894],[137.705537,34.965669],[137.705887,34.965461],[137.706199,34.964361],[137.706249,34.964003],[137.706437,34.963528],[137.706637,34.963278],[137.706874,34.963095],[137.707012,34.96287],[137.707074,34.962695],[137.706874,34.961787],[137.706799,34.961112],[137.706799,34.960778],[137.706899,34.960278],[137.707262,34.95992],[137.707337,34.959512],[137.707287,34.959245],[137.707312,34.958704],[137.707537,34.958345],[137.708274,34.958187],[137.708874,34.95787],[137.709187,34.957595],[137.709149,34.957329],[137.709049,34.957145],[137.708574,34.956812],[137.707562,34.95627],[137.706949,34.95602],[137.706574,34.955912],[137.705799,34.955554],[137.705437,34.955329],[137.705162,34.955079],[137.705062,34.954854],[137.705112,34.95402],[137.705187,34.953729],[137.705362,34.953429],[137.705387,34.953137],[137.705224,34.952371],[137.705025,34.950729],[137.704887,34.950529],[137.704775,34.950479],[137.704525,34.950237],[137.704387,34.950029],[137.704337,34.949787],[137.704362,34.949154],[137.704587,34.948721],[137.70505,34.947371],[137.7053,34.946963],[137.7056,34.94613],[137.705737,34.945571],[137.705675,34.945138],[137.705562,34.944805],[137.705512,34.944421],[137.705212,34.94368],[137.70455,34.943338],[137.70425,34.943088],[137.704025,34.942846],[137.7035,34.941655],[137.703387,34.941538],[137.7032,34.941472],[137.7026,34.941405],[137.702212,34.941288],[137.70175,34.941022],[137.7015,34.940822],[137.701337,34.940613],[137.7013,34.940413],[137.701325,34.940072],[137.70125,34.939763],[137.701025,34.939355],[137.700838,34.938788],[137.700813,34.938497],[137.700975,34.937889],[137.701325,34.93733],[137.701438,34.937214],[137.701713,34.936672],[137.701738,34.936447],[137.7016,34.936247],[137.701438,34.93618],[137.7013,34.936064],[137.70125,34.935905],[137.70135,34.935797],[137.701788,34.935772],[137.701988,34.935681],[137.70215,34.935206],[137.702175,34.934214],[137.702125,34.933722],[137.701925,34.933247],[137.70195,34.932981],[137.702288,34.932548],[137.70275,34.931648],[137.702863,34.931331],[137.703,34.931106],[137.703138,34.931014],[137.703325,34.930998],[137.703663,34.931014],[137.704038,34.931131],[137.705,34.931531],[137.705775,34.931806],[137.706125,34.931965],[137.706437,34.931965],[137.706737,34.93189],[137.7074,34.931556],[137.707637,34.931373],[137.7078,34.930965],[137.708,34.93029],[137.708437,34.929682],[137.710525,34.928507],[137.711487,34.928124],[137.711837,34.928015],[137.712362,34.92804],[137.71275,34.92799],[137.7131,34.927882],[137.713375,34.927741],[137.713625,34.927566],[137.714475,34.927066],[137.714912,34.926841],[137.71475,34.926574],[137.7147,34.926191],[137.714887,34.925508],[137.715025,34.925199],[137.71505,34.924924],[137.715,34.924674],[137.714862,34.924449],[137.714525,34.924091],[137.714475,34.923933],[137.7145,34.923666],[137.7148,34.9231],[137.715237,34.922491],[137.715537,34.921908],[137.71565,34.921617],[137.716012,34.921092],[137.716175,34.920575],[137.716562,34.92015],[137.716587,34.919942],[137.71705,34.918659],[137.717262,34.918076],[137.717362,34.917984],[137.717462,34.917917],[137.717287,34.917642],[137.716862,34.917217],[137.716612,34.916876],[137.71655,34.916626],[137.716725,34.916176],[137.716875,34.915768],[137.71675,34.915568],[137.716288,34.915093],[137.716388,34.914593],[137.716313,34.914034],[137.716175,34.913626],[137.716,34.913085],[137.716038,34.91236],[137.716113,34.911951],[137.716413,34.91121],[137.7162,34.910602],[137.71615,34.909835],[137.716238,34.909093],[137.716363,34.908643],[137.7166,34.90826],[137.716825,34.907994],[137.717125,34.907785],[137.7175,34.907635],[137.71795,34.907502],[137.718563,34.907369],[137.719438,34.907244],[137.720038,34.907136],[137.720613,34.907111],[137.721038,34.907136],[137.721413,34.907052],[137.72195,34.906827],[137.722225,34.906761],[137.72285,34.906769],[137.723225,34.906702],[137.72345,34.906619],[137.724137,34.906053],[137.724487,34.905494],[137.724987,34.905186],[137.72525,34.905136],[137.726075,34.905053],[137.72635,34.904853],[137.727125,34.904636],[137.727475,34.904503],[137.727912,34.904211],[137.727987,34.90412],[137.728187,34.904028],[137.728762,34.903945],[137.729062,34.903878],[137.729675,34.903253],[137.7299,34.903145],[137.730175,34.903053],[137.731625,34.902811],[137.732362,34.902795],[137.733412,34.902762],[137.733712,34.902628],[137.733887,34.902445],[137.734274,34.901753],[137.735462,34.900112],[137.735687,34.899845],[137.735937,34.899712],[137.736874,34.899445],[137.737374,34.899362],[137.737799,34.899254],[137.738349,34.899029],[137.738474,34.899004],[137.738674,34.899054],[137.739349,34.899487],[137.740124,34.899737],[137.740524,34.899837],[137.740974,34.899995],[137.741299,34.900179],[137.741724,34.900337],[137.742549,34.900504],[137.743274,34.900504],[137.744024,34.900604],[137.744249,34.900579],[137.744436,34.900512],[137.744611,34.900404],[137.745111,34.899862],[137.745449,34.899346],[137.745524,34.899037],[137.745549,34.898221],[137.745636,34.897929],[137.746061,34.896896],[137.746149,34.896604],[137.746074,34.896221],[137.745824,34.895763],[137.745274,34.89513],[137.745286,34.89488],[137.745586,34.894505],[137.745411,34.894296],[137.745311,34.894096],[137.745286,34.893846],[137.745324,34.893621],[137.745524,34.893147],[137.745574,34.892813],[137.745424,34.892563],[137.745224,34.892422],[137.745024,34.892247],[137.744812,34.891697],[137.744662,34.891405],[137.744337,34.891088],[137.744099,34.890272],[137.743899,34.889889],[137.743849,34.889547],[137.744012,34.888964],[137.744262,34.888447],[137.744237,34.888272],[137.743612,34.887539],[137.743499,34.887206],[137.743486,34.887014],[137.743574,34.886664],[137.743749,34.886281],[137.743912,34.886031],[137.744162,34.885806],[137.744662,34.885564],[137.744737,34.885431],[137.744737,34.885023],[137.744849,34.884639],[137.744799,34.884373],[137.744624,34.883939],[137.744599,34.883764],[137.744649,34.883606],[137.744812,34.883381],[137.744962,34.883264],[137.745087,34.883065],[137.745087,34.882865],[137.744912,34.882615],[137.744937,34.882431],[137.745012,34.88234],[137.744787,34.88214],[137.744487,34.882023],[137.74445,34.881956],[137.7444,34.88144],[137.744225,34.881256],[137.743925,34.88094],[137.743725,34.88069],[137.743625,34.880665],[137.743425,34.880706],[137.743175,34.880798],[137.743075,34.880748],[137.7428,34.880406],[137.742637,34.880073],[137.742687,34.879707],[137.742712,34.87944],[137.742762,34.879123],[137.742637,34.878832],[137.74245,34.87854],[137.7424,34.878382],[137.74245,34.877948],[137.74235,34.877923],[137.7418,34.877965],[137.74175,34.87779],[137.74195,34.87754],[137.742075,34.877224],[137.742062,34.876907],[137.742012,34.876799],[137.741637,34.876524],[137.741487,34.876365],[137.741412,34.87614],[137.741387,34.875757],[137.7408,34.87444],[137.74055,34.874174],[137.74035,34.874015],[137.73995,34.873757],[137.7398,34.873624],[137.739587,34.873307],[137.739562,34.873124],[137.739637,34.872541],[137.739637,34.872274],[137.74005,34.871982],[137.740625,34.871124],[137.741237,34.870633],[137.741537,34.870483],[137.741862,34.870366],[137.742137,34.870374],[137.742437,34.870416],[137.742737,34.870558],[137.743237,34.870674],[137.743837,34.870649],[137.745125,34.870524],[137.745324,34.870458],[137.745499,34.870283],[137.745862,34.869266],[137.745937,34.869133],[137.746162,34.868891],[137.746662,34.868483],[137.746737,34.868375],[137.746724,34.867925],[137.746674,34.8677],[137.746699,34.867475],[137.746724,34.867383],[137.746924,34.8672],[137.747237,34.8668],[137.747274,34.866483],[137.747012,34.866133],[137.746937,34.866117],[137.746862,34.8661],[137.746412,34.865733],[137.745774,34.864875],[137.745299,34.863992],[137.745024,34.863758],[137.744124,34.863417],[137.743749,34.863192],[137.742912,34.8628],[137.742012,34.8625],[137.741712,34.862317],[137.741437,34.862067],[137.740225,34.860634],[137.739775,34.860159],[137.7395,34.86],[137.7391,34.859817],[137.738925,34.859659],[137.738825,34.859459],[137.738812,34.859025],[137.738912,34.858759],[137.739312,34.858509],[137.739587,34.858376],[137.740087,34.858017],[137.7406,34.857576],[137.7413,34.857151],[137.741425,34.857017],[137.741312,34.856717],[137.741062,34.856542],[137.740812,34.856451],[137.740612,34.856442],[137.740162,34.856534],[137.739625,34.856842],[137.73925,34.856951],[137.738925,34.856842],[137.7383,34.856501],[137.738025,34.856292],[137.7379,34.856067],[137.737688,34.855076],[137.737488,34.854601],[137.737275,34.854301],[137.737,34.854076],[137.736425,34.853709],[137.735275,34.853409],[137.7347,34.853084],[137.73415,34.853043],[137.7337,34.852743],[137.7334,34.852676],[137.733225,34.852559],[137.73295,34.852268],[137.732701,34.852101],[137.732426,34.852034],[137.732101,34.852009],[137.731926,34.851968],[137.731663,34.851509],[137.731538,34.851243],[137.731488,34.850701],[137.731638,34.850251],[137.731826,34.849843],[137.731851,34.849618],[137.731826,34.849343],[137.731751,34.849235],[137.731426,34.848893],[137.730813,34.848435],[137.730613,34.848118],[137.730463,34.84751],[137.730438,34.84726],[137.730626,34.84661],[137.730776,34.846318],[137.731051,34.846027],[137.731438,34.845802],[137.731838,34.845627],[137.731913,34.84556],[137.732038,34.845085],[137.732176,34.844543],[137.732476,34.843935],[137.733288,34.842927],[137.733463,34.842619],[137.733463,34.842302],[137.733301,34.84196],[137.733283,34.841932],[137.733726,34.841719],[137.733976,34.841669],[137.734475,34.841652],[137.734625,34.841702],[137.7348,34.841811],[137.735,34.842111],[137.735175,34.842244],[137.736125,34.842136],[137.73745,34.841944],[137.7377,34.841877],[137.738013,34.841744],[137.738213,34.841769],[137.73835,34.842044],[137.73855,34.842136],[137.738775,34.842161],[137.7392,34.842119],[137.739612,34.842144],[137.739825,34.842344],[137.741312,34.842427],[137.741662,34.842386],[137.742412,34.842119],[137.742737,34.842002],[137.742987,34.842011],[137.743287,34.842052],[137.743437,34.842052],[137.743587,34.841969],[137.744362,34.842494],[137.744712,34.842561],[137.745037,34.842561],[137.745562,34.842502],[137.745962,34.842344],[137.746985,34.842355],[137.747924,34.842228],[137.748462,34.842003],[137.748849,34.841986],[137.749899,34.841469],[137.750674,34.840919],[137.750936,34.840786],[137.752161,34.840303],[137.753111,34.840211],[137.754249,34.840153],[137.754849,34.83977],[137.756248,34.83877],[137.756636,34.838445],[137.757461,34.838087],[137.758311,34.837862],[137.759023,34.837412],[137.759961,34.836629],[137.761261,34.83532],[137.761861,34.834129],[137.762073,34.833454],[137.761648,34.833521],[137.761148,34.833721],[137.760961,34.833946],[137.760961,34.834037],[137.761098,34.834304],[137.760898,34.834354],[137.760548,34.834212],[137.760523,34.833812],[137.760873,34.833404],[137.761286,34.833071],[137.761536,34.832713],[137.760911,34.831829],[137.760423,34.830929],[137.760011,34.830463],[137.759873,34.830146],[137.760011,34.829805],[137.759011,34.828413],[137.758461,34.827921],[137.757099,34.827963],[137.756936,34.827805],[137.757049,34.82758],[137.757561,34.827263],[137.757724,34.827197],[137.757811,34.826997],[137.756724,34.824947],[137.756286,34.82483],[137.755874,34.824788],[137.755874,34.824563],[137.756449,34.82418],[137.756349,34.823939],[137.755912,34.823822],[137.755524,34.82393],[137.755312,34.823705],[137.755724,34.822897],[137.755499,34.822089],[137.755074,34.821281],[137.754637,34.820697],[137.754449,34.820539],[137.754362,34.819931],[137.754174,34.819523],[137.753937,34.818514],[137.753849,34.818356],[137.753637,34.818306],[137.753299,34.818398],[137.753362,34.818623],[137.752862,34.818981],[137.752537,34.819006],[137.752699,34.818489],[137.752624,34.818148],[137.752649,34.818039],[137.753412,34.817456],[137.753574,34.817364],[137.753387,34.816756],[137.753012,34.816081],[137.75285,34.815973],[137.75235,34.816398],[137.752112,34.816306],[137.752087,34.816198],[137.751837,34.815923],[137.751237,34.815815],[137.751212,34.815765],[137.751325,34.815406],[137.751425,34.81534],[137.751725,34.815006],[137.752137,34.814865],[137.752437,34.81469],[137.752437,34.814215],[137.752362,34.814107],[137.751925,34.813923],[137.75135,34.814398],[137.750962,34.814415],[137.750825,34.814281],[137.751325,34.814081],[137.75135,34.81399],[137.750862,34.813632],[137.750675,34.813448],[137.750312,34.813407],[137.750287,34.813315],[137.750537,34.813157],[137.751437,34.812932],[137.750887,34.812098],[137.750625,34.811898],[137.749987,34.81194],[137.749775,34.812057],[137.749775,34.812098],[137.749575,34.812123],[137.749412,34.811873],[137.750187,34.811223],[137.749562,34.81059],[137.749475,34.810299],[137.748988,34.809065],[137.748363,34.808232],[137.748013,34.807849],[137.747275,34.807332],[137.747,34.80704],[137.747063,34.806882],[137.747875,34.806832],[137.748063,34.806474],[137.74785,34.805932],[137.747575,34.805691],[137.7472,34.805466],[137.746987,34.805235],[137.746788,34.804982],[137.746625,34.804932],[137.746025,34.804982],[137.745475,34.805024],[137.744688,34.805049],[137.744063,34.805099],[137.744063,34.80494],[137.744226,34.804557],[137.744276,34.804307],[137.744413,34.804082],[137.744501,34.803807],[137.744626,34.803541],[137.744688,34.803316],[137.744801,34.803091],[137.744851,34.802707],[137.744601,34.802191],[137.744576,34.802007],[137.744651,34.801649],[137.744713,34.801282],[137.744601,34.800924],[137.744463,34.800766],[137.744138,34.800566],[137.744026,34.800407],[137.744001,34.800141],[137.744076,34.799616],[137.744161,34.799371],[137.744326,34.798899],[137.744326,34.798741],[137.743913,34.797841],[137.743776,34.797749],[137.743613,34.797749],[137.743526,34.797791],[137.743176,34.798558],[137.743038,34.798941],[137.74291,34.79896],[137.742688,34.798966],[137.741588,34.799057],[137.741426,34.799032],[137.741238,34.799057],[137.741076,34.799191],[137.741026,34.799399],[137.741017,34.799413],[137.740776,34.799399],[137.740801,34.798874],[137.741619,34.798238],[137.738833,34.796657],[137.733987,34.794279],[137.729991,34.793175],[137.7254,34.79309],[137.721064,34.793769],[137.716898,34.794194],[137.713923,34.794194],[137.711542,34.793854],[137.707886,34.790541],[137.704146,34.786974],[137.701085,34.782047],[137.699809,34.781027],[137.695899,34.780178],[137.693041,34.778312],[137.690915,34.776613],[137.686494,34.775254],[137.682158,34.774659],[137.676462,34.774575],[137.668556,34.775594],[137.660989,34.776358],[137.656143,34.777123],[137.651127,34.777123],[137.6456,34.777123],[137.642927,34.778364],[137.642436,34.778473],[137.641174,34.778606],[137.640524,34.778815],[137.640136,34.778973],[137.639836,34.77904],[137.639587,34.779065],[137.638637,34.778881],[137.638112,34.778815],[137.637712,34.778723],[137.636287,34.778548],[137.635962,34.778573],[137.635824,34.778456],[137.635462,34.778364],[137.635112,34.778364],[137.633725,34.778639],[137.633337,34.778798],[137.633175,34.778906],[137.633037,34.779064],[137.6329,34.779156],[137.632575,34.779114],[137.632212,34.778906],[137.631725,34.778748],[137.631175,34.778681],[137.630412,34.778914],[137.630062,34.779064],[137.629863,34.779206],[137.629538,34.779272],[137.629188,34.779247],[137.62855,34.778981],[137.627675,34.778731],[137.627488,34.778597],[137.626975,34.778322],[137.626613,34.778189],[137.625663,34.777922],[137.625388,34.778014],[137.625251,34.778122],[137.622,34.779225],[137.619026,34.780147],[137.611127,34.776664],[137.611064,34.781363],[137.611127,34.78233],[137.611189,34.782621],[137.611352,34.78298],[137.611527,34.783205],[137.611664,34.783496],[137.611914,34.783879],[137.612164,34.784596],[137.612139,34.784863],[137.612064,34.785138],[137.611739,34.785721],[137.611639,34.786262],[137.611552,34.786446],[137.610877,34.786921],[137.610689,34.787254],[137.610414,34.787554],[137.610177,34.787712],[137.610089,34.787954],[137.610076,34.788945],[137.609976,34.789329],[137.609889,34.789895],[137.609676,34.790295],[137.609601,34.790637],[137.609064,34.791537],[137.608826,34.791812],[137.608789,34.791945],[137.608851,34.792062],[137.609126,34.792328],[137.609264,34.792753],[137.609189,34.793003],[137.608914,34.793478],[137.608601,34.794195],[137.608339,34.795253],[137.608401,34.795836],[137.608376,34.796111],[137.608289,34.796244],[137.608051,34.796519],[137.607639,34.797036],[137.607564,34.797286],[137.607539,34.797594],[137.607576,34.798094],[137.607514,34.798186],[137.607301,34.798253],[137.607114,34.798253],[137.606064,34.798144],[137.605764,34.798194],[137.605389,34.798353],[137.605139,34.798561],[137.60495,34.798586],[137.604814,34.798586],[137.604564,34.798561],[137.604489,34.798586],[137.604714,34.798786],[137.605089,34.799077],[137.605289,34.799369],[137.605626,34.800036],[137.605989,34.801344],[137.606101,34.801544],[137.606301,34.801769],[137.606739,34.801985],[137.606876,34.802169],[137.607014,34.80266],[137.606964,34.802977],[137.606801,34.803452],[137.606651,34.804444],[137.606676,34.804869],[137.606414,34.805318],[137.606389,34.80586],[137.606314,34.806043],[137.606064,34.806152],[137.605876,34.806293],[137.605689,34.806943],[137.605401,34.807443],[137.605426,34.807752],[137.605514,34.808068],[137.605676,34.808385],[137.605763,34.80906],[137.606213,34.810401],[137.606576,34.810943],[137.606826,34.811568],[137.607001,34.811818],[137.607276,34.811993],[137.607438,34.812484],[137.607638,34.812684],[137.60805,34.813251],[137.6084,34.813426],[137.60915,34.813576],[137.6092,34.813626],[137.609588,34.814251],[137.609863,34.814451],[137.610338,34.814834],[137.610388,34.815009],[137.610338,34.815301],[137.61045,34.815551],[137.610563,34.815684],[137.610675,34.815909],[137.61065,34.816401],[137.610351,34.816757],[137.61035,34.816784],[137.610325,34.817084],[137.610275,34.817234],[137.610138,34.817309],[137.610063,34.817401],[137.610063,34.818067],[137.609913,34.818767],[137.609888,34.819042],[137.6098,34.819284],[137.609787,34.8201],[137.609837,34.820434],[137.60985,34.821017],[137.609737,34.821358],[137.609587,34.822008],[137.60945,34.822233],[137.609031,34.822629],[137.608937,34.822733],[137.60875,34.822783],[137.608637,34.822783],[137.608037,34.822675],[137.607763,34.822675],[137.607438,34.822767],[137.6067,34.823108],[137.606375,34.82315],[137.605938,34.823158],[137.60555,34.823092],[137.604863,34.822892],[137.604538,34.822875],[137.604175,34.822967],[137.603825,34.823008],[137.603338,34.822883],[137.603063,34.822858],[137.602926,34.822908],[137.602626,34.823133],[137.602376,34.823158],[137.602001,34.823133],[137.601588,34.823208],[137.601288,34.823316],[137.601013,34.823408],[137.600413,34.823483],[137.600113,34.823575],[137.599738,34.8238],[137.599488,34.824025],[137.599113,34.824525],[137.598838,34.824658],[137.598513,34.824749],[137.597826,34.824824],[137.597289,34.824758],[137.596601,34.824499],[137.596401,34.824516],[137.596351,34.824499],[137.596214,34.824608],[137.596189,34.824699],[137.595789,34.825491],[137.595439,34.825916],[137.595251,34.826324],[137.595089,34.827316],[137.594876,34.827499],[137.594576,34.827657],[137.594226,34.827724],[137.593451,34.827682],[137.592964,34.827982],[137.592889,34.828074],[137.592589,34.828274],[137.592126,34.828391],[137.591602,34.828441],[137.591052,34.828441],[137.590652,34.828516],[137.590589,34.828557],[137.590564,34.828674],[137.590652,34.829007],[137.590739,34.829774],[137.590827,34.829932],[137.590751,34.830357],[137.590739,34.831865],[137.590801,34.83274],[137.590964,34.833298],[137.591089,34.833948],[137.591089,34.834557],[137.591014,34.835348],[137.591039,34.835506],[137.591026,34.836131],[137.591051,34.836356],[137.591189,34.83654],[137.591301,34.836623],[137.591451,34.836673],[137.591626,34.836806],[137.591689,34.837031],[137.591601,34.83724],[137.591426,34.837323],[137.591139,34.837623],[137.590701,34.838281],[137.590351,34.838756],[137.590001,34.839048],[137.589501,34.839389],[137.589214,34.839706],[137.589101,34.839972],[137.588951,34.840539],[137.588639,34.841372],[137.588464,34.841647],[137.588314,34.84178],[137.587901,34.841922],[137.587089,34.842755],[137.586914,34.843047],[137.586764,34.84348],[137.586539,34.843997],[137.586301,34.84423],[137.586101,34.844338],[137.585864,34.844405],[137.585751,34.84448],[137.585664,34.84468],[137.585689,34.845038],[137.585664,34.845647],[137.585839,34.846238],[137.585964,34.846888],[137.586051,34.847246],[137.586264,34.847455],[137.587064,34.84788],[137.587239,34.848013],[137.587389,34.848263],[137.587451,34.848846],[137.587364,34.849188],[137.587101,34.849613],[137.586951,34.850021],[137.586989,34.850563],[137.587051,34.850763],[137.587201,34.850946],[137.588113,34.851663],[137.588413,34.851913],[137.588851,34.852179],[137.589501,34.852513],[137.590038,34.852963],[137.590451,34.853479],[137.590713,34.854062],[137.591038,34.854496],[137.591125,34.854537],[137.591488,34.854871],[137.59175,34.855479],[137.592225,34.855929],[137.592875,34.856404],[137.593238,34.856804],[137.593088,34.856671],[137.593525,34.857187],[137.594063,34.857954],[137.594475,34.858154],[137.594737,34.858445],[137.595062,34.858945],[137.595462,34.859979],[137.595612,34.860362],[137.595725,34.860903],[137.5957,34.861312],[137.595525,34.861895],[137.595862,34.862595],[137.596062,34.862845],[137.596337,34.863378],[137.59645,34.863878],[137.596487,34.864645],[137.596425,34.864845],[137.596287,34.865053],[137.596112,34.865211],[137.595875,34.86557],[137.595875,34.865778],[137.595937,34.865928],[137.596087,34.86607],[137.5962,34.866269],[137.596237,34.866678],[137.596175,34.866944],[137.596237,34.867603],[137.596424,34.868569],[137.596512,34.868861],[137.596487,34.869177],[137.596224,34.869561],[137.595725,34.869944],[137.595637,34.870244],[137.595699,34.870444],[137.596174,34.871027],[137.597274,34.87231],[137.597662,34.872602],[137.598187,34.872802],[137.598924,34.873044],[137.599362,34.873202],[137.600399,34.873377],[137.601749,34.873552],[137.602074,34.873644],[137.602811,34.874119],[137.603111,34.874202],[137.603349,34.874319],[137.603749,34.874402],[137.604111,34.874452],[137.604611,34.874427],[137.605461,34.87431],[137.605698,34.874352],[137.606548,34.87471],[137.607523,34.874952],[137.609136,34.875127],[137.610173,34.875169],[137.610548,34.875144],[137.611048,34.875052],[137.61126,34.874985],[137.61161,34.874711],[137.61196,34.874644],[137.61246,34.874661],[137.612785,34.874619],[137.613223,34.874594],[137.613423,34.874661],[137.613698,34.874794],[137.614048,34.875044],[137.61426,34.875086],[137.614548,34.875061],[137.61526,34.875219],[137.616135,34.875327],[137.61626,34.875394],[137.616735,34.876027],[137.616935,34.876427],[137.61701,34.877419],[137.616947,34.878277],[137.61701,34.878368],[137.617185,34.87846],[137.617397,34.878477],[137.618097,34.87866],[137.618835,34.879085],[137.619047,34.879152],[137.619984,34.879035],[137.620284,34.879035],[137.620747,34.879118],[137.621284,34.879527],[137.621609,34.879768],[137.621784,34.879885],[137.621996,34.879914],[137.622634,34.880168],[137.623384,34.88056],[137.623834,34.880877],[137.624084,34.88126],[137.624409,34.881268],[137.624684,34.881218],[137.625059,34.881202],[137.625234,34.881227],[137.625409,34.881293],[137.625709,34.881527],[137.626084,34.881593],[137.626434,34.881593],[137.626884,34.88176],[137.628333,34.882351],[137.628971,34.882693],[137.629421,34.883035],[137.629646,34.883218],[137.630296,34.884018],[137.631483,34.885193],[137.631633,34.885243],[137.631833,34.885268],[137.632758,34.885293],[137.633308,34.885368],[137.633533,34.885459],[137.633683,34.885593],[137.634195,34.886568],[137.63462,34.887476],[137.634895,34.887951],[137.635283,34.888384],[137.635508,34.888792],[137.635733,34.889442],[137.635845,34.889601],[137.63602,34.889742],[137.636595,34.889967],[137.636645,34.889967],[137.636995,34.890242],[137.637345,34.890926],[137.63747,34.891017],[137.637695,34.891034],[137.637895,34.891017],[137.63887,34.890817],[137.639245,34.891142],[137.639495,34.891459],[137.639957,34.892201],[137.640182,34.892451],[137.640946,34.8929],[137.641307,34.893275],[137.641344,34.894242],[137.641519,34.894859],[137.641807,34.895417],[137.642057,34.896034],[137.642169,34.896642],[137.641944,34.8968],[137.641219,34.897133],[137.641094,34.897242],[137.640857,34.897758],[137.640707,34.897967],[137.640482,34.898183],[137.640132,34.898458],[137.640119,34.898725],[137.640294,34.899133],[137.640469,34.899383],[137.640844,34.899725],[137.640869,34.899858],[137.640757,34.9006],[137.640557,34.901191],[137.640469,34.901658],[137.640494,34.901708],[137.640444,34.902041],[137.640532,34.902699],[137.640607,34.903358],[137.640557,34.903941],[137.640519,34.904366],[137.640544,34.904891],[137.640669,34.905207],[137.640832,34.905457],[137.641432,34.906091],[137.641957,34.906474],[137.642557,34.907132],[137.642694,34.907474],[137.642819,34.907924],[137.642994,34.908107],[137.643294,34.908224],[137.643544,34.908224],[137.643719,34.908207],[137.644644,34.907874],[137.644969,34.907807],[137.645431,34.907857],[137.646081,34.908065],[137.646369,34.908332],[137.646419,34.909057],[137.646494,34.909282],[137.646681,34.909649],[137.646781,34.909874],[137.647031,34.910323],[137.647269,34.911248],[137.647394,34.911432],[137.647794,34.911907],[137.647869,34.912065],[137.647894,34.91229],[137.647844,34.91254],[137.647456,34.91344],[137.647594,34.91414],[137.647594,34.914431],[137.647519,34.914706],[137.646806,34.916098],[137.646744,34.916281],[137.646794,34.916439],[137.647044,34.916756],[137.647243,34.917098],[137.647318,34.917523],[137.647031,34.918422],[137.647006,34.918806],[137.647106,34.918922],[137.648693,34.919789],[137.649093,34.919931],[137.649581,34.920356],[137.650056,34.920914],[137.650268,34.921256],[137.650606,34.921722],[137.650768,34.922039],[137.650905,34.922789],[137.651068,34.923255],[137.65178,34.924247],[137.652005,34.924455],[137.652118,34.924655],[137.652305,34.925039],[137.652768,34.925397],[137.652905,34.925622],[137.65288,34.926189],[137.652993,34.926505],[137.652993,34.926955],[137.652918,34.927313],[137.652468,34.928622],[137.652468,34.929005],[137.652555,34.929788],[137.65253,34.930246],[137.652418,34.930488],[137.652143,34.930738],[137.65148,34.931238],[137.651243,34.93148],[137.651018,34.931863],[137.650793,34.932588],[137.650768,34.932946],[137.650855,34.933421],[137.651568,34.934146],[137.651755,34.934438],[137.651893,34.934729],[137.652093,34.934954],[137.652642,34.935154],[137.653517,34.935537],[137.653992,34.935896],[137.654205,34.935962],[137.654592,34.936146],[137.654942,34.936371],[137.655142,34.936662],[137.65528,34.936979],[137.655467,34.937296],[137.656355,34.938104],[137.656567,34.938304],[137.656655,34.938462],[137.65663,34.938671],[137.656455,34.939121],[137.656405,34.939454],[137.656467,34.939729],[137.657092,34.940812],[137.657779,34.941754],[137.657917,34.942045],[137.658054,34.942812],[137.658667,34.943487],[137.659267,34.94432],[137.659567,34.944612],[137.659929,34.944862],[137.661541,34.945737],[137.662404,34.946212],[137.662979,34.946595],[137.663254,34.946887],[137.663466,34.947203],[137.663741,34.94727],[137.663829,34.947203],[137.663966,34.947003],[137.664079,34.946953],[137.664379,34.946953],[137.664816,34.94707],[137.665253,34.947245],[137.665428,34.947361],[137.665803,34.947536],[137.666191,34.947653],[137.667203,34.94772],[137.667653,34.947828],[137.668553,34.948186],[137.669166,34.948303],[137.669653,34.948328],[137.670703,34.948303],[137.671215,34.948078],[137.67149,34.94792],[137.672728,34.946995],[137.67344,34.946228],[137.673778,34.946137],[137.674078,34.946087],[137.674353,34.946087],[137.674578,34.946003],[137.67534,34.945462],[137.67564,34.94537],[137.67589,34.945437],[137.67639,34.946062],[137.676627,34.946203],[137.677152,34.946403],[137.67729,34.946537],[137.677377,34.946812],[137.677465,34.94742],[137.677652,34.947753],[137.677902,34.948387],[137.67809,34.948545],[137.678802,34.948787],[137.679789,34.94897],[137.680039,34.949062],[137.680202,34.949237],[137.680177,34.949936],[137.680289,34.950595],[137.680489,34.951336],[137.680489,34.951495],[137.680564,34.951745],[137.680864,34.952053],[137.681089,34.952236],[137.682351,34.953628],[137.682664,34.954578],[137.682939,34.954961],[137.683376,34.955161],[137.683701,34.955069],[137.684164,34.954778],[137.684501,34.954619],[137.684776,34.954553],[137.685989,34.954553],[137.686201,34.954644],[137.686564,34.955203],[137.687088,34.955411],[137.687251,34.955586],[137.687551,34.956036],[137.687776,34.956169],[137.688488,34.956328],[137.689251,34.956553],[137.689451,34.956644],[137.689563,34.956844],[137.689663,34.958044],[137.689638,34.958361],[137.689501,34.958786],[137.689226,34.959103],[137.690301,34.959752],[137.690388,34.959961],[137.690388,34.960269],[137.690163,34.960877],[137.690138,34.961127],[137.690226,34.961419],[137.690663,34.962394],[137.690688,34.962661],[137.69055,34.962911],[137.690338,34.963135],[137.689976,34.963627],[137.6903,34.963769],[137.690638,34.96406],[137.690888,34.964394],[137.6916,34.965027],[137.691988,34.965452],[137.692313,34.965652],[137.69265,34.965927],[137.694238,34.967752],[137.6944,34.968018],[137.694275,34.968943],[137.694213,34.969593],[137.69435,34.969868],[137.6946,34.970185],[137.694875,34.970451],[137.695587,34.970926],[137.695887,34.971218],[137.696275,34.971485],[137.697075,34.971893],[137.697375,34.971918],[137.697537,34.971843],[137.697762,34.971693],[137.698362,34.971152],[137.699025,34.970785],[137.69925,34.970718],[137.699762,34.970718],[137.700287,34.970627],[137.700449,34.970627],[137.700924,34.970518],[137.701587,34.970285],[137.701862,34.970285],[137.702762,34.970402],[137.703237,34.970335],[137.703537,34.970219],[137.704087,34.97006],[137.704224,34.969994]]],"type":"Polygon"}}],"type":"FeatureCollection"}