{"features":[{"type":"Feature","geometry":{"type":"Polygon","coordinates":[[[137.826688,34.819851],[137.815203,34.815643],[137.799621,34.81095],[137.798005,34.80958],[137.795801,34.807378],[137.79394,34.80547],[137.792177,34.804834],[137.788896,34.80547],[137.786398,34.8064],[137.785321,34.806204],[137.784586,34.805959],[137.783362,34.806204],[137.781501,34.80591],[137.780913,34.804932],[137.779983,34.803904],[137.778807,34.804491],[137.777926,34.805372],[137.776946,34.806106],[137.775428,34.806106],[137.773976,34.805706],[137.770891,34.804287],[137.768687,34.803749],[137.766875,34.804042],[137.766728,34.805021],[137.767071,34.806685],[137.767218,34.808397],[137.766875,34.808984],[137.765699,34.809425],[137.764377,34.808838],[137.763202,34.808153],[137.761782,34.806831],[137.76031,34.805002],[137.758092,34.802864],[137.755447,34.801776],[137.751359,34.801053],[137.74796,34.800435],[137.744161,34.799371],[137.744076,34.799616],[137.744001,34.800141],[137.744026,34.800407],[137.744138,34.800566],[137.744463,34.800766],[137.744601,34.800924],[137.744713,34.801282],[137.744651,34.801649],[137.744576,34.802007],[137.744601,34.802191],[137.744851,34.802707],[137.744801,34.803091],[137.744688,34.803316],[137.744626,34.803541],[137.744501,34.803807],[137.744413,34.804082],[137.744276,34.804307],[137.744226,34.804557],[137.744063,34.80494],[137.744063,34.805099],[137.744688,34.805049],[137.745475,34.805024],[137.746025,34.804982],[137.746625,34.804932],[137.746788,34.804982],[137.746987,34.805235],[137.7472,34.805466],[137.747575,34.805691],[137.74785,34.805932],[137.748063,34.806474],[137.747875,34.806832],[137.747063,34.806882],[137.747,34.80704],[137.747275,34.807332],[137.748013,34.807849],[137.748363,34.808232],[137.748988,34.809065],[137.749475,34.810299],[137.749562,34.81059],[137.750187,34.811223],[137.749412,34.811873],[137.749575,34.812123],[137.749775,34.812098],[137.749775,34.812057],[137.749987,34.81194],[137.750625,34.811898],[137.750887,34.812098],[137.751437,34.812932],[137.750537,34.813157],[137.750287,34.813315],[137.750312,34.813407],[137.750675,34.813448],[137.750862,34.813632],[137.75135,34.81399],[137.751325,34.814081],[137.750825,34.814281],[137.750962,34.814415],[137.75135,34.814398],[137.751925,34.813923],[137.752362,34.814107],[137.752437,34.814215],[137.752437,34.81469],[137.752137,34.814865],[137.751725,34.815006],[137.751425,34.81534],[137.751325,34.815406],[137.751212,34.815765],[137.751237,34.815815],[137.751837,34.815923],[137.752087,34.816198],[137.752112,34.816306],[137.75235,34.816398],[137.75285,34.815973],[137.753012,34.816081],[137.753387,34.816756],[137.753574,34.817364],[137.753412,34.817456],[137.752649,34.818039],[137.752624,34.818148],[137.752699,34.818489],[137.752537,34.819006],[137.752862,34.818981],[137.753362,34.818623],[137.753299,34.818398],[137.753637,34.818306],[137.753849,34.818356],[137.753937,34.818514],[137.754174,34.819523],[137.754362,34.819931],[137.754449,34.820539],[137.754637,34.820697],[137.755074,34.821281],[137.755499,34.822089],[137.755724,34.822897],[137.755312,34.823705],[137.755524,34.82393],[137.755912,34.823822],[137.756349,34.823939],[137.756449,34.82418],[137.755874,34.824563],[137.755874,34.824788],[137.756286,34.82483],[137.756724,34.824947],[137.757811,34.826997],[137.757724,34.827197],[137.757561,34.827263],[137.757049,34.82758],[137.756936,34.827805],[137.757099,34.827963],[137.758461,34.827921],[137.759011,34.828413],[137.760011,34.829805],[137.759873,34.830146],[137.760011,34.830463],[137.760423,34.830929],[137.760911,34.831829],[137.761536,34.832713],[137.761286,34.833071],[137.760873,34.833404],[137.760523,34.833812],[137.760548,34.834212],[137.760898,34.834354],[137.761098,34.834304],[137.760961,34.834037],[137.760961,34.833946],[137.761148,34.833721],[137.761648,34.833521],[137.762073,34.833454],[137.761861,34.834129],[137.761261,34.83532],[137.759961,34.836629],[137.759023,34.837412],[137.758311,34.837862],[137.757461,34.838087],[137.756636,34.838445],[137.756248,34.83877],[137.754849,34.83977],[137.754249,34.840153],[137.753111,34.840211],[137.752161,34.840303],[137.750936,34.840786],[137.750674,34.840919],[137.749899,34.841469],[137.748849,34.841986],[137.748462,34.842003],[137.747924,34.842228],[137.746985,34.842355],[137.745962,34.842344],[137.745562,34.842502],[137.745037,34.842561],[137.744712,34.842561],[137.744362,34.842494],[137.743587,34.841969],[137.743437,34.842052],[137.743287,34.842052],[137.742987,34.842011],[137.742737,34.842002],[137.742412,34.842119],[137.741662,34.842386],[137.741312,34.842427],[137.739825,34.842344],[137.739612,34.842144],[137.7392,34.842119],[137.738775,34.842161],[137.73855,34.842136],[137.73835,34.842044],[137.738213,34.841769],[137.738013,34.841744],[137.7377,34.841877],[137.73745,34.841944],[137.736125,34.842136],[137.735175,34.842244],[137.735,34.842111],[137.7348,34.841811],[137.734625,34.841702],[137.734475,34.841652],[137.733976,34.841669],[137.733726,34.841719],[137.733283,34.841932],[137.733301,34.84196],[137.733463,34.842302],[137.733463,34.842619],[137.733288,34.842927],[137.732476,34.843935],[137.732176,34.844543],[137.732038,34.845085],[137.731913,34.84556],[137.731838,34.845627],[137.731438,34.845802],[137.731051,34.846027],[137.730776,34.846318],[137.730626,34.84661],[137.730438,34.84726],[137.730463,34.84751],[137.730613,34.848118],[137.730813,34.848435],[137.731426,34.848893],[137.731751,34.849235],[137.731826,34.849343],[137.731851,34.849618],[137.731826,34.849843],[137.731638,34.850251],[137.731488,34.850701],[137.731538,34.851243],[137.731663,34.851509],[137.731926,34.851968],[137.732101,34.852009],[137.732426,34.852034],[137.732701,34.852101],[137.73295,34.852268],[137.733225,34.852559],[137.7334,34.852676],[137.7337,34.852743],[137.73415,34.853043],[137.7347,34.853084],[137.735275,34.853409],[137.736425,34.853709],[137.737,34.854076],[137.737275,34.854301],[137.737488,34.854601],[137.737688,34.855076],[137.7379,34.856067],[137.738025,34.856292],[137.7383,34.856501],[137.738925,34.856842],[137.73925,34.856951],[137.739625,34.856842],[137.740162,34.856534],[137.740612,34.856442],[137.740812,34.856451],[137.741062,34.856542],[137.741312,34.856717],[137.741425,34.857017],[137.7413,34.857151],[137.7406,34.857576],[137.740087,34.858017],[137.739587,34.858376],[137.739312,34.858509],[137.738912,34.858759],[137.738812,34.859025],[137.738825,34.859459],[137.738925,34.859659],[137.7391,34.859817],[137.7395,34.86],[137.739775,34.860159],[137.740225,34.860634],[137.741437,34.862067],[137.741712,34.862317],[137.742012,34.8625],[137.742912,34.8628],[137.743749,34.863192],[137.744124,34.863417],[137.745024,34.863758],[137.745299,34.863992],[137.745774,34.864875],[137.746412,34.865733],[137.746862,34.8661],[137.746937,34.866117],[137.747012,34.866133],[137.747274,34.866483],[137.747237,34.8668],[137.746924,34.8672],[137.746724,34.867383],[137.746699,34.867475],[137.746674,34.8677],[137.746724,34.867925],[137.746737,34.868375],[137.746662,34.868483],[137.746162,34.868891],[137.745937,34.869133],[137.745862,34.869266],[137.745499,34.870283],[137.745324,34.870458],[137.745125,34.870524],[137.743837,34.870649],[137.743237,34.870674],[137.742737,34.870558],[137.742437,34.870416],[137.742137,34.870374],[137.741862,34.870366],[137.741537,34.870483],[137.741237,34.870633],[137.740625,34.871124],[137.74005,34.871982],[137.739637,34.872274],[137.739637,34.872541],[137.739562,34.873124],[137.739587,34.873307],[137.7398,34.873624],[137.73995,34.873757],[137.74035,34.874015],[137.74055,34.874174],[137.7408,34.87444],[137.741387,34.875757],[137.741412,34.87614],[137.741487,34.876365],[137.741637,34.876524],[137.742012,34.876799],[137.742062,34.876907],[137.742075,34.877224],[137.74195,34.87754],[137.74175,34.87779],[137.7418,34.877965],[137.74235,34.877923],[137.74245,34.877948],[137.7424,34.878382],[137.74245,34.87854],[137.742637,34.878832],[137.742762,34.879123],[137.742712,34.87944],[137.742687,34.879707],[137.742637,34.880073],[137.7428,34.880406],[137.743075,34.880748],[137.743175,34.880798],[137.743425,34.880706],[137.743625,34.880665],[137.743725,34.88069],[137.743925,34.88094],[137.744225,34.881256],[137.7444,34.88144],[137.74445,34.881956],[137.744487,34.882023],[137.744787,34.88214],[137.745012,34.88234],[137.744937,34.882431],[137.744912,34.882615],[137.745087,34.882865],[137.745087,34.883065],[137.744962,34.883264],[137.744812,34.883381],[137.744649,34.883606],[137.744599,34.883764],[137.744624,34.883939],[137.744799,34.884373],[137.744849,34.884639],[137.744737,34.885023],[137.744737,34.885431],[137.744662,34.885564],[137.744162,34.885806],[137.743912,34.886031],[137.743749,34.886281],[137.743574,34.886664],[137.743486,34.887014],[137.743499,34.887206],[137.743612,34.887539],[137.744237,34.888272],[137.744262,34.888447],[137.744012,34.888964],[137.743849,34.889547],[137.743899,34.889889],[137.744099,34.890272],[137.744337,34.891088],[137.744662,34.891405],[137.744812,34.891697],[137.745024,34.892247],[137.745224,34.892422],[137.745424,34.892563],[137.745574,34.892813],[137.745524,34.893147],[137.745324,34.893621],[137.745286,34.893846],[137.745311,34.894096],[137.745411,34.894296],[137.745586,34.894505],[137.746149,34.893855],[137.746374,34.893538],[137.746449,34.893263],[137.746449,34.892972],[137.746461,34.892388],[137.746286,34.89133],[137.746311,34.891172],[137.746574,34.890789],[137.746724,34.890655],[137.746849,34.890339],[137.746774,34.889914],[137.746837,34.889639],[137.746937,34.889464],[137.746984,34.889341],[137.747137,34.88898],[137.747224,34.888597],[137.747424,34.888047],[137.747874,34.88762],[137.748386,34.887314],[137.748674,34.886864],[137.748986,34.886481],[137.749074,34.886064],[137.748961,34.885398],[137.749061,34.885281],[137.748974,34.884581],[137.749186,34.884256],[137.749212,34.883815],[137.749674,34.883331],[137.749849,34.882973],[137.750074,34.882265],[137.749974,34.881665],[137.749637,34.88094],[137.749349,34.880057],[137.749424,34.879732],[137.749837,34.879223],[137.750374,34.878407],[137.750912,34.878049],[137.752111,34.877899],[137.752574,34.877699],[137.752649,34.877715],[137.752986,34.877707],[137.753936,34.877765],[137.754748,34.877774],[137.755011,34.877607],[137.755861,34.877232],[137.756161,34.876966],[137.756198,34.875866],[137.756661,34.875374],[137.757136,34.874799],[137.757261,34.874333],[137.757648,34.873683],[137.758148,34.873449],[137.758473,34.873399],[137.75896,34.873741],[137.759735,34.874549],[137.76051,34.874766],[137.76326,34.875049],[137.764097,34.874991],[137.764447,34.874816],[137.764847,34.874099],[137.765197,34.873333],[137.765347,34.873124],[137.766372,34.872283],[137.766834,34.871783],[137.767222,34.871233],[137.767984,34.870633],[137.768197,34.870408],[137.768672,34.870008],[137.769097,34.8693],[137.769122,34.868683],[137.769559,34.867792],[137.769509,34.86725],[137.769284,34.86645],[137.769009,34.866142],[137.768584,34.866],[137.768434,34.865975],[137.768222,34.8656],[137.768159,34.865001],[137.767734,34.864267],[137.767897,34.863451],[137.768359,34.862618],[137.768484,34.862251],[137.768272,34.861459],[137.768247,34.861084],[137.768434,34.860543],[137.768397,34.860351],[137.767984,34.859659],[137.767547,34.859101],[137.767547,34.858926],[137.768234,34.858293],[137.768797,34.857868],[137.769547,34.856902],[137.770059,34.856493],[137.771159,34.85616],[137.772147,34.855018],[137.772522,34.854269],[137.772809,34.85401],[137.773746,34.853494],[137.773846,34.853344],[137.775034,34.852911],[137.775834,34.852661],[137.776309,34.852419],[137.776634,34.852286],[137.777171,34.851502],[137.777346,34.851369],[137.778321,34.850911],[137.779209,34.850561],[137.779971,34.850169],[137.780684,34.849611],[137.780721,34.849403],[137.780609,34.849295],[137.780496,34.849003],[137.780359,34.848403],[137.780684,34.848245],[137.781234,34.848311],[137.781746,34.848845],[137.782033,34.84907],[137.782983,34.849311],[137.783146,34.849403],[137.783508,34.84987],[137.783983,34.85037],[137.784846,34.850728],[137.785021,34.85077],[137.785308,34.850903],[137.785758,34.851261],[137.785821,34.851286],[137.786258,34.851686],[137.787458,34.852195],[137.788408,34.853378],[137.789195,34.854044],[137.790183,34.854761],[137.792045,34.856536],[137.792445,34.856961],[137.79292,34.857061],[137.793307,34.856811],[137.793895,34.856119],[137.79457,34.855453],[137.795682,34.854636],[137.79632,34.854453],[137.796807,34.854786],[137.797994,34.854811],[137.799382,34.85512],[137.800494,34.85532],[137.801857,34.85532],[137.801894,34.855278],[137.801869,34.854703],[137.801794,34.854553],[137.801782,34.854087],[137.801894,34.853987],[137.802132,34.853604],[137.802007,34.853087],[137.802069,34.852954],[137.802994,34.85207],[137.803294,34.851987],[137.803881,34.851646],[137.804419,34.851137],[137.804894,34.850846],[137.805106,34.850762],[137.806006,34.850788],[137.80629,34.850876],[137.806306,34.850854],[137.806056,34.850654],[137.805206,34.849304],[137.805119,34.849046],[137.805519,34.848405],[137.806119,34.84783],[137.806269,34.847446],[137.806281,34.845705],[137.806381,34.845322],[137.807756,34.844922],[137.808519,34.844622],[137.809044,34.844447],[137.809644,34.844789],[137.809769,34.84493],[137.809856,34.84548],[137.809919,34.845664],[137.810281,34.846213],[137.810406,34.846338],[137.810756,34.84713],[137.810806,34.847847],[137.810543,34.849855],[137.810231,34.850871],[137.810218,34.851154],[137.810306,34.851921],[137.810306,34.853046],[137.810243,34.854404],[137.810443,34.854787],[137.810643,34.854837],[137.811631,34.855245],[137.81298,34.855737],[137.813718,34.855929],[137.814868,34.85632],[137.81503,34.856395],[137.815818,34.856487],[137.817068,34.85617],[137.817605,34.856087],[137.817817,34.856137],[137.818492,34.856062],[137.818805,34.855946],[137.820592,34.855671],[137.821705,34.855687],[137.822696,34.855617],[137.822804,34.855637],[137.823029,34.855637],[137.823904,34.855312],[137.824254,34.855129],[137.826405,34.836541],[137.826467,34.836049],[137.82663,34.834991],[137.826792,34.833124],[137.827055,34.829233],[137.827055,34.827767],[137.82718,34.823676],[137.827155,34.822459],[137.826688,34.819851]]]},"properties":{"kuni_id":"K11","pref":"静岡県","name":"鹿玉","yomi":"ありたま","id":"G11005","kuni":"遠江","kuni_url":"/kg/resource/K11.html","id_url":"G11005.html"}}],"type":"FeatureCollection"}