{"type":"FeatureCollection","features":[{"properties":{"kuni_id":"K13","pref":"山梨県","name":"東八代","yomi":"ひがしやつしろ","id":"G13003","kuni":"甲斐","kuni_url":"/kg/resource/K13.html","id_url":"G13003.html"},"geometry":{"coordinates":[[[138.75309,35.619532],[138.753078,35.619666],[138.753053,35.619807],[138.753028,35.620132],[138.753065,35.62039],[138.753178,35.62074],[138.753403,35.621132],[138.753753,35.621482],[138.754028,35.621474],[138.754653,35.622332],[138.754678,35.622532],[138.755515,35.623823],[138.75544,35.624207],[138.75549,35.624623],[138.755527,35.625023],[138.755602,35.625682],[138.75569,35.626331],[138.755815,35.626581],[138.756065,35.626723],[138.75674,35.62699],[138.756952,35.627173],[138.75729,35.62749],[138.757302,35.628065],[138.757227,35.628873],[138.757165,35.629123],[138.75664,35.630131],[138.756477,35.630939],[138.756227,35.631439],[138.755965,35.631673],[138.75544,35.632156],[138.754915,35.632464],[138.75464,35.632514],[138.754652,35.632673],[138.754802,35.632806],[138.755277,35.633622],[138.755552,35.634364],[138.755602,35.635339],[138.755565,35.635647],[138.755527,35.636506],[138.75579,35.637414],[138.755815,35.637797],[138.755727,35.638314],[138.755465,35.638589],[138.755252,35.63868],[138.755152,35.63883],[138.755177,35.638947],[138.754815,35.639547],[138.75434,35.63993],[138.75394,35.64013],[138.753677,35.640647],[138.753602,35.641005],[138.75324,35.642072],[138.753177,35.642563],[138.753315,35.644121],[138.753402,35.646671],[138.75349,35.647254],[138.753465,35.647596],[138.753615,35.648763],[138.753665,35.649763],[138.754015,35.650263],[138.75414,35.650512],[138.754165,35.650737],[138.754115,35.650937],[138.753927,35.651037],[138.75329,35.651121],[138.752902,35.651179],[138.752802,35.651379],[138.752827,35.651971],[138.752777,35.652196],[138.75244,35.652354],[138.75204,35.652446],[138.75154,35.652637],[138.750828,35.653237],[138.750528,35.653445],[138.750203,35.653437],[138.749728,35.653262],[138.749478,35.653212],[138.749153,35.653387],[138.74844,35.653954],[138.748003,35.654079],[138.74749,35.654095],[138.747065,35.654079],[138.74699,35.654187],[138.747028,35.655428],[138.747128,35.655562],[138.747203,35.655628],[138.747403,35.655703],[138.748178,35.655745],[138.748828,35.655887],[138.749428,35.655962],[138.750353,35.65597],[138.751665,35.656195],[138.752415,35.655954],[138.753365,35.655712],[138.75379,35.655654],[138.754215,35.655629],[138.754627,35.655654],[138.754787,35.655701],[138.75499,35.655812],[138.75534,35.656004],[138.756015,35.656162],[138.75659,35.656229],[138.758352,35.656287],[138.758827,35.656245],[138.759252,35.656179],[138.760402,35.656237],[138.760927,35.656212],[138.762589,35.655862],[138.762939,35.655687],[138.763414,35.65562],[138.763689,35.655779],[138.764139,35.655962],[138.764539,35.65592],[138.764939,35.65572],[138.765064,35.655637],[138.767001,35.655037],[138.767639,35.65477],[138.768039,35.654729],[138.769939,35.655354],[138.770164,35.65537],[138.770264,35.655304],[138.770489,35.655304],[138.771313,35.65522],[138.771838,35.655245],[138.772813,35.655345],[138.773963,35.65587],[138.774663,35.655787],[138.775301,35.655429],[138.776738,35.654645],[138.777163,35.654354],[138.777613,35.654329],[138.778438,35.654204],[138.778738,35.654254],[138.779238,35.654504],[138.779613,35.65482],[138.77995,35.654979],[138.780088,35.654995],[138.781575,35.654312],[138.782063,35.654212],[138.782288,35.654229],[138.78285,35.654529],[138.783587,35.65442],[138.784075,35.654287],[138.7844,35.654204],[138.784675,35.654329],[138.785425,35.65482],[138.7861,35.655412],[138.785975,35.655428],[138.785987,35.655637],[138.785925,35.655953],[138.785762,35.65617],[138.785662,35.656687],[138.785725,35.656937],[138.785887,35.657095],[138.786325,35.657278],[138.787175,35.657803],[138.7877,35.658345],[138.7879,35.658462],[138.788175,35.658528],[138.788424,35.658553],[138.788924,35.658486],[138.789549,35.65827],[138.790349,35.658361],[138.790874,35.658553],[138.791074,35.658686],[138.791312,35.658795],[138.791624,35.658986],[138.792299,35.659186],[138.792899,35.659445],[138.793349,35.659536],[138.793899,35.659578],[138.794024,35.659678],[138.794174,35.660128],[138.794174,35.660395],[138.794224,35.660644],[138.794386,35.660828],[138.794936,35.661144],[138.795111,35.661369],[138.795174,35.661553],[138.795261,35.661869],[138.795411,35.662411],[138.795711,35.662794],[138.795936,35.662978],[138.796074,35.663019],[138.796199,35.663003],[138.796374,35.663028],[138.797149,35.663011],[138.797611,35.663036],[138.797911,35.663152],[138.798274,35.663419],[138.798449,35.663669],[138.798749,35.664602],[138.799211,35.665161],[138.799286,35.665594],[138.799424,35.666219],[138.799386,35.666285],[138.799424,35.66656],[138.799399,35.666735],[138.799586,35.667735],[138.799736,35.667985],[138.799836,35.668252],[138.799861,35.668635],[138.799799,35.669293],[138.799699,35.669427],[138.799174,35.669577],[138.798899,35.669577],[138.798499,35.669535],[138.798349,35.66946],[138.797949,35.669393],[138.797574,35.669318],[138.797474,35.66941],[138.797424,35.669568],[138.797411,35.669885],[138.815335,35.672176],[138.815497,35.672251],[138.815909,35.672543],[138.816372,35.67296],[138.817409,35.674101],[138.817809,35.674601],[138.818284,35.674668],[138.818672,35.674768],[138.818947,35.674926],[138.819047,35.675243],[138.819297,35.675609],[138.819534,35.675834],[138.819834,35.676018],[138.819984,35.676043],[138.821034,35.676076],[138.821409,35.676401],[138.821596,35.676851],[138.821834,35.677684],[138.821859,35.678142],[138.821684,35.678751],[138.821671,35.678992],[138.821971,35.679317],[138.823046,35.679892],[138.823258,35.680342],[138.823446,35.680551],[138.823896,35.680801],[138.824546,35.681151],[138.824933,35.681242],[138.82507,35.681217],[138.825483,35.681267],[138.825958,35.681526],[138.827008,35.681584],[138.827195,35.681692],[138.826933,35.682392],[138.826895,35.682892],[138.82692,35.68325],[138.827195,35.6837],[138.827632,35.684092],[138.827932,35.684434],[138.82787,35.684659],[138.827945,35.685],[138.82827,35.685359],[138.82932,35.686075],[138.829645,35.686125],[138.830007,35.686242],[138.830419,35.686584],[138.830494,35.686609],[138.830857,35.686609],[138.831107,35.686525],[138.831444,35.686459],[138.831882,35.6866],[138.832207,35.686625],[138.832544,35.686517],[138.833456,35.6863],[138.833906,35.686167],[138.834719,35.685459],[138.835019,35.685484],[138.835431,35.685667],[138.835756,35.685892],[138.835894,35.686192],[138.836181,35.687459],[138.836268,35.687525],[138.836731,35.687467],[138.838006,35.68705],[138.838281,35.6873],[138.838756,35.687392],[138.839056,35.687425],[138.84033,35.687392],[138.84063,35.687442],[138.84123,35.687759],[138.841318,35.687834],[138.841618,35.687925],[138.84298,35.687667],[138.843342,35.687759],[138.843667,35.688151],[138.843967,35.6886],[138.844017,35.688625],[138.844455,35.688542],[138.844767,35.688609],[138.845317,35.688842],[138.845892,35.689009],[138.846367,35.689017],[138.846667,35.688926],[138.847529,35.688442],[138.847892,35.688376],[138.848692,35.688476],[138.849292,35.688659],[138.850254,35.689126],[138.850591,35.689192],[138.850829,35.689426],[138.851166,35.689559],[138.851804,35.689551],[138.852191,35.689484],[138.853266,35.689251],[138.853803,35.689026],[138.854241,35.688759],[138.854553,35.688468],[138.854778,35.688093],[138.855053,35.688001],[138.855641,35.687918],[138.856478,35.687701],[138.857003,35.687526],[138.858053,35.687068],[138.858365,35.686885],[138.85834,35.686618],[138.858428,35.686076],[138.858553,35.685693],[138.85849,35.685401],[138.85809,35.684535],[138.857903,35.683968],[138.857641,35.683452],[138.857278,35.683268],[138.856591,35.683302],[138.853866,35.682593],[138.853366,35.68241],[138.852816,35.682085],[138.852679,35.681977],[138.852141,35.681177],[138.851516,35.680468],[138.850592,35.679718],[138.850254,35.679352],[138.850242,35.678994],[138.850129,35.67856],[138.850092,35.677902],[138.850004,35.677452],[138.850017,35.677069],[138.849904,35.676802],[138.849204,35.67616],[138.848867,35.675752],[138.848767,35.675386],[138.848604,35.675027],[138.847679,35.673702],[138.847442,35.673411],[138.847279,35.673069],[138.847067,35.672277],[138.84713,35.671578],[138.847067,35.670744],[138.84713,35.670361],[138.847254,35.669886],[138.847254,35.669611],[138.847379,35.668886],[138.847529,35.668395],[138.847879,35.667953],[138.848029,35.66757],[138.848279,35.66712],[138.848579,35.666645],[138.848742,35.66602],[138.848729,35.66552],[138.848642,35.66532],[138.848454,35.664928],[138.848354,35.664462],[138.848492,35.66392],[138.848567,35.663853],[138.849117,35.663562],[138.849192,35.663495],[138.849317,35.663087],[138.849292,35.662887],[138.849354,35.662412],[138.849454,35.662037],[138.849966,35.661495],[138.850166,35.661112],[138.850416,35.660987],[138.850516,35.660804],[138.850191,35.660279],[138.849754,35.659829],[138.849254,35.659421],[138.849004,35.658896],[138.848842,35.658337],[138.848654,35.657296],[138.848429,35.656346],[138.848392,35.655196],[138.848592,35.654438],[138.848879,35.653871],[138.849617,35.652746],[138.849942,35.652488],[138.850667,35.652405],[138.850742,35.652288],[138.850779,35.651905],[138.850629,35.651271],[138.850579,35.650863],[138.850754,35.650421],[138.851092,35.649972],[138.851092,35.64983],[138.850679,35.649122],[138.849604,35.648722],[138.849054,35.648372],[138.848205,35.647597],[138.847942,35.647222],[138.847892,35.64693],[138.847755,35.646672],[138.847267,35.646472],[138.846867,35.646188],[138.84668,35.646013],[138.846392,35.645338],[138.846117,35.642589],[138.846005,35.642155],[138.84578,35.641747],[138.84543,35.641339],[138.844605,35.640839],[138.84393,35.640747],[138.843268,35.640739],[138.841805,35.640664],[138.84128,35.640539],[138.840706,35.640297],[138.840418,35.63968],[138.839581,35.639306],[138.839206,35.639064],[138.839093,35.638856],[138.838268,35.638606],[138.838068,35.638489],[138.837643,35.637956],[138.837418,35.637564],[138.837293,35.637222],[138.837131,35.636906],[138.836356,35.636822],[138.835831,35.636581],[138.835306,35.636106],[138.834956,35.635656],[138.834594,35.635447],[138.833631,35.635281],[138.833106,35.635256],[138.832681,35.635072],[138.832156,35.635022],[138.831731,35.635039],[138.831531,35.634964],[138.831581,35.634606],[138.832094,35.633514],[138.832119,35.633106],[138.831056,35.631589],[138.829756,35.62899],[138.829257,35.629206],[138.827944,35.629565],[138.827319,35.629848],[138.827069,35.630031],[138.826157,35.630148],[138.825557,35.630148],[138.824194,35.630273],[138.823107,35.630473],[138.822557,35.630448],[138.821407,35.629823],[138.820657,35.629573],[138.819957,35.629498],[138.819657,35.629364],[138.81897,35.628614],[138.81887,35.628431],[138.81877,35.627965],[138.818607,35.627548],[138.818395,35.627248],[138.818233,35.627006],[138.817895,35.626748],[138.816908,35.625515],[138.81642,35.62499],[138.815908,35.623607],[138.81507,35.622365],[138.814795,35.622174],[138.814408,35.62209],[138.813721,35.622082],[138.813058,35.622007],[138.811933,35.62169],[138.811208,35.62159],[138.810458,35.62159],[138.810233,35.621607],[138.809821,35.621965],[138.807846,35.622515],[138.806684,35.623049],[138.806434,35.623132],[138.805984,35.623015],[138.805709,35.62304],[138.804834,35.62324],[138.803984,35.62339],[138.803446,35.623407],[138.803384,35.623357],[138.803271,35.623224],[138.803384,35.62309],[138.803334,35.622799],[138.803259,35.62264],[138.802759,35.622165],[138.801546,35.621182],[138.801071,35.620774],[138.800946,35.620457],[138.800646,35.620274],[138.800022,35.620266],[138.799222,35.620332],[138.799147,35.620307],[138.799022,35.620332],[138.798522,35.620299],[138.797872,35.619557],[138.797347,35.619174],[138.796734,35.618941],[138.795772,35.618766],[138.794872,35.618674],[138.79461,35.618583],[138.794122,35.618333],[138.79396,35.617991],[138.793985,35.617449],[138.79396,35.617316],[138.79366,35.617274],[138.79136,35.617224],[138.79066,35.617208],[138.790035,35.617266],[138.788623,35.617733],[138.787736,35.617899],[138.786486,35.617783],[138.785574,35.617599],[138.784849,35.617299],[138.782874,35.616],[138.782249,35.615758],[138.781799,35.615658],[138.781599,35.61545],[138.781387,35.61495],[138.780687,35.613767],[138.780362,35.613142],[138.779824,35.6125],[138.779524,35.611942],[138.779312,35.611234],[138.779137,35.6104],[138.77925,35.609834],[138.779212,35.609517],[138.7788,35.6092],[138.777612,35.608584],[138.776937,35.608484],[138.776225,35.608459],[138.776075,35.608201],[138.775663,35.607242],[138.775713,35.606742],[138.775975,35.606334],[138.7762,35.606092],[138.77615,35.605818],[138.775938,35.605451],[138.775413,35.605043],[138.774938,35.604951],[138.774338,35.604951],[138.774288,35.604951],[138.772426,35.605251],[138.771826,35.605384],[138.771426,35.605767],[138.771038,35.606026],[138.770563,35.606076],[138.769838,35.605817],[138.769576,35.605659],[138.769114,35.605251],[138.768839,35.605159],[138.767989,35.605351],[138.767114,35.605326],[138.767114,35.605209],[138.767514,35.604543],[138.767776,35.603934],[138.768514,35.603101],[138.768826,35.602335],[138.768876,35.601676],[138.769014,35.60121],[138.769164,35.60091],[138.769576,35.600601],[138.771013,35.59991],[138.771401,35.59971],[138.771426,35.599602],[138.771263,35.598327],[138.771376,35.59666],[138.771588,35.596127],[138.771988,35.595519],[138.772901,35.594494],[138.773026,35.594144],[138.773388,35.593786],[138.773938,35.593361],[138.774213,35.593002],[138.774251,35.592844],[138.774076,35.591353],[138.773951,35.591011],[138.773288,35.590061],[138.773001,35.58952],[138.772901,35.588878],[138.772839,35.587711],[138.772614,35.586737],[138.772889,35.586562],[138.774601,35.586112],[138.775426,35.585803],[138.775676,35.58567],[138.776163,35.585212],[138.776526,35.584937],[138.776663,35.584895],[138.777188,35.584837],[138.777676,35.584745],[138.778588,35.584212],[138.77875,35.584187],[138.779563,35.584312],[138.780288,35.584595],[138.781175,35.584879],[138.7825,35.584712],[138.783312,35.584695],[138.783812,35.584804],[138.784812,35.58547],[138.784925,35.585512],[138.785175,35.585287],[138.785362,35.584854],[138.785437,35.584379],[138.7854,35.584204],[138.7855,35.583637],[138.78575,35.583045],[138.785987,35.582729],[138.7867,35.582271],[138.787025,35.581787],[138.787325,35.581271],[138.787787,35.580862],[138.788687,35.580354],[138.788712,35.580196],[138.788462,35.579863],[138.788312,35.579363],[138.78825,35.578821],[138.788375,35.578263],[138.788237,35.57788],[138.78805,35.576938],[138.787475,35.575863],[138.787025,35.575322],[138.78685,35.574722],[138.787087,35.574447],[138.78825,35.573847],[138.7889,35.573272],[138.78945,35.573063],[138.789587,35.57288],[138.789525,35.572547],[138.789625,35.57223],[138.790487,35.57188],[138.790899,35.571672],[138.791162,35.571447],[138.792099,35.571114],[138.792462,35.570822],[138.792974,35.570089],[138.793437,35.569747],[138.793237,35.569347],[138.793174,35.568897],[138.793024,35.568447],[138.792074,35.566656],[138.791912,35.566231],[138.791899,35.565598],[138.792024,35.565323],[138.791999,35.565081],[138.791737,35.564789],[138.791212,35.564431],[138.7912,35.56419],[138.791412,35.563506],[138.791837,35.562581],[138.791887,35.562131],[138.7919,35.56109],[138.791925,35.560757],[138.7917,35.560557],[138.790275,35.560048],[138.788887,35.559732],[138.7883,35.559623],[138.787413,35.55964],[138.78685,35.559507],[138.786213,35.559173],[138.785938,35.558998],[138.78535,35.558757],[138.784675,35.558607],[138.783926,35.558598],[138.782601,35.558457],[138.782463,35.558482],[138.782051,35.558707],[138.781551,35.55894],[138.780314,35.559115],[138.779814,35.559348],[138.778651,35.559565],[138.778401,35.55959],[138.777176,35.559357],[138.776714,35.559432],[138.776189,35.55959],[138.775602,35.559623],[138.775327,35.559598],[138.774102,35.55919],[138.773427,35.558923],[138.772902,35.55884],[138.77254,35.55894],[138.772027,35.55919],[138.771177,35.559698],[138.77039,35.560565],[138.770215,35.560698],[138.769915,35.56084],[138.769727,35.560823],[138.769277,35.56069],[138.767827,35.55999],[138.766577,35.55964],[138.76604,35.559465],[138.76559,35.559223],[138.765253,35.558823],[138.765028,35.55844],[138.76439,35.557165],[138.764053,35.556765],[138.76394,35.556565],[138.76369,35.55634],[138.763178,35.556057],[138.762515,35.55584],[138.761728,35.555482],[138.761478,35.555265],[138.761278,35.554948],[138.761165,35.554657],[138.759566,35.553707],[138.759091,35.55349],[138.758678,35.553423],[138.757428,35.553373],[138.756703,35.553382],[138.755128,35.55354],[138.754466,35.553548],[138.753941,35.553507],[138.752941,35.553365],[138.751766,35.55304],[138.750879,35.552623],[138.750229,35.552382],[138.749791,35.552248],[138.749566,35.552115],[138.749179,35.552007],[138.748141,35.551615],[138.747579,35.551465],[138.746879,35.551202],[138.746704,35.551257],[138.746179,35.551198],[138.745454,35.551223],[138.744566,35.55129],[138.744067,35.551273],[138.743517,35.551098],[138.742317,35.550623],[138.741854,35.550382],[138.741354,35.549957],[138.741179,35.549707],[138.740954,35.549532],[138.739954,35.548949],[138.739117,35.548274],[138.738817,35.547982],[138.738342,35.54774],[138.737867,35.54754],[138.737729,35.547515],[138.737204,35.547524],[138.736792,35.547615],[138.736242,35.54764],[138.735905,35.547749],[138.735467,35.547757],[138.73493,35.547665],[138.733692,35.547332],[138.733217,35.547107],[138.732767,35.546974],[138.732242,35.546865],[138.730992,35.546332],[138.730292,35.545774],[138.729792,35.545574],[138.729217,35.545482],[138.728405,35.545215],[138.728268,35.545132],[138.728043,35.544815],[138.727768,35.544524],[138.727605,35.544432],[138.72738,35.544165],[138.727093,35.543715],[138.726818,35.543357],[138.72668,35.54324],[138.72618,35.542974],[138.725593,35.542732],[138.724955,35.542532],[138.724405,35.542399],[138.724093,35.542132],[138.723843,35.541999],[138.723518,35.541932],[138.723068,35.541641],[138.722543,35.541482],[138.721843,35.541332],[138.720793,35.541357],[138.719581,35.541091],[138.718581,35.540757],[138.718156,35.540532],[138.717631,35.540399],[138.717518,35.540407],[138.717019,35.540224],[138.716331,35.539757],[138.715769,35.539441],[138.714769,35.539024],[138.713082,35.538624],[138.712557,35.538532],[138.711557,35.538491],[138.710332,35.538391],[138.709644,35.538299],[138.709394,35.538282],[138.708982,35.538082],[138.708395,35.537966],[138.708232,35.537966],[138.707957,35.537791],[138.707757,35.537407],[138.707445,35.537141],[138.706832,35.537007],[138.706482,35.536899],[138.706057,35.536649],[138.705257,35.536316],[138.704258,35.536007],[138.70332,35.535941],[138.702508,35.535607],[138.701758,35.535141],[138.701283,35.535032],[138.700596,35.535057],[138.699821,35.535149],[138.698521,35.535382],[138.698133,35.535407],[138.697833,35.535316],[138.697196,35.535024],[138.696583,35.534824],[138.696021,35.534691],[138.695221,35.534091],[138.694721,35.533824],[138.694546,35.533774],[138.694159,35.533732],[138.694046,35.533691],[138.693634,35.533241],[138.693459,35.532832],[138.693321,35.532341],[138.693121,35.532024],[138.692259,35.531516],[138.692097,35.531357],[138.691822,35.530974],[138.691484,35.530657],[138.690397,35.530016],[138.688147,35.529057],[138.687647,35.528791],[138.687172,35.528632],[138.686685,35.528632],[138.686147,35.528524],[138.685648,35.528324],[138.68521,35.528082],[138.684823,35.527966],[138.68446,35.527924],[138.68421,35.527857],[138.684123,35.527791],[138.68401,35.527432],[138.683923,35.526932],[138.683785,35.526482],[138.68351,35.526083],[138.683398,35.525591],[138.683523,35.524749],[138.683386,35.524233],[138.683136,35.523899],[138.683186,35.523608],[138.683348,35.523266],[138.683598,35.522908],[138.683873,35.522683],[138.68426,35.522566],[138.68481,35.522491],[138.685635,35.522291],[138.68691,35.522217],[138.687548,35.522125],[138.688073,35.521875],[138.688685,35.521775],[138.689172,35.521483],[138.689447,35.521258],[138.68981,35.520825],[138.690022,35.520425],[138.690322,35.520034],[138.690847,35.519767],[138.691347,35.51965],[138.691622,35.519625],[138.692485,35.520209],[138.693122,35.520542],[138.69366,35.5207],[138.694072,35.520692],[138.694622,35.520559],[138.694959,35.520642],[138.695459,35.521025],[138.695734,35.521159],[138.695984,35.521134],[138.696422,35.521384],[138.696922,35.521376],[138.697447,35.521217],[138.697672,35.521217],[138.698171,35.521326],[138.698784,35.521367],[138.700084,35.521092],[138.700721,35.521159],[138.701271,35.521134],[138.702571,35.520859],[138.703808,35.520826],[138.704121,35.520759],[138.704583,35.520551],[138.705471,35.520618],[138.706108,35.520776],[138.707108,35.521084],[138.707908,35.521259],[138.709208,35.521051],[138.710208,35.520818],[138.711733,35.520726],[138.712195,35.520743],[138.713282,35.521209],[138.71362,35.521276],[138.713757,35.521276],[138.714995,35.520959],[138.715657,35.520818],[138.716569,35.520792],[138.716957,35.520717],[138.718444,35.519834],[138.719106,35.519559],[138.719694,35.519401],[138.720181,35.518634],[138.720344,35.518543],[138.721406,35.518401],[138.721844,35.518243],[138.722206,35.518018],[138.722969,35.517651],[138.723394,35.517626],[138.723993,35.517718],[138.724606,35.51776],[138.724793,35.517685],[138.724768,35.517193],[138.724881,35.516743],[138.724981,35.516468],[138.724981,35.516152],[138.724844,35.515727],[138.724919,35.515343],[138.724856,35.51456],[138.724994,35.51426],[138.725681,35.513852],[138.725769,35.51376],[138.725956,35.513402],[138.726031,35.512835],[138.726144,35.512752],[138.726694,35.512502],[138.726969,35.512252],[138.728093,35.510778],[138.730143,35.50757],[138.732943,35.503237],[138.733368,35.502137],[138.733318,35.502071],[138.732281,35.501562],[138.732906,35.501038],[138.733693,35.500054],[138.733768,35.499829],[138.733869,35.499246],[138.734031,35.498788],[138.735293,35.496946],[138.735481,35.49643],[138.735581,35.495772],[138.735544,35.49528],[138.735281,35.494738],[138.734806,35.49443],[138.735056,35.494022],[138.735381,35.493655],[138.735619,35.493205],[138.735644,35.493089],[138.735419,35.49273],[138.734906,35.492422],[138.733182,35.491547],[138.732307,35.491172],[138.732057,35.491106],[138.731369,35.490847],[138.731144,35.490739],[138.730944,35.490581],[138.730969,35.490264],[138.730907,35.489839],[138.730644,35.489614],[138.730532,35.489589],[138.730232,35.489781],[138.729969,35.490139],[138.729757,35.490664],[138.729682,35.491297],[138.729582,35.491789],[138.729444,35.491997],[138.729357,35.491972],[138.728907,35.491664],[138.728007,35.490547],[138.727095,35.489497],[138.726957,35.489497],[138.72597,35.489764],[138.724758,35.490405],[138.723595,35.490689],[138.722883,35.490922],[138.722283,35.491272],[138.72182,35.491639],[138.721495,35.49218],[138.720845,35.493138],[138.720308,35.493822],[138.71972,35.493847],[138.718996,35.493813],[138.718421,35.493905],[138.718008,35.494113],[138.717708,35.494413],[138.717533,35.495205],[138.717233,35.495413],[138.716946,35.495413],[138.715533,35.495163],[138.714371,35.495221],[138.713671,35.49518],[138.713196,35.494805],[138.712209,35.493913],[138.711596,35.493538],[138.711096,35.493413],[138.709734,35.493405],[138.708959,35.493505],[138.708409,35.493713],[138.707747,35.493996],[138.707609,35.494155],[138.707172,35.494471],[138.706559,35.494296],[138.705447,35.493571],[138.704797,35.493196],[138.70416,35.492863],[138.70306,35.492429],[138.701385,35.491413],[138.70091,35.491013],[138.700236,35.490546],[138.699536,35.490171],[138.699036,35.490037],[138.698173,35.489737],[138.697311,35.489562],[138.696774,35.489621],[138.696749,35.489637],[138.696249,35.489395],[138.695711,35.489045],[138.695011,35.48867],[138.694512,35.488337],[138.694312,35.48802],[138.693999,35.487804],[138.692587,35.487845],[138.691887,35.487378],[138.691474,35.487378],[138.690974,35.487545],[138.690512,35.487645],[138.6899,35.487603],[138.689175,35.487678],[138.68795,35.487445],[138.687187,35.487611],[138.687037,35.487611],[138.686175,35.487128],[138.68545,35.486869],[138.68515,35.486803],[138.6845,35.486611],[138.683838,35.486303],[138.68305,35.485995],[138.68205,35.485511],[138.681313,35.485228],[138.680676,35.484895],[138.680138,35.48457],[138.679163,35.484103],[138.678413,35.483954],[138.677613,35.484054],[138.673789,35.484354],[138.673326,35.48427],[138.672876,35.483954],[138.672414,35.483396],[138.671939,35.482662],[138.671401,35.482221],[138.670864,35.481954],[138.670676,35.481796],[138.670439,35.481013],[138.670201,35.480563],[138.669702,35.48023],[138.668527,35.479546],[138.668127,35.479188],[138.667564,35.478747],[138.667377,35.478663],[138.666064,35.478205],[138.665614,35.478138],[138.665064,35.478172],[138.664902,35.478105],[138.664689,35.477655],[138.664302,35.477597],[138.662939,35.477164],[138.662239,35.476897],[138.66004,35.476272],[138.659565,35.476164],[138.642278,35.495503],[138.641878,35.495987],[138.641791,35.496345],[138.640324,35.497047],[138.638608,35.497871],[138.635724,35.499243],[138.632634,35.501232],[138.630506,35.503633],[138.628927,35.503633],[138.627073,35.503084],[138.624602,35.502124],[138.623091,35.502261],[138.621169,35.503976],[138.619082,35.507157],[138.617159,35.510039],[138.615855,35.512988],[138.61455,35.516076],[138.612971,35.51731],[138.610568,35.518202],[138.606449,35.518614],[138.602398,35.518545],[138.597693,35.518499],[138.594659,35.518839],[138.595397,35.519314],[138.595684,35.519606],[138.595722,35.519964],[138.595197,35.520648],[138.594509,35.521806],[138.594059,35.522381],[138.593247,35.523006],[138.592747,35.523289],[138.592672,35.523622],[138.592659,35.525005],[138.592521,35.52533],[138.592146,35.525664],[138.591359,35.526039],[138.590396,35.526964],[138.589959,35.527105],[138.589746,35.527247],[138.589171,35.527788],[138.588859,35.528163],[138.588646,35.52863],[138.588634,35.528855],[138.588821,35.529663],[138.588734,35.530797],[138.588834,35.531305],[138.588984,35.531571],[138.589808,35.53258],[138.589846,35.532713],[138.589721,35.532896],[138.588883,35.533838],[138.588833,35.534163],[138.588896,35.53453],[138.589658,35.535629],[138.589658,35.535863],[138.589558,35.536379],[138.589821,35.537004],[138.590096,35.537296],[138.590458,35.537479],[138.590633,35.537771],[138.591146,35.537988],[138.591496,35.538321],[138.592245,35.538479],[138.592508,35.538604],[138.592883,35.538963],[138.59297,35.539238],[138.592883,35.539346],[138.592908,35.539396],[138.59332,35.539454],[138.593658,35.539604],[138.594233,35.540129],[138.594345,35.540346],[138.594408,35.540787],[138.594358,35.541437],[138.594258,35.541754],[138.594333,35.541987],[138.594808,35.542371],[138.595033,35.542979],[138.595208,35.543104],[138.595583,35.54322],[138.596182,35.543121],[138.59637,35.543329],[138.596445,35.544087],[138.596595,35.545562],[138.59657,35.545795],[138.596382,35.546012],[138.59612,35.54622],[138.596032,35.546653],[138.595832,35.547028],[138.595545,35.547403],[138.595045,35.54817],[138.594995,35.548578],[138.595107,35.54882],[138.596345,35.550036],[138.595182,35.550045],[138.594232,35.549703],[138.593707,35.54962],[138.592682,35.549753],[138.592232,35.54987],[138.59192,35.550053],[138.591532,35.55032],[138.591157,35.550461],[138.590507,35.550469],[138.58957,35.551011],[138.589008,35.551169],[138.588433,35.551278],[138.587395,35.551278],[138.586695,35.551203],[138.585158,35.551111],[138.58487,35.551069],[138.584658,35.550961],[138.584358,35.550603],[138.584245,35.550786],[138.584133,35.551094],[138.583958,35.551411],[138.582508,35.551352],[138.582345,35.551377],[138.581158,35.551244],[138.580183,35.551019],[138.579308,35.550577],[138.579008,35.550486],[138.577183,35.550577],[138.576683,35.550352],[138.575333,35.550161],[138.574858,35.550252],[138.574746,35.550302],[138.574333,35.550369],[138.573983,35.550277],[138.573633,35.549986],[138.573421,35.549719],[138.573159,35.549061],[138.573121,35.548886],[138.573134,35.548369],[138.573384,35.548019],[138.573809,35.546853],[138.573721,35.546494],[138.573459,35.545903],[138.573246,35.545811],[138.572859,35.545794],[138.571834,35.546094],[138.571221,35.546178],[138.570696,35.546119],[138.570109,35.546219],[138.569047,35.546669],[138.568722,35.546619],[138.568397,35.546394],[138.568022,35.546036],[138.567684,35.545836],[138.567359,35.545561],[138.567047,35.545161],[138.566809,35.546061],[138.566522,35.546311],[138.565697,35.546719],[138.565134,35.546769],[138.56461,35.546686],[138.563397,35.546644],[138.562985,35.546461],[138.56261,35.546194],[138.56231,35.546036],[138.562197,35.546011],[138.561497,35.546127],[138.561023,35.546111],[138.560348,35.546252],[138.559998,35.546452],[138.559898,35.546477],[138.559548,35.546452],[138.559198,35.546502],[138.55861,35.546727],[138.55811,35.546819],[138.557635,35.546977],[138.55706,35.547319],[138.555798,35.547777],[138.555148,35.548044],[138.554423,35.548685],[138.553898,35.548894],[138.553186,35.54891],[138.552686,35.549002],[138.552161,35.549344],[138.551573,35.54936],[138.551311,35.549527],[138.550661,35.549644],[138.548811,35.550618],[138.548173,35.550877],[138.547586,35.551143],[138.547324,35.551302],[138.546611,35.55151],[138.545474,35.551693],[138.544736,35.551718],[138.544586,35.551743],[138.543261,35.551743],[138.542499,35.551868],[138.541849,35.55191],[138.541299,35.551868],[138.541174,35.55196],[138.541062,35.552368],[138.540862,35.552743],[138.540512,35.553093],[138.540099,35.55336],[138.539862,35.553635],[138.539724,35.554043],[138.539362,35.554385],[138.539249,35.554451],[138.538112,35.554701],[138.537549,35.554976],[138.537812,35.55531],[138.538462,35.556084],[138.538949,35.556634],[138.539249,35.556926],[138.539536,35.557068],[138.539861,35.557201],[138.540324,35.557326],[138.540761,35.557551],[138.540799,35.557643],[138.540774,35.558343],[138.540686,35.558659],[138.540461,35.558934],[138.540336,35.559184],[138.540286,35.559476],[138.540311,35.559676],[138.540524,35.559951],[138.541436,35.560584],[138.541586,35.560776],[138.541498,35.561517],[138.541298,35.562242],[138.541098,35.562692],[138.540711,35.563217],[138.540236,35.563642],[138.539548,35.564708],[138.539248,35.565],[138.539111,35.56525],[138.539111,35.565633],[138.539198,35.565733],[138.539311,35.565775],[138.539461,35.566],[138.539473,35.566383],[138.539698,35.566558],[138.539723,35.566792],[138.539935,35.566892],[138.539973,35.567083],[138.540123,35.5672],[138.540323,35.567233],[138.54081,35.567667],[138.540985,35.56765],[138.54106,35.5677],[138.541148,35.567933],[138.54136,35.568183],[138.541835,35.5684],[138.542285,35.568383],[138.542623,35.568483],[138.543447,35.568908],[138.54396,35.568958],[138.545547,35.569683],[138.545685,35.569708],[138.545785,35.569825],[138.546072,35.570066],[138.54581,35.570525],[138.54441,35.571499],[138.54426,35.571741],[138.54426,35.572149],[138.54451,35.572916],[138.544822,35.573324],[138.545072,35.573458],[138.545684,35.573683],[138.546247,35.573991],[138.546634,35.574332],[138.546897,35.574824],[138.547559,35.576915],[138.547471,35.57734],[138.547284,35.577824],[138.547009,35.57924],[138.546946,35.579307],[138.546634,35.579173],[138.546247,35.578899],[138.545959,35.578549],[138.545597,35.57814],[138.544797,35.577582],[138.544434,35.577199],[138.543972,35.57734],[138.543472,35.57754],[138.543384,35.577515],[138.542947,35.577232],[138.542822,35.577207],[138.542659,35.577249],[138.542085,35.577565],[138.539097,35.57904],[138.539847,35.57954],[138.540222,35.579832],[138.539747,35.580057],[138.539285,35.580173],[138.539347,35.580282],[138.539022,35.580315],[138.53896,35.58024],[138.538635,35.580265],[138.538397,35.580315],[138.53826,35.580448],[138.537922,35.580898],[138.537697,35.580873],[138.537347,35.580698],[138.536997,35.580723],[138.536735,35.580881],[138.53646,35.581265],[138.536172,35.581515],[138.535722,35.581606],[138.53576,35.581898],[138.53526,35.582056],[138.535198,35.581723],[138.534873,35.581748],[138.534873,35.582014],[138.534685,35.583614],[138.534885,35.583706],[138.535597,35.584156],[138.536397,35.584556],[138.53716,35.585006],[138.538485,35.585697],[138.539134,35.585964],[138.540209,35.586556],[138.543234,35.58798],[138.544621,35.588414],[138.545621,35.588622],[138.546221,35.588655],[138.546434,35.588705],[138.547171,35.588772],[138.547909,35.588764],[138.550571,35.588547],[138.552021,35.588506],[138.553596,35.588672],[138.554358,35.588822],[138.556045,35.589264],[138.55697,35.589581],[138.557495,35.589897],[138.55807,35.590297],[138.559845,35.592055],[138.56102,35.593238],[138.56167,35.593713],[138.562207,35.594163],[138.56312,35.594822],[138.563782,35.595222],[138.564432,35.595713],[138.56512,35.596163],[138.56592,35.596496],[138.566745,35.596788],[138.568557,35.597205],[138.570244,35.597471],[138.573769,35.598363],[138.576456,35.598938],[138.579281,35.599513],[138.580756,35.600046],[138.581506,35.60038],[138.581531,35.60043],[138.582206,35.600696],[138.582806,35.600988],[138.583905,35.601655],[138.584468,35.601971],[138.58503,35.602421],[138.58593,35.603438],[138.586555,35.604521],[138.587105,35.605621],[138.587842,35.606812],[138.58818,35.607262],[138.588655,35.607787],[138.589817,35.608795],[138.591067,35.609604],[138.592929,35.610537],[138.593267,35.610654],[138.593292,35.610737],[138.593904,35.61252],[138.593904,35.612728],[138.594142,35.613903],[138.594491,35.616486],[138.594616,35.616611],[138.594904,35.617169],[138.595866,35.618569],[138.596204,35.619177],[138.597366,35.621002],[138.597778,35.621885],[138.597966,35.621985],[138.598391,35.622735],[138.598416,35.623052],[138.598503,35.623235],[138.598216,35.624318],[138.598228,35.624876],[138.598253,35.624926],[138.597603,35.62486],[138.597391,35.626918],[138.597328,35.628042],[138.597453,35.628092],[138.598703,35.628992],[138.59794,35.630075],[138.597765,35.6305],[138.597503,35.631409],[138.597428,35.632225],[138.597553,35.632775],[138.597765,35.63335],[138.598265,35.634091],[138.598715,35.634658],[138.59884,35.634858],[138.599315,35.635425],[138.60024,35.636341],[138.600777,35.636608],[138.601252,35.636716],[138.603615,35.637008],[138.605427,35.637358],[138.606589,35.637649],[138.607202,35.638116],[138.607714,35.638633],[138.608402,35.639374],[138.609689,35.640657],[138.610126,35.640949],[138.610789,35.641199],[138.611114,35.641349],[138.614526,35.642574],[138.615263,35.642799],[138.617013,35.643424],[138.617138,35.643357],[138.617188,35.643265],[138.617638,35.643374],[138.618263,35.643715],[138.618938,35.644149],[138.619388,35.64459],[138.6204,35.645424],[138.620788,35.645824],[138.621887,35.646537],[138.62215,35.646715],[138.622825,35.646932],[138.624325,35.64759],[138.625487,35.64794],[138.626212,35.648265],[138.6288,35.64919],[138.630587,35.649973],[138.632,35.65064],[138.632675,35.651056],[138.632937,35.651364],[138.632787,35.651539],[138.633025,35.651798],[138.635099,35.653456],[138.635474,35.653772],[138.635487,35.654064],[138.634662,35.654039],[138.634312,35.653964],[138.634137,35.653723],[138.633612,35.653289],[138.632875,35.653148],[138.632212,35.653123],[138.632012,35.653206],[138.631512,35.653739],[138.630837,35.653664],[138.630887,35.654464],[138.630637,35.655689],[138.630662,35.655947],[138.630925,35.656556],[138.631125,35.656872],[138.6311,35.656939],[138.630725,35.657014],[138.6303,35.656831],[138.6298,35.656756],[138.628037,35.656839],[138.626912,35.656922],[138.625837,35.656964],[138.625037,35.657089],[138.623262,35.657397],[138.6222,35.657639],[138.622287,35.658222],[138.622612,35.659264],[138.62265,35.659731],[138.6228,35.660322],[138.62385,35.660014],[138.62455,35.659706],[138.625062,35.659347],[138.625562,35.659147],[138.626387,35.659014],[138.626975,35.658814],[138.6278,35.658664],[138.627787,35.659206],[138.627987,35.660197],[138.62795,35.661597],[138.628012,35.662164],[138.628037,35.66268],[138.627737,35.66313],[138.627625,35.663647],[138.627625,35.663938],[138.627462,35.664522],[138.627012,35.665763],[138.626587,35.667155],[138.6264,35.668221],[138.6264,35.668671],[138.626625,35.66858],[138.62725,35.668421],[138.627862,35.668313],[138.628912,35.668046],[138.630637,35.667746],[138.631449,35.667571],[138.631624,35.667505],[138.631949,35.667105],[138.632124,35.666538],[138.632537,35.666063],[138.633849,35.665172],[138.634487,35.664705],[138.634887,35.66428],[138.634924,35.66383],[138.635187,35.662788],[138.635312,35.661822],[138.635487,35.66173],[138.635699,35.66178],[138.636287,35.662147],[138.636637,35.662263],[138.636762,35.662263],[138.637462,35.661863],[138.637774,35.661413],[138.638037,35.660488],[138.639524,35.660905],[138.639662,35.660905],[138.639337,35.661355],[138.639224,35.661447],[138.639974,35.66253],[138.641399,35.662197],[138.641512,35.66213],[138.641587,35.661772],[138.641487,35.66053],[138.642424,35.660513],[138.643012,35.660972],[138.643749,35.660838],[138.644199,35.660688],[138.644299,35.660505],[138.644237,35.660163],[138.644074,35.659738],[138.644012,35.659197],[138.644949,35.659138],[138.645124,35.658005],[138.645549,35.65813],[138.646874,35.658338],[138.646787,35.658563],[138.650461,35.659013],[138.653561,35.659463],[138.653936,35.659555],[138.654911,35.659672],[138.658023,35.659622],[138.658698,35.659697],[138.659223,35.65968],[138.659748,35.659547],[138.659823,35.65948],[138.660123,35.659797],[138.66071,35.660297],[138.661248,35.660639],[138.66181,35.660505],[138.661898,35.66053],[138.662173,35.660897],[138.663248,35.660722],[138.664173,35.660822],[138.664847,35.661097],[138.665272,35.661456],[138.665672,35.661956],[138.66596,35.662497],[138.666597,35.662347],[138.667422,35.662239],[138.668272,35.662314],[138.670222,35.662573],[138.672209,35.662431],[138.673284,35.662282],[138.675396,35.661682],[138.676446,35.661357],[138.678833,35.660699],[138.680146,35.660458],[138.680258,35.660408],[138.680571,35.660508],[138.680621,35.660574],[138.681021,35.660683],[138.681696,35.660691],[138.682471,35.660783],[138.68267,35.660783],[138.683095,35.660658],[138.683295,35.660475],[138.683495,35.660475],[138.684145,35.660592],[138.684945,35.66065],[138.68587,35.660717],[138.687345,35.660958],[138.688057,35.661325],[138.68932,35.661617],[138.690032,35.661875],[138.691882,35.662342],[138.694482,35.662625],[138.695907,35.66305],[138.696707,35.663117],[138.697557,35.6631],[138.698257,35.662975],[138.698644,35.662975],[138.699269,35.663117],[138.699894,35.663233],[138.700619,35.663183],[138.701194,35.663192],[138.702244,35.663333],[138.707718,35.663034],[138.709318,35.662934],[138.710668,35.662925],[138.713105,35.662892],[138.713405,35.662801],[138.713355,35.662734],[138.71343,35.662401],[138.713905,35.662334],[138.71408,35.662201],[138.714543,35.661459],[138.714543,35.661284],[138.714355,35.660743],[138.713855,35.659701],[138.714143,35.659409],[138.713918,35.658576],[138.714068,35.658326],[138.713955,35.657626],[138.71373,35.657468],[138.71363,35.65706],[138.713693,35.65591],[138.713305,35.654985],[138.713018,35.655277],[138.712618,35.65541],[138.712168,35.655318],[138.711993,35.655018],[138.711918,35.654627],[138.711993,35.654593],[138.712468,35.654502],[138.713305,35.654418],[138.713255,35.653702],[138.713293,35.652685],[138.713455,35.652102],[138.71383,35.651602],[138.714355,35.650727],[138.71453,35.649777],[138.714605,35.649536],[138.71513,35.648961],[138.715243,35.648611],[138.71463,35.648936],[138.713968,35.649411],[138.713643,35.649669],[138.712568,35.650077],[138.712143,35.650352],[138.71168,35.65076],[138.710843,35.651069],[138.710693,35.651019],[138.709905,35.650377],[138.71028,35.650069],[138.710518,35.649602],[138.710893,35.649235],[138.711343,35.648927],[138.71183,35.648702],[138.71193,35.648611],[138.71173,35.648394],[138.711318,35.648069],[138.71138,35.647686],[138.711343,35.647327],[138.711118,35.646844],[138.711455,35.646586],[138.712018,35.646252],[138.712605,35.645828],[138.713055,35.645428],[138.71343,35.645311],[138.714418,35.645186],[138.71518,35.64487],[138.715793,35.644536],[138.71653,35.643945],[138.717105,35.643528],[138.71738,35.643162],[138.717343,35.642712],[138.718093,35.64207],[138.718418,35.641695],[138.718655,35.641029],[138.718943,35.640837],[138.719293,35.640729],[138.719343,35.640729],[138.719543,35.640854],[138.719755,35.641029],[138.719993,35.641387],[138.719955,35.641479],[138.719493,35.642045],[138.718468,35.642853],[138.71803,35.643337],[138.71753,35.643787],[138.716593,35.644861],[138.716268,35.645336],[138.71608,35.645894],[138.716055,35.646636],[138.716068,35.646869],[138.716143,35.647353],[138.716318,35.647536],[138.716418,35.647494],[138.716243,35.648036],[138.716418,35.648036],[138.716443,35.647894],[138.716618,35.647569],[138.71678,35.647436],[138.717105,35.647369],[138.717405,35.647144],[138.717143,35.647844],[138.717343,35.647911],[138.717643,35.647894],[138.717855,35.647669],[138.71823,35.646978],[138.718767,35.646161],[138.719117,35.645828],[138.71958,35.645445],[138.719667,35.64527],[138.71958,35.644412],[138.719855,35.644095],[138.720418,35.643812],[138.720618,35.643653],[138.720768,35.643428],[138.72093,35.642854],[138.721268,35.64242],[138.721605,35.641995],[138.721593,35.641604],[138.721768,35.64132],[138.721868,35.64087],[138.721905,35.640487],[138.72203,35.640037],[138.72218,35.639662],[138.72248,35.639271],[138.723093,35.638871],[138.72358,35.638438],[138.723693,35.638379],[138.723593,35.639071],[138.725405,35.640146],[138.726117,35.640104],[138.72748,35.639071],[138.726905,35.63673],[138.726992,35.636646],[138.727167,35.636671],[138.729242,35.638538],[138.72928,35.638571],[138.729892,35.638396],[138.731917,35.63708],[138.732317,35.637097],[138.733304,35.637005],[138.733854,35.636872],[138.734342,35.636697],[138.735142,35.636747],[138.735592,35.636672],[138.736267,35.636689],[138.736792,35.63658],[138.738129,35.636372],[138.738466,35.636255],[138.738704,35.635739],[138.738866,35.635197],[138.738816,35.634655],[138.738442,35.633631],[138.738367,35.633322],[138.739154,35.633139],[138.739204,35.633097],[138.739416,35.632447],[138.739441,35.631972],[138.739317,35.631672],[138.739292,35.631297],[138.739629,35.630806],[138.740066,35.630622],[138.740654,35.630472],[138.740804,35.630381],[138.741004,35.630139],[138.741654,35.629323],[138.742154,35.628614],[138.742191,35.628431],[138.742104,35.628306],[138.741966,35.628231],[138.741479,35.628064],[138.741391,35.627973],[138.741404,35.627873],[138.741341,35.627756],[138.741091,35.627564],[138.740829,35.627156],[138.740766,35.626998],[138.740767,35.626864],[138.740866,35.626806],[138.741116,35.626831],[138.741341,35.626948],[138.741754,35.627048],[138.742016,35.627039],[138.743479,35.626814],[138.743779,35.626806],[138.744241,35.626765],[138.744391,35.626715],[138.744804,35.626481],[138.746876,35.62565],[138.747978,35.625056],[138.748391,35.624931],[138.748703,35.62484],[138.749553,35.624857],[138.750328,35.624865],[138.750728,35.624832],[138.750928,35.624698],[138.751178,35.624332],[138.75134,35.623932],[138.751465,35.62344],[138.751465,35.623123],[138.75139,35.622548],[138.75139,35.62234],[138.751465,35.622182],[138.751753,35.62154],[138.751903,35.621157],[138.752265,35.62039],[138.752565,35.61999],[138.752965,35.619574],[138.75309,35.619532]]],"type":"Polygon"},"type":"Feature"}]}