{"type":"FeatureCollection","features":[{"type":"Feature","properties":{"name":"津久井","yomi":"つくい","kuni_id":"K15","pref":"神奈川県","kuni_url":"/kg/resource/K15.html","id_url":"G15006.html","id":"G15006","kuni":"相模"},"geometry":{"type":"Polygon","coordinates":[[[139.161733,35.667869],[139.161846,35.667727],[139.161958,35.667502],[139.162233,35.667211],[139.162396,35.667094],[139.162871,35.666911],[139.163283,35.666803],[139.163608,35.666661],[139.163858,35.666486],[139.164271,35.665828],[139.164808,35.665578],[139.165183,35.665328],[139.165321,35.664945],[139.165208,35.664586],[139.165183,35.664111],[139.165296,35.663636],[139.165546,35.66327],[139.165871,35.663137],[139.166171,35.662953],[139.166596,35.662387],[139.166921,35.662162],[139.167308,35.661978],[139.167396,35.661803],[139.167396,35.661687],[139.167134,35.660879],[139.167046,35.659912],[139.167134,35.659595],[139.167271,35.659437],[139.167659,35.659137],[139.168071,35.658887],[139.168121,35.658779],[139.168209,35.658079],[139.168621,35.657262],[139.168671,35.656921],[139.168621,35.656587],[139.168109,35.655888],[139.167946,35.655571],[139.167996,35.654738],[139.167934,35.654288],[139.167747,35.653813],[139.167459,35.653479],[139.167134,35.653163],[139.166847,35.652805],[139.166684,35.652463],[139.166597,35.652105],[139.166684,35.651588],[139.166871,35.650996],[139.167346,35.650972],[139.168059,35.651172],[139.168896,35.651238],[139.169509,35.651422],[139.169759,35.651372],[139.170584,35.650805],[139.171334,35.650488],[139.171996,35.65033],[139.172809,35.650413],[139.173271,35.650413],[139.175296,35.649664],[139.175521,35.649455],[139.175758,35.64903],[139.175958,35.648281],[139.176508,35.647872],[139.17687,35.647647],[139.177558,35.646789],[139.17792,35.646589],[139.17827,35.646314],[139.178883,35.645681],[139.179108,35.645548],[139.179358,35.645473],[139.179958,35.645589],[139.181207,35.645714],[139.181907,35.645581],[139.18262,35.645398],[139.18312,35.645331],[139.183545,35.64524],[139.184095,35.645056],[139.184207,35.64499],[139.18437,35.645123],[139.186319,35.646015],[139.186794,35.646081],[139.187294,35.646198],[139.187869,35.646465],[139.188232,35.646465],[139.188757,35.646373],[139.189507,35.64639],[139.190032,35.646523],[139.190507,35.64679],[139.190594,35.646906],[139.190894,35.647173],[139.191257,35.647331],[139.191682,35.647423],[139.191956,35.647581],[139.192181,35.647956],[139.192381,35.648523],[139.192581,35.650106],[139.192806,35.650439],[139.193781,35.651314],[139.194169,35.651814],[139.194831,35.651473],[139.195381,35.651314],[139.195606,35.651314],[139.195944,35.651423],[139.196356,35.651781],[139.196694,35.652006],[139.197006,35.652389],[139.197831,35.652722],[139.198468,35.652906],[139.198968,35.652814],[139.199806,35.652789],[139.200193,35.652698],[139.200518,35.652539],[139.200943,35.652464],[139.201468,35.652506],[139.201631,35.652556],[139.202381,35.652939],[139.202468,35.652914],[139.202631,35.652689],[139.202881,35.652573],[139.203293,35.652439],[139.203468,35.652206],[139.203743,35.651939],[139.203856,35.651873],[139.205206,35.651706],[139.205793,35.651456],[139.206231,35.651115],[139.206593,35.650756],[139.206868,35.650256],[139.207193,35.650006],[139.207393,35.649915],[139.208006,35.649756],[139.208668,35.649665],[139.209168,35.64969],[139.209555,35.649598],[139.209943,35.649415],[139.211268,35.649323],[139.21168,35.649073],[139.21238,35.648523],[139.212843,35.648232],[139.213618,35.648023],[139.21428,35.64739],[139.214693,35.647123],[139.214943,35.64689],[139.215005,35.646782],[139.215256,35.646482],[139.215718,35.646082],[139.215831,35.645782],[139.215856,35.645515],[139.215768,35.645265],[139.214993,35.644182],[139.214906,35.643799],[139.214931,35.643241],[139.214843,35.642607],[139.214643,35.641749],[139.214668,35.641458],[139.215106,35.640849],[139.215331,35.640349],[139.215655,35.639358],[139.21563,35.638975],[139.21548,35.638525],[139.215455,35.63805],[139.21553,35.637141],[139.21578,35.63685],[139.21628,35.636417],[139.21658,35.636058],[139.216743,35.635608],[139.216768,35.635017],[139.21688,35.634658],[139.216968,35.634592],[139.217843,35.634133],[139.21823,35.633867],[139.218755,35.633709],[139.218818,35.633634],[139.218893,35.633392],[139.218918,35.632917],[139.219055,35.632375],[139.21928,35.632009],[139.220155,35.631126],[139.220743,35.630767],[139.22123,35.629842],[139.221593,35.629342],[139.22168,35.629159],[139.221593,35.628826],[139.221418,35.628576],[139.220943,35.628101],[139.220618,35.627834],[139.22003,35.627184],[139.21958,35.626485],[139.219605,35.626235],[139.219905,35.625918],[139.22038,35.62571],[139.222817,35.625051],[139.223292,35.624893],[139.22453,35.624302],[139.225529,35.623843],[139.226029,35.623593],[139.226217,35.623418],[139.226192,35.622577],[139.226429,35.622177],[139.226854,35.621677],[139.227117,35.621202],[139.227367,35.620977],[139.227842,35.620835],[139.228254,35.620769],[139.228592,35.620677],[139.228817,35.620494],[139.229167,35.619952],[139.229492,35.619294],[139.229804,35.618802],[139.229967,35.618302],[139.230154,35.617444],[139.230404,35.617153],[139.230479,35.616703],[139.230429,35.616561],[139.230229,35.61512],[139.230217,35.614828],[139.230354,35.614603],[139.230879,35.614378],[139.231267,35.614078],[139.231954,35.61327],[139.232291,35.612928],[139.232904,35.612678],[139.233529,35.612312],[139.234091,35.612129],[139.234504,35.611929],[139.235304,35.611245],[139.236054,35.610504],[139.236541,35.610112],[139.236816,35.609979],[139.237241,35.609912],[139.237516,35.609912],[139.237841,35.609796],[139.237978,35.609521],[139.238041,35.609187],[139.238003,35.608754],[139.238028,35.608263],[139.238191,35.607646],[139.238441,35.607246],[139.238741,35.606929],[139.239078,35.606763],[139.239766,35.606588],[139.240653,35.606313],[139.241103,35.606313],[139.242153,35.606371],[139.242591,35.606329],[139.243128,35.606188],[139.244253,35.605755],[139.245503,35.605188],[139.245803,35.605121],[139.246053,35.605121],[139.246825,35.6052],[139.247965,35.604788],[139.248465,35.604521],[139.248828,35.60418],[139.249428,35.603521],[139.250127,35.603363],[139.250652,35.603313],[139.250765,35.603271],[139.251127,35.60273],[139.251752,35.601955],[139.252027,35.60173],[139.252315,35.601638],[139.252452,35.601663],[139.252952,35.601913],[139.253315,35.602155],[139.253565,35.60238],[139.254315,35.602605],[139.255027,35.602763],[139.255452,35.602938],[139.256314,35.603455],[139.256752,35.603788],[139.257089,35.603946],[139.257527,35.604013],[139.257752,35.604146],[139.257814,35.604146],[139.257952,35.604079],[139.258164,35.603879],[139.258727,35.603579],[139.259077,35.603513],[139.259501,35.603488],[139.259964,35.603354],[139.260939,35.602871],[139.261126,35.60283],[139.261489,35.60283],[139.261851,35.602871],[139.262101,35.602871],[139.262601,35.602646],[139.263151,35.602305],[139.263451,35.602213],[139.263739,35.602305],[139.264126,35.602371],[139.264763,35.602346],[139.264901,35.602455],[139.265063,35.602771],[139.265326,35.603696],[139.265538,35.604079],[139.265651,35.604412],[139.265826,35.604754],[139.266051,35.604979],[139.266163,35.605229],[139.266238,35.605562],[139.266188,35.605904],[139.265976,35.606645],[139.265913,35.606987],[139.266025,35.607703],[139.266288,35.608087],[139.266588,35.608178],[139.26695,35.60822],[139.267338,35.60822],[139.26775,35.608403],[139.268175,35.60887],[139.268288,35.609078],[139.26845,35.609236],[139.26895,35.60932],[139.269037,35.60932],[139.27,35.609636],[139.270787,35.609786],[139.271225,35.609786],[139.271475,35.609945],[139.271675,35.610144],[139.271925,35.610303],[139.27225,35.610369],[139.272637,35.610369],[139.273174,35.610528],[139.273837,35.610903],[139.274224,35.611019],[139.275024,35.610944],[139.275199,35.610903],[139.275612,35.610853],[139.276249,35.610878],[139.276662,35.611028],[139.277361,35.611411],[139.277699,35.611527],[139.278111,35.611519],[139.279049,35.611411],[139.279661,35.611452],[139.280074,35.611561],[139.280274,35.611719],[139.280499,35.612194],[139.280724,35.612394],[139.280998,35.612502],[139.281223,35.61246],[139.281586,35.612502],[139.281936,35.612619],[139.282048,35.612685],[139.282186,35.612885],[139.282198,35.613044],[139.282273,35.613135],[139.282361,35.613152],[139.283111,35.613219],[139.284248,35.613035],[139.284773,35.612919],[139.285135,35.61301],[139.28541,35.613035],[139.28571,35.612985],[139.286235,35.612469],[139.286373,35.612377],[139.286823,35.612419],[139.287323,35.612394],[139.287898,35.612302],[139.288123,35.612235],[139.288485,35.61221],[139.289035,35.612052],[139.289373,35.612094],[139.289698,35.612002],[139.289835,35.612069],[139.289948,35.612269],[139.290098,35.61241],[139.29056,35.612294],[139.29076,35.612319],[139.290947,35.612269],[139.291147,35.611927],[139.291222,35.611927],[139.29136,35.611994],[139.29161,35.61206],[139.292035,35.611902],[139.292497,35.611702],[139.292497,35.611252],[139.293185,35.610636],[139.293497,35.610677],[139.293885,35.610794],[139.294272,35.610861],[139.294497,35.610952],[139.294822,35.610769],[139.29516,35.610336],[139.29541,35.610227],[139.295872,35.610286],[139.29621,35.610269],[139.296597,35.609861],[139.296759,35.609561],[139.29681,35.609319],[139.29676,35.609028],[139.29676,35.608778],[139.296972,35.608411],[139.29711,35.60792],[139.29736,35.607895],[139.297884,35.607936],[139.298222,35.607753],[139.298472,35.607661],[139.298747,35.607645],[139.298834,35.607553],[139.298472,35.607261],[139.298384,35.60712],[139.298522,35.607036],[139.298934,35.606853],[139.299097,35.606645],[139.299234,35.606262],[139.299459,35.606195],[139.299847,35.606145],[139.299984,35.606103],[139.300347,35.60612],[139.300847,35.606395],[139.301122,35.606411],[139.301159,35.60637],[139.301097,35.605853],[139.301422,35.605778],[139.301709,35.60592],[139.301922,35.605845],[139.302059,35.605737],[139.302372,35.60562],[139.302484,35.605512],[139.303034,35.605345],[139.303509,35.605053],[139.303672,35.60462],[139.303972,35.604578],[139.304359,35.60462],[139.304721,35.604712],[139.304859,35.60482],[139.304696,35.605095],[139.304646,35.605253],[139.304809,35.605362],[139.305034,35.605362],[139.305359,35.605295],[139.305584,35.605112],[139.305771,35.605112],[139.305996,35.605203],[139.306246,35.605378],[139.306446,35.605312],[139.307046,35.60497],[139.307196,35.60497],[139.307246,35.60502],[139.307309,35.605195],[139.307521,35.60522],[139.308084,35.605062],[139.308384,35.604903],[139.308546,35.604695],[139.308746,35.604337],[139.308909,35.604203],[139.309184,35.604128],[139.309658,35.604087],[139.311008,35.604237],[139.311708,35.604237],[139.312121,35.604395],[139.313008,35.604836],[139.313121,35.604795],[139.313008,35.604503],[139.313171,35.604412],[139.313371,35.604478],[139.313621,35.604611],[139.313758,35.60457],[139.313808,35.604453],[139.313671,35.604253],[139.313558,35.603978],[139.313508,35.603079],[139.313558,35.60272],[139.313608,35.601837],[139.313683,35.601637],[139.314521,35.601046],[139.314883,35.600887],[139.315096,35.600754],[139.315208,35.600521],[139.315233,35.600204],[139.315433,35.600029],[139.315646,35.599913],[139.315708,35.599779],[139.315671,35.598988],[139.315383,35.597255],[139.315133,35.596397],[139.315009,35.594681],[139.314871,35.593664],[139.314896,35.592315],[139.314921,35.591932],[139.314859,35.590848],[139.314709,35.590015],[139.314521,35.589432],[139.314647,35.587733],[139.314009,35.587991],[139.313959,35.587966],[139.313734,35.587674],[139.313284,35.587966],[139.313097,35.588016],[139.311872,35.587724],[139.310434,35.587458],[139.30916,35.587166],[139.308797,35.587058],[139.308435,35.5869],[139.30796,35.586791],[139.30696,35.586683],[139.306635,35.586616],[139.306597,35.586575],[139.306722,35.586501],[139.306572,35.586458],[139.305273,35.58615],[139.304298,35.58595],[139.303023,35.585758],[139.302498,35.5856],[139.30211,35.585375],[139.301186,35.584683],[139.300573,35.584167],[139.299961,35.583717],[139.300148,35.582526],[139.300123,35.581984],[139.299973,35.581243],[139.300023,35.580726],[139.300161,35.580068],[139.300573,35.579126],[139.300761,35.578585],[139.301361,35.577452],[139.301723,35.577044],[139.302648,35.57621],[139.303786,35.575552],[139.305498,35.574736],[139.306348,35.574502],[139.307011,35.574452],[139.307573,35.574452],[139.308123,35.574361],[139.30851,35.574178],[139.309173,35.573794],[139.309748,35.573294],[139.310048,35.573003],[139.31041,35.572553],[139.310935,35.57207],[139.311698,35.571503],[139.311835,35.571462],[139.313273,35.570778],[139.314847,35.569579],[139.315097,35.56917],[139.315422,35.568762],[139.315997,35.567954],[139.317672,35.565779],[139.31841,35.564813],[139.319372,35.56343],[139.320222,35.562371],[139.320497,35.562096],[139.321509,35.560763],[139.321847,35.560405],[139.322359,35.559547],[139.323584,35.556705],[139.323772,35.556139],[139.324159,35.554647],[139.324147,35.554355],[139.324184,35.55433],[139.324147,35.554022],[139.324197,35.552439],[139.324072,35.551606],[139.323909,35.550889],[139.323934,35.550914],[139.323509,35.549431],[139.323172,35.548848],[139.322947,35.548256],[139.322747,35.547156],[139.322797,35.54684],[139.323172,35.546048],[139.32351,35.545648],[139.324522,35.544673],[139.325022,35.544332],[139.325372,35.54404],[139.324985,35.543607],[139.326309,35.542707],[139.325697,35.542057],[139.325635,35.541557],[139.325335,35.541316],[139.32466,35.540932],[139.323647,35.541316],[139.32301,35.541482],[139.322535,35.541324],[139.322123,35.541241],[139.321648,35.541241],[139.32131,35.541041],[139.321035,35.540949],[139.320698,35.540616],[139.320173,35.540299],[139.319898,35.539966],[139.319373,35.539716],[139.319173,35.539716],[139.318736,35.539858],[139.317948,35.539366],[139.317673,35.5388],[139.317498,35.538308],[139.317386,35.538175],[139.316948,35.5382],[139.316648,35.538558],[139.316311,35.53865],[139.316173,35.538633],[139.316173,35.538583],[139.315873,35.538766],[139.315261,35.539308],[139.314773,35.539808],[139.314636,35.540124],[139.314311,35.540416],[139.313786,35.540691],[139.313449,35.540983],[139.312849,35.541932],[139.312374,35.542141],[139.312161,35.542182],[139.311636,35.542457],[139.311161,35.542574],[139.310886,35.542532],[139.310724,35.542932],[139.310699,35.543316],[139.310374,35.543541],[139.310011,35.543566],[139.309874,35.543657],[139.309511,35.543682],[139.309261,35.543749],[139.308936,35.543999],[139.308624,35.544141],[139.308212,35.544391],[139.307824,35.544341],[139.307499,35.544524],[139.306487,35.546082],[139.306074,35.546674],[139.305824,35.547215],[139.305474,35.547848],[139.305337,35.547915],[139.304812,35.547915],[139.304387,35.547873],[139.304037,35.547923],[139.303674,35.548173],[139.303599,35.548507],[139.303512,35.54914],[139.303324,35.549548],[139.303024,35.549906],[139.302912,35.550381],[139.302912,35.550831],[139.303137,35.551148],[139.303249,35.551439],[139.303062,35.551664],[139.302074,35.552114],[139.301549,35.552348],[139.301212,35.552639],[139.300937,35.553048],[139.300049,35.553272],[139.2995,35.553364],[139.299312,35.553372],[139.298812,35.553189],[139.2984,35.553556],[139.298037,35.553514],[139.297812,35.553622],[139.297787,35.554072],[139.29765,35.554347],[139.297212,35.554756],[139.29705,35.554864],[139.296187,35.555189],[139.2958,35.555255],[139.295412,35.555097],[139.29525,35.554989],[139.295037,35.555664],[139.294787,35.555914],[139.294625,35.556339],[139.294562,35.556547],[139.294512,35.556589],[139.294425,35.556547],[139.294325,35.556547],[139.294037,35.556614],[139.293375,35.55648],[139.292963,35.556189],[139.292625,35.556055],[139.292325,35.556172],[139.291938,35.556105],[139.291513,35.555839],[139.291075,35.555639],[139.29055,35.555614],[139.290275,35.55573],[139.289863,35.556088],[139.289138,35.556455],[139.28895,35.55648],[139.288725,35.556613],[139.288563,35.556663],[139.287563,35.556347],[139.286476,35.556263],[139.286088,35.555747],[139.285888,35.555255],[139.285751,35.555122],[139.285313,35.554855],[139.284776,35.554447],[139.284388,35.553889],[139.284138,35.553622],[139.283689,35.553305],[139.283551,35.55288],[139.283376,35.552522],[139.283276,35.552405],[139.282801,35.552205],[139.282139,35.552097],[139.281251,35.552105],[139.280964,35.55163],[139.280714,35.551089],[139.280714,35.55093],[139.280926,35.550455],[139.281201,35.550097],[139.280876,35.549697],[139.280564,35.548772],[139.279914,35.547473],[139.279301,35.546389],[139.278914,35.546123],[139.278464,35.546106],[139.277964,35.546131],[139.276802,35.545881],[139.276527,35.545998],[139.276302,35.546273],[139.275864,35.546498],[139.275364,35.546706],[139.274402,35.547272],[139.273852,35.547364],[139.273214,35.547414],[139.272465,35.547747],[139.271827,35.547864],[139.270915,35.54823],[139.270315,35.548255],[139.269927,35.548305],[139.269727,35.548622],[139.269352,35.549005],[139.268052,35.549772],[139.267615,35.549847],[139.267252,35.55003],[139.26709,35.55003],[139.266203,35.54978],[139.265115,35.549588],[139.26434,35.549363],[139.263978,35.549413],[139.26354,35.549838],[139.262965,35.550046],[139.262378,35.550205],[139.26194,35.550163],[139.261328,35.54983],[139.260991,35.549605],[139.260241,35.549471],[139.260153,35.549405],[139.259916,35.549496],[139.259691,35.549721],[139.259103,35.54973],[139.258853,35.549546],[139.258578,35.54953],[139.258216,35.549555],[139.258053,35.549371],[139.257553,35.549196],[139.256441,35.549063],[139.255803,35.548913],[139.255441,35.548688],[139.255341,35.548638],[139.254204,35.548513],[139.253429,35.548496],[139.252816,35.54818],[139.252341,35.548046],[139.251979,35.547846],[139.251679,35.547438],[139.251529,35.54733],[139.251029,35.547105],[139.250816,35.547038],[139.250117,35.54698],[139.249817,35.547021],[139.249729,35.546638],[139.249867,35.545921],[139.249754,35.545605],[139.249504,35.545155],[139.249354,35.544455],[139.249379,35.54428],[139.249354,35.543847],[139.249217,35.54358],[139.248742,35.543288],[139.248379,35.54293],[139.248154,35.54253],[139.246854,35.542605],[139.246783,35.542641],[139.246467,35.542572],[139.245842,35.542255],[139.245092,35.541755],[139.244355,35.541088],[139.243555,35.540297],[139.243205,35.540022],[139.242017,35.539205],[139.240767,35.538338],[139.240592,35.538063],[139.240642,35.537955],[139.24108,35.537322],[139.24118,35.537097],[139.241105,35.536872],[139.240605,35.536239],[139.240392,35.53608],[139.240092,35.53603],[139.23878,35.535997],[139.238555,35.535864],[139.238493,35.535439],[139.238492,35.534872],[139.238392,35.534281],[139.23818,35.533989],[139.23763,35.533647],[139.237305,35.533531],[139.23693,35.533572],[139.236293,35.533931],[139.235868,35.534106],[139.235668,35.534064],[139.235018,35.533539],[139.234605,35.533156],[139.234305,35.532831],[139.233705,35.532447],[139.232755,35.532014],[139.23238,35.531922],[139.23223,35.531914],[139.23188,35.532006],[139.231018,35.532764],[139.230768,35.533039],[139.230168,35.53348],[139.229905,35.533864],[139.229855,35.534514],[139.230093,35.535513],[139.230118,35.536138],[139.22988,35.53643],[139.22963,35.536497],[139.229155,35.536338],[139.228256,35.535997],[139.227756,35.535922],[139.227056,35.536005],[139.226531,35.536097],[139.225956,35.536155],[139.225206,35.536088],[139.224481,35.535922],[139.224006,35.535738],[139.223581,35.53553],[139.223106,35.535413],[139.222606,35.535388],[139.221856,35.53523],[139.221281,35.534955],[139.220156,35.534563],[139.219681,35.534288],[139.219281,35.534013],[139.218543,35.533305],[139.218243,35.533105],[139.217643,35.532738],[139.217518,35.532605],[139.217493,35.532422],[139.217643,35.532422],[139.218093,35.532513],[139.218893,35.532205],[139.219731,35.532055],[139.220231,35.531672],[139.220781,35.531564],[139.221056,35.531414],[139.221393,35.531097],[139.221668,35.530764],[139.221793,35.530447],[139.222018,35.53013],[139.222281,35.529589],[139.222606,35.529297],[139.222781,35.529056],[139.223218,35.528764],[139.223293,35.528181],[139.223218,35.527956],[139.223043,35.527881],[139.222243,35.528056],[139.221943,35.528097],[139.221643,35.528006],[139.221118,35.527664],[139.220793,35.527306],[139.220668,35.527056],[139.220681,35.526739],[139.220631,35.526423],[139.220156,35.526264],[139.219706,35.526256],[139.219156,35.526231],[139.218856,35.526139],[139.218431,35.525773],[139.218081,35.525414],[139.217456,35.525073],[139.217106,35.525114],[139.216131,35.525597],[139.215669,35.525797],[139.215319,35.525822],[139.214969,35.525731],[139.214719,35.525547],[139.214631,35.525256],[139.214919,35.524014],[139.214944,35.522931],[139.215281,35.522506],[139.215431,35.522215],[139.215556,35.521856],[139.215544,35.521198],[139.214369,35.521081],[139.213019,35.520865],[139.212419,35.520748],[139.211882,35.520673],[139.210907,35.520673],[139.210807,35.520531],[139.210432,35.518548],[139.210382,35.517732],[139.210219,35.517324],[139.210094,35.517165],[139.209644,35.515991],[139.209407,35.515607],[139.209182,35.515399],[139.208857,35.515241],[139.208457,35.515174],[139.208057,35.515191],[139.207657,35.515324],[139.207382,35.515182],[139.206932,35.514732],[139.206682,35.514549],[139.206357,35.514391],[139.206032,35.514182],[139.205632,35.514049],[139.204582,35.513991],[139.204283,35.513741],[139.204008,35.513399],[139.20367,35.513083],[139.202945,35.512583],[139.20272,35.512224],[139.202708,35.511499],[139.202808,35.51085],[139.202833,35.510258],[139.202095,35.509983],[139.201745,35.509616],[139.20127,35.508808],[139.20117,35.508466],[139.200958,35.508217],[139.200633,35.507942],[139.200158,35.507375],[139.199858,35.507167],[139.199608,35.507033],[139.199183,35.506983],[139.198308,35.506908],[139.197233,35.506675],[139.196009,35.506217],[139.195584,35.5061],[139.195209,35.506125],[139.194084,35.506316],[139.193534,35.506383],[139.192584,35.50635],[139.192134,35.506283],[139.191934,35.506166],[139.191234,35.504966],[139.190897,35.50415],[139.189797,35.50325],[139.189047,35.502917],[139.188347,35.502717],[139.187822,35.5026],[139.187547,35.502333],[139.187209,35.501842],[139.186709,35.501408],[139.186147,35.5011],[139.185672,35.500508],[139.185147,35.499992],[139.18451,35.499617],[139.184035,35.499392],[139.183785,35.498875],[139.183585,35.498259],[139.183197,35.49795],[139.18241,35.497592],[139.181722,35.497342],[139.181247,35.497209],[139.181022,35.496784],[139.180997,35.496125],[139.181047,35.495492],[139.18101,35.494434],[139.17926,35.493859],[139.17871,35.493767],[139.17821,35.493742],[139.177823,35.493592],[139.17746,35.493184],[139.176673,35.491859],[139.176173,35.490567],[139.175835,35.490142],[139.17566,35.490051],[139.175298,35.489967],[139.174748,35.489942],[139.174136,35.489634],[139.173798,35.489226],[139.173111,35.488484],[139.173048,35.488126],[139.172798,35.487759],[139.171411,35.487318],[139.170823,35.487068],[139.170711,35.486751],[139.170736,35.486326],[139.170711,35.485893],[139.170486,35.485443],[139.169898,35.485084],[139.168761,35.484618],[139.168011,35.484351],[139.167511,35.484034],[139.166949,35.483476],[139.166699,35.483268],[139.166424,35.482843],[139.166299,35.481851],[139.166111,35.481535],[139.165936,35.481351],[139.165411,35.48041],[139.165211,35.479843],[139.165299,35.479443],[139.165649,35.478851],[139.165399,35.478427],[139.164374,35.477168],[139.164012,35.476868],[139.163924,35.476577],[139.164174,35.476035],[139.163974,35.475677],[139.163137,35.474577],[139.163049,35.474369],[139.162724,35.474327],[139.162612,35.474377],[139.162662,35.474552],[139.162587,35.474935],[139.162062,35.47501],[139.161499,35.475168],[139.161199,35.475368],[139.160762,35.475893],[139.160124,35.476501],[139.159487,35.47691],[139.158962,35.477293],[139.158575,35.477701],[139.158275,35.478085],[139.1578,35.478334],[139.157187,35.478409],[139.156325,35.478451],[139.1558,35.478384],[139.155187,35.478076],[139.154612,35.477893],[139.153913,35.477743],[139.153725,35.477651],[139.153275,35.477293],[139.152825,35.477043],[139.152275,35.477068],[139.151113,35.476643],[139.150775,35.476759],[139.150275,35.476718],[139.149501,35.477126],[139.148813,35.477418],[139.148363,35.477667],[139.147976,35.478026],[139.147813,35.478259],[139.147763,35.478751],[139.147813,35.479001],[139.147426,35.479317],[139.147188,35.479434],[139.146738,35.479817],[139.146551,35.4807],[139.146388,35.481167],[139.146388,35.481709],[139.146588,35.482392],[139.146726,35.4827],[139.146788,35.483042],[139.146726,35.483109],[139.146313,35.483359],[139.144538,35.483908],[139.143926,35.484],[139.143351,35.484183],[139.143189,35.484292],[139.142739,35.484792],[139.142051,35.485291],[139.140776,35.486041],[139.139502,35.486516],[139.139139,35.486516],[139.138752,35.486025],[139.138452,35.486025],[139.137614,35.486116],[139.136389,35.485941],[139.135927,35.485966],[139.135365,35.48585],[139.13529,35.485766],[139.135002,35.485633],[139.13464,35.485566],[139.132427,35.484941],[139.13164,35.48485],[139.131002,35.4849],[139.130427,35.484858],[139.13009,35.484608],[139.13009,35.48425],[139.130027,35.483933],[139.129865,35.483616],[139.129865,35.483116],[139.129802,35.4828],[139.129552,35.482442],[139.128915,35.480733],[139.128265,35.480083],[139.12719,35.479567],[139.127078,35.47945],[139.12684,35.478417],[139.126765,35.477984],[139.12634,35.477942],[139.126153,35.477992],[139.125653,35.478192],[139.124465,35.478442],[139.123928,35.4784],[139.123491,35.478242],[139.122428,35.477709],[139.121843,35.477597],[139.120916,35.477425],[139.120403,35.477417],[139.119729,35.477534],[139.119004,35.47745],[139.118791,35.47745],[139.118254,35.47755],[139.117291,35.478059],[139.117041,35.478009],[139.115779,35.47785],[139.115379,35.477692],[139.115004,35.477375],[139.114792,35.477092],[139.114592,35.477034],[139.114079,35.477209],[139.113492,35.477342],[139.112654,35.4776],[139.112292,35.477925],[139.112004,35.477992],[139.111604,35.477942],[139.110705,35.478184],[139.109755,35.478775],[139.109142,35.478842],[139.108455,35.479058],[139.107917,35.479042],[139.105368,35.479258],[139.104818,35.479342],[139.10413,35.479308],[139.103868,35.479375],[139.103655,35.47935],[139.102756,35.479067],[139.102518,35.479058],[139.102093,35.479358],[139.101806,35.479708],[139.100881,35.480317],[139.100631,35.4806],[139.100493,35.48105],[139.100506,35.481675],[139.100318,35.481966],[139.099993,35.482158],[139.099831,35.48235],[139.099781,35.482641],[139.099581,35.48315],[139.099431,35.483908],[139.099331,35.484025],[139.099181,35.484066],[139.098606,35.484375],[139.097969,35.484824],[139.097569,35.485216],[139.097256,35.485658],[139.096894,35.486616],[139.096794,35.486766],[139.096406,35.486791],[139.096119,35.486933],[139.095481,35.487074],[139.094869,35.486908],[139.094282,35.486791],[139.093607,35.487166],[139.093132,35.487274],[139.092569,35.487599],[139.091807,35.488132],[139.091207,35.488166],[139.090944,35.488549],[139.090719,35.489007],[139.090607,35.489549],[139.090619,35.489957],[139.090419,35.490432],[139.090507,35.490699],[139.090332,35.49084],[139.090007,35.49119],[139.089732,35.491365],[139.088907,35.49169],[139.08842,35.492099],[139.088057,35.492282],[139.087757,35.492707],[139.086832,35.493115],[139.086707,35.493207],[139.086132,35.492907],[139.084995,35.492723],[139.08467,35.492782],[139.08407,35.493323],[139.08402,35.493548],[139.083495,35.493773],[139.083095,35.49379],[139.082583,35.493906],[139.082283,35.49389],[139.082095,35.493981],[139.081683,35.494481],[139.081495,35.494581],[139.08092,35.494748],[139.08027,35.494823],[139.079858,35.494756],[139.079208,35.494873],[139.078658,35.494798],[139.078183,35.494848],[139.076471,35.495239],[139.075183,35.495448],[139.074808,35.495573],[139.074334,35.495906],[139.074059,35.496256],[139.073834,35.497422],[139.073434,35.498289],[139.073309,35.498755],[139.073221,35.499639],[139.073109,35.499897],[139.072934,35.499997],[139.072346,35.501022],[139.072184,35.501213],[139.071546,35.50173],[139.071134,35.501972],[139.069409,35.502555],[139.069034,35.502721],[139.068322,35.503213],[139.067634,35.504179],[139.067397,35.504996],[139.067234,35.505379],[139.066997,35.506396],[139.066797,35.506887],[139.066472,35.507479],[139.066397,35.508396],[139.066322,35.508854],[139.066184,35.509345],[139.066347,35.509387],[139.066909,35.509679],[139.067459,35.510087],[139.067984,35.510529],[139.068684,35.511045],[139.068959,35.511112],[139.069546,35.511045],[139.070921,35.51052],[139.071746,35.510329],[139.072609,35.510212],[139.073433,35.510171],[139.073996,35.510054],[139.074321,35.509937],[139.074796,35.509979],[139.075383,35.510229],[139.076633,35.510846],[139.077658,35.510979],[139.078158,35.511296],[139.079483,35.512321],[139.08027,35.512654],[139.080795,35.512746],[139.081508,35.512671],[139.082945,35.512438],[139.085195,35.512138],[139.08572,35.512113],[139.086194,35.512696],[139.086394,35.513413],[139.086719,35.513888],[139.087307,35.514563],[139.088007,35.514938],[139.088482,35.515321],[139.088919,35.515837],[139.089369,35.516487],[139.090244,35.517429],[139.090569,35.517921],[139.090769,35.518437],[139.090881,35.518937],[139.091106,35.519245],[139.091943,35.519762],[139.092868,35.520529],[139.093756,35.52117],[139.094143,35.521512],[139.094256,35.521803],[139.094705,35.521953],[139.096343,35.522803],[139.096943,35.522912],[139.09753,35.522953],[139.098193,35.523137],[139.099117,35.523803],[139.09978,35.524228],[139.10068,35.524995],[139.101505,35.525395],[139.102754,35.526045],[139.103179,35.526353],[139.103704,35.526553],[139.104179,35.52682],[139.104904,35.527745],[139.105629,35.529178],[139.106104,35.529878],[139.106367,35.530345],[139.106504,35.531561],[139.106617,35.532061],[139.106879,35.532486],[139.107129,35.532594],[139.107316,35.532619],[139.107841,35.532528],[139.108866,35.532278],[139.109479,35.532178],[139.109891,35.532178],[139.110004,35.532219],[139.110166,35.532519],[139.110204,35.533011],[139.110091,35.533711],[139.110104,35.534269],[139.110216,35.534653],[139.110329,35.534786],[139.110991,35.534944],[139.112016,35.535028],[139.112241,35.535228],[139.112291,35.535503],[139.112129,35.535844],[139.111966,35.536311],[139.112079,35.536677],[139.112591,35.537102],[139.113028,35.537411],[139.113703,35.538177],[139.113953,35.538602],[139.113903,35.538986],[139.113603,35.53921],[139.112166,35.539802],[139.111804,35.540102],[139.111891,35.540344],[139.112029,35.540435],[139.112416,35.540835],[139.112454,35.54136],[139.112179,35.542035],[139.112191,35.543135],[139.112079,35.543676],[139.111679,35.544651],[139.111766,35.545193],[139.112104,35.545951],[139.112766,35.546984],[139.113329,35.547593],[139.113416,35.547776],[139.112979,35.548543],[139.112754,35.549017],[139.112454,35.549284],[139.112179,35.549601],[139.111929,35.549809],[139.112379,35.550167],[139.112716,35.550592],[139.112854,35.550992],[139.113054,35.551267],[139.113529,35.5516],[139.113966,35.552025],[139.114366,35.552567],[139.115041,35.553692],[139.115179,35.553867],[139.116091,35.554384],[139.117378,35.555325],[139.117953,35.555525],[139.119341,35.555784],[139.120041,35.556009],[139.120866,35.556075],[139.121291,35.556275],[139.121653,35.556567],[139.121839,35.556636],[139.122728,35.557267],[139.123278,35.5577],[139.123553,35.55795],[139.12454,35.5596],[139.124652,35.5601],[139.124902,35.560283],[139.125227,35.560375],[139.125502,35.560508],[139.125902,35.561058],[139.126177,35.561349],[139.126502,35.561558],[139.126902,35.561716],[139.127614,35.562216],[139.128339,35.562608],[139.128789,35.563357],[139.129127,35.563782],[139.129302,35.564257],[139.129327,35.564915],[139.129489,35.565549],[139.129939,35.566473],[139.129851,35.566832],[139.129576,35.567215],[139.129101,35.567623],[139.128864,35.567957],[139.128714,35.56834],[139.128664,35.56879],[139.128951,35.56954],[139.129001,35.569989],[139.128951,35.570164],[139.128664,35.570531],[139.128314,35.570798],[139.127526,35.571264],[139.127226,35.571514],[139.127151,35.571598],[139.127051,35.571939],[139.127026,35.572189],[139.127089,35.572572],[139.127289,35.573247],[139.127926,35.57458],[139.128089,35.575264],[139.128114,35.575689],[139.128089,35.576097],[139.127801,35.576797],[139.127401,35.577355],[139.127214,35.57778],[139.127289,35.57808],[139.127864,35.579096],[139.127851,35.579638],[139.127801,35.580405],[139.127838,35.581013],[139.127813,35.581196],[139.127564,35.581238],[139.127364,35.581238],[139.127139,35.581346],[139.126801,35.581638],[139.126376,35.581746],[139.125601,35.581829],[139.124726,35.581846],[139.124301,35.581913],[139.124114,35.582113],[139.124089,35.582179],[139.124414,35.582796],[139.124714,35.583138],[139.124914,35.583246],[139.125239,35.583271],[139.125964,35.583029],[139.125889,35.583304],[139.125664,35.583679],[139.125301,35.583954],[139.124951,35.584171],[139.124526,35.584329],[139.124001,35.584487],[139.123701,35.584412],[139.123126,35.584071],[139.122851,35.583979],[139.122551,35.584046],[139.122351,35.584137],[139.122164,35.584404],[139.122151,35.585462],[139.122251,35.585712],[139.122451,35.585962],[139.122426,35.586029],[139.121827,35.586264],[139.121676,35.586387],[139.121576,35.58657],[139.121376,35.58697],[139.121489,35.587179],[139.121701,35.588162],[139.121838,35.588416],[139.122214,35.588953],[139.122326,35.589045],[139.122389,35.589178],[139.122726,35.589453],[139.123189,35.590037],[139.123501,35.590512],[139.123888,35.59157],[139.124151,35.592111],[139.124476,35.592536],[139.124976,35.592936],[139.125451,35.593211],[139.126251,35.592978],[139.126676,35.592953],[139.127063,35.59307],[139.128175,35.593603],[139.128538,35.59392],[139.128863,35.594103],[139.129175,35.594344],[139.1294,35.594728],[139.129563,35.595228],[139.129988,35.596144],[139.130075,35.597436],[139.130188,35.598019],[139.130325,35.598469],[139.130912,35.599936],[139.131,35.60036],[139.1315,35.601627],[139.131875,35.603002],[139.131712,35.603877],[139.131625,35.60456],[139.131662,35.60471],[139.131825,35.605093],[139.1325,35.605727],[139.132962,35.606285],[139.133162,35.606852],[139.133087,35.607301],[139.132887,35.607751],[139.132649,35.608593],[139.132449,35.60886],[139.13215,35.609135],[139.131675,35.609476],[139.131212,35.609951],[139.13035,35.611034],[139.129912,35.611376],[139.12845,35.612126],[139.12795,35.612484],[139.127812,35.612826],[139.1279,35.612984],[139.128112,35.613184],[139.128975,35.613767],[139.130512,35.614601],[139.130987,35.614776],[139.132262,35.615175],[139.132812,35.615375],[139.133949,35.615984],[139.134312,35.616275],[139.134424,35.616459],[139.133824,35.617634],[139.132574,35.618133],[139.132299,35.618092],[139.131849,35.617817],[139.131599,35.617775],[139.131212,35.618025],[139.131024,35.618025],[139.130749,35.617825],[139.130499,35.617692],[139.130187,35.617667],[139.130074,35.617708],[139.129887,35.617917],[139.129837,35.618233],[139.129912,35.618483],[139.130162,35.618792],[139.130249,35.619067],[139.130137,35.619175],[139.130062,35.6192],[139.129387,35.619158],[139.129037,35.619316],[139.128812,35.619633],[139.1281,35.620558],[139.127925,35.620675],[139.127712,35.620716],[139.127037,35.620766],[139.1266,35.620833],[139.126375,35.621149],[139.12635,35.621833],[139.126187,35.621874],[139.125937,35.621874],[139.125637,35.622016],[139.125575,35.622216],[139.125775,35.622691],[139.126275,35.623182],[139.126275,35.623341],[139.125775,35.623324],[139.125637,35.623482],[139.125525,35.623866],[139.125225,35.624024],[139.1239,35.623866],[139.123563,35.623957],[139.123475,35.624499],[139.12345,35.62509],[139.1234,35.625357],[139.123238,35.625699],[139.123213,35.626032],[139.1233,35.626349],[139.123438,35.62664],[139.123775,35.627165],[139.123887,35.627632],[139.123825,35.627882],[139.123775,35.627973],[139.1238,35.628265],[139.124162,35.629148],[139.124112,35.629798],[139.124137,35.629956],[139.124425,35.630881],[139.124312,35.63124],[139.123925,35.631923],[139.124287,35.632164],[139.124325,35.632373],[139.124287,35.632456],[139.123987,35.632464],[139.123687,35.632348],[139.1234,35.632439],[139.12335,35.632798],[139.123462,35.632981],[139.123625,35.633073],[139.123662,35.634156],[139.124025,35.634856],[139.124412,35.635372],[139.124725,35.635681],[139.125,35.636064],[139.1252,35.636564],[139.125262,35.637739],[139.125562,35.63823],[139.125625,35.638455],[139.125625,35.638747],[139.125675,35.639022],[139.125825,35.63918],[139.125925,35.63918],[139.1264,35.639263],[139.126625,35.639513],[139.1271,35.639805],[139.127262,35.640055],[139.12735,35.640297],[139.127262,35.640547],[139.127125,35.640772],[139.1271,35.64093],[139.1276,35.640997],[139.127687,35.641063],[139.127525,35.641247],[139.127025,35.641538],[139.127,35.641971],[139.126912,35.641996],[139.1265,35.64193],[139.126162,35.641946],[139.126087,35.641996],[139.125937,35.642155],[139.125887,35.642405],[139.126,35.64258],[139.1262,35.642788],[139.126137,35.643146],[139.1262,35.643396],[139.12625,35.643438],[139.1262,35.643621],[139.126012,35.643888],[139.12565,35.643913],[139.12545,35.644029],[139.125425,35.644071],[139.12545,35.644571],[139.125287,35.645046],[139.125125,35.645221],[139.1246,35.645429],[139.124512,35.645587],[139.124575,35.646012],[139.12455,35.646129],[139.12435,35.646221],[139.123912,35.646246],[139.12385,35.646287],[139.123825,35.646629],[139.12385,35.646696],[139.12355,35.646946],[139.1233,35.646971],[139.12275,35.646946],[139.122437,35.647329],[139.121912,35.647645],[139.121812,35.647737],[139.121625,35.647937],[139.121575,35.648387],[139.12165,35.648654],[139.121675,35.648912],[139.121337,35.649237],[139.120562,35.649778],[139.12045,35.64997],[139.120537,35.650253],[139.120375,35.650362],[139.120012,35.650528],[139.119662,35.650845],[139.11925,35.651636],[139.119087,35.651861],[139.11905,35.652228],[139.118912,35.652436],[139.118512,35.652586],[139.118375,35.652861],[139.117787,35.653186],[139.117488,35.653503],[139.117338,35.653794],[139.11715,35.654319],[139.117125,35.654761],[139.117337,35.655094],[139.1177,35.655386],[139.117887,35.655736],[139.118162,35.655977],[139.119125,35.656419],[139.1195,35.656536],[139.119687,35.656694],[139.11995,35.657836],[139.119837,35.658152],[139.119612,35.658536],[139.1195,35.658885],[139.1197,35.659719],[139.119675,35.660102],[139.119837,35.660544],[139.1202,35.660735],[139.120925,35.661044],[139.12145,35.66131],[139.1218,35.661518],[139.122837,35.662152],[139.123424,35.662602],[139.123787,35.662843],[139.124062,35.66316],[139.124237,35.663427],[139.124487,35.66406],[139.124599,35.664468],[139.124799,35.66496],[139.125124,35.665476],[139.126049,35.666218],[139.126886,35.666985],[139.127386,35.667235],[139.127749,35.667276],[139.128686,35.667276],[139.129099,35.667318],[139.129574,35.667476],[139.129886,35.667701],[139.130049,35.667901],[139.130561,35.669143],[139.130586,35.669659],[139.130499,35.669884],[139.130436,35.670151],[139.130249,35.670626],[139.130311,35.670901],[139.130836,35.671526],[139.130974,35.671817],[139.131698,35.672084],[139.132111,35.672334],[139.133036,35.672692],[139.133611,35.672759],[139.134136,35.672642],[139.135273,35.672259],[139.135436,35.672234],[139.135936,35.672251],[139.136323,35.672318],[139.136748,35.672318],[139.136936,35.672184],[139.137235,35.671734],[139.138148,35.671209],[139.138535,35.670693],[139.13881,35.670509],[139.139173,35.670368],[139.140148,35.670551],[139.14056,35.670526],[139.14111,35.67041],[139.14266,35.669868],[139.14271,35.66951],[139.14296,35.669076],[139.143423,35.668802],[139.144173,35.668602],[139.144448,35.66846],[139.144785,35.668193],[139.145285,35.667693],[139.14586,35.66726],[139.146247,35.667035],[139.147047,35.666785],[139.14761,35.666735],[139.148572,35.66676],[139.150135,35.666727],[139.150822,35.666685],[139.152322,35.666452],[139.153147,35.666177],[139.153784,35.665861],[139.154959,35.666286],[139.155509,35.666419],[139.156034,35.666511],[139.156647,35.666369],[139.157034,35.666327],[139.157146,35.666369],[139.157684,35.666794],[139.158184,35.666952],[139.159321,35.667444],[139.160546,35.667761],[139.161509,35.667819],[139.161733,35.667869]]]}}]}