{"type":"FeatureCollection","features":[{"properties":{"kuni_url":"/kg/resource/K16.html","id_url":"G16021.html","id":"G16021","kuni":"武蔵","name":"秩父","yomi":"ちちぶ","kuni_id":"K16","pref":"埼玉県"},"geometry":{"type":"Polygon","coordinates":[[[139.160555,36.135073],[139.16038,36.134673],[139.160143,36.133857],[139.160118,36.133273],[139.160655,36.132173],[139.160268,36.130882],[139.160155,36.13064],[139.159718,36.130615],[139.159018,36.130607],[139.157931,36.130515],[139.157768,36.130649],[139.158181,36.131665],[139.158118,36.132315],[139.157868,36.132882],[139.157629,36.133116],[139.157393,36.133348],[139.156531,36.133731],[139.156168,36.133798],[139.155143,36.133815],[139.153443,36.13349],[139.151419,36.133148],[139.150969,36.133123],[139.150031,36.13319],[139.149169,36.133381],[139.148394,36.133315],[139.148282,36.133248],[139.148119,36.13284],[139.148119,36.13129],[139.148044,36.13059],[139.147607,36.129982],[139.146969,36.12959],[139.146332,36.129299],[139.146219,36.129274],[139.146194,36.129115],[139.146307,36.127832],[139.146545,36.126824],[139.146707,36.126324],[139.146657,36.126007],[139.146245,36.125807],[139.145657,36.125574],[139.145245,36.125124],[139.144532,36.124466],[139.144282,36.124332],[139.144582,36.124066],[139.14492,36.123616],[139.145057,36.123524],[139.145645,36.123349],[139.146007,36.122783],[139.146007,36.122249],[139.14552,36.121791],[139.144633,36.121208],[139.143833,36.12075],[139.141333,36.119725],[139.140358,36.119433],[139.140058,36.119275],[139.139646,36.118908],[139.138708,36.118408],[139.138146,36.118208],[139.137783,36.118],[139.137646,36.1178],[139.137658,36.117417],[139.137796,36.116875],[139.138108,36.116242],[139.138646,36.114375],[139.138896,36.113775],[139.139208,36.113592],[139.139546,36.113525],[139.139658,36.113209],[139.139571,36.112376],[139.139171,36.110143],[139.139071,36.109068],[139.139046,36.107443],[139.138971,36.106968],[139.139034,36.106651],[139.139034,36.106118],[139.138809,36.105593],[139.138871,36.104877],[139.139046,36.103502],[139.138946,36.102777],[139.138921,36.101386],[139.138759,36.100277],[139.139159,36.099294],[139.138834,36.098344],[139.138397,36.097286],[139.137872,36.096761],[139.137534,36.096203],[139.137259,36.095861],[139.137234,36.095545],[139.137522,36.095053],[139.138047,36.094578],[139.138272,36.094061],[139.138672,36.09357],[139.138834,36.093028],[139.138947,36.09247],[139.138897,36.09172],[139.138959,36.091204],[139.139272,36.090804],[139.139384,36.090712],[139.139609,36.090487],[139.140022,36.090262],[139.140772,36.090037],[139.141409,36.089795],[139.142222,36.089412],[139.142309,36.089462],[139.142572,36.09007],[139.143159,36.090137],[139.143659,36.090295],[139.144384,36.090212],[139.144796,36.089812],[139.145159,36.089629],[139.145434,36.089629],[139.145859,36.089362],[139.146384,36.089187],[139.146521,36.089096],[139.146784,36.088529],[139.148034,36.088063],[139.148971,36.087979],[139.149946,36.088138],[139.150196,36.088254],[139.150858,36.088438],[139.151308,36.088438],[139.151558,36.088329],[139.151608,36.088396],[139.151746,36.088846],[139.151996,36.089387],[139.152133,36.089521],[139.152683,36.089862],[139.153158,36.090337],[139.153595,36.090679],[139.154208,36.090546],[139.154733,36.090654],[139.155533,36.091112],[139.156145,36.091587],[139.156445,36.092062],[139.156858,36.092154],[139.157308,36.092446],[139.157607,36.092604],[139.158282,36.091887],[139.15892,36.091529],[139.160507,36.091404],[139.161707,36.090996],[139.16242,36.090821],[139.16262,36.090821],[139.16332,36.090488],[139.164094,36.090171],[139.164957,36.089888],[139.165119,36.089796],[139.165432,36.089388],[139.165882,36.089055],[139.166794,36.088696],[139.168294,36.088296],[139.169107,36.088121],[139.169994,36.088055],[139.171219,36.088172],[139.171906,36.088496],[139.172706,36.089146],[139.173206,36.089621],[139.174094,36.09003],[139.174306,36.090105],[139.174481,36.089788],[139.174569,36.089288],[139.174519,36.088638],[139.174631,36.087622],[139.174281,36.086505],[139.174094,36.086347],[139.173981,36.086055],[139.173656,36.085555],[139.173619,36.085397],[139.173656,36.08533],[139.173981,36.085039],[139.174431,36.084722],[139.174906,36.084522],[139.175431,36.083555],[139.175819,36.083039],[139.176406,36.082681],[139.177019,36.082389],[139.177131,36.082072],[139.177344,36.081714],[139.177819,36.081539],[139.178156,36.081064],[139.178731,36.080573],[139.179019,36.080148],[139.179069,36.079581],[139.179456,36.079064],[139.179794,36.078456],[139.180181,36.078123],[139.180381,36.078015],[139.180819,36.077631],[139.181344,36.076906],[139.181906,36.076731],[139.182381,36.076531],[139.182819,36.076031],[139.183069,36.07559],[139.183344,36.074957],[139.183494,36.07444],[139.183794,36.074257],[139.184244,36.073898],[139.184431,36.073273],[139.184456,36.073073],[139.185181,36.073273],[139.185981,36.073298],[139.186456,36.073249],[139.186656,36.073207],[139.186681,36.071724],[139.186794,36.071232],[139.187156,36.07069],[139.187931,36.070266],[139.188731,36.070149],[139.189094,36.069999],[139.189981,36.069366],[139.190519,36.069391],[139.190769,36.069457],[139.191431,36.069574],[139.192006,36.069416],[139.192181,36.069324],[139.192818,36.069124],[139.193531,36.068807],[139.193643,36.068566],[139.194231,36.068449],[139.195031,36.068499],[139.195168,36.068541],[139.195481,36.068882],[139.196443,36.068766],[139.197306,36.068766],[139.197643,36.068699],[139.198168,36.068591],[139.199643,36.068074],[139.200168,36.067808],[139.200305,36.067649],[139.200918,36.067224],[139.201605,36.0672],[139.202493,36.067],[139.20253,36.066616],[139.202718,36.066166],[139.20308,36.065741],[139.203355,36.065633],[139.204905,36.065675],[139.20583,36.065791],[139.20588,36.065741],[139.20608,36.065408],[139.206105,36.064983],[139.206305,36.064733],[139.206855,36.0646],[139.207517,36.0646],[139.208405,36.064533],[139.209355,36.0642],[139.210105,36.063775],[139.21088,36.063792],[139.211342,36.064108],[139.212042,36.063817],[139.212592,36.063417],[139.213367,36.063192],[139.214204,36.063125],[139.214567,36.062942],[139.215392,36.061776],[139.215867,36.061326],[139.216679,36.061217],[139.217754,36.061217],[139.218554,36.061109],[139.219141,36.060792],[139.219754,36.060976],[139.220141,36.060926],[139.220616,36.060526],[139.221279,36.060234],[139.222004,36.060076],[139.222891,36.060009],[139.223241,36.059834],[139.223891,36.059451],[139.224853,36.059268],[139.225466,36.059251],[139.225666,36.05876],[139.225603,36.057876],[139.225828,36.056552],[139.226278,36.056302],[139.226716,36.056127],[139.227103,36.055568],[139.227378,36.055002],[139.227766,36.054602],[139.228191,36.054485],[139.228741,36.054035],[139.229241,36.053952],[139.229353,36.053635],[139.229491,36.053385],[139.229653,36.053294],[139.230153,36.053477],[139.231016,36.053902],[139.231853,36.054377],[139.23279,36.054719],[139.233728,36.054719],[139.23454,36.054994],[139.235953,36.054269],[139.236315,36.054186],[139.236815,36.053911],[139.237453,36.053369],[139.237478,36.053202],[139.237478,36.053127],[139.238265,36.053044],[139.238128,36.052536],[139.238253,36.052319],[139.238465,36.051969],[139.238815,36.051586],[139.23899,36.051411],[139.239052,36.051328],[139.23904,36.051244],[139.238815,36.050994],[139.238615,36.050786],[139.238365,36.050511],[139.238278,36.050411],[139.23809,36.050336],[139.237515,36.050369],[139.237415,36.050369],[139.23729,36.050178],[139.23724,36.050086],[139.236978,36.050169],[139.23654,36.050328],[139.236203,36.050469],[139.236115,36.050469],[139.235828,36.050286],[139.235703,36.050244],[139.235528,36.050194],[139.235415,36.050228],[139.235315,36.050244],[139.234678,36.049911],[139.233853,36.049528],[139.233128,36.049436],[139.232828,36.049094],[139.232578,36.048511],[139.232128,36.048261],[139.231353,36.048261],[139.229916,36.047678],[139.229103,36.047611],[139.228116,36.047403],[139.227054,36.047136],[139.226029,36.046528],[139.225616,36.046411],[139.224541,36.046544],[139.223404,36.046503],[139.223017,36.046453],[139.221042,36.045803],[139.220267,36.045461],[139.220217,36.044986],[139.220292,36.044853],[139.220179,36.044469],[139.219904,36.044336],[139.219379,36.043911],[139.217692,36.041953],[139.217217,36.041586],[139.216692,36.041411],[139.21603,36.04112],[139.215417,36.040753],[139.214505,36.040395],[139.213005,36.03992],[139.212043,36.039495],[139.211593,36.038903],[139.210955,36.038303],[139.209993,36.036945],[139.209631,36.036028],[139.209156,36.035895],[139.208443,36.035528],[139.207781,36.035145],[139.207056,36.03497],[139.206393,36.034945],[139.205781,36.034853],[139.205281,36.034653],[139.205056,36.03422],[139.204731,36.033887],[139.204256,36.033728],[139.203931,36.033345],[139.203706,36.032987],[139.203119,36.032712],[139.202819,36.03262],[139.202206,36.032378],[139.201794,36.032012],[139.201769,36.031854],[139.201631,36.031654],[139.201519,36.031295],[139.200819,36.030937],[139.199694,36.030262],[139.199519,36.02967],[139.199082,36.029354],[139.198469,36.029287],[139.197832,36.029562],[139.197057,36.029537],[139.196007,36.029245],[139.195032,36.028904],[139.194707,36.028745],[139.194207,36.028587],[139.193757,36.02877],[139.193257,36.029012],[139.19282,36.029012],[139.191657,36.028829],[139.191045,36.028879],[139.190845,36.028695],[139.190245,36.028337],[139.189408,36.028154],[139.188408,36.028129],[139.188058,36.02757],[139.187445,36.02707],[139.187195,36.02682],[139.186645,36.026512],[139.186358,36.026304],[139.186171,36.025787],[139.185783,36.025245],[139.185671,36.024729],[139.185758,36.024262],[139.185596,36.023812],[139.185808,36.022979],[139.185708,36.022146],[139.185783,36.021654],[139.186421,36.020704],[139.187646,36.019179],[139.187958,36.018704],[139.187896,36.018263],[139.187683,36.01783],[139.187796,36.017138],[139.188071,36.016596],[139.188433,36.016146],[139.188796,36.015563],[139.188983,36.015155],[139.190708,36.013747],[139.190896,36.013472],[139.190821,36.01293],[139.190733,36.012755],[139.189733,36.011855],[139.189383,36.01138],[139.189208,36.010889],[139.189321,36.010597],[139.189683,36.009897],[139.190133,36.008664],[139.190408,36.008006],[139.190546,36.007564],[139.190521,36.007131],[139.190358,36.006547],[139.190184,36.006122],[139.191608,36.005898],[139.192246,36.005873],[139.192458,36.005898],[139.193096,36.006281],[139.193708,36.006373],[139.194433,36.006348],[139.195808,36.006439],[139.196733,36.006398],[139.197083,36.006464],[139.197945,36.006489],[139.198808,36.006381],[139.19972,36.006223],[139.20047,36.006514],[139.20127,36.007014],[139.202182,36.007464],[139.203482,36.007489],[139.204295,36.007689],[139.20487,36.007531],[139.205482,36.007198],[139.206457,36.006523],[139.206682,36.006498],[139.207257,36.00659],[139.208144,36.006815],[139.208894,36.006956],[139.209282,36.006931],[139.209282,36.006531],[139.209469,36.00594],[139.210007,36.005223],[139.210669,36.004982],[139.211082,36.004932],[139.211494,36.00509],[139.211856,36.00554],[139.212081,36.005673],[139.212906,36.005948],[139.213269,36.006265],[139.213406,36.006465],[139.213631,36.007165],[139.214663,36.005182],[139.218947,36.003135],[139.219607,36.001477],[139.220428,35.999415],[139.22197,35.995289],[139.222353,35.99285],[139.222885,35.991785],[139.223226,35.99021],[139.22295,35.9891],[139.22328,35.987681],[139.223601,35.986299],[139.223821,35.985703],[139.224128,35.98522],[139.224398,35.984796],[139.224652,35.984398],[139.226641,35.983299],[139.228963,35.981993],[139.230096,35.980195],[139.231297,35.9794],[139.231789,35.977891],[139.232717,35.977108],[139.23381,35.975781],[139.234587,35.974419],[139.234406,35.974403],[139.232057,35.974519],[139.231257,35.974544],[139.230694,35.974411],[139.230157,35.973611],[139.229769,35.973228],[139.229319,35.972895],[139.229107,35.972803],[139.228407,35.972628],[139.227907,35.972286],[139.227482,35.971886],[139.22707,35.97162],[139.226907,35.971553],[139.22662,35.971236],[139.22592,35.970228],[139.225582,35.969895],[139.22492,35.969628],[139.224557,35.969312],[139.22402,35.968437],[139.223945,35.968329],[139.22347,35.968129],[139.222995,35.968037],[139.22277,35.967837],[139.22227,35.966987],[139.221733,35.966537],[139.220733,35.966087],[139.22062,35.965912],[139.220558,35.965262],[139.220446,35.964854],[139.220283,35.964446],[139.220196,35.963529],[139.219858,35.962946],[139.219458,35.962538],[139.219158,35.962163],[139.218846,35.961663],[139.218733,35.961329],[139.218758,35.960813],[139.219133,35.959755],[139.219221,35.959238],[139.219321,35.95888],[139.217709,35.95868],[139.216996,35.95848],[139.216246,35.958213],[139.215596,35.957813],[139.214934,35.957322],[139.214796,35.957272],[139.213821,35.957147],[139.213571,35.95703],[139.213259,35.956605],[139.212821,35.956338],[139.212734,35.956338],[139.212684,35.956088],[139.212697,35.95533],[139.212834,35.954963],[139.212972,35.954788],[139.213522,35.95433],[139.214459,35.953722],[139.214684,35.953405],[139.214847,35.953047],[139.215122,35.952772],[139.216197,35.95248],[139.216921,35.95218],[139.217196,35.951864],[139.217484,35.950539],[139.217734,35.950156],[139.217759,35.949797],[139.217922,35.949389],[139.218447,35.948939],[139.219059,35.948889],[139.219247,35.948914],[139.219772,35.948864],[139.220297,35.948572],[139.220684,35.948139],[139.221122,35.947506],[139.221484,35.947239],[139.222121,35.946923],[139.222147,35.946406],[139.221972,35.945998],[139.222334,35.945931],[139.223521,35.946081],[139.223721,35.946131],[139.225209,35.945873],[139.226046,35.945939],[139.226246,35.945915],[139.227209,35.94569],[139.228121,35.945656],[139.228346,35.945298],[139.228609,35.94404],[139.228771,35.943698],[139.229109,35.943381],[139.230046,35.942882],[139.230509,35.942707],[139.230734,35.942657],[139.231309,35.942407],[139.231446,35.942298],[139.231721,35.941215],[139.231946,35.941057],[139.232271,35.940965],[139.232609,35.940757],[139.232709,35.940649],[139.233321,35.940399],[139.234958,35.93994],[139.235096,35.939832],[139.235008,35.93954],[139.234471,35.938799],[139.234384,35.93839],[139.234271,35.938032],[139.233746,35.937316],[139.233734,35.936749],[139.233984,35.936349],[139.234284,35.936074],[139.234621,35.935716],[139.234896,35.935283],[139.235196,35.934924],[139.235746,35.934633],[139.236271,35.934583],[139.236496,35.934474],[139.236634,35.934108],[139.236671,35.933166],[139.236784,35.932783],[139.236871,35.932625],[139.236996,35.931408],[139.236909,35.930941],[139.236884,35.930442],[139.236984,35.930217],[139.234938,35.929424],[139.234301,35.928922],[139.233932,35.927716],[139.233966,35.925874],[139.233999,35.923295],[139.233765,35.921453],[139.233148,35.918303],[139.233319,35.916331],[139.234607,35.915302],[139.237009,35.915217],[139.239669,35.913245],[139.242587,35.909558],[139.244989,35.905528],[139.246877,35.903899],[139.249022,35.903556],[139.251168,35.903556],[139.253227,35.903556],[139.253914,35.903385],[139.254343,35.902699],[139.254257,35.901756],[139.253485,35.900384],[139.250825,35.895792],[139.249195,35.894163],[139.248594,35.892363],[139.247822,35.891077],[139.245677,35.890648],[139.24233,35.890734],[139.238383,35.891677],[139.23598,35.89262],[139.233749,35.893134],[139.231347,35.892706],[139.228172,35.890734],[139.227142,35.889619],[139.226971,35.888076],[139.227914,35.88619],[139.229116,35.883446],[139.229202,35.880702],[139.228858,35.877873],[139.227743,35.87513],[139.22687,35.874068],[139.225668,35.873725],[139.223266,35.873639],[139.21949,35.874582],[139.216229,35.87604],[139.213998,35.877326],[139.212797,35.87784],[139.211912,35.878077],[139.211506,35.877487],[139.210546,35.875605],[139.210214,35.873132],[139.210223,35.871324],[139.210652,35.869609],[139.211424,35.868666],[139.21254,35.866866],[139.213398,35.86558],[139.213655,35.86498],[139.213655,35.864208],[139.213655,35.863522],[139.21314,35.863179],[139.212111,35.863008],[139.210309,35.862665],[139.208421,35.862493],[139.207134,35.862065],[139.206705,35.861122],[139.206619,35.859492],[139.206705,35.858378],[139.2073,35.856619],[139.207472,35.854389],[139.207643,35.853018],[139.208072,35.850446],[139.20893,35.848817],[139.209788,35.847359],[139.210293,35.846311],[139.209923,35.846255],[139.209073,35.84643],[139.208648,35.84648],[139.208373,35.84648],[139.208073,35.846564],[139.207598,35.846614],[139.207273,35.846547],[139.206723,35.846255],[139.206686,35.846205],[139.206248,35.84598],[139.205248,35.84508],[139.204948,35.844655],[139.204923,35.844522],[139.204886,35.843305],[139.204836,35.84308],[139.204698,35.84288],[139.204261,35.842522],[139.204174,35.842497],[139.203949,35.842247],[139.203674,35.841531],[139.203536,35.841347],[139.203311,35.841281],[139.202924,35.841189],[139.202349,35.841147],[139.202074,35.841106],[139.201411,35.841081],[139.200299,35.841239],[139.199724,35.841281],[139.199024,35.841256],[139.198749,35.841189],[139.198337,35.841147],[139.198087,35.841106],[139.197837,35.840989],[139.197649,35.840897],[139.197237,35.840472],[139.196787,35.840247],[139.196437,35.840156],[139.195324,35.840022],[139.194574,35.840131],[139.193887,35.840131],[139.193612,35.840181],[139.193387,35.840272],[139.193137,35.840314],[139.192537,35.840272],[139.192312,35.840339],[139.1922,35.840355],[139.1914,35.840722],[139.191312,35.840789],[139.1904,35.841147],[139.189937,35.841255],[139.18935,35.84133],[139.189137,35.84148],[139.18885,35.841864],[139.188687,35.84198],[139.1885,35.842047],[139.188088,35.842114],[139.187563,35.842139],[139.187388,35.842297],[139.187113,35.84263],[139.186838,35.84283],[139.1864,35.842922],[139.185838,35.84283],[139.1854,35.84283],[139.18515,35.842813],[139.184713,35.842813],[139.184325,35.842763],[139.184125,35.84283],[139.183988,35.843013],[139.183938,35.843238],[139.1838,35.843463],[139.18355,35.843572],[139.182501,35.843647],[139.182138,35.843663],[139.181838,35.843822],[139.181388,35.84443],[139.181251,35.844655],[139.180951,35.844813],[139.180613,35.84488],[139.180226,35.844905],[139.180038,35.845038],[139.179813,35.845263],[139.179513,35.845488],[139.179063,35.845671],[139.178763,35.845846],[139.178376,35.84603],[139.177626,35.846496],[139.177163,35.846705],[139.176713,35.846796],[139.176526,35.846796],[139.175951,35.846946],[139.175476,35.847221],[139.174651,35.847938],[139.174451,35.848163],[139.174364,35.848279],[139.174089,35.848346],[139.173814,35.848321],[139.173651,35.848363],[139.173376,35.848571],[139.173214,35.848638],[139.172926,35.848588],[139.172714,35.848479],[139.172189,35.848504],[139.171214,35.848588],[139.170501,35.849021],[139.170114,35.849196],[139.169614,35.849604],[139.169314,35.849921],[139.169089,35.850054],[139.168889,35.850054],[139.168039,35.849921],[139.167739,35.849896],[139.166964,35.849962],[139.166102,35.849962],[139.165627,35.850054],[139.164802,35.850387],[139.164327,35.850729],[139.164089,35.850862],[139.163693,35.850916],[139.163615,35.850912],[139.163415,35.850887],[139.16334,35.851062],[139.162615,35.851812],[139.162202,35.852328],[139.16184,35.852978],[139.16159,35.853336],[139.161452,35.853761],[139.161315,35.854436],[139.16054,35.855295],[139.16049,35.855295],[139.160127,35.855745],[139.15994,35.856061],[139.159665,35.856736],[139.159602,35.856961],[139.15949,35.857136],[139.159077,35.857386],[139.15844,35.857636],[139.156615,35.858195],[139.156153,35.858378],[139.155515,35.858628],[139.15504,35.858803],[139.15474,35.859053],[139.154465,35.859212],[139.154103,35.859253],[139.153378,35.859453],[139.152915,35.859678],[139.152166,35.860353],[139.151778,35.860578],[139.151066,35.860895],[139.150228,35.86112],[139.149928,35.861278],[139.149128,35.861953],[139.148766,35.862203],[139.148403,35.862403],[139.147379,35.86272],[139.146329,35.862903],[139.145754,35.862903],[139.144341,35.862829],[139.143404,35.863279],[139.143016,35.86337],[139.142629,35.86337],[139.141904,35.863196],[139.141442,35.863279],[139.141017,35.863462],[139.140079,35.863779],[139.139329,35.863937],[139.138892,35.864046],[139.138454,35.864271],[139.137704,35.864587],[139.136705,35.864746],[139.136242,35.864971],[139.13563,35.865354],[139.135467,35.865379],[139.135017,35.865329],[139.134467,35.865221],[139.133942,35.865012],[139.133467,35.864679],[139.133167,35.864546],[139.132868,35.864479],[139.131755,35.864454],[139.131043,35.864545],[139.130705,35.864745],[139.130318,35.865037],[139.129568,35.865395],[139.128993,35.865603],[139.128743,35.86562],[139.127556,35.865578],[139.127006,35.865419],[139.126669,35.865194],[139.126369,35.865061],[139.126119,35.865011],[139.125144,35.864928],[139.124519,35.864786],[139.124156,35.864811],[139.123269,35.865061],[139.123107,35.865061],[139.122332,35.864969],[139.121832,35.864869],[139.121256,35.864774],[139.12002,35.864394],[139.119382,35.864285],[139.118032,35.864527],[139.117008,35.864585],[139.11592,35.864485],[139.115645,35.864493],[139.11502,35.864859],[139.11442,35.865359],[139.114171,35.865384],[139.113533,35.865259],[139.112771,35.864976],[139.111996,35.864801],[139.111409,35.864784],[139.110996,35.86495],[139.110121,35.86555],[139.109384,35.865692],[139.108246,35.865641],[139.107859,35.865683],[139.106946,35.865741],[139.106259,35.865883],[139.105397,35.866282],[139.102384,35.866632],[139.102247,35.866565],[139.101797,35.866207],[139.101509,35.865782],[139.101347,35.865674],[139.100397,35.86684],[139.100235,35.867107],[139.099935,35.867473],[139.099497,35.867906],[139.09926,35.868498],[139.099022,35.868698],[139.096785,35.869131],[139.095785,35.869414],[139.094822,35.869447],[139.092423,35.869005],[139.091623,35.868988],[139.09121,35.869113],[139.090723,35.869455],[139.089935,35.870363],[139.089273,35.870963],[139.08771,35.871813],[139.086123,35.872621],[139.08496,35.873129],[139.08411,35.873362],[139.083585,35.873662],[139.083073,35.87417],[139.082798,35.874595],[139.082536,35.87487],[139.081623,35.87497],[139.080348,35.875237],[139.079548,35.875362],[139.078598,35.875395],[139.077799,35.875378],[139.076936,35.875145],[139.076161,35.874862],[139.075511,35.874462],[139.074924,35.87402],[139.074499,35.873528],[139.074099,35.87297],[139.073399,35.872412],[139.073087,35.872279],[139.072637,35.871812],[139.072362,35.871612],[139.070974,35.871545],[139.070549,35.871504],[139.069787,35.87162],[139.069337,35.871879],[139.068675,35.872062],[139.066862,35.872445],[139.066475,35.872703],[139.066012,35.872845],[139.065175,35.872737],[139.064588,35.872812],[139.064013,35.873095],[139.062413,35.873403],[139.061638,35.873595],[139.060926,35.874028],[139.060026,35.874736],[139.059501,35.874836],[139.059226,35.875061],[139.058988,35.87552],[139.058726,35.876153],[139.058101,35.877336],[139.058026,35.87742],[139.057363,35.877544],[139.055526,35.877453],[139.054376,35.877761],[139.053514,35.878061],[139.052576,35.878186],[139.051751,35.878178],[139.051439,35.878203],[139.050127,35.878694],[139.049789,35.879011],[139.049039,35.880036],[139.048739,35.880669],[139.048477,35.881052],[139.048177,35.881286],[139.047764,35.881361],[139.047339,35.881494],[139.046964,35.881836],[139.046589,35.882452],[139.046077,35.883094],[139.045602,35.883477],[139.045002,35.883777],[139.044814,35.883802],[139.04434,35.88401],[139.043527,35.884835],[139.043315,35.885194],[139.04304,35.885535],[139.04224,35.885927],[139.04164,35.886052],[139.04094,35.886127],[139.040552,35.886218],[139.039353,35.887135],[139.038865,35.887727],[139.03854,35.888226],[139.038078,35.888801],[139.037503,35.889251],[139.036903,35.889576],[139.036215,35.88981],[139.03544,35.89016],[139.03479,35.890593],[139.033553,35.891243],[139.032503,35.891659],[139.030303,35.892476],[139.029529,35.892826],[139.028816,35.893284],[139.026441,35.894959],[139.025666,35.895442],[139.025042,35.895984],[139.024829,35.896234],[139.024479,35.896759],[139.024292,35.897142],[139.024042,35.897326],[139.023904,35.897375],[139.023454,35.897384],[139.021954,35.897059],[139.021267,35.897092],[139.021017,35.897159],[139.020355,35.897467],[139.01943,35.898109],[139.018792,35.898317],[139.018205,35.898367],[139.01743,35.898359],[139.015355,35.8982],[139.014305,35.898284],[139.013468,35.898267],[139.012993,35.898159],[139.011456,35.897417],[139.010343,35.897092],[139.009893,35.896617],[139.009331,35.896109],[139.008819,35.895484],[139.008119,35.894817],[139.007356,35.894217],[139.007019,35.893751],[139.006781,35.892943],[139.006669,35.891093],[139.006756,35.889743],[139.006606,35.889334],[139.006181,35.88876],[139.005806,35.888176],[139.004994,35.887393],[139.004344,35.886951],[139.003794,35.88676],[139.003144,35.886385],[139.002607,35.885851],[139.002019,35.885001],[139.001507,35.884393],[139.000969,35.883977],[139.000894,35.883952],[138.999344,35.884176],[138.998595,35.884276],[138.997232,35.88416],[138.996845,35.884355],[138.996645,35.884443],[138.996082,35.884418],[138.995757,35.88436],[138.995395,35.884201],[138.995107,35.883951],[138.994882,35.883327],[138.994607,35.883168],[138.99422,35.883077],[138.99322,35.882993],[138.993057,35.882927],[138.99267,35.88261],[138.992108,35.882327],[138.990745,35.881835],[138.989583,35.88141],[138.989083,35.881185],[138.988608,35.881035],[138.98817,35.880993],[138.987258,35.881218],[138.986758,35.881243],[138.986121,35.881177],[138.985183,35.881002],[138.985046,35.881052],[138.984683,35.881368],[138.984021,35.881752],[138.983396,35.88266],[138.982896,35.883018],[138.980996,35.883818],[138.979971,35.884568],[138.979471,35.884835],[138.979284,35.884885],[138.979084,35.884885],[138.978734,35.884818],[138.978371,35.88471],[138.977671,35.884218],[138.977309,35.88406],[138.977009,35.883993],[138.976534,35.883476],[138.976034,35.883118],[138.974759,35.882785],[138.974259,35.882585],[138.973534,35.882143],[138.972897,35.881918],[138.972672,35.881876],[138.971784,35.881835],[138.969435,35.88196],[138.968272,35.882093],[138.968097,35.882076],[138.967847,35.881985],[138.96746,35.881585],[138.96716,35.881001],[138.966873,35.880568],[138.966898,35.879735],[138.96676,35.879285],[138.966448,35.878835],[138.965998,35.878393],[138.965635,35.87796],[138.96511,35.877518],[138.96486,35.87736],[138.964448,35.87736],[138.964048,35.877293],[138.963386,35.87696],[138.962661,35.876693],[138.962473,35.876652],[138.962061,35.876627],[138.961361,35.876677],[138.960611,35.876635],[138.959874,35.876552],[138.958399,35.876152],[138.956924,35.875685],[138.955237,35.875243],[138.954737,35.875043],[138.954424,35.874793],[138.954237,35.874435],[138.954149,35.873852],[138.953062,35.873093],[138.952587,35.87271],[138.951775,35.871902],[138.950375,35.869927],[138.950012,35.869527],[138.9496,35.869169],[138.949213,35.868944],[138.948738,35.86881],[138.948188,35.868744],[138.947575,35.868727],[138.946988,35.868752],[138.94635,35.868644],[138.945775,35.868444],[138.9453,35.868127],[138.945138,35.86786],[138.945163,35.867494],[138.945288,35.867069],[138.945513,35.866686],[138.945813,35.866277],[138.945951,35.865936],[138.946001,35.865552],[138.946251,35.864927],[138.946463,35.864627],[138.946513,35.864336],[138.945963,35.864003],[138.945576,35.863603],[138.944788,35.862928],[138.944089,35.861536],[138.942914,35.86017],[138.942976,35.859828],[138.943101,35.859553],[138.943164,35.859245],[138.943126,35.858928],[138.943239,35.858386],[138.943201,35.858028],[138.943089,35.857662],[138.943039,35.857287],[138.943176,35.856812],[138.943714,35.855953],[138.944039,35.854962],[138.944039,35.854662],[138.943739,35.854512],[138.943127,35.85397],[138.942702,35.853704],[138.942202,35.853462],[138.940952,35.853012],[138.939815,35.85277],[138.93924,35.85257],[138.938602,35.85242],[138.937715,35.852237],[138.93724,35.851971],[138.936827,35.851637],[138.936352,35.851346],[138.936078,35.851254],[138.93574,35.851104],[138.93524,35.850996],[138.933915,35.851112],[138.932478,35.851321],[138.932141,35.851254],[138.931978,35.851096],[138.931466,35.850246],[138.931253,35.850021],[138.930753,35.849887],[138.930116,35.849779],[138.928254,35.849312],[138.926891,35.848979],[138.926529,35.848937],[138.926229,35.849054],[138.923854,35.850279],[138.923192,35.850529],[138.922454,35.85067],[138.921979,35.850604],[138.921567,35.850495],[138.92123,35.850495],[138.921042,35.850562],[138.920905,35.850812],[138.92063,35.851062],[138.92033,35.851262],[138.919467,35.851312],[138.91883,35.85127],[138.918193,35.851278],[138.917643,35.851387],[138.91698,35.851595],[138.916205,35.851937],[138.915568,35.85232],[138.914993,35.852528],[138.914468,35.852603],[138.914081,35.852536],[138.913443,35.852353],[138.913168,35.852361],[138.912556,35.852786],[138.912231,35.852903],[138.911731,35.852903],[138.911206,35.85277],[138.910594,35.852486],[138.910394,35.852345],[138.909981,35.85192],[138.909644,35.851245],[138.909394,35.85087],[138.909106,35.850687],[138.908781,35.850553],[138.908282,35.850403],[138.907782,35.850203],[138.907357,35.849978],[138.906832,35.849753],[138.906419,35.849512],[138.906082,35.849128],[138.905532,35.84872],[138.905107,35.84852],[138.90472,35.848412],[138.904282,35.848437],[138.903757,35.848528],[138.90362,35.848528],[138.903195,35.848445],[138.902732,35.848195],[138.902307,35.847887],[138.902145,35.847704],[138.90117,35.847145],[138.899783,35.846887],[138.899196,35.846687],[138.898558,35.846329],[138.898058,35.845879],[138.897333,35.84532],[138.897109,35.844979],[138.896996,35.844645],[138.896909,35.843721],[138.896721,35.843387],[138.895884,35.842379],[138.895771,35.842287],[138.894984,35.841371],[138.893709,35.840204],[138.893422,35.840046],[138.892959,35.839871],[138.892572,35.83978],[138.892297,35.83978],[138.892009,35.839896],[138.891847,35.840121],[138.891309,35.841179],[138.890922,35.841721],[138.890647,35.842038],[138.890234,35.842338],[138.889784,35.842521],[138.889097,35.842929],[138.888822,35.843221],[138.888684,35.843537],[138.888472,35.843854],[138.887922,35.844437],[138.887209,35.845479],[138.886496,35.846387],[138.885784,35.847062],[138.885146,35.847295],[138.884146,35.84732],[138.883596,35.847295],[138.883009,35.847237],[138.882484,35.847262],[138.882022,35.847395],[138.881734,35.847379],[138.880459,35.846912],[138.880072,35.84682],[138.879909,35.846845],[138.879547,35.846979],[138.878147,35.84762],[138.877734,35.847845],[138.877484,35.848187],[138.877347,35.848837],[138.877209,35.849087],[138.875722,35.849995],[138.875259,35.850378],[138.874534,35.851145],[138.873634,35.852545],[138.873122,35.853628],[138.872684,35.85442],[138.872572,35.854736],[138.872347,35.854936],[138.871859,35.85489],[138.871534,35.855069],[138.871159,35.855319],[138.870497,35.856019],[138.870134,35.856444],[138.869859,35.856852],[138.869584,35.857169],[138.869347,35.857327],[138.868184,35.857519],[138.867709,35.857677],[138.866935,35.858019],[138.865922,35.858536],[138.86531,35.858969],[138.86496,35.85931],[138.864785,35.859285],[138.864685,35.859244],[138.863985,35.85916],[138.862847,35.858869],[138.862735,35.858827],[138.86251,35.85871],[138.86241,35.858694],[138.861985,35.858494],[138.861235,35.858002],[138.860735,35.857752],[138.860185,35.857602],[138.859235,35.857444],[138.859023,35.857469],[138.858885,35.857561],[138.858498,35.858169],[138.858273,35.858394],[138.857723,35.858469],[138.857473,35.858669],[138.857336,35.859027],[138.857373,35.859344],[138.857323,35.859552],[138.857011,35.859819],[138.856823,35.860135],[138.856886,35.86061],[138.857048,35.861085],[138.85706,35.861535],[138.856948,35.862635],[138.856735,35.86356],[138.85671,35.86406],[138.856635,35.86446],[138.856273,35.864918],[138.85611,35.865051],[138.855648,35.865184],[138.854986,35.865259],[138.854098,35.865243],[138.853673,35.865284],[138.852873,35.865584],[138.852073,35.865676],[138.851524,35.865701],[138.850949,35.865793],[138.850474,35.865976],[138.850174,35.866226],[138.849974,35.866476],[138.849511,35.866751],[138.848211,35.867026],[138.846387,35.867192],[138.845499,35.867626],[138.845474,35.867642],[138.845337,35.867576],[138.844024,35.866276],[138.843249,35.865784],[138.842662,35.865476],[138.841725,35.865092],[138.840975,35.864851],[138.84005,35.864634],[138.839587,35.864567],[138.838363,35.864459],[138.8375,35.864167],[138.837063,35.863901],[138.83675,35.863676],[138.8362,35.863567],[138.835725,35.863367],[138.835275,35.863051],[138.834888,35.862676],[138.834525,35.862401],[138.834201,35.862318],[138.833476,35.862368],[138.832563,35.862368],[138.832063,35.862751],[138.831688,35.862984],[138.831326,35.862984],[138.830851,35.862917],[138.830763,35.862942],[138.830663,35.863101],[138.830588,35.863976],[138.830638,35.864384],[138.830588,35.86465],[138.830426,35.864875],[138.829951,35.8652],[138.829401,35.865467],[138.828901,35.865675],[138.828413,35.865809],[138.827913,35.865834],[138.827464,35.865775],[138.826351,35.865367],[138.826051,35.865284],[138.825689,35.865375],[138.824951,35.86565],[138.824639,35.86565],[138.824089,35.865475],[138.822702,35.86485],[138.822277,35.864692],[138.821977,35.864742],[138.820464,35.865267],[138.819902,35.865425],[138.819652,35.865425],[138.818939,35.865225],[138.818189,35.864917],[138.817715,35.864533],[138.815965,35.863575],[138.814902,35.863059],[138.814602,35.862342],[138.814403,35.862184],[138.814103,35.862184],[138.813603,35.862325],[138.813215,35.862842],[138.813053,35.863275],[138.812665,35.8637],[138.811903,35.864317],[138.811403,35.864567],[138.811178,35.864725],[138.811103,35.864883],[138.811053,35.86515],[138.810853,35.865358],[138.810603,35.865516],[138.810078,35.866033],[138.810028,35.86635],[138.81009,35.866775],[138.81004,35.867091],[138.809815,35.867474],[138.809328,35.867974],[138.808853,35.868858],[138.808665,35.869574],[138.808503,35.869849],[138.808003,35.869982],[138.807203,35.869966],[138.806453,35.869832],[138.806066,35.869699],[138.805453,35.869682],[138.805216,35.869707],[138.804266,35.869891],[138.802916,35.870274],[138.801841,35.870507],[138.801204,35.870782],[138.800066,35.871324],[138.799491,35.871532],[138.797866,35.871924],[138.797279,35.872107],[138.796754,35.872332],[138.795567,35.873015],[138.794392,35.87394],[138.793067,35.875056],[138.792179,35.875398],[138.792067,35.87549],[138.791992,35.876339],[138.792079,35.877198],[138.792004,35.878006],[138.792067,35.878098],[138.792117,35.878389],[138.791992,35.879131],[138.792017,35.879564],[138.792491,35.880372],[138.792666,35.881289],[138.792804,35.88158],[138.793204,35.881964],[138.792954,35.882055],[138.792541,35.882305],[138.792204,35.882713],[138.792041,35.88328],[138.792016,35.883505],[138.791829,35.884046],[138.791754,35.884721],[138.792016,35.886363],[138.791991,35.886813],[138.791529,35.888704],[138.791379,35.890487],[138.791104,35.891295],[138.790754,35.892087],[138.790529,35.892337],[138.790066,35.892611],[138.789704,35.892995],[138.789266,35.893378],[138.788054,35.894144],[138.787029,35.894644],[138.786704,35.894919],[138.786341,35.895144],[138.785316,35.895511],[138.784929,35.895761],[138.784467,35.896169],[138.783942,35.896444],[138.782617,35.896944],[138.782204,35.897144],[138.781929,35.897485],[138.781767,35.897935],[138.781654,35.89841],[138.781292,35.898819],[138.779729,35.89961],[138.779029,35.899885],[138.778292,35.900093],[138.777592,35.900227],[138.776904,35.900235],[138.776492,35.900143],[138.775717,35.900085],[138.775154,35.90011],[138.773667,35.900318],[138.772692,35.900385],[138.771805,35.900418],[138.77098,35.900326],[138.770342,35.900151],[138.76953,35.899843],[138.769067,35.899843],[138.768543,35.899777],[138.768093,35.899527],[138.767505,35.899285],[138.766543,35.899043],[138.765793,35.898935],[138.76563,35.898977],[138.764905,35.899451],[138.764193,35.899635],[138.763118,35.900068],[138.762118,35.900276],[138.761918,35.900368],[138.761093,35.900893],[138.760243,35.901326],[138.759081,35.901551],[138.758281,35.902234],[138.757781,35.902459],[138.757043,35.902576],[138.755044,35.902651],[138.754381,35.902701],[138.753769,35.902659],[138.753019,35.902501],[138.750306,35.901685],[138.749831,35.901618],[138.749419,35.901668],[138.749007,35.901868],[138.748557,35.902185],[138.748169,35.902393],[138.747732,35.902526],[138.747344,35.902751],[138.747157,35.902801],[138.746932,35.902801],[138.746867,35.902773],[138.746832,35.902885],[138.746332,35.902885],[138.745507,35.903026],[138.744844,35.903318],[138.744319,35.903435],[138.743594,35.903643],[138.74282,35.90396],[138.741282,35.904826],[138.73977,35.905593],[138.73907,35.905776],[138.738495,35.905826],[138.737995,35.905809],[138.737657,35.905743],[138.737407,35.905543],[138.737157,35.90516],[138.73677,35.904685],[138.736183,35.90431],[138.735345,35.903993],[138.734845,35.90391],[138.734183,35.903951],[138.73372,35.904093],[138.733058,35.90446],[138.73247,35.904976],[138.731683,35.905951],[138.730145,35.907484],[138.729508,35.908193],[138.729096,35.908734],[138.728904,35.909199],[138.728858,35.909276],[138.728858,35.909834],[138.729183,35.912626],[138.72932,35.913126],[138.729545,35.913434],[138.72997,35.913884],[138.730533,35.914742],[138.730533,35.9151],[138.73042,35.915667],[138.730208,35.916158],[138.729958,35.916542],[138.729608,35.916858],[138.728883,35.917225],[138.728333,35.917433],[138.727895,35.917658],[138.72787,35.917858],[138.728058,35.9179],[138.72922,35.917942],[138.729583,35.918058],[138.730358,35.9185],[138.73092,35.918883],[138.732057,35.919533],[138.732657,35.91985],[138.732675,35.919929],[138.73277,35.920408],[138.733357,35.922074],[138.73387,35.922991],[138.734057,35.923199],[138.73462,35.923533],[138.735169,35.923799],[138.735457,35.924116],[138.736044,35.924874],[138.736094,35.925282],[138.736132,35.925982],[138.736244,35.926316],[138.736694,35.926674],[138.737132,35.926899],[138.737519,35.927007],[138.737632,35.927074],[138.737669,35.927665],[138.737757,35.928024],[138.738506,35.928715],[138.738669,35.928965],[138.738506,35.92984],[138.738519,35.930223],[138.738881,35.930873],[138.739019,35.931257],[138.739106,35.931848],[138.739306,35.932898],[138.739231,35.933465],[138.738519,35.934306],[138.738194,35.934823],[138.737644,35.935864],[138.737506,35.936331],[138.737594,35.936714],[138.737769,35.937031],[138.738069,35.937298],[138.738519,35.937722],[138.738744,35.938397],[138.739243,35.939256],[138.738831,35.939731],[138.738069,35.940405],[138.737431,35.940839],[138.736244,35.94143],[138.735944,35.941655],[138.735044,35.942814],[138.734706,35.94313],[138.733381,35.943788],[138.732919,35.94408],[138.732481,35.944422],[138.731781,35.944855],[138.731344,35.945055],[138.731094,35.945213],[138.731044,35.945488],[138.731381,35.946746],[138.731444,35.947221],[138.731444,35.947696],[138.731369,35.948096],[138.730631,35.949479],[138.730556,35.949812],[138.730581,35.950246],[138.730469,35.950537],[138.729869,35.951037],[138.729481,35.951262],[138.729019,35.95167],[138.728832,35.952479],[138.728531,35.953878],[138.728369,35.954287],[138.728156,35.954695],[138.727407,35.955528],[138.727169,35.956028],[138.726982,35.956678],[138.726869,35.956861],[138.726019,35.957469],[138.725657,35.957811],[138.725082,35.958061],[138.724582,35.958203],[138.724269,35.958311],[138.723994,35.958378],[138.723582,35.958203],[138.723444,35.958203],[138.723119,35.958611],[138.722619,35.958819],[138.721507,35.959044],[138.721207,35.959186],[138.720969,35.959836],[138.72042,35.96076],[138.71987,35.961169],[138.719782,35.961394],[138.719757,35.961844],[138.71982,35.962277],[138.719819,35.96266],[138.719632,35.962993],[138.719269,35.963385],[138.718807,35.963652],[138.71837,35.96386],[138.717757,35.964043],[138.716482,35.96436],[138.71607,35.964501],[138.715132,35.965068],[138.714632,35.965343],[138.714357,35.965634],[138.714282,35.966018],[138.713895,35.966826],[138.713132,35.967759],[138.712882,35.968251],[138.712757,35.968775],[138.71237,35.96965],[138.712095,35.970034],[138.71197,35.970958],[138.71152,35.971408],[138.711382,35.971617],[138.711557,35.972225],[138.711557,35.972558],[138.711707,35.97285],[138.712207,35.973483],[138.71237,35.973908],[138.712545,35.9747],[138.712545,35.975033],[138.712082,35.975708],[138.712032,35.977175],[138.712157,35.978683],[138.712019,35.978958],[138.711994,35.979199],[138.712132,35.979474],[138.712557,35.980008],[138.712644,35.980308],[138.712657,35.982282],[138.712794,35.982757],[138.712994,35.983207],[138.713194,35.983857],[138.713144,35.984357],[138.712982,35.984807],[138.712707,35.985215],[138.713656,35.985932],[138.714269,35.986532],[138.714494,35.986899],[138.714544,35.98739],[138.714394,35.988199],[138.714331,35.988565],[138.714419,35.989124],[138.714644,35.989757],[138.715294,35.990765],[138.715631,35.991507],[138.716218,35.992382],[138.716756,35.992873],[138.717306,35.99314],[138.718693,35.993632],[138.719306,35.993807],[138.721356,35.993848],[138.722043,35.993865],[138.72238,35.994065],[138.722655,35.994448],[138.722988,35.994546],[138.723043,35.994557],[138.72358,35.994598],[138.724268,35.994865],[138.72488,35.994732],[138.72538,35.994573],[138.725768,35.994498],[138.72618,35.994632],[138.72713,35.995265],[138.727542,35.995573],[138.727742,35.995865],[138.727717,35.996273],[138.727767,35.996657],[138.728442,35.996923],[138.728855,35.997215],[138.729217,35.997598],[138.729505,35.997973],[138.72983,35.998157],[138.730217,35.998223],[138.730942,35.998215],[138.73158,35.998282],[138.731992,35.99839],[138.732417,35.99864],[138.733192,35.999465],[138.733667,35.999715],[138.734117,36.000031],[138.735142,36.001198],[138.735592,36.001623],[138.735754,36.001915],[138.735742,36.002923],[138.735867,36.003173],[138.736004,36.00329],[138.736417,36.003498],[138.736679,36.003648],[138.737054,36.003964],[138.737292,36.004256],[138.737229,36.004506],[138.736942,36.004823],[138.736629,36.005364],[138.736567,36.005598],[138.736492,36.006156],[138.736579,36.006364],[138.736929,36.006564],[138.737104,36.006631],[138.737742,36.006764],[138.737917,36.006831],[138.738667,36.007372],[138.740067,36.007747],[138.740417,36.008039],[138.740704,36.008514],[138.740879,36.008672],[138.741229,36.008789],[138.741954,36.008897],[138.742179,36.009122],[138.742767,36.009822],[138.743004,36.009997],[138.743729,36.010155],[138.743817,36.01038],[138.743904,36.011055],[138.744292,36.012163],[138.744379,36.01288],[138.744554,36.01358],[138.744767,36.013722],[138.745717,36.014055],[138.746329,36.014297],[138.746863,36.014668],[138.746867,36.014671],[138.747154,36.014988],[138.747217,36.015146],[138.747591,36.015505],[138.747804,36.015621],[138.748841,36.016355],[138.749104,36.01663],[138.749166,36.017105],[138.748991,36.017663],[138.748616,36.018296],[138.748454,36.019021],[138.748766,36.019471],[138.749416,36.019988],[138.749641,36.020413],[138.749304,36.021412],[138.749304,36.021612],[138.749416,36.022221],[138.749829,36.022854],[138.750678,36.023954],[138.750703,36.024229],[138.750478,36.024812],[138.750528,36.024945],[138.750966,36.025304],[138.751641,36.02562],[138.751841,36.025754],[138.752303,36.026187],[138.752653,36.026412],[138.752915,36.026904],[138.75309,36.027554],[138.753453,36.028187],[138.753503,36.028237],[138.753453,36.028528],[138.752753,36.028953],[138.752728,36.029453],[138.752965,36.030578],[138.754252,36.034503],[138.755014,36.034545],[138.756202,36.034586],[138.756977,36.034536],[138.759214,36.034761],[138.759914,36.034961],[138.760726,36.035728],[138.761601,36.036011],[138.762326,36.036128],[138.762901,36.036394],[138.763138,36.036461],[138.763688,36.036528],[138.764301,36.036794],[138.765376,36.037519],[138.765838,36.037628],[138.766338,36.037803],[138.767613,36.038369],[138.768863,36.038744],[138.769438,36.038678],[138.770425,36.038244],[138.771175,36.038378],[138.771875,36.038644],[138.772687,36.038778],[138.7737,36.038736],[138.7746,36.038461],[138.77495,36.038236],[138.775412,36.037761],[138.776099,36.037236],[138.776712,36.037103],[138.777349,36.037211],[138.777637,36.037236],[138.778512,36.037095],[138.779412,36.036886],[138.780474,36.036928],[138.780687,36.036753],[138.781199,36.035395],[138.781774,36.034378],[138.782724,36.033787],[138.783599,36.033495],[138.784199,36.033628],[138.784899,36.033629],[138.785886,36.033195],[138.786636,36.03312],[138.786786,36.032962],[138.786836,36.032787],[138.787186,36.032262],[138.787361,36.032129],[138.787736,36.031629],[138.787786,36.031021],[138.787874,36.030571],[138.788336,36.030254],[138.789036,36.030046],[138.789761,36.030004],[138.790599,36.029571],[138.790798,36.029438],[138.791461,36.029796],[138.791986,36.030021],[138.792948,36.030171],[138.793811,36.030238],[138.794773,36.030371],[138.795011,36.030438],[138.795585,36.030979],[138.796085,36.031179],[138.79716,36.031129],[138.797823,36.031421],[138.799735,36.032138],[138.800347,36.032163],[138.800872,36.032246],[138.80136,36.032563],[138.801947,36.033263],[138.802447,36.033529],[138.803047,36.033621],[138.803747,36.033613],[138.804447,36.033479],[138.805084,36.033613],[138.805659,36.033946],[138.806184,36.034088],[138.806384,36.034063],[138.806997,36.033904],[138.808209,36.03313],[138.808734,36.033063],[138.809109,36.03313],[138.809984,36.033421],[138.810797,36.03353],[138.811659,36.033571],[138.813171,36.033455],[138.813459,36.033496],[138.814159,36.033771],[138.814309,36.033946],[138.814946,36.034396],[138.815146,36.03458],[138.815671,36.035346],[138.816109,36.03548],[138.817121,36.035538],[138.818283,36.035721],[138.818721,36.035855],[138.819621,36.036146],[138.820283,36.036254],[138.820933,36.036454],[138.821533,36.036746],[138.822171,36.036654],[138.822783,36.03643],[138.823333,36.036471],[138.823971,36.036671],[138.824608,36.03683],[138.825258,36.037121],[138.82572,36.037388],[138.828183,36.037296],[138.828583,36.037313],[138.828533,36.037655],[138.828595,36.037855],[138.828858,36.038371],[138.829008,36.039055],[138.829033,36.040338],[138.829095,36.041013],[138.82907,36.041288],[138.829132,36.041579],[138.829282,36.041871],[138.82972,36.042254],[138.83027,36.042862],[138.831432,36.044621],[138.832295,36.046537],[138.832345,36.046787],[138.832032,36.04712],[138.83197,36.047529],[138.832407,36.047845],[138.832957,36.04802],[138.833657,36.048337],[138.834132,36.048853],[138.834395,36.049512],[138.834661,36.050126],[138.834682,36.050295],[138.835007,36.050095],[138.835469,36.04987],[138.836069,36.049637],[138.836794,36.049662],[138.837382,36.049903],[138.838044,36.050337],[138.838981,36.05137],[138.839419,36.052228],[138.840269,36.05362],[138.840831,36.05432],[138.841318,36.054728],[138.842043,36.05522],[138.842831,36.055945],[138.843193,36.056619],[138.843393,36.057136],[138.843543,36.057336],[138.843743,36.057853],[138.843718,36.058961],[138.843868,36.059461],[138.84428,36.059911],[138.844855,36.060311],[138.845268,36.060811],[138.845505,36.061394],[138.84548,36.061735],[138.84513,36.062077],[138.845505,36.062885],[138.84563,36.063719],[138.845624,36.063934],[138.845817,36.065477],[138.845967,36.066202],[138.846167,36.066452],[138.847417,36.067101],[138.84788,36.067168],[138.848554,36.067185],[138.848992,36.067326],[138.849542,36.067751],[138.849942,36.068176],[138.850392,36.06876],[138.850679,36.069076],[138.850854,36.069143],[138.852066,36.068943],[138.852854,36.068868],[138.853341,36.069001],[138.854041,36.06871],[138.854479,36.068393],[138.855054,36.06841],[138.855841,36.068685],[138.857466,36.069151],[138.858391,36.069509],[138.85904,36.069843],[138.859615,36.070276],[138.860178,36.070743],[138.861428,36.071326],[138.861803,36.071943],[138.861803,36.072568],[138.86189,36.073134],[138.862827,36.073926],[138.863527,36.074442],[138.86394,36.074984],[138.864002,36.075384],[138.864202,36.075859],[138.864027,36.076242],[138.864027,36.076717],[138.864265,36.077034],[138.864727,36.077351],[138.865315,36.077509],[138.866102,36.077617],[138.866827,36.077792],[138.867289,36.078042],[138.867639,36.078584],[138.867902,36.078759],[138.868602,36.078917],[138.869527,36.079026],[138.870602,36.079317],[138.871214,36.079317],[138.871701,36.079359],[138.871841,36.079427],[138.871864,36.079526],[138.872439,36.080317],[138.873526,36.080975],[138.874489,36.081475],[138.875526,36.0819],[138.876238,36.08215],[138.876938,36.082359],[138.877276,36.082425],[138.879963,36.083292],[138.880775,36.083475],[138.882738,36.083725],[138.883963,36.083709],[138.884575,36.083617],[138.884913,36.083709],[138.8853,36.084],[138.885525,36.084117],[138.886137,36.084184],[138.886887,36.084317],[138.887212,36.084484],[138.888075,36.085183],[138.88835,36.085542],[138.888487,36.085658],[138.889275,36.086017],[138.889687,36.0864],[138.889737,36.0866],[138.890062,36.086783],[138.890424,36.086942],[138.890699,36.087075],[138.891037,36.08735],[138.891787,36.087817],[138.892099,36.087958],[138.892287,36.087991],[138.892562,36.087975],[138.892837,36.087883],[138.893149,36.087817],[138.893449,36.0878],[138.893812,36.087708],[138.894312,36.087683],[138.894737,36.087708],[138.894974,36.087817],[138.895811,36.088491],[138.896611,36.089366],[138.897436,36.090041],[138.897661,36.090316],[138.897724,36.090566],[138.897936,36.0907],[138.898299,36.090808],[138.898824,36.090925],[138.899186,36.09095],[138.899548,36.091016],[138.899911,36.090966],[138.900161,36.090858],[138.900348,36.090833],[138.900623,36.090858],[138.900961,36.090925],[138.901123,36.090991],[138.901373,36.091216],[138.901986,36.091625],[138.902148,36.091716],[138.902398,36.091799],[138.903148,36.091783],[138.903573,36.091766],[138.904036,36.091758],[138.904485,36.091808],[138.904935,36.0919],[138.905323,36.091925],[138.905573,36.091991],[138.907148,36.092191],[138.907585,36.092216],[138.90811,36.092166],[138.908473,36.091966],[138.908723,36.09175],[138.909235,36.091408],[138.909722,36.091183],[138.910222,36.091025],[138.91056,36.090966],[138.910747,36.090966],[138.91131,36.091158],[138.912197,36.091566],[138.91256,36.091641],[138.91276,36.091708],[138.913197,36.091908],[138.913434,36.092125],[138.913747,36.092558],[138.913859,36.092758],[138.914184,36.092941],[138.914909,36.093208],[138.915347,36.093508],[138.916322,36.094],[138.916397,36.094],[138.916847,36.0938],[138.917096,36.09355],[138.917459,36.093308],[138.917796,36.093175],[138.918484,36.093016],[138.918959,36.092808],[138.919359,36.092591],[138.920034,36.092341],[138.920871,36.091717],[138.921071,36.091625],[138.922208,36.09125],[138.922871,36.091092],[138.923346,36.091067],[138.923508,36.091108],[138.924183,36.091092],[138.924571,36.09105],[138.924796,36.090983],[138.925296,36.090709],[138.925433,36.090575],[138.925483,36.090392],[138.925596,36.090217],[138.925596,36.090109],[138.925708,36.089842],[138.925708,36.08975],[138.925846,36.089567],[138.926146,36.089459],[138.926458,36.0894],[138.926683,36.0894],[138.926933,36.089459],[138.928083,36.089392],[138.928533,36.0893],[138.92867,36.089234],[138.92872,36.089125],[138.929395,36.088742],[138.93067,36.088434],[138.931195,36.088251],[138.93147,36.088342],[138.93167,36.088451],[138.932032,36.088792],[138.932145,36.088951],[138.932532,36.089267],[138.932695,36.089467],[138.933245,36.089892],[138.93367,36.090367],[138.933857,36.090525],[138.934632,36.090884],[138.934857,36.090909],[138.935357,36.091092],[138.935969,36.091409],[138.936269,36.091517],[138.937157,36.092034],[138.937407,36.092459],[138.937632,36.092909],[138.937794,36.093042],[138.938244,36.09315],[138.939344,36.093267],[138.939781,36.093384],[138.941568,36.094167],[138.941981,36.094325],[138.942643,36.094267],[138.943643,36.0944],[138.944556,36.09465],[138.944968,36.094833],[138.945105,36.094967],[138.945305,36.095325],[138.945605,36.095842],[138.945793,36.096225],[138.945918,36.0964],[138.946193,36.096717],[138.946605,36.09685],[138.946893,36.097033],[138.947418,36.097683],[138.947668,36.097891],[138.948217,36.098533],[138.948555,36.098766],[138.94893,36.098966],[138.949405,36.0991],[138.949742,36.099166],[138.950042,36.09935],[138.950155,36.09955],[138.950155,36.099866],[138.950042,36.100316],[138.950017,36.100874],[138.95008,36.101233],[138.95033,36.101733],[138.950492,36.102024],[138.951079,36.102716],[138.951629,36.103299],[138.952079,36.103574],[138.953042,36.103932],[138.953454,36.104157],[138.953904,36.104449],[138.954316,36.104724],[138.954429,36.104832],[138.954566,36.105124],[138.954729,36.105374],[138.954929,36.105574],[138.955179,36.105732],[138.955791,36.105799],[138.956454,36.105824],[138.956679,36.106315],[138.956791,36.106699],[138.956904,36.106924],[138.957228,36.107307],[138.957541,36.107482],[138.957766,36.107557],[138.957866,36.107907],[138.957728,36.108815],[138.957953,36.109798],[138.957916,36.109957],[138.957666,36.110207],[138.957228,36.110648],[138.957003,36.110765],[138.956778,36.111056],[138.956566,36.111223],[138.956478,36.111323],[138.956316,36.111373],[138.956203,36.111415],[138.956141,36.111498],[138.956028,36.112331],[138.956028,36.112515],[138.956253,36.112973],[138.956228,36.113406],[138.956253,36.113723],[138.956228,36.113881],[138.956316,36.114064],[138.956503,36.115231],[138.956678,36.115723],[138.956728,36.116081],[138.956728,36.116639],[138.956978,36.117922],[138.957203,36.118464],[138.957328,36.118597],[138.957865,36.118881],[138.957915,36.118931],[138.957978,36.119089],[138.958028,36.119739],[138.95809,36.119989],[138.95834,36.120414],[138.958415,36.120597],[138.958478,36.121247],[138.958478,36.121514],[138.958303,36.122297],[138.958278,36.122797],[138.958028,36.123422],[138.95809,36.123913],[138.95814,36.124113],[138.95814,36.124163],[138.958453,36.124255],[138.959528,36.124113],[138.960028,36.124255],[138.96014,36.124322],[138.960427,36.124413],[138.960965,36.124655],[138.96139,36.124955],[138.961802,36.125355],[138.961952,36.125472],[138.962402,36.12563],[138.963527,36.125872],[138.964302,36.125988],[138.964664,36.125988],[138.964939,36.125872],[138.965077,36.125788],[138.965902,36.124938],[138.966414,36.124622],[138.966939,36.124447],[138.967277,36.12438],[138.967689,36.124355],[138.968139,36.124397],[138.968464,36.124489],[138.968552,36.124489],[138.968889,36.124605],[138.969314,36.12463],[138.969601,36.124589],[138.969801,36.124497],[138.970026,36.124247],[138.970351,36.123689],[138.970789,36.123197],[138.971351,36.122814],[138.971426,36.122731],[138.971851,36.122506],[138.972676,36.122147],[138.973289,36.121806],[138.973651,36.121514],[138.973851,36.121322],[138.973939,36.121114],[138.973939,36.120664],[138.973901,36.120348],[138.973939,36.119931],[138.974014,36.119723],[138.974126,36.119589],[138.974951,36.118989],[138.975124,36.118837],[138.975213,36.118764],[138.975738,36.118289],[138.976401,36.117281],[138.976476,36.117265],[138.976863,36.11694],[138.977538,36.11654],[138.978088,36.116298],[138.978426,36.11619],[138.978676,36.116165],[138.979338,36.116206],[138.979926,36.116456],[138.980513,36.116815],[138.980725,36.116931],[138.981225,36.117131],[138.981675,36.117248],[138.981863,36.117198],[138.982425,36.116915],[138.9827,36.11669],[138.983338,36.116282],[138.98475,36.115682],[138.985088,36.115598],[138.985475,36.11564],[138.98575,36.115732],[138.986037,36.115957],[138.986425,36.116432],[138.986887,36.117256],[138.987162,36.11764],[138.9873,36.117706],[138.987525,36.117748],[138.988187,36.117706],[138.988775,36.117731],[138.989025,36.11784],[138.98945,36.118156],[138.989549,36.118431],[138.989637,36.118881],[138.989612,36.119189],[138.989699,36.119481],[138.990062,36.119914],[138.990474,36.120473],[138.990774,36.121056],[138.991174,36.122022],[138.991687,36.122806],[138.991824,36.123122],[138.991912,36.123189],[138.992386,36.123914],[138.993436,36.124964],[138.994161,36.125347],[138.995199,36.125547],[138.996837,36.125685],[138.997112,36.125632],[138.997548,36.125605],[139.000048,36.125122],[139.001073,36.124997],[139.001685,36.12513],[139.00226,36.125539],[139.00296,36.12613],[139.00406,36.127263],[139.00486,36.127938],[139.005847,36.128888],[139.006597,36.129547],[139.006647,36.13018],[139.006235,36.13053],[139.005335,36.130863],[139.004747,36.131196],[139.004247,36.13153],[139.003835,36.131955],[139.003772,36.132271],[139.003935,36.132654],[139.004272,36.133063],[139.004847,36.133379],[139.005297,36.133521],[139.00616,36.133388],[139.006622,36.133238],[139.007709,36.132788],[139.007847,36.132771],[139.008347,36.132521],[139.009022,36.132263],[139.009797,36.132105],[139.010359,36.132088],[139.011134,36.132271],[139.012234,36.13273],[139.015221,36.134121],[139.015646,36.134079],[139.015983,36.133738],[139.016258,36.133271],[139.016508,36.132621],[139.017046,36.132221],[139.017933,36.131838],[139.018658,36.131488],[139.019246,36.131238],[139.019583,36.131196],[139.020408,36.131163],[139.021295,36.131438],[139.022345,36.132163],[139.02372,36.133921],[139.024495,36.134171],[139.025032,36.134179],[139.025857,36.133821],[139.026332,36.133488],[139.026532,36.132655],[139.02637,36.132071],[139.026045,36.131571],[139.02577,36.131013],[139.02577,36.130405],[139.026132,36.130163],[139.026632,36.130047],[139.02847,36.130013],[139.028995,36.129838],[139.030932,36.127989],[139.031369,36.127697],[139.032207,36.127339],[139.032159,36.125699],[139.031935,36.123884],[139.030972,36.123266],[139.029594,36.122904],[139.029126,36.122304],[139.028452,36.120874],[139.028564,36.119921],[139.028564,36.11913],[139.028913,36.118106],[139.030851,36.11601],[139.034182,36.112671],[139.036595,36.110158],[139.038142,36.10998],[139.038789,36.110684],[139.03986,36.112612],[139.041299,36.115847],[139.041894,36.117297],[139.042305,36.118108],[139.043334,36.118816],[139.045214,36.120777],[139.046929,36.12254],[139.048709,36.124726],[139.050604,36.126146],[139.051843,36.126597],[139.052642,36.126955],[139.053585,36.126791],[139.054435,36.126126],[139.056817,36.126231],[139.056886,36.126179],[139.057317,36.126006],[139.057929,36.125881],[139.058179,36.125498],[139.058404,36.12469],[139.058492,36.124106],[139.058779,36.123523],[139.059192,36.123323],[139.059779,36.123215],[139.061604,36.123198],[139.062366,36.122956],[139.062841,36.122132],[139.063416,36.121882],[139.065754,36.121198],[139.066228,36.121115],[139.067066,36.120898],[139.067816,36.120832],[139.067903,36.120765],[139.068603,36.119799],[139.069103,36.119607],[139.069853,36.11974],[139.069966,36.119807],[139.070653,36.11984],[139.071178,36.119749],[139.071103,36.119415],[139.071191,36.11894],[139.071666,36.118715],[139.072078,36.118815],[139.072378,36.119082],[139.072903,36.119157],[139.073215,36.119132],[139.074153,36.119315],[139.074403,36.119407],[139.075702,36.119574],[139.076065,36.11989],[139.076315,36.120407],[139.076752,36.12084],[139.07739,36.121024],[139.07769,36.121315],[139.078165,36.12164],[139.078914,36.122065],[139.079552,36.122115],[139.081102,36.121674],[139.081827,36.12159],[139.082352,36.12159],[139.082501,36.121615],[139.082489,36.121799],[139.082601,36.122207],[139.083014,36.123057],[139.083289,36.123132],[139.084064,36.123023],[139.084901,36.123023],[139.086151,36.123507],[139.086838,36.123648],[139.087563,36.123673],[139.087838,36.123807],[139.088026,36.124148],[139.088088,36.124773],[139.087526,36.126006],[139.087513,36.126548],[139.087563,36.127023],[139.087451,36.127698],[139.086726,36.128681],[139.086551,36.129014],[139.086613,36.129223],[139.086863,36.129473],[139.087163,36.129872],[139.087325,36.130464],[139.087675,36.131231],[139.088613,36.132272],[139.089938,36.13338],[139.090437,36.13363],[139.090687,36.13383],[139.091075,36.134355],[139.091962,36.135347],[139.092762,36.136047],[139.093287,36.136413],[139.094412,36.13703],[139.094862,36.137205],[139.095224,36.137438],[139.095574,36.137796],[139.096299,36.137888],[139.096849,36.137763],[139.097437,36.137721],[139.098824,36.13768],[139.099211,36.137505],[139.099499,36.137172],[139.099774,36.136655],[139.100061,36.136338],[139.100199,36.136297],[139.101199,36.136388],[139.101218,36.136454],[139.101249,36.136547],[139.101711,36.137522],[139.102399,36.13863],[139.102561,36.139188],[139.102586,36.139463],[139.102836,36.139913],[139.102974,36.140088],[139.103498,36.141038],[139.103661,36.141171],[139.104186,36.141404],[139.104911,36.141654],[139.105373,36.142513],[139.105736,36.143304],[139.106036,36.143754],[139.106261,36.144004],[139.106336,36.144021],[139.107485,36.143471],[139.10806,36.143271],[139.109098,36.143029],[139.110148,36.142854],[139.110898,36.142638],[139.111323,36.142479],[139.111623,36.142146],[139.11171,36.142104],[139.113035,36.142738],[139.113785,36.143054],[139.114122,36.143129],[139.11506,36.143129],[139.115197,36.143154],[139.116635,36.144021],[139.11691,36.144221],[139.117497,36.145221],[139.118297,36.146096],[139.118709,36.146329],[139.119672,36.146987],[139.119809,36.147029],[139.120147,36.146946],[139.120622,36.146721],[139.121122,36.146562],[139.121534,36.146746],[139.121822,36.146785],[139.122621,36.147287],[139.122846,36.147462],[139.123559,36.147737],[139.124334,36.147896],[139.124696,36.148037],[139.125559,36.148221],[139.126371,36.148271],[139.127059,36.147821],[139.128046,36.147354],[139.128571,36.146787],[139.129183,36.145979],[139.129521,36.146054],[139.129833,36.145829],[139.130271,36.145804],[139.130808,36.145738],[139.131383,36.145521],[139.131608,36.145246],[139.131858,36.145138],[139.132758,36.145029],[139.133358,36.145096],[139.133808,36.145013],[139.134783,36.144879],[139.13547,36.145038],[139.13562,36.145104],[139.136195,36.145513],[139.13672,36.145588],[139.137195,36.145138],[139.13787,36.144738],[139.138682,36.14433],[139.139045,36.144038],[139.139045,36.143813],[139.139407,36.143546],[139.139707,36.143505],[139.140545,36.14328],[139.142157,36.142955],[139.143157,36.142863],[139.144719,36.142805],[139.145469,36.142855],[139.145657,36.142788],[139.146969,36.14178],[139.147506,36.141647],[139.148331,36.14178],[139.149056,36.141764],[139.149844,36.141539],[139.150169,36.141472],[139.151118,36.14143],[139.152393,36.141489],[139.153481,36.141672],[139.154118,36.141472],[139.154281,36.141355],[139.155205,36.140505],[139.155405,36.140372],[139.156293,36.140106],[139.157655,36.139589],[139.15813,36.139456],[139.158268,36.139389],[139.158193,36.139347],[139.157693,36.138847],[139.157555,36.138331],[139.15758,36.138214],[139.158343,36.137206],[139.159068,36.136756],[139.159405,36.136015],[139.159993,36.135548],[139.160443,36.135123],[139.160555,36.135073]]]},"type":"Feature"}]}