{"type":"FeatureCollection","features":[{"type":"Feature","properties":{"kuni_url":"/kg/resource/K16.html","id_url":"G16015.html","id":"G16015","kuni":"武蔵","name":"男衾","yomi":"をふすま","kuni_id":"K16","pref":"埼玉県"},"geometry":{"type":"Polygon","coordinates":[[[139.157629,36.133116],[139.157302,36.132715],[139.156663,36.131933],[139.155706,36.131933],[139.1544,36.132353],[139.153515,36.132802],[139.152949,36.132802],[139.15223,36.131701],[139.15223,36.130654],[139.151932,36.127359],[139.151704,36.125827],[139.152142,36.124555],[139.152819,36.12259],[139.153184,36.121549],[139.15383,36.120618],[139.155096,36.119588],[139.157027,36.117843],[139.158666,36.117297],[139.160276,36.117021],[139.162216,36.117021],[139.16385,36.117238],[139.16552,36.11746],[139.168415,36.11746],[139.170765,36.118833],[139.172968,36.119497],[139.17594,36.120159],[139.177314,36.120309],[139.179137,36.120309],[139.180852,36.120128],[139.182335,36.119437],[139.18271,36.11894],[139.182866,36.118438],[139.18205,36.116954],[139.180551,36.114761],[139.181731,36.11398],[139.183485,36.113117],[139.186138,36.112528],[139.187057,36.112178],[139.18862,36.111278],[139.189975,36.111278],[139.191047,36.112293],[139.191821,36.113218],[139.192441,36.113519],[139.193195,36.113566],[139.19394,36.113566],[139.195601,36.114056],[139.197691,36.115573],[139.199096,36.116493],[139.199793,36.117449],[139.20096,36.119597],[139.201531,36.120289],[139.202476,36.121007],[139.203875,36.121413],[139.205365,36.121413],[139.207064,36.121239],[139.209247,36.121016],[139.210781,36.12086],[139.213456,36.12006],[139.215486,36.119373],[139.216875,36.119176],[139.217125,36.119018],[139.220325,36.118018],[139.220688,36.117927],[139.222213,36.117418],[139.2231,36.117168],[139.223775,36.11681],[139.224325,36.116752],[139.225075,36.116844],[139.226162,36.117094],[139.227162,36.117252],[139.228162,36.117577],[139.228237,36.117577],[139.229299,36.117985],[139.230124,36.11821],[139.230849,36.118194],[139.231649,36.118085],[139.232649,36.118069],[139.233099,36.11811],[139.234686,36.11841],[139.235374,36.118394],[139.236186,36.118235],[139.237936,36.118152],[139.240261,36.118252],[139.242348,36.118152],[139.243261,36.118135],[139.244936,36.118202],[139.245298,36.117936],[139.246573,36.117336],[139.24681,36.117407],[139.248536,36.117586],[139.249148,36.117702],[139.24981,36.117952],[139.252523,36.118844],[139.25321,36.119119],[139.253435,36.119277],[139.253385,36.11941],[139.253298,36.119902],[139.253597,36.12056],[139.25401,36.12121],[139.254647,36.122027],[139.25491,36.122302],[139.257234,36.125168],[139.257784,36.125943],[139.258409,36.126726],[139.258972,36.127334],[139.259572,36.128134],[139.260671,36.129401],[139.262471,36.131792],[139.263159,36.132492],[139.263846,36.132833],[139.264758,36.133158],[139.265758,36.133583],[139.269401,36.135245],[139.272001,36.135505],[139.273951,36.134812],[139.27668,36.135028],[139.27889,36.135634],[139.28712,36.138066],[139.291921,36.138829],[139.296722,36.139483],[139.300644,36.13966],[139.303549,36.13977],[139.307591,36.139092],[139.307841,36.138933],[139.308641,36.138758],[139.312128,36.138325],[139.311853,36.135451],[139.311728,36.134301],[139.311991,36.132535],[139.312366,36.131451],[139.312341,36.129485],[139.312416,36.128769],[139.312391,36.128435],[139.316468,36.12819],[139.317833,36.127937],[139.320485,36.127937],[139.325357,36.127368],[139.326741,36.126984],[139.328048,36.1268],[139.329201,36.126631],[139.330859,36.12645],[139.332301,36.12645],[139.333836,36.126267],[139.336106,36.125715],[139.336106,36.125209],[139.336259,36.124443],[139.335523,36.122895],[139.335061,36.121924],[139.334841,36.120883],[139.335156,36.120387],[139.335156,36.119814],[139.334267,36.118907],[139.332949,36.117895],[139.332185,36.116972],[139.332185,36.116455],[139.332185,36.115666],[139.332642,36.114663],[139.333181,36.113478],[139.333562,36.113154],[139.33417,36.113154],[139.335333,36.113399],[139.337391,36.114412],[139.33782,36.114412],[139.338747,36.113977],[139.33997,36.11305],[139.34247,36.112715],[139.345283,36.112337],[139.34824,36.112078],[139.351003,36.112078],[139.352572,36.112279],[139.354115,36.112246],[139.354302,36.112154],[139.356265,36.111905],[139.356252,36.11138],[139.356227,36.110113],[139.358065,36.10983],[139.358015,36.10938],[139.35804,36.109338],[139.358565,36.109188],[139.358715,36.109205],[139.35884,36.109305],[139.359252,36.109172],[139.359052,36.10863],[139.359352,36.108488],[139.359265,36.108105],[139.359465,36.107997],[139.360002,36.107888],[139.360165,36.107913],[139.36044,36.108072],[139.36049,36.108138],[139.360827,36.108347],[139.360965,36.108388],[139.361802,36.108438],[139.361915,36.10858],[139.361352,36.10898],[139.361677,36.10903],[139.362277,36.108955],[139.362915,36.108747],[139.364927,36.108372],[139.365427,36.108397],[139.36594,36.10848],[139.366265,36.108655],[139.36654,36.10888],[139.366877,36.109013],[139.367627,36.108972],[139.368515,36.10868],[139.36869,36.108597],[139.369165,36.108147],[139.36969,36.107797],[139.370815,36.107239],[139.371027,36.106947],[139.370952,36.106272],[139.370827,36.105705],[139.370577,36.105056],[139.370665,36.104764],[139.371798,36.104195],[139.37199,36.104039],[139.372152,36.103922],[139.372452,36.103447],[139.37309,36.102973],[139.373377,36.102839],[139.37374,36.102748],[139.37389,36.102656],[139.37409,36.102381],[139.37424,36.102139],[139.374564,36.102114],[139.374789,36.102089],[139.374902,36.101998],[139.375039,36.101481],[139.375202,36.100806],[139.371752,36.099881],[139.370477,36.099556],[139.370027,36.09954],[139.368527,36.09974],[139.36609,36.09989],[139.365227,36.099965],[139.364527,36.10004],[139.362965,36.100123],[139.361828,36.100223],[139.360353,36.100256],[139.35914,36.100315],[139.358153,36.10049],[139.356465,36.101115],[139.353728,36.102331],[139.351965,36.103023],[139.351053,36.103331],[139.35014,36.103573],[139.349478,36.103656],[139.34894,36.103673],[139.348365,36.103606],[139.348103,36.103531],[139.346103,36.103948],[139.34494,36.104123],[139.344728,36.103539],[139.343878,36.103581],[139.343853,36.103606],[139.343803,36.103065],[139.343816,36.102073],[139.343891,36.101665],[139.344978,36.101915],[139.345066,36.101898],[139.344641,36.100532],[139.344591,36.100248],[139.344453,36.100148],[139.343941,36.100048],[139.343816,36.100015],[139.343403,36.099882],[139.343453,36.098307],[139.343253,36.097657],[139.342866,36.097674],[139.342428,36.097324],[139.342241,36.096949],[139.342241,36.096457],[139.342353,36.095982],[139.342191,36.095532],[139.342303,36.094966],[139.342729,36.093641],[139.342754,36.093083],[139.342516,36.092291],[139.342416,36.09175],[139.342441,36.09105],[139.342366,36.090416],[139.342216,36.090233],[139.342066,36.090091],[139.341516,36.090075],[139.340304,36.090275],[139.340104,36.090008],[139.339704,36.089616],[139.339229,36.089317],[139.339041,36.08925],[139.338541,36.089158],[139.337704,36.08915],[139.337292,36.089067],[139.336467,36.088942],[139.336017,36.088825],[139.335454,36.088758],[139.335229,36.088842],[139.335317,36.08945],[139.335004,36.090375],[139.334942,36.09085],[139.334942,36.0913],[139.334717,36.091741],[139.334379,36.091833],[139.334179,36.091858],[139.333629,36.091675],[139.332404,36.090975],[139.331917,36.090766],[139.331042,36.090675],[139.330692,36.090825],[139.330442,36.09105],[139.330292,36.091291],[139.330092,36.091991],[139.330204,36.0925],[139.330654,36.093116],[139.330754,36.093258],[139.330992,36.094016],[139.331192,36.094858],[139.331254,36.095766],[139.331067,36.096091],[139.330429,36.096482],[139.329817,36.097107],[139.329554,36.097174],[139.328854,36.097166],[139.328267,36.097249],[139.327917,36.097566],[139.327804,36.097766],[139.327617,36.098541],[139.327417,36.098924],[139.326829,36.099265],[139.326167,36.099057],[139.325467,36.098374],[139.325367,36.098149],[139.325342,36.097674],[139.325142,36.097382],[139.324592,36.097091],[139.324155,36.096366],[139.323405,36.095733],[139.322955,36.095183],[139.322855,36.094983],[139.322917,36.094558],[139.322592,36.093858],[139.322417,36.093674],[139.32208,36.092166],[139.32188,36.091691],[139.320955,36.090292],[139.320418,36.091166],[139.32008,36.091533],[139.319768,36.091708],[139.319043,36.091891],[139.318605,36.092133],[139.318368,36.092158],[139.318043,36.09245],[139.31798,36.092775],[139.31698,36.094166],[139.317055,36.094224],[139.317705,36.094574],[139.317655,36.094658],[139.31738,36.094991],[139.315968,36.096224],[139.31523,36.097116],[139.31438,36.097482],[139.314068,36.098124],[139.313743,36.09849],[139.313193,36.09864],[139.31263,36.098932],[139.312493,36.099132],[139.312293,36.09974],[139.31153,36.100798],[139.311055,36.101373],[139.310893,36.101773],[139.31038,36.10339],[139.310493,36.103773],[139.31043,36.103981],[139.310505,36.10414],[139.310743,36.10429],[139.311368,36.104281],[139.31173,36.104365],[139.31218,36.104581],[139.31218,36.105406],[139.31178,36.105414],[139.311593,36.105756],[139.31153,36.105748],[139.31133,36.105623],[139.310055,36.105289],[139.309118,36.105214],[139.308418,36.105498],[139.307743,36.105831],[139.307468,36.106014],[139.307255,36.106156],[139.307005,36.106406],[139.306843,36.107239],[139.306293,36.107772],[139.305793,36.108089],[139.305206,36.108322],[139.304418,36.108538],[139.303981,36.10878],[139.301406,36.110571],[139.301329,36.110544],[139.301243,36.110521],[139.300156,36.110246],[139.299419,36.10988],[139.298494,36.109405],[139.297281,36.109488],[139.296606,36.109479],[139.295944,36.109296],[139.295194,36.109046],[139.293669,36.108471],[139.293094,36.108196],[139.292782,36.108104],[139.292007,36.107771],[139.29157,36.107371],[139.291507,36.107329],[139.290832,36.107396],[139.289307,36.107388],[139.288095,36.106846],[139.288327,36.106514],[139.288858,36.106038],[139.289095,36.103022],[139.288908,36.102655],[139.288858,36.10248],[139.288933,36.101897],[139.28892,36.100989],[139.28882,36.100564],[139.288595,36.100106],[139.288283,36.099639],[139.288158,36.099056],[139.288045,36.098531],[139.287971,36.097498],[139.288196,36.097156],[139.288508,36.096956],[139.28882,36.096581],[139.28887,36.096107],[139.288845,36.095998],[139.288421,36.09584],[139.288208,36.095815],[139.287646,36.095557],[139.287133,36.094232],[139.286996,36.094115],[139.286333,36.093965],[139.286221,36.09389],[139.286058,36.09339],[139.286033,36.092807],[139.285921,36.092624],[139.285371,36.092124],[139.284896,36.09199],[139.284334,36.092524],[139.283834,36.092865],[139.283721,36.092832],[139.283084,36.092474],[139.282859,36.092349],[139.282109,36.092807],[139.281646,36.092957],[139.281521,36.093115],[139.281121,36.093432],[139.280922,36.093407],[139.280522,36.093873],[139.280172,36.09399],[139.280047,36.093957],[139.279109,36.094206],[139.278809,36.094223],[139.278159,36.09439],[139.277897,36.09469],[139.277747,36.095015],[139.277709,36.095456],[139.277434,36.09569],[139.276934,36.095764],[139.276672,36.095881],[139.276084,36.096256],[139.275559,36.096689],[139.275197,36.096789],[139.274335,36.096923],[139.274197,36.096898],[139.273585,36.097056],[139.273422,36.097164],[139.27281,36.097389],[139.272522,36.097456],[139.271772,36.097881],[139.271385,36.098306],[139.27101,36.098622],[139.270647,36.098681],[139.270172,36.098322],[139.269572,36.097706],[139.268223,36.096614],[139.267698,36.096256],[139.266673,36.095731],[139.265773,36.095548],[139.264448,36.095065],[139.263648,36.094548],[139.263136,36.094023],[139.262886,36.09359],[139.262736,36.093173],[139.262786,36.092482],[139.262723,36.092448],[139.262011,36.092282],[139.261698,36.09219],[139.260949,36.091873],[139.260674,36.091673],[139.260961,36.091265],[139.261211,36.090748],[139.261311,36.090307],[139.261311,36.090124],[139.260449,36.08974],[139.260224,36.08954],[139.259549,36.088549],[139.259087,36.087624],[139.258812,36.087199],[139.258462,36.087132],[139.258324,36.087216],[139.257849,36.087282],[139.257299,36.087099],[139.257212,36.087032],[139.257149,36.086507],[139.257149,36.086416],[139.256999,36.086099],[139.256724,36.085782],[139.256624,36.085716],[139.256449,36.085691],[139.256224,36.085757],[139.255674,36.086157],[139.255374,36.086266],[139.255212,36.086249],[139.255074,36.086082],[139.254924,36.085632],[139.254725,36.085366],[139.2545,36.085291],[139.2537,36.085132],[139.2536,36.084949],[139.253412,36.084357],[139.253087,36.083999],[139.252787,36.083816],[139.252262,36.083582],[139.251937,36.083541],[139.251187,36.083691],[139.2506,36.083707],[139.249675,36.084199],[139.249425,36.084199],[139.249175,36.084124],[139.24895,36.083991],[139.2487,36.083716],[139.248575,36.083466],[139.24835,36.083266],[139.2481,36.083107],[139.247625,36.083082],[139.2474,36.083149],[139.24705,36.083482],[139.246925,36.083507],[139.246803,36.083466],[139.246713,36.083491],[139.246575,36.083399],[139.2463,36.083399],[139.245775,36.083965],[139.24535,36.083982],[139.244388,36.08344],[139.243663,36.083557],[139.243388,36.083824],[139.243301,36.084299],[139.243163,36.084499],[139.242551,36.085057],[139.242413,36.085332],[139.242501,36.085423],[139.242938,36.085715],[139.243001,36.085957],[139.242613,36.086232],[139.242413,36.086507],[139.242188,36.086665],[139.242076,36.08664],[139.241963,36.086507],[139.241888,36.086407],[139.241613,36.086365],[139.241338,36.086473],[139.241463,36.086507],[139.241326,36.086615],[139.241126,36.08664],[139.240963,36.08659],[139.240913,36.086507],[139.240701,36.086273],[139.240588,36.086207],[139.240201,36.08614],[139.239613,36.086357],[139.238426,36.086423],[139.237776,36.086423],[139.237501,36.086506],[139.237601,36.086806],[139.237513,36.087073],[139.237238,36.087323],[139.236826,36.087431],[139.236376,36.087681],[139.236213,36.08854],[139.235788,36.088648],[139.235563,36.088648],[139.235013,36.088731],[139.234764,36.088506],[139.234876,36.087965],[139.234964,36.087881],[139.234964,36.087515],[139.234689,36.087265],[139.234189,36.087198],[139.233876,36.087198],[139.233076,36.087265],[139.232351,36.087173],[139.231576,36.087373],[139.230876,36.087656],[139.230214,36.087548],[139.229439,36.087589],[139.228514,36.087856],[139.227489,36.088006],[139.227239,36.087914],[139.227327,36.087531],[139.227327,36.087056],[139.227277,36.086698],[139.227364,36.086506],[139.227302,36.086165],[139.227327,36.085965],[139.227239,36.085623],[139.226827,36.085648],[139.226327,36.08619],[139.225989,36.086365],[139.225452,36.086506],[139.225027,36.087189],[139.224239,36.088581],[139.224402,36.089006],[139.224489,36.089347],[139.224202,36.089772],[139.223952,36.090289],[139.223927,36.090431],[139.223539,36.090489],[139.222902,36.090289],[139.222202,36.090422],[139.221565,36.090664],[139.22104,36.090664],[139.220427,36.090322],[139.219877,36.089914],[139.219902,36.089489],[139.220102,36.089131],[139.219077,36.088131],[139.218865,36.087564],[139.218802,36.087298],[139.218415,36.086781],[139.217778,36.086548],[139.217165,36.086548],[139.216203,36.086656],[139.21534,36.086948],[139.21464,36.086923],[139.21389,36.087073],[139.21359,36.087189],[139.212941,36.087564],[139.212616,36.087881],[139.212391,36.088422],[139.212141,36.088531],[139.211391,36.088531],[139.211003,36.088689],[139.210603,36.08923],[139.210378,36.089314],[139.209441,36.089197],[139.209191,36.089264],[139.208491,36.089355],[139.208278,36.08908],[139.208391,36.088564],[139.208641,36.087981],[139.208978,36.087664],[139.209253,36.087622],[139.209953,36.087422],[139.210278,36.087156],[139.210316,36.086722],[139.210228,36.086506],[139.210628,36.085023],[139.210353,36.084881],[139.209604,36.084614],[139.208741,36.084139],[139.208554,36.083981],[139.208516,36.083439],[139.208304,36.082406],[139.208129,36.082248],[139.206941,36.081823],[139.206392,36.081281],[139.206254,36.080765],[139.205754,36.080048],[139.205479,36.079415],[139.205304,36.07919],[139.205779,36.078382],[139.206479,36.077732],[139.205817,36.076624],[139.204704,36.076582],[139.204392,36.076624],[139.203655,36.076873],[139.202905,36.077007],[139.20248,36.076715],[139.202455,36.076465],[139.20218,36.075899],[139.201068,36.074032],[139.200468,36.073857],[139.19958,36.073782],[139.199018,36.073582],[139.198693,36.073065],[139.198668,36.072815],[139.198693,36.072207],[139.19883,36.071982],[139.198693,36.070999],[139.198855,36.070482],[139.19883,36.070099],[139.198031,36.069083],[139.197643,36.068699],[139.197306,36.068766],[139.196443,36.068766],[139.195481,36.068882],[139.195168,36.068541],[139.195031,36.068499],[139.194231,36.068449],[139.193643,36.068566],[139.193531,36.068807],[139.192818,36.069124],[139.192181,36.069324],[139.192006,36.069416],[139.191431,36.069574],[139.190769,36.069457],[139.190519,36.069391],[139.189981,36.069366],[139.189094,36.069999],[139.188731,36.070149],[139.187931,36.070266],[139.187156,36.07069],[139.186794,36.071232],[139.186681,36.071724],[139.186656,36.073207],[139.186456,36.073249],[139.185981,36.073298],[139.185181,36.073273],[139.184456,36.073073],[139.184431,36.073273],[139.184244,36.073898],[139.183794,36.074257],[139.183494,36.07444],[139.183344,36.074957],[139.183069,36.07559],[139.182819,36.076031],[139.182381,36.076531],[139.181906,36.076731],[139.181344,36.076906],[139.180819,36.077631],[139.180381,36.078015],[139.180181,36.078123],[139.179794,36.078456],[139.179456,36.079064],[139.179069,36.079581],[139.179019,36.080148],[139.178731,36.080573],[139.178156,36.081064],[139.177819,36.081539],[139.177344,36.081714],[139.177131,36.082072],[139.177019,36.082389],[139.176406,36.082681],[139.175819,36.083039],[139.175431,36.083555],[139.174906,36.084522],[139.174431,36.084722],[139.173981,36.085039],[139.173656,36.08533],[139.173619,36.085397],[139.173656,36.085555],[139.173981,36.086055],[139.174094,36.086347],[139.174281,36.086505],[139.174631,36.087622],[139.174519,36.088638],[139.174569,36.089288],[139.174481,36.089788],[139.174306,36.090105],[139.174094,36.09003],[139.173206,36.089621],[139.172706,36.089146],[139.171906,36.088496],[139.171219,36.088172],[139.169994,36.088055],[139.169107,36.088121],[139.168294,36.088296],[139.166794,36.088696],[139.165882,36.089055],[139.165432,36.089388],[139.165119,36.089796],[139.164957,36.089888],[139.164094,36.090171],[139.16332,36.090488],[139.16262,36.090821],[139.16242,36.090821],[139.161707,36.090996],[139.160507,36.091404],[139.15892,36.091529],[139.158282,36.091887],[139.157607,36.092604],[139.157308,36.092446],[139.156858,36.092154],[139.156445,36.092062],[139.156145,36.091587],[139.155533,36.091112],[139.154733,36.090654],[139.154208,36.090546],[139.153595,36.090679],[139.153158,36.090337],[139.152683,36.089862],[139.152133,36.089521],[139.151996,36.089387],[139.151746,36.088846],[139.151608,36.088396],[139.151558,36.088329],[139.151308,36.088438],[139.150858,36.088438],[139.150196,36.088254],[139.149946,36.088138],[139.148971,36.087979],[139.148034,36.088063],[139.146784,36.088529],[139.146521,36.089096],[139.146384,36.089187],[139.145859,36.089362],[139.145434,36.089629],[139.145159,36.089629],[139.144796,36.089812],[139.144384,36.090212],[139.143659,36.090295],[139.143159,36.090137],[139.142572,36.09007],[139.142309,36.089462],[139.142222,36.089412],[139.141409,36.089795],[139.140772,36.090037],[139.140022,36.090262],[139.139609,36.090487],[139.139384,36.090712],[139.139272,36.090804],[139.138959,36.091204],[139.138897,36.09172],[139.138947,36.09247],[139.138834,36.093028],[139.138672,36.09357],[139.138272,36.094061],[139.138047,36.094578],[139.137522,36.095053],[139.137234,36.095545],[139.137259,36.095861],[139.137534,36.096203],[139.137872,36.096761],[139.138397,36.097286],[139.138834,36.098344],[139.139159,36.099294],[139.138759,36.100277],[139.138921,36.101386],[139.138946,36.102777],[139.139046,36.103502],[139.138871,36.104877],[139.138809,36.105593],[139.139034,36.106118],[139.139034,36.106651],[139.138971,36.106968],[139.139046,36.107443],[139.139071,36.109068],[139.139171,36.110143],[139.139571,36.112376],[139.139658,36.113209],[139.139546,36.113525],[139.139208,36.113592],[139.138896,36.113775],[139.138646,36.114375],[139.138108,36.116242],[139.137796,36.116875],[139.137658,36.117417],[139.137646,36.1178],[139.137783,36.118],[139.138146,36.118208],[139.138708,36.118408],[139.139646,36.118908],[139.140058,36.119275],[139.140358,36.119433],[139.141333,36.119725],[139.143833,36.12075],[139.144633,36.121208],[139.14552,36.121791],[139.146007,36.122249],[139.146007,36.122783],[139.145645,36.123349],[139.145057,36.123524],[139.14492,36.123616],[139.144582,36.124066],[139.144282,36.124332],[139.144532,36.124466],[139.145245,36.125124],[139.145657,36.125574],[139.146245,36.125807],[139.146657,36.126007],[139.146707,36.126324],[139.146545,36.126824],[139.146307,36.127832],[139.146194,36.129115],[139.146219,36.129274],[139.146332,36.129299],[139.146969,36.12959],[139.147607,36.129982],[139.148044,36.13059],[139.148119,36.13129],[139.148119,36.13284],[139.148282,36.133248],[139.148394,36.133315],[139.149169,36.133381],[139.150031,36.13319],[139.150969,36.133123],[139.151419,36.133148],[139.153443,36.13349],[139.155143,36.133815],[139.156168,36.133798],[139.156531,36.133731],[139.157393,36.133348],[139.157629,36.133116]]]}}]}