{"type":"FeatureCollection","features":[{"type":"Feature","properties":{"pref":"埼玉県","kuni_id":"K16","yomi":"ひき","name":"比企","kuni":"武蔵","id":"G16012","id_url":"G16012.html","kuni_url":"/kg/resource/K16.html"},"geometry":{"coordinates":[[[139.375202,36.100806],[139.37529,36.100348],[139.375402,36.10004],[139.375452,36.09979],[139.375602,36.099498],[139.37574,36.099315],[139.376989,36.098615],[139.377439,36.098407],[139.378014,36.097982],[139.378189,36.097849],[139.379264,36.097115],[139.379352,36.097049],[139.379689,36.096574],[139.379827,36.096491],[139.380264,36.096416],[139.380552,36.096307],[139.381189,36.095824],[139.381489,36.095782],[139.381727,36.095807],[139.381764,36.095982],[139.381827,36.096616],[139.381914,36.096815],[139.382252,36.097049],[139.382777,36.097315],[139.383227,36.097607],[139.383502,36.097882],[139.384114,36.098665],[139.384401,36.099182],[139.384701,36.09959],[139.385476,36.100382],[139.385826,36.101123],[139.386039,36.101281],[139.386376,36.101431],[139.386689,36.10164],[139.386914,36.101706],[139.387251,36.101748],[139.387276,36.102315],[139.387526,36.103064],[139.387601,36.103156],[139.388276,36.103281],[139.388588,36.103414],[139.388726,36.103531],[139.388776,36.103623],[139.388776,36.103798],[139.388801,36.103823],[139.388888,36.104139],[139.389001,36.104472],[139.389251,36.104789],[139.389438,36.104931],[139.390476,36.105064],[139.390763,36.105039],[139.390863,36.104947],[139.390926,36.104789],[139.391063,36.104747],[139.391175,36.104814],[139.391263,36.104947],[139.391363,36.104972],[139.39145,36.104947],[139.391538,36.104881],[139.391588,36.104389],[139.391725,36.104298],[139.3919,36.104339],[139.39195,36.104431],[139.392263,36.104381],[139.394875,36.101223],[139.395463,36.101132],[139.39565,36.100915],[139.396075,36.100615],[139.396106,36.100723],[139.396175,36.101107],[139.396213,36.10124],[139.397275,36.101207],[139.397288,36.100024],[139.397675,36.099774],[139.398575,36.099774],[139.398575,36.099182],[139.399487,36.099157],[139.399487,36.099049],[139.399825,36.098232],[139.399912,36.098166],[139.402412,36.096716],[139.402912,36.096333],[139.403437,36.095858],[139.403887,36.095608],[139.404049,36.095583],[139.404337,36.095633],[139.404637,36.095741],[139.404724,36.095674],[139.404724,36.095408],[139.404862,36.094933],[139.404999,36.094775],[139.405574,36.094591],[139.405837,36.09455],[139.406474,36.094333],[139.406837,36.094275],[139.407924,36.093958],[139.408474,36.093867],[139.409186,36.093783],[139.410099,36.093817],[139.410624,36.093858],[139.411099,36.093858],[139.411186,36.093883],[139.411261,36.093858],[139.411011,36.0934],[139.411049,36.092908],[139.410836,36.092417],[139.410774,36.092159],[139.411236,36.092075],[139.411286,36.092042],[139.411224,36.091459],[139.411486,36.090992],[139.412649,36.090342],[139.412986,36.090067],[139.412936,36.089926],[139.412536,36.089051],[139.412311,36.088693],[139.411749,36.087476],[139.411461,36.087026],[139.411224,36.086776],[139.411049,36.086551],[139.410949,36.08651],[139.410686,36.086235],[139.410387,36.085043],[139.410141,36.084407],[139.410112,36.084285],[139.409049,36.08391],[139.408874,36.083843],[139.408524,36.083652],[139.407549,36.082535],[139.406799,36.081627],[139.406487,36.081335],[139.406424,36.08091],[139.406487,36.08071],[139.406587,36.080077],[139.406525,36.079544],[139.4063,36.079111],[139.406037,36.078536],[139.405887,36.077611],[139.405837,36.077452],[139.405862,36.077336],[139.405637,36.076286],[139.405575,36.075403],[139.407262,36.075911],[139.407824,36.076136],[139.408074,36.076203],[139.408637,36.076286],[139.409849,36.075903],[139.410037,36.075786],[139.410987,36.07562],[139.412037,36.07552],[139.412786,36.075386],[139.413049,36.075295],[139.414699,36.074903],[139.416886,36.07462],[139.417174,36.074545],[139.418273,36.074412],[139.418998,36.074253],[139.419686,36.073903],[139.419911,36.073745],[139.420398,36.073328],[139.421286,36.072787],[139.422336,36.072462],[139.422898,36.072162],[139.422923,36.072112],[139.423123,36.07187],[139.422998,36.071679],[139.422573,36.071279],[139.422061,36.070562],[139.421811,36.07027],[139.421511,36.069696],[139.420936,36.068887],[139.420061,36.067962],[139.418849,36.066246],[139.418599,36.065954],[139.418011,36.065171],[139.417786,36.064746],[139.417436,36.064471],[139.416636,36.064096],[139.416549,36.064096],[139.416274,36.063988],[139.416324,36.063771],[139.417186,36.063846],[139.417174,36.063655],[139.417249,36.063088],[139.417099,36.061988],[139.417274,36.06173],[139.417249,36.061463],[139.417086,36.061155],[139.417036,36.060838],[139.417086,36.060572],[139.417299,36.06033],[139.417424,36.06008],[139.417474,36.059822],[139.417386,36.059705],[139.417224,36.059314],[139.417249,36.058489],[139.417211,36.057839],[139.417286,36.057722],[139.417786,36.057322],[139.417974,36.057247],[139.418411,36.056997],[139.418486,36.056689],[139.418574,36.056497],[139.418474,36.056172],[139.418249,36.056081],[139.416724,36.055906],[139.415962,36.055897],[139.415837,36.055597],[139.414537,36.055256],[139.413762,36.055022],[139.413724,36.054989],[139.413862,36.054731],[139.414312,36.054189],[139.414562,36.054297],[139.415362,36.054589],[139.416199,36.054781],[139.416674,36.053998],[139.416862,36.053406],[139.417074,36.053356],[139.417212,36.053406],[139.417637,36.053448],[139.418099,36.053406],[139.418911,36.053423],[139.419424,36.053598],[139.419524,36.053598],[139.419799,36.053689],[139.419849,36.053656],[139.419874,36.053548],[139.419411,36.053198],[139.419011,36.053056],[139.417962,36.053039],[139.417299,36.052998],[139.416949,36.052923],[139.416799,36.052714],[139.416762,36.052573],[139.417087,36.052273],[139.417424,36.052056],[139.417699,36.051606],[139.417824,36.051081],[139.418287,36.050098],[139.419274,36.04899],[139.419711,36.048582],[139.419849,36.048398],[139.420011,36.047907],[139.420099,36.04664],[139.420099,36.04619],[139.420024,36.045807],[139.419624,36.045457],[139.419237,36.045024],[139.419062,36.044624],[139.419074,36.043182],[139.419037,36.042599],[139.419187,36.040882],[139.419349,36.039874],[139.419424,36.039732],[139.420149,36.039732],[139.420561,36.039616],[139.420674,36.039524],[139.420861,36.039074],[139.420861,36.038758],[139.420774,36.038583],[139.420436,36.038291],[139.419961,36.038133],[139.419687,36.038091],[139.419599,36.037916],[139.419537,36.037483],[139.419237,36.037141],[139.418612,36.036633],[139.418212,36.036166],[139.417962,36.035674],[139.418024,36.035383],[139.418074,36.035308],[139.418599,36.035016],[139.418737,36.034991],[139.419312,36.035058],[139.419849,36.035299],[139.421149,36.035066],[139.422174,36.034658],[139.422636,36.034341],[139.423086,36.033975],[139.423574,36.0335],[139.423986,36.032983],[139.424199,36.0323],[139.424199,36.031917],[139.424361,36.031533],[139.424774,36.031108],[139.425299,36.030833],[139.426486,36.030284],[139.426648,36.0302],[139.426761,36.030059],[139.427423,36.0295],[139.428373,36.028567],[139.429073,36.028001],[139.431035,36.025984],[139.432173,36.024943],[139.431973,36.024543],[139.43191,36.024018],[139.43216,36.02371],[139.432323,36.023685],[139.43301,36.023676],[139.433123,36.023701],[139.433898,36.023651],[139.434523,36.023451],[139.43536,36.023085],[139.435922,36.022735],[139.435947,36.022418],[139.435599,36.021878],[139.435548,36.021843],[139.43706,36.020285],[139.436585,36.01981],[139.43661,36.01976],[139.437072,36.019494],[139.437547,36.019285],[139.437847,36.018944],[139.438122,36.01836],[139.43836,36.017711],[139.438497,36.017119],[139.43881,36.016127],[139.43901,36.015669],[139.438472,36.015452],[139.438472,36.015361],[139.438747,36.014886],[139.439097,36.014586],[139.439485,36.014386],[139.439872,36.014294],[139.43976,36.014161],[139.439335,36.013803],[139.439197,36.013736],[139.439197,36.013686],[139.43946,36.013303],[139.43966,36.013128],[139.44016,36.01277],[139.44096,36.01242],[139.441097,36.012336],[139.441622,36.012103],[139.44196,36.012036],[139.44196,36.012261],[139.441885,36.012711],[139.441885,36.013095],[139.441947,36.013295],[139.442359,36.01327],[139.443634,36.013311],[139.444222,36.013378],[139.444584,36.013503],[139.445297,36.014153],[139.445747,36.014511],[139.445422,36.014828],[139.445659,36.015028],[139.446397,36.014811],[139.447009,36.015344],[139.447621,36.015619],[139.448396,36.015686],[139.448484,36.015794],[139.448234,36.016086],[139.449659,36.016403],[139.449884,36.016403],[139.449921,36.016094],[139.450084,36.015994],[139.450821,36.016019],[139.450909,36.015886],[139.451009,36.015453],[139.451034,36.015028],[139.450996,36.014711],[139.450746,36.014711],[139.450096,36.014803],[139.449671,36.014603],[139.449559,36.014178],[139.449609,36.014036],[139.450134,36.013886],[139.450796,36.013745],[139.453271,36.013461],[139.453684,36.013386],[139.454321,36.011987],[139.454571,36.011628],[139.454821,36.011537],[139.455046,36.011695],[139.455446,36.012345],[139.455671,36.012278],[139.456158,36.012203],[139.457046,36.012062],[139.458571,36.011878],[139.459346,36.01192],[139.460346,36.012228],[139.461083,36.012628],[139.462395,36.013437],[139.465045,36.015287],[139.465383,36.01547],[139.468957,36.017545],[139.47102,36.018545],[139.473782,36.019561],[139.474444,36.019703],[139.476119,36.019795],[139.477194,36.01982],[139.478719,36.019703],[139.478806,36.019761],[139.479131,36.019895],[139.480218,36.019795],[139.481243,36.01957],[139.483043,36.019003],[139.483818,36.018903],[139.48468,36.018878],[139.484893,36.018845],[139.487055,36.018237],[139.48738,36.01817],[139.48813,36.018095],[139.488805,36.017978],[139.488855,36.017937],[139.48963,36.017745],[139.490429,36.01752],[139.491229,36.017087],[139.491917,36.016903],[139.492504,36.016812],[139.493779,36.016404],[139.494929,36.016187],[139.495429,36.015354],[139.495891,36.014929],[139.496279,36.014654],[139.496841,36.013995],[139.497066,36.013862],[139.497179,36.013496],[139.497479,36.013387],[139.497854,36.013321],[139.499278,36.013512],[139.499603,36.013604],[139.499853,36.013429],[139.500403,36.013229],[139.504078,36.012304],[139.504528,36.011996],[139.504553,36.011837],[139.504416,36.010254],[139.504378,36.010029],[139.504103,36.009513],[139.503678,36.008963],[139.503366,36.008354],[139.503591,36.007929],[139.504053,36.006646],[139.503916,36.005788],[139.503816,36.00533],[139.503391,36.004813],[139.502229,36.004038],[139.501979,36.003805],[139.501304,36.003172],[139.500754,36.002547],[139.500529,36.002214],[139.500416,36.001872],[139.500379,36.001564],[139.500429,36.001264],[139.500666,36.000922],[139.501379,36.00028],[139.501954,35.999847],[139.502441,35.999372],[139.502554,35.999139],[139.501629,35.997572],[139.501316,35.996856],[139.501254,35.996473],[139.501441,35.996181],[139.501791,35.995923],[139.502179,35.995856],[139.503354,35.995998],[139.504879,35.996314],[139.505441,35.996373],[139.507128,35.996131],[139.507791,35.995981],[139.508066,35.995914],[139.508503,35.995731],[139.508841,35.995406],[139.509366,35.994273],[139.509641,35.993865],[139.509878,35.993406],[139.510253,35.992956],[139.510753,35.992448],[139.511216,35.992132],[139.511541,35.991857],[139.511616,35.991582],[139.511441,35.990749],[139.511428,35.990165],[139.511466,35.98969],[139.511528,35.989507],[139.511766,35.989082],[139.512091,35.988624],[139.512553,35.988299],[139.513078,35.988049],[139.513678,35.987816],[139.514253,35.987491],[139.514641,35.987174],[139.514578,35.987082],[139.514216,35.986999],[139.513891,35.986866],[139.513828,35.986666],[139.513928,35.986099],[139.514141,35.985708],[139.514416,35.985366],[139.514416,35.985324],[139.513628,35.985224],[139.513016,35.985049],[139.512816,35.984958],[139.512516,35.984766],[139.512366,35.984475],[139.512303,35.984066],[139.512566,35.983608],[139.513253,35.983083],[139.513691,35.982675],[139.513903,35.982217],[139.513941,35.981567],[139.514053,35.981133],[139.514203,35.9807],[139.514641,35.980092],[139.515078,35.979592],[139.516028,35.978584],[139.516378,35.977992],[139.517078,35.977151],[139.517453,35.976626],[139.517891,35.976168],[139.518278,35.975893],[139.519178,35.976559],[139.52144,35.978517],[139.522253,35.977918],[139.52289,35.977501],[139.523328,35.977134],[139.52154,35.975601],[139.52064,35.974893],[139.521365,35.974701],[139.522415,35.974693],[139.523165,35.974477],[139.523515,35.974177],[139.523678,35.973727],[139.523928,35.972594],[139.524303,35.972185],[139.52464,35.972002],[139.525115,35.971994],[139.525778,35.972077],[139.526578,35.97211],[139.527052,35.972085],[139.52744,35.971894],[139.52779,35.971552],[139.527977,35.971236],[139.528077,35.970719],[139.528052,35.970336],[139.527902,35.969994],[139.527727,35.969844],[139.52739,35.969619],[139.526803,35.969378],[139.526078,35.969253],[139.525053,35.969136],[139.52424,35.968919],[139.523653,35.968611],[139.523253,35.968253],[139.522978,35.967919],[139.522915,35.967603],[139.52299,35.967311],[139.523415,35.96672],[139.523828,35.966328],[139.524628,35.96582],[139.525365,35.965478],[139.526965,35.96482],[139.52809,35.964287],[139.528552,35.963904],[139.528965,35.963287],[139.529365,35.962421],[139.52969,35.962221],[139.529965,35.962171],[139.53044,35.962362],[139.53109,35.962654],[139.531877,35.963112],[139.53234,35.963196],[139.53284,35.963104],[139.533202,35.962912],[139.533527,35.962462],[139.533765,35.961804],[139.534102,35.961146],[139.534515,35.960804],[139.53479,35.960704],[139.534827,35.960729],[139.534852,35.960704],[139.535215,35.960796],[139.53544,35.960946],[139.535752,35.961346],[139.536152,35.961754],[139.536677,35.961971],[139.537677,35.962137],[139.539127,35.962229],[139.539239,35.962204],[139.539514,35.961929],[139.540239,35.960979],[139.540564,35.960429],[139.540689,35.95998],[139.540502,35.958738],[139.540352,35.958113],[139.540314,35.957505],[139.540489,35.956847],[139.540789,35.95628],[139.541189,35.955822],[139.541689,35.955522],[139.542177,35.95538],[139.542677,35.955105],[139.543114,35.954672],[139.543952,35.953647],[139.545039,35.952731],[139.545364,35.952389],[139.545452,35.952339],[139.545477,35.951981],[139.545264,35.951173],[139.544627,35.951064],[139.544427,35.950998],[139.544002,35.950939],[139.543814,35.950981],[139.543614,35.950873],[139.543614,35.950764],[139.543527,35.950714],[139.543177,35.950723],[139.542502,35.950548],[139.540914,35.950215],[139.539489,35.949798],[139.538952,35.949715],[139.538465,35.949748],[139.538102,35.949731],[139.537815,35.949573],[139.537427,35.949265],[139.537077,35.948906],[139.536647,35.948304],[139.536565,35.948082],[139.535652,35.948448],[139.53514,35.948748],[139.535077,35.94884],[139.53514,35.948956],[139.535302,35.949065],[139.535977,35.949306],[139.535977,35.949465],[139.535577,35.949915],[139.53509,35.950673],[139.53484,35.950873],[139.53454,35.950948],[139.53424,35.950931],[139.53419,35.951156],[139.53369,35.951298],[139.53314,35.950131],[139.531877,35.949873],[139.531877,35.949406],[139.531677,35.949273],[139.530165,35.949806],[139.529828,35.949723],[139.529578,35.949706],[139.529053,35.949915],[139.528303,35.950148],[139.526178,35.950648],[139.526003,35.950489],[139.525803,35.950064],[139.52674,35.949714],[139.526603,35.948256],[139.526428,35.948031],[139.526265,35.94799],[139.52599,35.948173],[139.52594,35.94824],[139.52589,35.94869],[139.525803,35.948806],[139.52559,35.948898],[139.525278,35.948923],[139.524978,35.948773],[139.52469,35.948573],[139.524328,35.948465],[139.524216,35.948373],[139.523828,35.948265],[139.523666,35.948315],[139.523166,35.948548],[139.522503,35.948914],[139.521953,35.949281],[139.521716,35.949739],[139.521553,35.949898],[139.520753,35.950156],[139.518241,35.950706],[139.516754,35.951156],[139.516304,35.951339],[139.516541,35.951972],[139.515029,35.952464],[139.513954,35.952905],[139.513591,35.953022],[139.513279,35.952464],[139.511816,35.952864],[139.510816,35.953213],[139.510241,35.953338],[139.509667,35.953572],[139.508867,35.953688],[139.508229,35.953947],[139.507367,35.954113],[139.505967,35.954588],[139.505379,35.954746],[139.504804,35.954821],[139.504842,35.955255],[139.504642,35.955413],[139.504292,35.955396],[139.503204,35.955455],[139.503042,35.955521],[139.502767,35.955555],[139.502467,35.955896],[139.502192,35.956238],[139.501842,35.956554],[139.50168,35.956738],[139.501592,35.956804],[139.501517,35.956829],[139.501367,35.956813],[139.501092,35.956854],[139.500792,35.957088],[139.500192,35.957387],[139.499967,35.957596],[139.49978,35.957887],[139.499567,35.958121],[139.499267,35.958171],[139.499005,35.957987],[139.498617,35.957587],[139.498355,35.957054],[139.498205,35.956538],[139.497955,35.955205],[139.497867,35.954963],[139.496796,35.954765],[139.496367,35.95483],[139.495755,35.954813],[139.495043,35.955646],[139.494543,35.955421],[139.493455,35.955138],[139.491043,35.954829],[139.489043,35.955871],[139.489106,35.956546],[139.489156,35.958254],[139.489043,35.95857],[139.488843,35.95862],[139.487406,35.958645],[139.486543,35.958495],[139.486681,35.957929],[139.486756,35.957362],[139.486643,35.956846],[139.485893,35.956046],[139.485831,35.955904],[139.485631,35.955862],[139.484606,35.955912],[139.484419,35.955954],[139.484281,35.956137],[139.483706,35.956654],[139.483206,35.956837],[139.482781,35.95637],[139.482669,35.956412],[139.481894,35.956937],[139.481619,35.956912],[139.479544,35.956429],[139.479182,35.956537],[139.478769,35.956995],[139.478632,35.957062],[139.478269,35.956995],[139.477769,35.956653],[139.477457,35.956637],[139.477319,35.956728],[139.477019,35.95702],[139.476432,35.957295],[139.476494,35.957403],[139.477419,35.958278],[139.478394,35.959378],[139.477569,35.959736],[139.476907,35.960169],[139.476382,35.960378],[139.47582,35.960469],[139.47497,35.960694],[139.474357,35.960494],[139.474132,35.960469],[139.472632,35.960569],[139.472157,35.960477],[139.470633,35.959544],[139.470345,35.959427],[139.470045,35.959411],[139.469408,35.959502],[139.468245,35.959594],[139.467658,35.96011],[139.468083,35.960452],[139.468358,35.960627],[139.467783,35.960769],[139.466783,35.961127],[139.465483,35.961677],[139.465258,35.961585],[139.464846,35.961293],[139.464483,35.96096],[139.464258,35.960827],[139.463921,35.960827],[139.463284,35.96096],[139.462846,35.961143],[139.462484,35.961418],[139.462271,35.96171],[139.462296,35.961801],[139.462546,35.962068],[139.463046,35.962385],[139.463546,35.962601],[139.463908,35.962851],[139.464133,35.963101],[139.464133,35.963251],[139.463809,35.964201],[139.463509,35.964768],[139.463321,35.965392],[139.463296,35.966317],[139.463134,35.966676],[139.462584,35.966992],[139.461721,35.967317],[139.460621,35.9679],[139.460259,35.968267],[139.460121,35.968692],[139.460159,35.969208],[139.460346,35.969633],[139.460609,35.969908],[139.461134,35.970216],[139.461446,35.970733],[139.461496,35.971275],[139.461484,35.971925],[139.461284,35.972424],[139.460821,35.972624],[139.460371,35.972766],[139.460209,35.973008],[139.460346,35.973258],[139.460384,35.973416],[139.460134,35.973708],[139.459546,35.974024],[139.458809,35.974366],[139.458609,35.974366],[139.458472,35.974257],[139.458472,35.973966],[139.458634,35.973532],[139.458709,35.973041],[139.458622,35.972658],[139.458297,35.972433],[139.457659,35.972524],[139.457484,35.972591],[139.457247,35.972974],[139.456659,35.973566],[139.456247,35.973899],[139.456034,35.974216],[139.455834,35.974624],[139.455972,35.97489],[139.456334,35.975049],[139.456647,35.975274],[139.456672,35.975724],[139.456547,35.976107],[139.456322,35.976307],[139.455822,35.97609],[139.455734,35.976199],[139.455634,35.976515],[139.455547,35.976474],[139.454847,35.976199],[139.454822,35.976224],[139.454797,35.976582],[139.45466,35.977032],[139.454385,35.97744],[139.45431,35.977865],[139.454834,35.978607],[139.454759,35.979215],[139.454459,35.979715],[139.453797,35.980415],[139.453272,35.980681],[139.452722,35.980756],[139.45211,35.980531],[139.451885,35.980423],[139.45141,35.98004],[139.45091,35.979565],[139.450485,35.979281],[139.45026,35.979165],[139.44991,35.979148],[139.449123,35.979239],[139.448523,35.979398],[139.446798,35.979989],[139.445948,35.980348],[139.445148,35.980781],[139.444473,35.981097],[139.444173,35.981481],[139.443898,35.981956],[139.443348,35.982522],[139.442611,35.982972],[139.441836,35.983222],[139.441111,35.983405],[139.440586,35.983722],[139.440149,35.984155],[139.440261,35.984355],[139.441123,35.985097],[139.441461,35.985455],[139.441736,35.985972],[139.441848,35.986713],[139.441798,35.986888],[139.441411,35.987097],[139.440223,35.987163],[139.439474,35.987238],[139.438911,35.987238],[139.438336,35.987196],[139.437424,35.987246],[139.437061,35.987405],[139.436836,35.987696],[139.436786,35.987855],[139.436711,35.988438],[139.436549,35.989046],[139.435999,35.989838],[139.435799,35.989996],[139.435449,35.990488],[139.434574,35.992562],[139.434486,35.993104],[139.434524,35.993621],[139.434411,35.994546],[139.434249,35.994862],[139.433974,35.995104],[139.433899,35.995579],[139.433599,35.99632],[139.433049,35.997204],[139.432524,35.99777],[139.432111,35.997945],[139.431549,35.998037],[139.430887,35.998045],[139.430162,35.997953],[139.429837,35.99782],[139.428775,35.997245],[139.428275,35.997061],[139.427962,35.996995],[139.427325,35.996753],[139.426887,35.996436],[139.426625,35.99612],[139.426262,35.995853],[139.425738,35.995628],[139.425038,35.995386],[139.424488,35.995145],[139.4244,35.995053],[139.42415,35.994578],[139.423788,35.994203],[139.423588,35.994061],[139.422976,35.993861],[139.422201,35.993711],[139.421538,35.993803],[139.421013,35.993961],[139.420538,35.994169],[139.419951,35.994144],[139.418789,35.993811],[139.417426,35.993094],[139.417002,35.992719],[139.414864,35.991553],[139.414252,35.991128],[139.414027,35.991036],[139.413502,35.990953],[139.412915,35.990953],[139.41244,35.990911],[139.411827,35.990736],[139.411302,35.990353],[139.410803,35.989878],[139.40969,35.989145],[139.40894,35.988811],[139.407316,35.988211],[139.406816,35.98787],[139.406478,35.987512],[139.405803,35.986079],[139.405616,35.985787],[139.405191,35.985562],[139.404691,35.985404],[139.402804,35.985212],[139.401366,35.985104],[139.399667,35.985154],[139.399029,35.985087],[139.398029,35.984804],[139.397005,35.984737],[139.396417,35.984562],[139.39623,35.984471],[139.39553,35.984021],[139.395117,35.984246],[139.394867,35.984254],[139.394505,35.983554],[139.394355,35.983396],[139.393942,35.983129],[139.393855,35.983104],[139.393555,35.984162],[139.393392,35.984662],[139.393392,35.984729],[139.392568,35.984687],[139.392068,35.984529],[139.391755,35.984304],[139.391455,35.983971],[139.390955,35.983746],[139.39023,35.983596],[139.38953,35.983638],[139.386706,35.984554],[139.385043,35.984762],[139.384906,35.984604],[139.384793,35.984196],[139.384794,35.983729],[139.384869,35.983296],[139.384844,35.982713],[139.384394,35.982604],[139.383344,35.982513],[139.383006,35.98238],[139.382256,35.981938],[139.381806,35.981871],[139.381194,35.981896],[139.380094,35.981763],[139.379419,35.981588],[139.378669,35.981005],[139.378169,35.980488],[139.377857,35.979997],[139.377244,35.979372],[139.376519,35.979122],[139.376245,35.979122],[139.374607,35.97938],[139.373995,35.979288],[139.37327,35.97898],[139.372545,35.978755],[139.371595,35.978522],[139.37007,35.977989],[139.368795,35.977397],[139.367408,35.976872],[139.366683,35.976781],[139.365958,35.976797],[139.365708,35.976864],[139.363958,35.977764],[139.363008,35.977914],[139.362646,35.977864],[139.362433,35.977664],[139.362371,35.977414],[139.362521,35.976872],[139.362408,35.976714],[139.362021,35.976597],[139.360346,35.976481],[139.359458,35.976522],[139.358796,35.976631],[139.358659,35.976672],[139.357821,35.975922],[139.356409,35.974856],[139.355659,35.974372],[139.355171,35.973831],[139.355034,35.973489],[139.355146,35.973081],[139.355234,35.972947],[139.355509,35.972656],[139.355709,35.972364],[139.355646,35.972164],[139.355321,35.972022],[139.354872,35.971972],[139.354509,35.972089],[139.353809,35.972622],[139.353622,35.972647],[139.353147,35.972147],[139.352959,35.972014],[139.352372,35.971739],[139.351734,35.971597],[139.350347,35.971522],[139.349759,35.971389],[139.349347,35.971181],[139.349047,35.970797],[139.348822,35.970272],[139.348797,35.969372],[139.348885,35.968847],[139.348885,35.968489],[139.348722,35.967897],[139.348235,35.967039],[139.347872,35.966881],[139.34756,35.966898],[139.346535,35.967306],[139.345835,35.967506],[139.345197,35.967639],[139.34456,35.967697],[139.343922,35.967656],[139.343285,35.967556],[139.342835,35.967372],[139.34256,35.967056],[139.34226,35.966631],[139.342035,35.966147],[139.341735,35.965764],[139.340873,35.965131],[139.340435,35.964856],[139.340048,35.964489],[139.339723,35.963448],[139.339535,35.962406],[139.339248,35.962206],[139.338585,35.961998],[139.336948,35.961789],[139.336561,35.961948],[139.335361,35.961981],[139.335111,35.961981],[139.334811,35.961939],[139.334173,35.961997],[139.331661,35.962464],[139.330861,35.962622],[139.330048,35.962839],[139.329636,35.962839],[139.328298,35.962656],[139.327248,35.962264],[139.326798,35.962214],[139.326436,35.962372],[139.325936,35.962822],[139.325624,35.963247],[139.325624,35.963455],[139.325461,35.96393],[139.325261,35.964197],[139.324948,35.964305],[139.324511,35.964355],[139.323199,35.964372],[139.322174,35.964655],[139.321749,35.964813],[139.321674,35.96488],[139.321449,35.965513],[139.321336,35.965738],[139.321086,35.965872],[139.320574,35.966055],[139.319849,35.966522],[139.318899,35.96733],[139.317674,35.968571],[139.317336,35.969088],[139.317224,35.969563],[139.317161,35.970105],[139.316999,35.970213],[139.316274,35.970213],[139.315824,35.970255],[139.315324,35.970596],[139.314374,35.971379],[139.313312,35.972079],[139.312949,35.972371],[139.312674,35.972679],[139.312612,35.972796],[139.312611,35.973071],[139.312774,35.973429],[139.312861,35.973771],[139.311999,35.974621],[139.311411,35.974821],[139.310911,35.974937],[139.310574,35.975137],[139.310186,35.975496],[139.310036,35.975696],[139.309349,35.976171],[139.308924,35.976504],[139.308699,35.97707],[139.308636,35.977479],[139.308699,35.978045],[139.308661,35.978495],[139.308461,35.97892],[139.308161,35.979304],[139.307686,35.979529],[139.306487,35.979912],[139.306174,35.980137],[139.306062,35.980612],[139.305949,35.981262],[139.305362,35.981528],[139.305174,35.981753],[139.305137,35.981895],[139.304637,35.98257],[139.303487,35.983395],[139.302437,35.984095],[139.302124,35.984344],[139.302099,35.984453],[139.301762,35.984836],[139.301199,35.985178],[139.300399,35.985394],[139.300062,35.985553],[139.299837,35.985578],[139.299725,35.985528],[139.299087,35.985478],[139.2985,35.985569],[139.298,35.985836],[139.297575,35.986311],[139.29725,35.986761],[139.296962,35.987052],[139.296575,35.987144],[139.296075,35.987119],[139.29535,35.987136],[139.294712,35.987269],[139.294437,35.987377],[139.293125,35.988235],[139.2922,35.98911],[139.290938,35.989893],[139.290388,35.99016],[139.289888,35.990477],[139.28935,35.990727],[139.288762,35.991108],[139.288438,35.991235],[139.288188,35.991168],[139.287875,35.991035],[139.287125,35.990802],[139.286763,35.990777],[139.286651,35.990827],[139.286438,35.991002],[139.286238,35.991293],[139.285901,35.99166],[139.284926,35.991968],[139.284451,35.99206],[139.284063,35.99201],[139.283451,35.991801],[139.282901,35.991668],[139.282476,35.991818],[139.282226,35.992201],[139.281976,35.992793],[139.281476,35.993285],[139.281276,35.993418],[139.280526,35.993601],[139.280164,35.993576],[139.280076,35.99321],[139.280051,35.992785],[139.279901,35.991718],[139.279851,35.990476],[139.279901,35.990068],[139.279826,35.989527],[139.279601,35.989093],[139.279301,35.988777],[139.278864,35.98846],[139.278526,35.988343],[139.277139,35.988402],[139.276752,35.98836],[139.276164,35.987968],[139.275752,35.98786],[139.275252,35.987902],[139.274889,35.98801],[139.274689,35.988035],[139.274689,35.98781],[139.274777,35.987493],[139.274814,35.987177],[139.274639,35.986835],[139.274402,35.986518],[139.274114,35.98631],[139.27379,35.986193],[139.27354,35.986018],[139.272565,35.985152],[139.271927,35.984927],[139.271127,35.984785],[139.27049,35.984802],[139.270127,35.984869],[139.269965,35.984802],[139.269578,35.984552],[139.269403,35.984502],[139.269178,35.984552],[139.269103,35.984594],[139.268928,35.98486],[139.26899,35.98516],[139.269202,35.985543],[139.269202,35.985635],[139.269065,35.985768],[139.268865,35.98581],[139.268428,35.985835],[139.268065,35.985785],[139.26754,35.985418],[139.267015,35.98526],[139.266703,35.985327],[139.266565,35.985577],[139.266503,35.985935],[139.266528,35.986318],[139.266415,35.986568],[139.26619,35.98666],[139.265615,35.986568],[139.264503,35.986401],[139.263978,35.986426],[139.263553,35.986485],[139.262441,35.986368],[139.261328,35.986476],[139.261103,35.986593],[139.261053,35.986793],[139.260991,35.986818],[139.260803,35.986793],[139.260053,35.98656],[139.259803,35.986401],[139.259753,35.98631],[139.259641,35.985676],[139.259528,35.985451],[139.259478,35.985226],[139.259253,35.985135],[139.258728,35.985043],[139.258254,35.985201],[139.258054,35.985193],[139.257666,35.98531],[139.257504,35.985326],[139.257366,35.985285],[139.256666,35.984876],[139.256391,35.98476],[139.256166,35.98471],[139.255416,35.984668],[139.255166,35.984685],[139.255004,35.984751],[139.254554,35.984843],[139.254191,35.984976],[139.254054,35.985068],[139.253691,35.985176],[139.253441,35.98531],[139.252916,35.985493],[139.252166,35.985935],[139.251917,35.985893],[139.251892,35.985601],[139.251667,35.985051],[139.251279,35.984351],[139.251117,35.983918],[139.251042,35.98331],[139.250817,35.982652],[139.250567,35.98256],[139.249842,35.982718],[139.249704,35.982718],[139.249429,35.982652],[139.248567,35.982302],[139.24818,35.982235],[139.246815,35.981841],[139.246305,35.98166],[139.245805,35.981568],[139.245217,35.981502],[139.244392,35.981443],[139.244218,35.98086],[139.244243,35.980135],[139.244543,35.97926],[139.244093,35.978994],[139.242368,35.978277],[139.241868,35.978127],[139.241418,35.977902],[139.240806,35.977519],[139.239693,35.977102],[139.238218,35.976652],[139.237531,35.976452],[139.237143,35.976302],[139.236669,35.975878],[139.235719,35.974844],[139.235319,35.974486],[139.234587,35.974419],[139.23381,35.975781],[139.232717,35.977108],[139.231789,35.977891],[139.231297,35.9794],[139.230096,35.980195],[139.228963,35.981993],[139.226641,35.983299],[139.224652,35.984398],[139.224398,35.984796],[139.224128,35.98522],[139.223821,35.985703],[139.223601,35.986299],[139.22328,35.987681],[139.22295,35.9891],[139.223226,35.99021],[139.222885,35.991785],[139.222353,35.99285],[139.22197,35.995289],[139.220428,35.999415],[139.219607,36.001477],[139.218947,36.003135],[139.214663,36.005182],[139.213631,36.007165],[139.213406,36.006465],[139.213269,36.006265],[139.212906,36.005948],[139.212081,36.005673],[139.211856,36.00554],[139.211494,36.00509],[139.211082,36.004932],[139.210669,36.004982],[139.210007,36.005223],[139.209469,36.00594],[139.209282,36.006531],[139.209282,36.006931],[139.208894,36.006956],[139.208144,36.006815],[139.207257,36.00659],[139.206682,36.006498],[139.206457,36.006523],[139.205482,36.007198],[139.20487,36.007531],[139.204295,36.007689],[139.203482,36.007489],[139.202182,36.007464],[139.20127,36.007014],[139.20047,36.006514],[139.19972,36.006223],[139.198808,36.006381],[139.197945,36.006489],[139.197083,36.006464],[139.196733,36.006398],[139.195808,36.006439],[139.194433,36.006348],[139.193708,36.006373],[139.193096,36.006281],[139.192458,36.005898],[139.192246,36.005873],[139.191608,36.005898],[139.190184,36.006122],[139.190358,36.006547],[139.190521,36.007131],[139.190546,36.007564],[139.190408,36.008006],[139.190133,36.008664],[139.189683,36.009897],[139.189321,36.010597],[139.189208,36.010889],[139.189383,36.01138],[139.189733,36.011855],[139.190733,36.012755],[139.190821,36.01293],[139.190896,36.013472],[139.190708,36.013747],[139.188983,36.015155],[139.188796,36.015563],[139.188433,36.016146],[139.188071,36.016596],[139.187796,36.017138],[139.187683,36.01783],[139.187896,36.018263],[139.187958,36.018704],[139.187646,36.019179],[139.186421,36.020704],[139.185783,36.021654],[139.185708,36.022146],[139.185808,36.022979],[139.185596,36.023812],[139.185758,36.024262],[139.185671,36.024729],[139.185783,36.025245],[139.186171,36.025787],[139.186358,36.026304],[139.186645,36.026512],[139.187195,36.02682],[139.187445,36.02707],[139.188058,36.02757],[139.188408,36.028129],[139.189408,36.028154],[139.190245,36.028337],[139.190845,36.028695],[139.191045,36.028879],[139.191657,36.028829],[139.19282,36.029012],[139.193257,36.029012],[139.193757,36.02877],[139.194207,36.028587],[139.194707,36.028745],[139.195032,36.028904],[139.196007,36.029245],[139.197057,36.029537],[139.197832,36.029562],[139.198469,36.029287],[139.199082,36.029354],[139.199519,36.02967],[139.199694,36.030262],[139.200819,36.030937],[139.201519,36.031295],[139.201631,36.031654],[139.201769,36.031854],[139.201794,36.032012],[139.202206,36.032378],[139.202819,36.03262],[139.203119,36.032712],[139.203706,36.032987],[139.203931,36.033345],[139.204256,36.033728],[139.204731,36.033887],[139.205056,36.03422],[139.205281,36.034653],[139.205781,36.034853],[139.206393,36.034945],[139.207056,36.03497],[139.207781,36.035145],[139.208443,36.035528],[139.209156,36.035895],[139.209631,36.036028],[139.209993,36.036945],[139.210955,36.038303],[139.211593,36.038903],[139.212043,36.039495],[139.213005,36.03992],[139.214505,36.040395],[139.215417,36.040753],[139.21603,36.04112],[139.216692,36.041411],[139.217217,36.041586],[139.217692,36.041953],[139.219379,36.043911],[139.219904,36.044336],[139.220179,36.044469],[139.220292,36.044853],[139.220217,36.044986],[139.220267,36.045461],[139.221042,36.045803],[139.223017,36.046453],[139.223404,36.046503],[139.224541,36.046544],[139.225616,36.046411],[139.226029,36.046528],[139.227054,36.047136],[139.228116,36.047403],[139.229103,36.047611],[139.229916,36.047678],[139.231353,36.048261],[139.232128,36.048261],[139.232578,36.048511],[139.232828,36.049094],[139.233128,36.049436],[139.233853,36.049528],[139.234678,36.049911],[139.235315,36.050244],[139.235415,36.050228],[139.235528,36.050194],[139.235703,36.050244],[139.235828,36.050286],[139.236115,36.050469],[139.236203,36.050469],[139.23654,36.050328],[139.236978,36.050169],[139.23724,36.050086],[139.23729,36.050178],[139.237415,36.050369],[139.237515,36.050369],[139.23809,36.050336],[139.238278,36.050411],[139.238365,36.050511],[139.238615,36.050786],[139.238815,36.050994],[139.23904,36.051244],[139.239052,36.051328],[139.23899,36.051411],[139.238815,36.051586],[139.238465,36.051969],[139.238253,36.052319],[139.238128,36.052536],[139.238265,36.053044],[139.237478,36.053127],[139.237478,36.053202],[139.237453,36.053369],[139.236815,36.053911],[139.236315,36.054186],[139.235953,36.054269],[139.23454,36.054994],[139.233728,36.054719],[139.23279,36.054719],[139.231853,36.054377],[139.231016,36.053902],[139.230153,36.053477],[139.229653,36.053294],[139.229491,36.053385],[139.229353,36.053635],[139.229241,36.053952],[139.228741,36.054035],[139.228191,36.054485],[139.227766,36.054602],[139.227378,36.055002],[139.227103,36.055568],[139.226716,36.056127],[139.226278,36.056302],[139.225828,36.056552],[139.225603,36.057876],[139.225666,36.05876],[139.225466,36.059251],[139.224853,36.059268],[139.223891,36.059451],[139.223241,36.059834],[139.222891,36.060009],[139.222004,36.060076],[139.221279,36.060234],[139.220616,36.060526],[139.220141,36.060926],[139.219754,36.060976],[139.219141,36.060792],[139.218554,36.061109],[139.217754,36.061217],[139.216679,36.061217],[139.215867,36.061326],[139.215392,36.061776],[139.214567,36.062942],[139.214204,36.063125],[139.213367,36.063192],[139.212592,36.063417],[139.212042,36.063817],[139.211342,36.064108],[139.21088,36.063792],[139.210105,36.063775],[139.209355,36.0642],[139.208405,36.064533],[139.207517,36.0646],[139.206855,36.0646],[139.206305,36.064733],[139.206105,36.064983],[139.20608,36.065408],[139.20588,36.065741],[139.20583,36.065791],[139.204905,36.065675],[139.203355,36.065633],[139.20308,36.065741],[139.202718,36.066166],[139.20253,36.066616],[139.202493,36.067],[139.201605,36.0672],[139.200918,36.067224],[139.200305,36.067649],[139.200168,36.067808],[139.199643,36.068074],[139.198168,36.068591],[139.197643,36.068699],[139.198031,36.069083],[139.19883,36.070099],[139.198855,36.070482],[139.198693,36.070999],[139.19883,36.071982],[139.198693,36.072207],[139.198668,36.072815],[139.198693,36.073065],[139.199018,36.073582],[139.19958,36.073782],[139.200468,36.073857],[139.201068,36.074032],[139.20218,36.075899],[139.202455,36.076465],[139.20248,36.076715],[139.202905,36.077007],[139.203655,36.076873],[139.204392,36.076624],[139.204704,36.076582],[139.205817,36.076624],[139.206479,36.077732],[139.205779,36.078382],[139.205304,36.07919],[139.205479,36.079415],[139.205754,36.080048],[139.206254,36.080765],[139.206392,36.081281],[139.206941,36.081823],[139.208129,36.082248],[139.208304,36.082406],[139.208516,36.083439],[139.208554,36.083981],[139.208741,36.084139],[139.209604,36.084614],[139.210353,36.084881],[139.210628,36.085023],[139.210228,36.086506],[139.210316,36.086722],[139.210278,36.087156],[139.209953,36.087422],[139.209253,36.087622],[139.208978,36.087664],[139.208641,36.087981],[139.208391,36.088564],[139.208278,36.08908],[139.208491,36.089355],[139.209191,36.089264],[139.209441,36.089197],[139.210378,36.089314],[139.210603,36.08923],[139.211003,36.088689],[139.211391,36.088531],[139.212141,36.088531],[139.212391,36.088422],[139.212616,36.087881],[139.212941,36.087564],[139.21359,36.087189],[139.21389,36.087073],[139.21464,36.086923],[139.21534,36.086948],[139.216203,36.086656],[139.217165,36.086548],[139.217778,36.086548],[139.218415,36.086781],[139.218802,36.087298],[139.218865,36.087564],[139.219077,36.088131],[139.220102,36.089131],[139.219902,36.089489],[139.219877,36.089914],[139.220427,36.090322],[139.22104,36.090664],[139.221565,36.090664],[139.222202,36.090422],[139.222902,36.090289],[139.223539,36.090489],[139.223927,36.090431],[139.223952,36.090289],[139.224202,36.089772],[139.224489,36.089347],[139.224402,36.089006],[139.224239,36.088581],[139.225027,36.087189],[139.225452,36.086506],[139.225989,36.086365],[139.226327,36.08619],[139.226827,36.085648],[139.227239,36.085623],[139.227327,36.085965],[139.227302,36.086165],[139.227364,36.086506],[139.227277,36.086698],[139.227327,36.087056],[139.227327,36.087531],[139.227239,36.087914],[139.227489,36.088006],[139.228514,36.087856],[139.229439,36.087589],[139.230214,36.087548],[139.230876,36.087656],[139.231576,36.087373],[139.232351,36.087173],[139.233076,36.087265],[139.233876,36.087198],[139.234189,36.087198],[139.234689,36.087265],[139.234964,36.087515],[139.234964,36.087881],[139.234876,36.087965],[139.234764,36.088506],[139.235013,36.088731],[139.235563,36.088648],[139.235788,36.088648],[139.236213,36.08854],[139.236376,36.087681],[139.236826,36.087431],[139.237238,36.087323],[139.237513,36.087073],[139.237601,36.086806],[139.237501,36.086506],[139.237776,36.086423],[139.238426,36.086423],[139.239613,36.086357],[139.240201,36.08614],[139.240588,36.086207],[139.240701,36.086273],[139.240913,36.086507],[139.240963,36.08659],[139.241126,36.08664],[139.241326,36.086615],[139.241463,36.086507],[139.241338,36.086473],[139.241613,36.086365],[139.241888,36.086407],[139.241963,36.086507],[139.242076,36.08664],[139.242188,36.086665],[139.242413,36.086507],[139.242613,36.086232],[139.243001,36.085957],[139.242938,36.085715],[139.242501,36.085423],[139.242413,36.085332],[139.242551,36.085057],[139.243163,36.084499],[139.243301,36.084299],[139.243388,36.083824],[139.243663,36.083557],[139.244388,36.08344],[139.24535,36.083982],[139.245775,36.083965],[139.2463,36.083399],[139.246575,36.083399],[139.246713,36.083491],[139.246803,36.083466],[139.246925,36.083507],[139.24705,36.083482],[139.2474,36.083149],[139.247625,36.083082],[139.2481,36.083107],[139.24835,36.083266],[139.248575,36.083466],[139.2487,36.083716],[139.24895,36.083991],[139.249175,36.084124],[139.249425,36.084199],[139.249675,36.084199],[139.2506,36.083707],[139.251187,36.083691],[139.251937,36.083541],[139.252262,36.083582],[139.252787,36.083816],[139.253087,36.083999],[139.253412,36.084357],[139.2536,36.084949],[139.2537,36.085132],[139.2545,36.085291],[139.254725,36.085366],[139.254924,36.085632],[139.255074,36.086082],[139.255212,36.086249],[139.255374,36.086266],[139.255674,36.086157],[139.256224,36.085757],[139.256449,36.085691],[139.256624,36.085716],[139.256724,36.085782],[139.256999,36.086099],[139.257149,36.086416],[139.257149,36.086507],[139.257212,36.087032],[139.257299,36.087099],[139.257849,36.087282],[139.258324,36.087216],[139.258462,36.087132],[139.258812,36.087199],[139.259087,36.087624],[139.259549,36.088549],[139.260224,36.08954],[139.260449,36.08974],[139.261311,36.090124],[139.261311,36.090307],[139.261211,36.090748],[139.260961,36.091265],[139.260674,36.091673],[139.260949,36.091873],[139.261698,36.09219],[139.262011,36.092282],[139.262723,36.092448],[139.262786,36.092482],[139.262736,36.093173],[139.262886,36.09359],[139.263136,36.094023],[139.263648,36.094548],[139.264448,36.095065],[139.265773,36.095548],[139.266673,36.095731],[139.267698,36.096256],[139.268223,36.096614],[139.269572,36.097706],[139.270172,36.098322],[139.270647,36.098681],[139.27101,36.098622],[139.271385,36.098306],[139.271772,36.097881],[139.272522,36.097456],[139.27281,36.097389],[139.273422,36.097164],[139.273585,36.097056],[139.274197,36.096898],[139.274335,36.096923],[139.275197,36.096789],[139.275559,36.096689],[139.276084,36.096256],[139.276672,36.095881],[139.276934,36.095764],[139.277434,36.09569],[139.277709,36.095456],[139.277747,36.095015],[139.277897,36.09469],[139.278159,36.09439],[139.278809,36.094223],[139.279109,36.094206],[139.280047,36.093957],[139.280172,36.09399],[139.280522,36.093873],[139.280922,36.093407],[139.281121,36.093432],[139.281521,36.093115],[139.281646,36.092957],[139.282109,36.092807],[139.282859,36.092349],[139.283084,36.092474],[139.283721,36.092832],[139.283834,36.092865],[139.284334,36.092524],[139.284896,36.09199],[139.285371,36.092124],[139.285921,36.092624],[139.286033,36.092807],[139.286058,36.09339],[139.286221,36.09389],[139.286333,36.093965],[139.286996,36.094115],[139.287133,36.094232],[139.287646,36.095557],[139.288208,36.095815],[139.288421,36.09584],[139.288845,36.095998],[139.28887,36.096107],[139.28882,36.096581],[139.288508,36.096956],[139.288196,36.097156],[139.287971,36.097498],[139.288045,36.098531],[139.288158,36.099056],[139.288283,36.099639],[139.288595,36.100106],[139.28882,36.100564],[139.28892,36.100989],[139.288933,36.101897],[139.288858,36.10248],[139.288908,36.102655],[139.289095,36.103022],[139.288858,36.106038],[139.288327,36.106514],[139.288095,36.106846],[139.289307,36.107388],[139.290832,36.107396],[139.291507,36.107329],[139.29157,36.107371],[139.292007,36.107771],[139.292782,36.108104],[139.293094,36.108196],[139.293669,36.108471],[139.295194,36.109046],[139.295944,36.109296],[139.296606,36.109479],[139.297281,36.109488],[139.298494,36.109405],[139.299419,36.10988],[139.300156,36.110246],[139.301243,36.110521],[139.301329,36.110544],[139.301406,36.110571],[139.303981,36.10878],[139.304418,36.108538],[139.305206,36.108322],[139.305793,36.108089],[139.306293,36.107772],[139.306843,36.107239],[139.307005,36.106406],[139.307255,36.106156],[139.307468,36.106014],[139.307743,36.105831],[139.308418,36.105498],[139.309118,36.105214],[139.310055,36.105289],[139.31133,36.105623],[139.31153,36.105748],[139.311593,36.105756],[139.31178,36.105414],[139.31218,36.105406],[139.31218,36.104581],[139.31173,36.104365],[139.311368,36.104281],[139.310743,36.10429],[139.310505,36.10414],[139.31043,36.103981],[139.310493,36.103773],[139.31038,36.10339],[139.310893,36.101773],[139.311055,36.101373],[139.31153,36.100798],[139.312293,36.09974],[139.312493,36.099132],[139.31263,36.098932],[139.313193,36.09864],[139.313743,36.09849],[139.314068,36.098124],[139.31438,36.097482],[139.31523,36.097116],[139.315968,36.096224],[139.31738,36.094991],[139.317655,36.094658],[139.317705,36.094574],[139.317055,36.094224],[139.31698,36.094166],[139.31798,36.092775],[139.318043,36.09245],[139.318368,36.092158],[139.318605,36.092133],[139.319043,36.091891],[139.319768,36.091708],[139.32008,36.091533],[139.320418,36.091166],[139.320955,36.090292],[139.32188,36.091691],[139.32208,36.092166],[139.322417,36.093674],[139.322592,36.093858],[139.322917,36.094558],[139.322855,36.094983],[139.322955,36.095183],[139.323405,36.095733],[139.324155,36.096366],[139.324592,36.097091],[139.325142,36.097382],[139.325342,36.097674],[139.325367,36.098149],[139.325467,36.098374],[139.326167,36.099057],[139.326829,36.099265],[139.327417,36.098924],[139.327617,36.098541],[139.327804,36.097766],[139.327917,36.097566],[139.328267,36.097249],[139.328854,36.097166],[139.329554,36.097174],[139.329817,36.097107],[139.330429,36.096482],[139.331067,36.096091],[139.331254,36.095766],[139.331192,36.094858],[139.330992,36.094016],[139.330754,36.093258],[139.330654,36.093116],[139.330204,36.0925],[139.330092,36.091991],[139.330292,36.091291],[139.330442,36.09105],[139.330692,36.090825],[139.331042,36.090675],[139.331917,36.090766],[139.332404,36.090975],[139.333629,36.091675],[139.334179,36.091858],[139.334379,36.091833],[139.334717,36.091741],[139.334942,36.0913],[139.334942,36.09085],[139.335004,36.090375],[139.335317,36.08945],[139.335229,36.088842],[139.335454,36.088758],[139.336017,36.088825],[139.336467,36.088942],[139.337292,36.089067],[139.337704,36.08915],[139.338541,36.089158],[139.339041,36.08925],[139.339229,36.089317],[139.339704,36.089616],[139.340104,36.090008],[139.340304,36.090275],[139.341516,36.090075],[139.342066,36.090091],[139.342216,36.090233],[139.342366,36.090416],[139.342441,36.09105],[139.342416,36.09175],[139.342516,36.092291],[139.342754,36.093083],[139.342729,36.093641],[139.342303,36.094966],[139.342191,36.095532],[139.342353,36.095982],[139.342241,36.096457],[139.342241,36.096949],[139.342428,36.097324],[139.342866,36.097674],[139.343253,36.097657],[139.343453,36.098307],[139.343403,36.099882],[139.343816,36.100015],[139.343941,36.100048],[139.344453,36.100148],[139.344591,36.100248],[139.344641,36.100532],[139.345066,36.101898],[139.344978,36.101915],[139.343891,36.101665],[139.343816,36.102073],[139.343803,36.103065],[139.343853,36.103606],[139.343878,36.103581],[139.344728,36.103539],[139.34494,36.104123],[139.346103,36.103948],[139.348103,36.103531],[139.348365,36.103606],[139.34894,36.103673],[139.349478,36.103656],[139.35014,36.103573],[139.351053,36.103331],[139.351965,36.103023],[139.353728,36.102331],[139.356465,36.101115],[139.358153,36.10049],[139.35914,36.100315],[139.360353,36.100256],[139.361828,36.100223],[139.362965,36.100123],[139.364527,36.10004],[139.365227,36.099965],[139.36609,36.09989],[139.368527,36.09974],[139.370027,36.09954],[139.370477,36.099556],[139.371752,36.099881],[139.375202,36.100806]]],"type":"Polygon"}}]}