{"type":"FeatureCollection","features":[{"geometry":{"type":"Polygon","coordinates":[[[139.379159,35.771109],[139.379021,35.77035],[139.379109,35.770134],[139.379346,35.769926],[139.379571,35.769592],[139.379546,35.769242],[139.379684,35.768851],[139.379609,35.768301],[139.379734,35.767634],[139.380096,35.766643],[139.380296,35.766409],[139.380846,35.766101],[139.380959,35.766068],[139.381209,35.765984],[139.381771,35.766101],[139.382059,35.766109],[139.382421,35.765868],[139.383096,35.765726],[139.383484,35.765535],[139.384233,35.765468],[139.384571,35.76536],[139.384921,35.76536],[139.386283,35.765901],[139.386858,35.76601],[139.387308,35.766201],[139.387871,35.766451],[139.389008,35.766943],[139.389533,35.767118],[139.389533,35.767143],[139.38992,35.767251],[139.39067,35.767335],[139.391583,35.767401],[139.391758,35.767193],[139.39172,35.766876],[139.391433,35.766001],[139.39087,35.765018],[139.39037,35.76416],[139.39037,35.76391],[139.39062,35.76366],[139.391033,35.763485],[139.391558,35.763385],[139.391895,35.763252],[139.39197,35.763343],[139.39222,35.763477],[139.392533,35.763535],[139.393445,35.763627],[139.393945,35.763852],[139.394633,35.76396],[139.39527,35.764268],[139.39572,35.76441],[139.395957,35.764402],[139.39632,35.76431],[139.396795,35.764268],[139.39757,35.764327],[139.397995,35.764435],[139.39827,35.764618],[139.398482,35.764977],[139.398657,35.765968],[139.398807,35.766168],[139.399607,35.766752],[139.399807,35.766952],[139.39992,35.767318],[139.399969,35.767676],[139.400119,35.768151],[139.400332,35.768301],[139.401232,35.768701],[139.401594,35.768768],[139.402007,35.768793],[139.402582,35.768676],[139.402994,35.768651],[139.403332,35.768743],[139.404032,35.769251],[139.404394,35.769393],[139.404781,35.769385],[139.405081,35.769335],[139.405631,35.769068],[139.406456,35.768835],[139.407394,35.768626],[139.407819,35.768676],[139.408394,35.768785],[139.409231,35.768843],[139.409556,35.768843],[139.410556,35.768635],[139.411081,35.768452],[139.411493,35.768268],[139.411943,35.76816],[139.412631,35.76826],[139.412931,35.768243],[139.413243,35.768085],[139.413481,35.76761],[139.413706,35.767377],[139.414056,35.767218],[139.414418,35.767152],[139.415256,35.767127],[139.415581,35.767077],[139.415968,35.766485],[139.416356,35.766244],[139.416456,35.766219],[139.417068,35.76621],[139.418093,35.766327],[139.418793,35.76616],[139.419505,35.766135],[139.419843,35.766202],[139.420118,35.766335],[139.420505,35.766652],[139.42103,35.76721],[139.421343,35.76746],[139.421568,35.767594],[139.42198,35.76806],[139.422092,35.76806],[139.422367,35.767952],[139.422705,35.767702],[139.423092,35.767494],[139.42353,35.767335],[139.423892,35.767285],[139.424255,35.767352],[139.42458,35.76746],[139.424855,35.767485],[139.425942,35.767144],[139.426217,35.766985],[139.426605,35.766844],[139.427105,35.766752],[139.42763,35.766727],[139.428042,35.766835],[139.428317,35.766994],[139.428642,35.76711],[139.428979,35.767127],[139.429392,35.767085],[139.431192,35.766577],[139.431804,35.766527],[139.432267,35.766636],[139.432604,35.766927],[139.432992,35.767402],[139.433241,35.767561],[139.433716,35.767536],[139.434079,35.767444],[139.434741,35.767369],[139.435816,35.767344],[139.436404,35.767386],[139.436816,35.767677],[139.437154,35.767811],[139.437854,35.767969],[139.438066,35.768127],[139.438179,35.768344],[139.438241,35.768686],[139.438104,35.768952],[139.437966,35.769119],[139.437991,35.76941],[139.438328,35.769519],[139.438741,35.769519],[139.439291,35.769452],[139.439566,35.76926],[139.439653,35.768969],[139.439616,35.768111],[139.439841,35.767752],[139.440216,35.767344],[139.440553,35.767119],[139.440741,35.766936],[139.441166,35.766869],[139.442678,35.766819],[139.442791,35.766753],[139.444291,35.766669],[139.44489,35.766719],[139.44514,35.766811],[139.446015,35.767819],[139.446403,35.768111],[139.447065,35.768327],[139.448653,35.768702],[139.449178,35.768728],[139.449865,35.768703],[139.450165,35.768919],[139.45059,35.769194],[139.450977,35.769352],[139.45114,35.769369],[139.452052,35.769028],[139.452715,35.768636],[139.45304,35.768569],[139.453215,35.768569],[139.453415,35.768819],[139.453627,35.769319],[139.45399,35.769419],[139.454515,35.769511],[139.455077,35.769628],[139.456189,35.769669],[139.456239,35.769686],[139.456627,35.769703],[139.456902,35.769661],[139.457289,35.769453],[139.457627,35.769319],[139.457902,35.769319],[139.458039,35.769361],[139.458427,35.769628],[139.458502,35.769719],[139.458652,35.770061],[139.458739,35.771319],[139.458827,35.771661],[139.458964,35.771969],[139.459139,35.772219],[139.459389,35.772419],[139.459689,35.772511],[139.460514,35.772552],[139.460751,35.772644],[139.460939,35.772911],[139.461214,35.773427],[139.461364,35.773511],[139.462301,35.773561],[139.462526,35.773536],[139.462639,35.773394],[139.462764,35.773127],[139.462964,35.773011],[139.463376,35.773011],[139.463626,35.773102],[139.464126,35.773527],[139.464489,35.773752],[139.465126,35.773819],[139.466401,35.773744],[139.466738,35.773761],[139.466951,35.773894],[139.467263,35.774036],[139.468501,35.774211],[139.469613,35.774228],[139.469838,35.774161],[139.470251,35.773744],[139.470575,35.773611],[139.470688,35.773594],[139.470863,35.773594],[139.471,35.773694],[139.471488,35.774228],[139.471938,35.774511],[139.472213,35.774586],[139.473588,35.774853],[139.473713,35.775011],[139.47355,35.775553],[139.473563,35.775919],[139.47375,35.776019],[139.474488,35.775644],[139.47475,35.775619],[139.4759,35.775569],[139.475938,35.775561],[139.475938,35.775603],[139.475288,35.777002],[139.475325,35.777036],[139.476262,35.777577],[139.4765,35.777919],[139.47675,35.778111],[139.477275,35.778202],[139.477575,35.778394],[139.478212,35.778577],[139.478287,35.778736],[139.478275,35.778986],[139.478312,35.779019],[139.47875,35.779144],[139.479175,35.779419],[139.47935,35.779635],[139.4794,35.779935],[139.479475,35.779977],[139.480012,35.780219],[139.480375,35.780219],[139.480675,35.780302],[139.48115,35.780552],[139.481574,35.780685],[139.481849,35.780777],[139.482074,35.780944],[139.481999,35.781069],[139.482199,35.781194],[139.482312,35.781219],[139.482462,35.781094],[139.482937,35.781202],[139.483224,35.781194],[139.483774,35.781002],[139.484637,35.781069],[139.485412,35.780935],[139.485799,35.78081],[139.486574,35.780261],[139.487074,35.780169],[139.487811,35.779761],[139.487974,35.779827],[139.489111,35.779977],[139.489736,35.780061],[139.489561,35.779594],[139.489086,35.779694],[139.489061,35.779419],[139.489074,35.779227],[139.489136,35.779227],[139.489499,35.779152],[139.489636,35.779177],[139.489749,35.779352],[139.489974,35.779352],[139.490099,35.779452],[139.490111,35.779711],[139.490061,35.779961],[139.489886,35.780361],[139.489699,35.780669],[139.490286,35.780986],[139.490586,35.780652],[139.490874,35.780536],[139.490749,35.780302],[139.490999,35.780127],[139.491261,35.780402],[139.491474,35.780394],[139.492574,35.780011],[139.493486,35.779777],[139.493624,35.779711],[139.493599,35.779911],[139.493336,35.780677],[139.493336,35.780869],[139.493574,35.781544],[139.493698,35.781611],[139.493886,35.781627],[139.495123,35.781494],[139.495748,35.781536],[139.495911,35.781352],[139.496073,35.780969],[139.496073,35.780469],[139.496248,35.779628],[139.496636,35.779044],[139.496748,35.778953],[139.496796,35.778757],[139.496936,35.778694],[139.497423,35.780053],[139.497748,35.781136],[139.497998,35.781369],[139.498473,35.781411],[139.499023,35.782119],[139.499286,35.782227],[139.500198,35.782194],[139.501098,35.782469],[139.50321,35.782802],[139.503748,35.783002],[139.504148,35.783236],[139.504398,35.783219],[139.504673,35.782969],[139.50511,35.782836],[139.506197,35.782819],[139.506722,35.782869],[139.507172,35.783211],[139.507647,35.783686],[139.50781,35.784002],[139.50781,35.784386],[139.50811,35.784527],[139.508285,35.784802],[139.50871,35.784894],[139.509397,35.784877],[139.510047,35.784902],[139.511547,35.785086],[139.512159,35.785252],[139.512659,35.785636],[139.512934,35.78591],[139.513034,35.786369],[139.513109,35.786819],[139.513272,35.78731],[139.513672,35.788044],[139.513734,35.788335],[139.514059,35.788493],[139.514659,35.788585],[139.515647,35.788843],[139.515847,35.788818],[139.516259,35.78891],[139.516772,35.78901],[139.517771,35.788677],[139.518371,35.788569],[139.519046,35.788502],[139.519371,35.78851],[139.519971,35.788419],[139.520734,35.788469],[139.521134,35.788569],[139.521959,35.789019],[139.523096,35.789727],[139.523558,35.790118],[139.523796,35.790577],[139.523671,35.790777],[139.523046,35.791435],[139.523046,35.791643],[139.523358,35.791893],[139.523658,35.791943],[139.525221,35.791893],[139.525333,35.791868],[139.525608,35.791977],[139.525733,35.792268],[139.525858,35.792418],[139.526196,35.792577],[139.526546,35.792652],[139.526808,35.792685],[139.526896,35.792668],[139.527383,35.792777],[139.527496,35.79286],[139.527546,35.792918],[139.528458,35.793476],[139.528958,35.79396],[139.52942,35.794535],[139.529995,35.795176],[139.530608,35.79591],[139.531045,35.796343],[139.531245,35.796626],[139.531545,35.796859],[139.531808,35.797543],[139.532433,35.798459],[139.532845,35.798801],[139.534032,35.800651],[139.53427,35.801084],[139.534745,35.801609],[139.53507,35.802034],[139.536057,35.802992],[139.536832,35.803984],[139.537019,35.804142],[139.538069,35.804942],[139.538594,35.805267],[139.539744,35.806108],[139.540582,35.806608],[139.541207,35.807067],[139.541569,35.807383],[139.544756,35.805709],[139.545269,35.80465],[139.545406,35.804409],[139.546369,35.803942],[139.546694,35.803717],[139.546931,35.803359],[139.547069,35.802959],[139.547181,35.802617],[139.547144,35.802167],[139.546256,35.799493],[139.545744,35.798743],[139.545319,35.798226],[139.545056,35.797801],[139.544869,35.797318],[139.544582,35.796918],[139.543432,35.79616],[139.542669,35.79576],[139.540094,35.794152],[139.539769,35.793877],[139.538832,35.792743],[139.538432,35.79236],[139.538007,35.792044],[139.537195,35.791627],[139.537382,35.79091],[139.539419,35.790344],[139.540132,35.79006],[139.540744,35.789686],[139.541057,35.789552],[139.541432,35.789544],[139.541707,35.789477],[139.542494,35.789052],[139.543094,35.788752],[139.543307,35.788719],[139.543732,35.788444],[139.543682,35.787994],[139.543757,35.786103],[139.543707,35.78242],[139.543594,35.781653],[139.543494,35.781345],[139.543244,35.780595],[139.542944,35.780028],[139.542757,35.779812],[139.541969,35.779412],[139.541544,35.779245],[139.541094,35.778904],[139.540544,35.778679],[139.539944,35.778454],[139.539769,35.778379],[139.539819,35.777837],[139.539607,35.777712],[139.538957,35.777495],[139.538244,35.777262],[139.537682,35.777012],[139.537495,35.776862],[139.53722,35.776596],[139.53697,35.776446],[139.536657,35.776221],[139.536557,35.776087],[139.536382,35.775846],[139.536032,35.775279],[139.535932,35.775212],[139.534932,35.774712],[139.53352,35.773846],[139.53287,35.773587],[139.531395,35.773371],[139.531395,35.773354],[139.530345,35.773279],[139.529133,35.773337],[139.528683,35.773337],[139.528233,35.773171],[139.52777,35.772787],[139.526271,35.771754],[139.525946,35.772204],[139.525571,35.772204],[139.524971,35.772137],[139.524333,35.771971],[139.523833,35.771904],[139.522808,35.772004],[139.522609,35.771962],[139.522459,35.771846],[139.521996,35.771413],[139.521421,35.770954],[139.520421,35.770229],[139.519796,35.769571],[139.519171,35.768863],[139.517347,35.766971],[139.517047,35.766621],[139.517122,35.76628],[139.516997,35.76628],[139.516397,35.76598],[139.516134,35.765746],[139.516034,35.765505],[139.516197,35.76543],[139.516484,35.76553],[139.517847,35.766105],[139.519521,35.766896],[139.519821,35.767105],[139.519921,35.767088],[139.520321,35.767263],[139.520934,35.767521],[139.521621,35.767705],[139.522421,35.767855],[139.523446,35.767946],[139.524721,35.768138],[139.525571,35.768213],[139.526933,35.768355],[139.527233,35.767838],[139.528033,35.76798],[139.528133,35.768138],[139.528508,35.768271],[139.529808,35.768355],[139.530283,35.768438],[139.530808,35.768696],[139.531508,35.769155],[139.532058,35.769388],[139.53342,35.76958],[139.534857,35.76988],[139.53492,35.769913],[139.534957,35.76993],[139.535557,35.77013],[139.536307,35.770296],[139.538257,35.770921],[139.539057,35.77113],[139.541119,35.771863],[139.542532,35.772396],[139.543319,35.772854],[139.543769,35.773163],[139.544244,35.773396],[139.544919,35.773629],[139.546144,35.774088],[139.546569,35.774179],[139.546844,35.774129],[139.547244,35.774121],[139.547594,35.774129],[139.547694,35.774038],[139.547744,35.773804],[139.547719,35.771888],[139.547594,35.771413],[139.546982,35.770255],[139.546832,35.76978],[139.546732,35.769055],[139.546732,35.768497],[139.546844,35.767888],[139.547444,35.76613],[139.547344,35.765722],[139.547207,35.765497],[139.547007,35.765039],[139.546807,35.764189],[139.546894,35.763689],[139.547144,35.763422],[139.547357,35.763339],[139.547357,35.763281],[139.547219,35.763222],[139.547157,35.763122],[139.547007,35.762731],[139.546619,35.762689],[139.546557,35.762464],[139.546657,35.761814],[139.546619,35.761189],[139.546819,35.760214],[139.545932,35.75844],[139.545632,35.758031],[139.545345,35.757781],[139.545095,35.757373],[139.544732,35.756623],[139.544645,35.75624],[139.544282,35.755723],[139.544307,35.755448],[139.544595,35.754798],[139.542895,35.753223],[139.533208,35.744641],[139.532409,35.744466],[139.528471,35.744766],[139.527184,35.743666],[139.531334,35.74035],[139.532446,35.741233],[139.532971,35.741775],[139.532709,35.742566],[139.534508,35.743066],[139.535958,35.742391],[139.537558,35.743408],[139.537883,35.744041],[139.538408,35.745241],[139.538708,35.745758],[139.540095,35.746624],[139.540733,35.747166],[139.541808,35.748182],[139.542108,35.748432],[139.542833,35.749341],[139.543732,35.750715],[139.54432,35.751132],[139.54457,35.751224],[139.54482,35.751199],[139.545132,35.75104],[139.545282,35.750832],[139.545332,35.750482],[139.54537,35.750082],[139.54537,35.749707],[139.545432,35.749357],[139.545682,35.748824],[139.546157,35.748099],[139.546207,35.747899],[139.546295,35.747291],[139.54652,35.746299],[139.546795,35.745691],[139.546907,35.745258],[139.547082,35.743525],[139.547332,35.742208],[139.547307,35.741742],[139.546895,35.740067],[139.546758,35.739792],[139.546508,35.739433],[139.546308,35.739225],[139.546233,35.739],[139.546208,35.738684],[139.546283,35.738484],[139.546595,35.7379],[139.546683,35.737584],[139.546758,35.736567],[139.546733,35.736134],[139.546658,35.735842],[139.546483,35.735592],[139.546408,35.735342],[139.546433,35.733634],[139.546445,35.730943],[139.546608,35.730743],[139.54672,35.730468],[139.547133,35.72991],[139.547633,35.729476],[139.547858,35.72921],[139.548033,35.728893],[139.54847,35.72831],[139.54867,35.727993],[139.548883,35.72781],[139.54922,35.727627],[139.549195,35.727243],[139.54897,35.726068],[139.549008,35.725593],[139.549083,35.725285],[139.549171,35.724244],[139.549121,35.72311],[139.549158,35.721352],[139.549121,35.720927],[139.549158,35.720427],[139.549071,35.719611],[139.548883,35.719436],[139.547946,35.719161],[139.546721,35.719002],[139.546121,35.718819],[139.543909,35.717844],[139.543459,35.717703],[139.540447,35.716619],[139.539834,35.716436],[139.538709,35.716203],[139.538347,35.716161],[139.537847,35.716136],[139.537459,35.716161],[139.536935,35.716086],[139.53691,35.716111],[139.536435,35.716136],[139.534035,35.716403],[139.53156,35.716619],[139.53126,35.716686],[139.53121,35.716752],[139.53076,35.717136],[139.530035,35.717611],[139.529873,35.717677],[139.52931,35.712711],[139.529423,35.712686],[139.530198,35.712711],[139.531435,35.71262],[139.533348,35.712245],[139.533872,35.712086],[139.535397,35.711703],[139.53661,35.711328],[139.537447,35.711345],[139.53781,35.711528],[139.538247,35.711803],[139.539659,35.712553],[139.540047,35.712803],[139.540572,35.713028],[139.540959,35.713253],[139.542559,35.713845],[139.543034,35.714095],[139.545209,35.715003],[139.545846,35.715336],[139.546259,35.715503],[139.548059,35.716428],[139.549333,35.716953],[139.550133,35.717428],[139.550496,35.717744],[139.552233,35.719128],[139.553945,35.720327],[139.554445,35.720711],[139.55472,35.720844],[139.555158,35.721002],[139.556095,35.721252],[139.557045,35.721661],[139.55762,35.721844],[139.559807,35.722052],[139.560945,35.721986],[139.562382,35.721969],[139.563657,35.721903],[139.565557,35.721678],[139.566644,35.721478],[139.568132,35.721144],[139.569219,35.720786],[139.570106,35.720561],[139.570931,35.720311],[139.572369,35.719911],[139.573144,35.719661],[139.573294,35.719645],[139.574369,35.719286],[139.575119,35.718945],[139.575806,35.718586],[139.576918,35.717637],[139.578356,35.71647],[139.578943,35.715929],[139.580656,35.71462],[139.581381,35.71422],[139.582406,35.713721],[139.583406,35.713346],[139.584818,35.712712],[139.58653,35.711879],[139.58733,35.711563],[139.58983,35.709946],[139.590768,35.709271],[139.59188,35.708396],[139.592355,35.707896],[139.592793,35.707513],[139.593905,35.70668],[139.594617,35.706255],[139.595317,35.705897],[139.595455,35.705738],[139.592618,35.700647],[139.590131,35.694839],[139.588231,35.695631],[139.586681,35.694089],[139.586769,35.693906],[139.587069,35.693706],[139.587406,35.693548],[139.587731,35.693281],[139.588181,35.693081],[139.588893,35.692856],[139.589418,35.692606],[139.589781,35.692315],[139.590781,35.691823],[139.591218,35.69144],[139.592831,35.690173],[139.594018,35.689074],[139.593806,35.688982],[139.593581,35.688824],[139.593056,35.688824],[139.592918,35.688615],[139.593081,35.688215],[139.593081,35.68794],[139.592643,35.687899],[139.592118,35.687782],[139.591556,35.687624],[139.591143,35.687349],[139.590756,35.687257],[139.590593,35.687165],[139.590456,35.686915],[139.590619,35.686715],[139.591431,35.686066],[139.591506,35.685774],[139.591818,35.685391],[139.592318,35.685182],[139.592506,35.685024],[139.592506,35.684799],[139.593693,35.684282],[139.593456,35.684016],[139.593118,35.683266],[139.592931,35.682999],[139.593781,35.682458],[139.594118,35.682299],[139.594206,35.682208],[139.594256,35.682233],[139.595193,35.682208],[139.597581,35.681991],[139.598156,35.681966],[139.598706,35.6819],[139.599655,35.6817],[139.600618,35.681475],[139.60148,35.681183],[139.602868,35.680741],[139.603218,35.680675],[139.603668,35.680292],[139.604918,35.679342],[139.605405,35.679025],[139.605768,35.678642],[139.606543,35.678017],[139.60668,35.677834],[139.607018,35.676884],[139.60718,35.676167],[139.607543,35.676234],[139.607518,35.676434],[139.607992,35.676509],[139.608267,35.676459],[139.608292,35.676034],[139.60868,35.676034],[139.60873,35.675559],[139.608742,35.674992],[139.60863,35.674951],[139.608793,35.673592],[139.608818,35.673101],[139.608743,35.671834],[139.608805,35.671043],[139.60888,35.670593],[139.608968,35.67041],[139.609493,35.670568],[139.609543,35.670884],[139.609905,35.670976],[139.61043,35.670959],[139.610655,35.670776],[139.610842,35.670326],[139.610955,35.670193],[139.612092,35.670326],[139.612505,35.670326],[139.612617,35.670351],[139.612892,35.669993],[139.612892,35.669901],[139.61293,35.669835],[139.613592,35.669518],[139.613755,35.669493],[139.61393,35.66956],[139.614067,35.669701],[139.614292,35.669768],[139.615142,35.669785],[139.61553,35.669785],[139.61553,35.669493],[139.61578,35.66951],[139.616155,35.669901],[139.618361,35.669707],[139.620279,35.669081],[139.62229,35.667123],[139.624717,35.665117],[139.625945,35.663682],[139.626279,35.66194],[139.626727,35.659599],[139.63096,35.656475],[139.631492,35.655216],[139.631492,35.654429],[139.630566,35.654035],[139.629364,35.654035],[139.628057,35.653096],[139.62596,35.649898],[139.623861,35.648825],[139.622186,35.648825],[139.620091,35.649562],[139.617548,35.647686],[139.616993,35.6461],[139.616993,35.645427],[139.617469,35.644971],[139.618937,35.644445],[139.621133,35.644445],[139.622205,35.64367],[139.622205,35.642875],[139.6219,35.642354],[139.622323,35.642119],[139.622748,35.641725],[139.62324,35.640958],[139.62324,35.640436],[139.622596,35.639639],[139.622596,35.639033],[139.623425,35.638304],[139.623425,35.636943],[139.62407,35.635653],[139.62407,35.634475],[139.623728,35.633297],[139.625183,35.631308],[139.625366,35.630615],[139.625781,35.629404],[139.627474,35.629117],[139.627474,35.62757],[139.627474,35.625569],[139.629134,35.624457],[139.629477,35.623992],[139.629477,35.621962],[139.629477,35.620645],[139.629188,35.620645],[139.628195,35.620988],[139.627233,35.620988],[139.624286,35.617662],[139.622721,35.615697],[139.622563,35.615052],[139.623519,35.611268],[139.623119,35.611468],[139.621793,35.61184],[139.619182,35.613492],[139.61877,35.613759],[139.618407,35.613942],[139.617657,35.614009],[139.61727,35.613851],[139.616245,35.613584],[139.615695,35.613384],[139.615333,35.613526],[139.615195,35.613634],[139.614208,35.614159],[139.61382,35.614451],[139.61347,35.614426],[139.613108,35.614676],[139.613058,35.614834],[139.61272,35.61535],[139.612445,35.615667],[139.61207,35.6159],[139.610608,35.616284],[139.609246,35.616534],[139.608671,35.616559],[139.608008,35.616292],[139.607596,35.616025],[139.606958,35.615709],[139.606458,35.61555],[139.605958,35.615509],[139.605409,35.615625],[139.605159,35.61565],[139.603996,35.616259],[139.603834,35.616375],[139.603234,35.616667],[139.603009,35.6168],[139.602484,35.61705],[139.602321,35.617183],[139.601521,35.617617],[139.600996,35.617958],[139.599984,35.618433],[139.599509,35.618566],[139.598209,35.61855],[139.597359,35.618625],[139.596584,35.618483],[139.596309,35.618533],[139.595897,35.618491],[139.595584,35.6184],[139.594947,35.618158],[139.593509,35.617667],[139.59291,35.6176],[139.592435,35.617641],[139.591522,35.61785],[139.59111,35.618008],[139.590197,35.618441],[139.589622,35.6188],[139.58916,35.618941],[139.588772,35.6191],[139.588497,35.619274],[139.58811,35.619458],[139.586985,35.620183],[139.586185,35.620658],[139.58516,35.621024],[139.58511,35.621024],[139.584723,35.621182],[139.583723,35.621366],[139.583348,35.621499],[139.582848,35.621616],[139.581385,35.621666],[139.580773,35.621824],[139.580135,35.622049],[139.579611,35.622116],[139.579036,35.622074],[139.578486,35.621899],[139.578261,35.621924],[139.578236,35.621874],[139.578261,35.621832],[139.577761,35.621857],[139.577323,35.621924],[139.576048,35.622224],[139.574486,35.622874],[139.574261,35.62299],[139.573599,35.623215],[139.572549,35.62374],[139.571649,35.624174],[139.570761,35.624807],[139.570549,35.62489],[139.570186,35.62514],[139.569449,35.62584],[139.568724,35.626407],[139.568261,35.626723],[139.567761,35.626932],[139.566987,35.627115],[139.565862,35.627248],[139.565524,35.627315],[139.565587,35.62784],[139.565987,35.629073],[139.566061,35.629431],[139.565899,35.629723],[139.565211,35.630156],[139.563724,35.630906],[139.562762,35.631356],[139.562587,35.631464],[139.562637,35.631739],[139.562662,35.631856],[139.562624,35.632197],[139.562537,35.632281],[139.562362,35.632372],[139.562162,35.632489],[139.562062,35.632514],[139.561974,35.632581],[139.561887,35.632681],[139.561512,35.632872],[139.560562,35.633181],[139.560037,35.633389],[139.559524,35.633539],[139.559062,35.633697],[139.558387,35.633839],[139.558112,35.633931],[139.55765,35.634031],[139.557337,35.634047],[139.556687,35.634106],[139.556412,35.634114],[139.555487,35.634189],[139.554475,35.634231],[139.553725,35.634214],[139.553313,35.634164],[139.552813,35.634148],[139.551738,35.634089],[139.550776,35.634131],[139.549601,35.634348],[139.549476,35.634414],[139.549226,35.634481],[139.549113,35.634573],[139.549063,35.634681],[139.548826,35.635322],[139.548613,35.635814],[139.548251,35.636181],[139.548038,35.636439],[139.547888,35.636564],[139.547788,35.636614],[139.547713,35.636722],[139.547638,35.63678],[139.547376,35.636822],[139.546501,35.636872],[139.546363,35.636897],[139.546276,35.636889],[139.546276,35.637014],[139.546176,35.637264],[139.546101,35.637347],[139.546013,35.63738],[139.545538,35.637414],[139.544538,35.637539],[139.543689,35.637689],[139.543351,35.637772],[139.542451,35.638055],[139.542051,35.638105],[139.541489,35.638255],[139.541064,35.638413],[139.540764,35.638555],[139.540601,35.63868],[139.540514,35.63873],[139.540326,35.638763],[139.540051,35.63878],[139.539814,35.638813],[139.539726,35.638797],[139.539151,35.63893],[139.538839,35.63898],[139.538576,35.63908],[139.537976,35.639222],[139.537489,35.639313],[139.537276,35.639297],[139.537126,35.639313],[139.536901,35.639363],[139.536801,35.639363],[139.536464,35.639413],[139.536151,35.639505],[139.536039,35.63953],[139.535939,35.639571],[139.535814,35.639588],[139.535627,35.639655],[139.535489,35.639763],[139.534764,35.640213],[139.534577,35.640288],[139.534452,35.640363],[139.534202,35.640488],[139.533802,35.640638],[139.533252,35.640829],[139.533077,35.640863],[139.532264,35.641188],[139.532014,35.641321],[139.531664,35.641554],[139.531352,35.641829],[139.531039,35.641987],[139.530889,35.642021],[139.530189,35.642129],[139.529852,35.642121],[139.529489,35.642146],[139.529152,35.642129],[139.528864,35.642162],[139.528689,35.642162],[139.528014,35.642254],[139.526814,35.642504],[139.526664,35.642504],[139.525739,35.642679],[139.525527,35.642687],[139.525389,35.642729],[139.525239,35.642804],[139.525164,35.642812],[139.525077,35.642862],[139.524965,35.642895],[139.52449,35.643162],[139.524402,35.643187],[139.524065,35.64332],[139.523902,35.64337],[139.523515,35.64372],[139.523215,35.643945],[139.52294,35.644287],[139.521727,35.64537],[139.520739,35.646153],[139.519577,35.647386],[139.518014,35.648577],[139.517439,35.648961],[139.516227,35.649619],[139.516052,35.649669],[139.515452,35.649935],[139.515152,35.650119],[139.514514,35.650394],[139.514352,35.650502],[139.513852,35.650735],[139.51344,35.650869],[139.512415,35.651052],[139.512377,35.65116],[139.51204,35.651185],[139.51184,35.651243],[139.511502,35.651268],[139.51114,35.651268],[139.51084,35.65131],[139.510577,35.651377],[139.510327,35.651385],[139.510102,35.651377],[139.50984,35.651377],[139.509452,35.651343],[139.509015,35.651327],[139.50869,35.651285],[139.50834,35.65126],[139.50794,35.651243],[139.507515,35.651152],[139.507252,35.651093],[139.506827,35.650977],[139.506515,35.65086],[139.50634,35.65071],[139.50614,35.650577],[139.50579,35.650368],[139.505578,35.650268],[139.505203,35.650185],[139.504853,35.650135],[139.50469,35.650127],[139.504478,35.650102],[139.504303,35.650093],[139.504178,35.650085],[139.504078,35.650085],[139.503878,35.650085],[139.503578,35.650135],[139.503315,35.65016],[139.503228,35.650168],[139.50304,35.650001],[139.502865,35.649827],[139.502678,35.649652],[139.50244,35.64941],[139.502303,35.649302],[139.502178,35.649243],[139.502003,35.649227],[139.501865,35.649243],[139.501678,35.64926],[139.501403,35.64931],[139.501328,35.649268],[139.501303,35.649335],[139.501278,35.649501],[139.501228,35.64976],[139.501228,35.649885],[139.501203,35.650093],[139.501303,35.650685],[139.501053,35.650843],[139.500728,35.651026],[139.500453,35.651159],[139.50009,35.651309],[139.499553,35.651468],[139.49909,35.651618],[139.49864,35.651684],[139.49814,35.651734],[139.497578,35.651826],[139.497166,35.651893],[139.496916,35.651893],[139.496801,35.651855],[139.494166,35.651884],[139.493503,35.651876],[139.492978,35.651984],[139.492278,35.652042],[139.490841,35.652067],[139.490128,35.651959],[139.489091,35.651492],[139.487729,35.651525],[139.487541,35.651517],[139.487316,35.651559],[139.487829,35.651817],[139.487579,35.651992],[139.487241,35.652167],[139.486716,35.6525],[139.486329,35.652634],[139.485604,35.6526],[139.484341,35.652442],[139.483616,35.652392],[139.483041,35.652308],[139.482017,35.652275],[139.480304,35.652117],[139.479504,35.652017],[139.477192,35.651483],[139.476367,35.651267],[139.47568,35.651125],[139.473942,35.650667],[139.47378,35.6506],[139.473817,35.650283],[139.47378,35.649284],[139.473005,35.649209],[139.472592,35.6492],[139.47228,35.649467],[139.471743,35.649775],[139.471193,35.650042],[139.46768,35.651167],[139.466268,35.65155],[139.464568,35.652041],[139.463706,35.652216],[139.462706,35.652491],[139.461818,35.652683],[139.461456,35.652791],[139.459731,35.653149],[139.456981,35.653808],[139.454419,35.654524],[139.453744,35.654782],[139.452994,35.654949],[139.451944,35.655299],[139.448882,35.656132],[139.44512,35.657007],[139.443682,35.657465],[139.44267,35.657715],[139.441895,35.657957],[139.44192,35.658073],[139.44152,35.659015],[139.441032,35.659748],[139.44052,35.660223],[139.440095,35.66069],[139.438745,35.661865],[139.437808,35.662731],[139.43742,35.663289],[139.43697,35.663673],[139.43632,35.664314],[139.43527,35.665497],[139.434845,35.665922],[139.434533,35.666306],[139.433483,35.667239],[139.432233,35.66873],[139.43162,35.669264],[139.431083,35.669897],[139.430883,35.669963],[139.430695,35.670122],[139.430395,35.670305],[139.429808,35.67083],[139.429533,35.671055],[139.429258,35.671372],[139.428846,35.671713],[139.427333,35.673138],[139.427096,35.673521],[139.426458,35.674196],[139.426183,35.674604],[139.425658,35.675263],[139.424733,35.676462],[139.423821,35.677454],[139.423058,35.678429],[139.421271,35.680395],[139.420883,35.680687],[139.419346,35.681953],[139.418796,35.682295],[139.417609,35.682595],[139.417521,35.682778],[139.416884,35.682895],[139.415484,35.683078],[139.415171,35.683145],[139.412909,35.683453],[139.409559,35.684345],[139.408347,35.684736],[139.407359,35.685028],[139.405784,35.685469],[139.405084,35.685694],[139.403485,35.686311],[139.399147,35.687794],[139.397297,35.688477],[139.395535,35.689077],[139.394735,35.68926],[139.39196,35.689652],[139.39116,35.689902],[139.389861,35.690093],[139.389261,35.69021],[139.388648,35.690277],[139.387761,35.690302],[139.387511,35.690418],[139.387273,35.690618],[139.386848,35.690852],[139.386386,35.690918],[139.385061,35.69126],[139.384473,35.691376],[139.380411,35.691551],[139.376812,35.691593],[139.376262,35.691576],[139.375374,35.691601],[139.374712,35.691585],[139.373787,35.691635],[139.373212,35.691635],[139.372387,35.691701],[139.371775,35.691876],[139.368725,35.692018],[139.367962,35.692143],[139.367337,35.692384],[139.366587,35.692634],[139.3654,35.693093],[139.364625,35.693317],[139.363388,35.693759],[139.359238,35.693551],[139.356313,35.693342],[139.355551,35.693251],[139.354901,35.693317],[139.354226,35.693267],[139.354076,35.693259],[139.352451,35.692617],[139.351826,35.692459],[139.351126,35.692409],[139.350326,35.692426],[139.349526,35.692509],[139.348752,35.692459],[139.348077,35.692317],[139.347477,35.692159],[139.346527,35.691992],[139.346427,35.692009],[139.346052,35.692209],[139.345589,35.692342],[139.345039,35.692317],[139.344389,35.692426],[139.343764,35.692626],[139.343264,35.692867],[139.342627,35.693584],[139.342177,35.693717],[139.341452,35.693825],[139.340702,35.69375],[139.339465,35.694492],[139.338702,35.695092],[139.337777,35.695175],[139.336665,35.695733],[139.33624,35.695883],[139.33599,35.695883],[139.336065,35.696608],[139.336227,35.697466],[139.336152,35.697891],[139.335965,35.698366],[139.335715,35.6987],[139.335615,35.699108],[139.33679,35.701574],[139.33629,35.702091],[139.335702,35.702624],[139.334752,35.703274],[139.33439,35.703749],[139.333815,35.704241],[139.333415,35.704391],[139.33314,35.704482],[139.333002,35.704866],[139.332902,35.705424],[139.33249,35.706707],[139.332052,35.707882],[139.331765,35.709007],[139.331515,35.709657],[139.331615,35.712406],[139.332552,35.712823],[139.333202,35.713231],[139.334527,35.713914],[139.336452,35.714789],[139.337552,35.715248],[139.338027,35.715473],[139.338664,35.715906],[139.339064,35.716406],[139.338927,35.717148],[139.339277,35.717489],[139.339327,35.717739],[139.338877,35.718456],[139.338839,35.718597],[139.338914,35.719522],[139.338926,35.720064],[139.339126,35.720039],[139.339814,35.719839],[139.340076,35.720522],[139.341826,35.72128],[139.342276,35.721255],[139.342951,35.721514],[139.343226,35.721555],[139.343651,35.721222],[139.343789,35.721089],[139.344214,35.721247],[139.344814,35.721097],[139.345513,35.720672],[139.346063,35.721039],[139.346463,35.721081],[139.346738,35.721422],[139.346888,35.721514],[139.348863,35.721439],[139.349013,35.721689],[139.349338,35.721805],[139.349613,35.72183],[139.349763,35.721872],[139.350288,35.722347],[139.350413,35.722355],[139.350713,35.722239],[139.350938,35.722289],[139.351163,35.722514],[139.351538,35.722314],[139.352363,35.72223],[139.352613,35.72223],[139.352638,35.722389],[139.352613,35.722747],[139.352663,35.723089],[139.353075,35.72458],[139.3532,35.725097],[139.35375,35.725172],[139.354625,35.725155],[139.355275,35.72523],[139.355375,35.725405],[139.35545,35.725655],[139.355363,35.726355],[139.355113,35.726672],[139.354225,35.727997],[139.353325,35.727963],[139.35255,35.732196],[139.3523,35.732538],[139.352375,35.732804],[139.35265,35.732879],[139.35315,35.732929],[139.353325,35.732946],[139.353475,35.733021],[139.3529,35.736104],[139.358949,35.737387],[139.358612,35.739304],[139.359787,35.739712],[139.359174,35.74007],[139.358324,35.740379],[139.358324,35.740587],[139.358574,35.740812],[139.358762,35.740928],[139.358787,35.741012],[139.358562,35.741195],[139.358212,35.741395],[139.357162,35.74182],[139.356724,35.742037],[139.355649,35.742462],[139.354937,35.742795],[139.356024,35.745078],[139.354587,35.745636],[139.355737,35.746111],[139.356287,35.746478],[139.356412,35.746728],[139.356412,35.746953],[139.356237,35.747178],[139.356024,35.747286],[139.355799,35.747311],[139.355574,35.747103],[139.355437,35.747011],[139.355299,35.747961],[139.355374,35.748211],[139.355474,35.748386],[139.355887,35.748644],[139.356037,35.749044],[139.356786,35.750019],[139.356524,35.750519],[139.356649,35.750811],[139.357099,35.750519],[139.357224,35.750411],[139.357286,35.750186],[139.357386,35.750052],[139.357961,35.750169],[139.357911,35.750477],[139.358024,35.750794],[139.357999,35.750936],[139.357561,35.75271],[139.357461,35.753094],[139.357424,35.753244],[139.357461,35.753469],[139.357399,35.753894],[139.357511,35.753869],[139.357986,35.753644],[139.358099,35.753552],[139.358624,35.753302],[139.359149,35.754519],[139.358849,35.754652],[139.357636,35.75511],[139.356361,35.755635],[139.356511,35.755743],[139.357499,35.75536],[139.357749,35.755893],[139.358661,35.75571],[139.358749,35.756135],[139.358199,35.756277],[139.358399,35.756727],[139.358761,35.756835],[139.358948,35.756968],[139.358986,35.757218],[139.358786,35.757468],[139.358898,35.757627],[139.358786,35.75776],[139.358873,35.757943],[139.358761,35.75801],[139.359123,35.758618],[139.359298,35.758593],[139.359211,35.758393],[139.359323,35.758251],[139.359261,35.758093],[139.359373,35.758026],[139.359786,35.75821],[139.360123,35.758476],[139.360236,35.758718],[139.360136,35.759801],[139.360773,35.760451],[139.360936,35.760435],[139.360973,35.760185],[139.361686,35.759843],[139.362186,35.75966],[139.362323,35.759726],[139.362486,35.759926],[139.362661,35.760218],[139.362573,35.760376],[139.361723,35.76061],[139.361773,35.760851],[139.361611,35.760901],[139.361023,35.760926],[139.361136,35.761151],[139.361498,35.761468],[139.36271,35.76076],[139.362998,35.761076],[139.363523,35.76076],[139.364023,35.761026],[139.36391,35.761251],[139.36341,35.761926],[139.363335,35.761926],[139.363198,35.761843],[139.363023,35.761859],[139.362885,35.761976],[139.36281,35.761976],[139.36256,35.761868],[139.36236,35.761843],[139.362285,35.761868],[139.362398,35.762026],[139.362585,35.762159],[139.362473,35.762426],[139.362785,35.762609],[139.363235,35.762984],[139.363373,35.763326],[139.36376,35.764093],[139.364285,35.763843],[139.364873,35.763501],[139.365035,35.763543],[139.365198,35.763793],[139.36496,35.763993],[139.364373,35.764359],[139.364185,35.764517],[139.364235,35.764692],[139.365498,35.766017],[139.365722,35.766401],[139.36561,35.767167],[139.365672,35.767525],[139.36606,35.767634],[139.367035,35.767742],[139.367535,35.767717],[139.367372,35.768534],[139.36721,35.7688],[139.36776,35.768842],[139.36776,35.769367],[139.367897,35.769609],[139.368122,35.769809],[139.368235,35.770059],[139.368297,35.770375],[139.368497,35.770758],[139.368522,35.771158],[139.368085,35.771883],[139.36801,35.772267],[139.36801,35.772558],[139.368097,35.772783],[139.367847,35.7729],[139.367935,35.773441],[139.368159,35.774091],[139.368409,35.774408],[139.368634,35.774383],[139.368909,35.774],[139.369147,35.773791],[139.369947,35.773433],[139.370084,35.773117],[139.370059,35.77275],[139.369947,35.772325],[139.370022,35.772033],[139.370434,35.771758],[139.370822,35.771558],[139.371159,35.771467],[139.371659,35.771442],[139.371808,35.771312],[139.371859,35.7713],[139.371897,35.771292],[139.372284,35.771175],[139.372422,35.771142],[139.372547,35.771134],[139.372734,35.771192],[139.373084,35.771325],[139.373197,35.7713],[139.373259,35.771142],[139.373134,35.770825],[139.373197,35.770625],[139.373384,35.770334],[139.373422,35.770175],[139.373272,35.769975],[139.372997,35.7697],[139.372884,35.769517],[139.372884,35.7693],[139.372997,35.769067],[139.373297,35.768775],[139.373434,35.768775],[139.373547,35.768842],[139.373747,35.769342],[139.373934,35.769467],[139.374072,35.76965],[139.374159,35.76985],[139.374272,35.769992],[139.374497,35.770059],[139.374684,35.769992],[139.374659,35.769717],[139.374522,35.769425],[139.374184,35.769159],[139.374159,35.768975],[139.374234,35.768567],[139.374209,35.768117],[139.374259,35.767284],[139.374284,35.767167],[139.374472,35.767151],[139.374559,35.767167],[139.375034,35.768001],[139.375172,35.768292],[139.374934,35.768742],[139.374909,35.769017],[139.374934,35.769284],[139.375109,35.769575],[139.375934,35.770234],[139.376621,35.770134],[139.377009,35.770217],[139.377734,35.770784],[139.377859,35.771067],[139.378609,35.771325],[139.378934,35.7713],[139.379159,35.771109]]]},"properties":{"yomi":"きたたま","name":"北多摩","pref":"東京都","kuni_id":"K16","id_url":"G16025.html","kuni_url":"/kg/resource/K16.html","kuni":"武蔵","id":"G16025"},"type":"Feature"}]}