{"type":"FeatureCollection","features":[{"type":"Feature","geometry":{"type":"Polygon","coordinates":[[[140.036842,35.159145],[140.036954,35.159129],[140.037679,35.15882],[140.037942,35.158879],[140.038142,35.159254],[140.038242,35.159362],[140.038991,35.159387],[140.039566,35.159512],[140.040629,35.159812],[140.041041,35.159995],[140.041379,35.16032],[140.041691,35.160762],[140.042016,35.161112],[140.042504,35.161328],[140.042991,35.161845],[140.043229,35.161937],[140.043628,35.161928],[140.044241,35.161962],[140.044728,35.161703],[140.045441,35.161512],[140.046066,35.161478],[140.046491,35.161403],[140.046591,35.161137],[140.046628,35.160703],[140.046716,35.160645],[140.047553,35.160579],[140.048428,35.160329],[140.048553,35.16027],[140.048803,35.16027],[140.049565,35.160695],[140.050228,35.160679],[140.050365,35.160762],[140.050865,35.161478],[140.051028,35.161553],[140.05154,35.161353],[140.051878,35.161395],[140.052215,35.161587],[140.052515,35.161895],[140.052878,35.161987],[140.05334,35.162028],[140.053465,35.162062],[140.053653,35.162612],[140.053753,35.16277],[140.05414,35.163153],[140.05419,35.163578],[140.054128,35.164078],[140.054227,35.164495],[140.05444,35.164745],[140.05429,35.165369],[140.054365,35.165353],[140.05504,35.165503],[140.056377,35.166028],[140.05689,35.166069],[140.05824,35.166061],[140.05869,35.166094],[140.059152,35.166061],[140.060214,35.165628],[140.060539,35.165553],[140.060814,35.165645],[140.061014,35.165761],[140.061452,35.165628],[140.061902,35.165545],[140.062364,35.16607],[140.062977,35.167053],[140.063139,35.167469],[140.063527,35.167678],[140.064089,35.167811],[140.065039,35.167969],[140.065164,35.168136],[140.065376,35.168861],[140.065576,35.169811],[140.066289,35.169811],[140.066339,35.169952],[140.066451,35.170361],[140.066676,35.170436],[140.066876,35.170369],[140.067089,35.170369],[140.067276,35.170885],[140.067476,35.17096],[140.067726,35.17096],[140.068201,35.171077],[140.068201,35.171169],[140.068051,35.171369],[140.068001,35.171594],[140.068276,35.17191],[140.069464,35.172752],[140.069664,35.172977],[140.069739,35.173368],[140.070101,35.173885],[140.070401,35.174093],[140.070776,35.174052],[140.071613,35.173493],[140.072113,35.173627],[140.072213,35.173877],[140.072788,35.17406],[140.073038,35.17436],[140.073138,35.174427],[140.073388,35.174477],[140.073713,35.174435],[140.074138,35.174343],[140.074713,35.17446],[140.074988,35.174735],[140.075076,35.175118],[140.075076,35.175277],[140.075251,35.175393],[140.075601,35.175368],[140.07585,35.175168],[140.076213,35.175035],[140.076513,35.174835],[140.076988,35.174677],[140.077763,35.17426],[140.078175,35.173968],[140.07815,35.173652],[140.0781,35.173294],[140.07815,35.172994],[140.078438,35.17291],[140.079288,35.172802],[140.079413,35.172735],[140.079713,35.17251],[140.080063,35.172335],[140.080363,35.172227],[140.080638,35.17236],[140.080963,35.172477],[140.081163,35.172452],[140.081525,35.171935],[140.081675,35.171894],[140.082175,35.171827],[140.08295,35.171635],[140.08345,35.171544],[140.084125,35.171844],[140.084475,35.171844],[140.0848,35.171694],[140.085112,35.171444],[140.085262,35.171111],[140.085487,35.170952],[140.085837,35.170936],[140.086287,35.171094],[140.086537,35.171002],[140.087125,35.170577],[140.087475,35.170361],[140.087525,35.170269],[140.0877,35.169977],[140.088287,35.169719],[140.089187,35.169569],[140.089512,35.169377],[140.089874,35.168961],[140.090387,35.168553],[140.090724,35.168328],[140.090949,35.168311],[140.091324,35.168486],[140.091762,35.168961],[140.091937,35.169236],[140.092287,35.169519],[140.092737,35.169586],[140.093324,35.169586],[140.094099,35.169802],[140.094562,35.169977],[140.094862,35.170211],[140.095661,35.170436],[140.095961,35.170577],[140.095986,35.170644],[140.095911,35.171161],[140.095999,35.171527],[140.096049,35.17186],[140.096049,35.172202],[140.095999,35.172244],[140.095799,35.172494],[140.095724,35.17256],[140.095686,35.172919],[140.096361,35.173627],[140.096486,35.174077],[140.096074,35.174927],[140.096074,35.17531],[140.096161,35.175701],[140.096711,35.17651],[140.096649,35.177168],[140.096749,35.177801],[140.096974,35.178068],[140.097349,35.178301],[140.097674,35.178684],[140.097761,35.178734],[140.098549,35.178559],[140.098824,35.178626],[140.099024,35.178834],[140.098936,35.179101],[140.098761,35.179393],[140.098886,35.179892],[140.099111,35.180026],[140.099411,35.180051],[140.099798,35.180617],[140.099873,35.180659],[140.100136,35.180617],[140.100311,35.180692],[140.100398,35.180851],[140.100748,35.181009],[140.100998,35.180984],[140.101711,35.180742],[140.101911,35.180884],[140.102198,35.181176],[140.102598,35.181334],[140.102911,35.181342],[140.103123,35.181501],[140.103448,35.181659],[140.103673,35.181684],[140.103886,35.181434],[140.104411,35.181234],[140.104586,35.181151],[140.104536,35.180834],[140.104536,35.180451],[140.104748,35.180293],[140.105248,35.180226],[140.105973,35.180209],[140.106148,35.180168],[140.106548,35.179943],[140.106873,35.180126],[140.107098,35.180351],[140.107348,35.180309],[140.107598,35.180243],[140.107873,35.180251],[140.108573,35.180593],[140.109023,35.180684],[140.109273,35.180659],[140.109348,35.180643],[140.109548,35.180418],[140.109685,35.179968],[140.109935,35.179676],[140.110185,35.179501],[140.110485,35.179701],[140.110985,35.179934],[140.111185,35.180093],[140.11151,35.180226],[140.112085,35.180409],[140.11256,35.180393],[140.11306,35.180259],[140.113435,35.180084],[140.11371,35.180043],[140.11421,35.180543],[140.114485,35.180584],[140.114885,35.180076],[140.115822,35.179468],[140.116247,35.17911],[140.116722,35.17896],[140.117185,35.178893],[140.11736,35.178735],[140.117735,35.178243],[140.118085,35.178085],[140.118447,35.177393],[140.118697,35.177077],[140.119072,35.176902],[140.119197,35.17681],[140.119335,35.176585],[140.11926,35.176293],[140.119485,35.176002],[140.119785,35.175444],[140.120047,35.175194],[140.120647,35.175085],[140.120797,35.174677],[140.121235,35.174185],[140.121585,35.173986],[140.12166,35.174011],[140.121757,35.174166],[140.121835,35.174185],[140.121885,35.174144],[140.12211,35.174077],[140.122385,35.173627],[140.122784,35.173402],[140.122897,35.173169],[140.122709,35.172561],[140.122647,35.172228],[140.122735,35.171644],[140.122834,35.171278],[140.123322,35.170353],[140.123322,35.170195],[140.123247,35.170036],[140.123159,35.169978],[140.122922,35.169836],[140.122597,35.169703],[140.122397,35.169453],[140.12251,35.169345],[140.122785,35.16932],[140.123109,35.169436],[140.123472,35.169295],[140.123872,35.16907],[140.124309,35.168953],[140.124509,35.168661],[140.124422,35.16812],[140.124497,35.167762],[140.124772,35.167512],[140.125322,35.167537],[140.126197,35.167762],[140.126797,35.167778],[140.127322,35.167737],[140.127784,35.167803],[140.128172,35.167803],[140.129047,35.167487],[140.129534,35.167395],[140.130084,35.167437],[140.130546,35.167304],[140.131009,35.166829],[140.131696,35.166329],[140.131859,35.166054],[140.132021,35.165921],[140.132759,35.165962],[140.133059,35.165762],[140.133471,35.165562],[140.134109,35.165354],[140.134809,35.165237],[140.135284,35.165104],[140.135746,35.164921],[140.135884,35.164696],[140.135884,35.164246],[140.135521,35.163954],[140.135521,35.163821],[140.135771,35.163663],[140.136421,35.163546],[140.136508,35.163504],[140.136696,35.162596],[140.136883,35.162105],[140.136971,35.161746],[140.137508,35.160996],[140.137596,35.16073],[140.137808,35.160321],[140.137971,35.160121],[140.138571,35.159571],[140.138871,35.159213],[140.139283,35.15903],[140.139396,35.158921],[140.139558,35.158605],[140.139858,35.158513],[140.140221,35.158538],[140.140596,35.158422],[140.140683,35.15808],[140.140646,35.157905],[140.140508,35.157547],[140.140321,35.157247],[140.140408,35.157005],[140.140808,35.156572],[140.141033,35.156213],[140.141171,35.155605],[140.141133,35.155197],[140.141196,35.155039],[140.141433,35.15468],[140.141796,35.154297],[140.142358,35.153455],[140.142633,35.15328],[140.14277,35.15303],[140.142795,35.152514],[140.142745,35.152197],[140.142246,35.152197],[140.142146,35.152081],[140.142221,35.151881],[140.142521,35.151539],[140.142683,35.151297],[140.14282,35.151247],[140.143858,35.151381],[140.144433,35.151339],[140.145608,35.151064],[140.146672,35.152637],[140.14725,35.154616],[140.147992,35.157337],[140.14923,35.160636],[140.150962,35.164429],[140.152035,35.166903],[140.153163,35.168748],[140.154558,35.170215],[140.156172,35.171719],[140.15753,35.172672],[140.159695,35.173883],[140.161543,35.174269],[140.161606,35.173978],[140.161843,35.173611],[140.162281,35.17307],[140.162643,35.17287],[140.163681,35.172353],[140.164143,35.172036],[140.164718,35.171711],[140.165318,35.171286],[140.165505,35.171011],[140.165605,35.17077],[140.165905,35.170653],[140.166105,35.17047],[140.166455,35.169978],[140.166518,35.169553],[140.166705,35.169287],[140.166868,35.16922],[140.167168,35.169262],[140.167468,35.169395],[140.167805,35.16962],[140.167993,35.169978],[140.16823,35.170195],[140.168593,35.170378],[140.16903,35.170378],[140.169355,35.170311],[140.169568,35.170328],[140.169705,35.170378],[140.16993,35.170378],[140.170343,35.170195],[140.170618,35.17017],[140.171055,35.170211],[140.171268,35.170103],[140.171293,35.169978],[140.171168,35.169928],[140.171355,35.169345],[140.171605,35.168987],[140.171818,35.168778],[140.172068,35.168645],[140.172205,35.168037],[140.172618,35.167603],[140.17278,35.16752],[140.172918,35.166595],[140.17338,35.16612],[140.173543,35.165512],[140.173918,35.16542],[140.17428,35.165395],[140.174555,35.165437],[140.174768,35.165662],[140.174743,35.166387],[140.17488,35.166653],[140.174968,35.16672],[140.175343,35.166837],[140.17628,35.167012],[140.176693,35.167012],[140.177293,35.166403],[140.177505,35.166087],[140.177643,35.16582],[140.177693,35.16577],[140.177893,35.165745],[140.17808,35.165954],[140.178305,35.166337],[140.17863,35.166603],[140.179017,35.166695],[140.17893,35.167053],[140.178692,35.16757],[140.17888,35.167778],[140.17948,35.167795],[140.17978,35.168045],[140.180142,35.168628],[140.180467,35.168853],[140.180805,35.168878],[140.18148,35.168653],[140.18173,35.16872],[140.18198,35.169078],[140.182255,35.169661],[140.182555,35.169795],[140.182967,35.169845],[140.183542,35.169703],[140.183704,35.169703],[140.183754,35.169928],[140.183704,35.169978],[140.183867,35.17012],[140.184717,35.17062],[140.185642,35.170528],[140.185892,35.17057],[140.186142,35.170211],[140.186379,35.169978],[140.186492,35.16972],[140.186417,35.169003],[140.186442,35.168845],[140.186742,35.168887],[140.186904,35.169028],[140.187317,35.16907],[140.187529,35.169386],[140.187679,35.169928],[140.187717,35.169978],[140.187829,35.170136],[140.188054,35.170336],[140.188467,35.170403],[140.189142,35.170295],[140.189529,35.17027],[140.189804,35.170203],[140.190154,35.170245],[140.190454,35.170336],[140.190754,35.170311],[140.191004,35.170245],[140.191254,35.170245],[140.191629,35.170603],[140.191929,35.17067],[140.192341,35.170645],[140.192754,35.170711],[140.193716,35.171278],[140.194154,35.171411],[140.194641,35.171428],[140.195129,35.17132],[140.195516,35.171295],[140.195904,35.171428],[140.196303,35.171628],[140.196666,35.171653],[140.197703,35.171311],[140.198328,35.170861],[140.198716,35.17072],[140.198928,35.170561],[140.199066,35.170386],[140.199278,35.170245],[140.199753,35.170111],[140.200628,35.170045],[140.201003,35.170061],[140.201578,35.170178],[140.201991,35.170311],[140.202203,35.17022],[140.202378,35.169978],[140.202803,35.168453],[140.203103,35.168045],[140.203953,35.167687],[140.204116,35.16757],[140.204391,35.166895],[140.204516,35.166395],[140.204766,35.166062],[140.205016,35.165929],[140.205091,35.165812],[140.204866,35.165045],[140.204978,35.164729],[140.204953,35.164412],[140.204978,35.16412],[140.205966,35.164004],[140.206228,35.163512],[140.206453,35.163287],[140.206316,35.163012],[140.206091,35.162812],[140.206016,35.162562],[140.206041,35.162521],[140.206341,35.162404],[140.206641,35.162204],[140.207078,35.161996],[140.207428,35.161996],[140.207628,35.161887],[140.207703,35.161004],[140.207891,35.160713],[140.208053,35.160554],[140.207978,35.160304],[140.207641,35.160171],[140.207178,35.160038],[140.206853,35.159854],[140.206791,35.159746],[140.206766,35.158888],[140.206841,35.158821],[140.207116,35.158704],[140.207228,35.158613],[140.207278,35.15823],[140.207141,35.157846],[140.206928,35.157646],[140.207053,35.15708],[140.206341,35.156588],[140.206316,35.156296],[140.206428,35.156246],[140.206978,35.156205],[140.207441,35.155996],[140.207491,35.155863],[140.207516,35.15548],[140.207466,35.154913],[140.207566,35.15458],[140.207978,35.154438],[140.208416,35.153972],[140.208628,35.153972],[140.209266,35.154372],[140.209728,35.154555],[140.210253,35.15453],[140.210666,35.154413],[140.211203,35.154322],[140.211641,35.154072],[140.211728,35.153755],[140.211453,35.153038],[140.211691,35.152314],[140.211991,35.151864],[140.212016,35.15173],[140.211941,35.151389],[140.212203,35.151255],[140.212341,35.15123],[140.212641,35.15103],[140.212916,35.15078],[140.213166,35.150622],[140.213241,35.15053],[140.213166,35.150214],[140.212966,35.149789],[140.212716,35.149406],[140.212416,35.149156],[140.212391,35.148822],[140.212253,35.148389],[140.212328,35.148056],[140.212528,35.147714],[140.212878,35.147372],[140.212928,35.147039],[140.212853,35.146723],[140.212878,35.146606],[140.213116,35.146339],[140.213416,35.146089],[140.213716,35.145748],[140.214353,35.145231],[140.214453,35.145006],[140.214728,35.144823],[140.215303,35.144598],[140.215328,35.144506],[140.215103,35.143606],[140.21549,35.142931],[140.21584,35.142365],[140.216278,35.14144],[140.216278,35.141148],[140.216053,35.140807],[140.215915,35.140448],[140.215715,35.13959],[140.21544,35.139257],[140.214978,35.139007],[140.214566,35.13889],[140.214291,35.138874],[140.214216,35.138807],[140.214153,35.138332],[140.213916,35.138066],[140.213778,35.137991],[140.213341,35.137907],[140.212891,35.137024],[140.212153,35.136308],[140.211628,35.136124],[140.211278,35.136083],[140.210641,35.135591],[140.210566,35.135249],[140.210591,35.134866],[140.210728,35.134508],[140.210916,35.134283],[140.211128,35.134208],[140.211516,35.1343],[140.211678,35.134391],[140.212116,35.134724],[140.212803,35.135333],[140.213078,35.135333],[140.213466,35.135266],[140.213953,35.134908],[140.214278,35.134449],[140.214878,35.134358],[140.216078,35.134024],[140.216653,35.133658],[140.216853,35.133458],[140.216603,35.13305],[140.215803,35.133033],[140.215365,35.132983],[140.215178,35.132783],[140.214978,35.132333],[140.214903,35.132291],[140.214928,35.131991],[140.21504,35.1317],[140.215628,35.130908],[140.215628,35.13055],[140.215578,35.130142],[140.215415,35.1296],[140.215303,35.129425],[140.215053,35.129217],[140.214428,35.129292],[140.214066,35.129175],[140.213953,35.129084],[140.213716,35.128775],[140.213216,35.127759],[140.212916,35.127242],[140.212203,35.126542],[140.211841,35.126409],[140.211703,35.126184],[140.211841,35.125826],[140.212141,35.125642],[140.212278,35.125484],[140.212191,35.125126],[140.211941,35.124743],[140.211778,35.124376],[140.211778,35.123993],[140.211891,35.123659],[140.211853,35.122801],[140.212016,35.122526],[140.212291,35.122284],[140.212428,35.122009],[140.212703,35.121743],[140.213278,35.121443],[140.213603,35.121243],[140.213541,35.12061],[140.213328,35.120043],[140.213128,35.119818],[140.212853,35.119618],[140.212416,35.118827],[140.211841,35.118068],[140.210928,35.11741],[140.210578,35.117218],[140.210741,35.116985],[140.210828,35.116877],[140.210978,35.116743],[140.211116,35.116627],[140.211316,35.116452],[140.211391,35.116352],[140.211478,35.116193],[140.211503,35.11601],[140.211616,35.115635],[140.211653,35.11551],[140.211653,35.115327],[140.211678,35.115094],[140.211691,35.114902],[140.211703,35.11471],[140.211741,35.114627],[140.211953,35.114469],[140.211766,35.114477],[140.211416,35.114344],[140.211091,35.114119],[140.210753,35.11401],[140.210291,35.11401],[140.210079,35.114052],[140.209941,35.11401],[140.209554,35.113969],[140.209141,35.11406],[140.208654,35.114102],[140.208166,35.114102],[140.207779,35.113994],[140.207416,35.113769],[140.205504,35.112302],[140.204429,35.111336],[140.204042,35.110569],[140.203804,35.110486],[140.203367,35.110053],[140.203229,35.109986],[140.203329,35.109919],[140.203442,35.109786],[140.203467,35.109669],[140.203279,35.109536],[140.203004,35.109561],[140.202867,35.109603],[140.202317,35.109694],[140.201804,35.109828],[140.201504,35.109786],[140.201167,35.109628],[140.200904,35.109678],[140.200542,35.109811],[140.200267,35.109969],[140.200217,35.110086],[140.200242,35.110419],[140.200442,35.111302],[140.200392,35.112069],[140.200229,35.112519],[140.199929,35.112944],[140.199517,35.11326],[140.199354,35.113335],[140.199242,35.113219],[140.198754,35.113402],[140.198479,35.113602],[140.197904,35.114327],[140.197554,35.114644],[140.196517,35.11541],[140.196167,35.115727],[140.195942,35.116043],[140.195842,35.116427],[140.195755,35.117235],[140.195867,35.117776],[140.194555,35.118885],[140.194692,35.11911],[140.195755,35.11821],[140.19633,35.118526],[140.196442,35.118435],[140.196692,35.11861],[140.196905,35.118726],[140.196992,35.119218],[140.196642,35.119135],[140.196505,35.119451],[140.196854,35.119585],[140.196942,35.120051],[140.19673,35.120101],[140.19673,35.120368],[140.197004,35.120368],[140.197029,35.120551],[140.197404,35.120526],[140.197404,35.120618],[140.197304,35.120818],[140.197079,35.121051],[140.195492,35.121184],[140.19553,35.121459],[140.196567,35.121751],[140.197554,35.121676],[140.198067,35.122059],[140.198067,35.122559],[140.197804,35.122759],[140.197279,35.123009],[140.196842,35.123034],[140.196405,35.123009],[140.195855,35.123034],[140.195717,35.122834],[140.19553,35.122942],[140.195417,35.122767],[140.194842,35.122967],[140.194217,35.124167],[140.193917,35.124184],[140.193592,35.124817],[140.193655,35.124951],[140.193955,35.125017],[140.194192,35.124884],[140.19423,35.124726],[140.194355,35.124751],[140.194467,35.124842],[140.194305,35.125067],[140.194167,35.125134],[140.194067,35.125292],[140.19398,35.125634],[140.194367,35.125717],[140.194417,35.125942],[140.194092,35.125967],[140.192405,35.126942],[140.192067,35.1273],[140.191767,35.127458],[140.19068,35.127125],[140.18928,35.126725],[140.189143,35.126542],[140.188755,35.126359],[140.187968,35.126292],[140.187555,35.126184],[140.186593,35.125692],[140.186155,35.12535],[140.185805,35.124967],[140.18498,35.1242],[140.184843,35.124117],[140.18528,35.124],[140.185255,35.123709],[140.184593,35.123867],[140.184543,35.123509],[140.18483,35.122176],[140.184893,35.121317],[140.18478,35.121092],[140.18488,35.121001],[140.184805,35.120776],[140.184668,35.120826],[140.184393,35.120393],[140.184643,35.120393],[140.184805,35.120259],[140.184943,35.119943],[140.18493,35.119809],[140.18483,35.119518],[140.184605,35.119376],[140.184255,35.119518],[140.184055,35.119676],[140.183843,35.119609],[140.183705,35.119384],[140.183618,35.119043],[140.183593,35.118726],[140.18323,35.118326],[140.182831,35.118185],[140.182443,35.118185],[140.182231,35.118368],[140.181818,35.118551],[140.181543,35.118576],[140.181218,35.119051],[140.180943,35.119293],[140.180856,35.119568],[140.180693,35.119726],[140.180671,35.11972],[140.180556,35.119434],[140.180456,35.119368],[140.179518,35.119009],[140.179106,35.118918],[140.179006,35.118943],[140.178868,35.119101],[140.178868,35.119368],[140.178756,35.119793],[140.178543,35.120043],[140.178481,35.120268],[140.178481,35.120568],[140.178406,35.120859],[140.178268,35.121126],[140.178218,35.121417],[140.177968,35.121534],[140.177693,35.121509],[140.177643,35.121467],[140.177618,35.121334],[140.177443,35.121217],[140.177506,35.121126],[140.177368,35.120992],[140.177093,35.120926],[140.176793,35.120976],[140.176568,35.121042],[140.176511,35.121067],[140.176356,35.120751],[140.176243,35.120701],[140.175144,35.120684],[140.174981,35.120659],[140.174569,35.120459],[140.173994,35.120326],[140.173456,35.120284],[140.173206,35.120326],[140.172956,35.120459],[140.172881,35.120643],[140.172794,35.120684],[140.172656,35.120526],[140.172331,35.120459],[140.172169,35.120618],[140.172194,35.120759],[140.172306,35.120843],[140.172294,35.120866],[140.172081,35.120826],[140.171869,35.120851],[140.171756,35.120984],[140.171894,35.121367],[140.171756,35.121434],[140.171569,35.120984],[140.171456,35.120917],[140.171319,35.120934],[140.171244,35.121009],[140.171269,35.121234],[140.171219,35.121434],[140.171356,35.121526],[140.170944,35.122226],[140.170669,35.122559],[140.170156,35.122951],[140.169606,35.123192],[140.168482,35.123625],[140.167832,35.123767],[140.167207,35.123784],[140.166569,35.123767],[140.165857,35.123634],[140.166107,35.123159],[140.164769,35.122734],[140.164794,35.122326],[140.162407,35.122217],[140.162132,35.121859],[140.16162,35.121834],[140.16162,35.122692],[140.162082,35.122876],[140.162082,35.122667],[140.162657,35.122442],[140.163919,35.122534],[140.163919,35.122776],[140.163857,35.123301],[140.161407,35.123167],[140.161432,35.122917],[140.160195,35.122851],[140.16017,35.123234],[140.160057,35.123217],[140.159595,35.122992],[140.159207,35.122742],[140.15937,35.122451],[140.15907,35.122226],[140.158882,35.122451],[140.158445,35.122226],[140.158282,35.122267],[140.158007,35.121842],[140.15817,35.121726],[140.158082,35.121551],[140.157845,35.121368],[140.157045,35.121234],[140.156495,35.121301],[140.155795,35.121551],[140.154345,35.121509],[140.153608,35.121401],[140.153245,35.121243],[140.152533,35.120634],[140.152233,35.120634],[140.152283,35.120318],[140.15237,35.120301],[140.152533,35.120143],[140.152483,35.120076],[140.152395,35.119535],[140.152445,35.119376],[140.152508,35.119326],[140.15242,35.118876],[140.15247,35.11861],[140.152533,35.118585],[140.15272,35.118693],[140.152833,35.118451],[140.152558,35.117885],[140.15187,35.11721],[140.15157,35.117118],[140.151483,35.11726],[140.151445,35.117245],[140.15127,35.117035],[140.150445,35.116785],[140.150308,35.116627],[140.150333,35.116427],[140.150195,35.11631],[140.150008,35.116402],[140.149758,35.116585],[140.149483,35.116693],[140.149458,35.116852],[140.14957,35.117035],[140.149483,35.117193],[140.149458,35.117352],[140.149108,35.117393],[140.149045,35.117218],[140.146458,35.117668],[140.146483,35.117826],[140.146158,35.117876],[140.146046,35.117677],[140.144921,35.118126],[140.145058,35.11831],[140.144458,35.118626],[140.144383,35.118468],[140.143471,35.11896],[140.143721,35.119326],[140.143346,35.119435],[140.143146,35.119301],[140.142546,35.119168],[140.142246,35.119235],[140.141971,35.119235],[140.141483,35.119418],[140.141346,35.11951],[140.141208,35.11951],[140.140996,35.119551],[140.140633,35.119643],[140.140146,35.119735],[140.139734,35.119943],[140.139384,35.11996],[140.138946,35.120118],[140.138946,35.12021],[140.138746,35.120343],[140.138721,35.120418],[140.138309,35.120551],[140.137896,35.120618],[140.137796,35.12071],[140.137796,35.120751],[140.137159,35.121001],[140.136809,35.121209],[140.136434,35.121501],[140.136121,35.121593],[140.135659,35.121618],[140.135471,35.121593],[140.134871,35.121435],[140.134371,35.121235],[140.133909,35.120968],[140.133421,35.12076],[140.132022,35.120318],[140.131534,35.120093],[140.130734,35.119527],[140.130084,35.119393],[140.129447,35.119285],[140.128797,35.119085],[140.127372,35.118385],[140.124272,35.116902],[140.123397,35.11636],[140.122822,35.116119],[140.12241,35.115986],[140.122112,35.115862],[140.121735,35.115752],[140.120547,35.115094],[140.119548,35.114411],[140.119023,35.114094],[140.11841,35.113786],[140.117835,35.113436],[140.116873,35.112761],[140.116135,35.112295],[140.114948,35.11147],[140.113661,35.110636],[140.112423,35.109687],[140.111648,35.10902],[140.111361,35.108612],[140.110911,35.108237],[140.110323,35.107854],[140.109286,35.107029],[140.108999,35.106654],[140.108236,35.105954],[140.107461,35.105071],[140.106786,35.104354],[140.106524,35.103779],[140.105886,35.102921],[140.105699,35.102488],[140.105036,35.101538],[140.104899,35.101121],[140.104611,35.100671],[140.104574,35.100363],[140.104549,35.09963],[140.104349,35.098488],[140.104412,35.098097],[140.104624,35.09753],[140.104287,35.096964],[140.104599,35.096847],[140.105611,35.096955],[140.105886,35.095689],[140.106299,35.095714],[140.106386,35.095472],[140.105974,35.095397],[140.106286,35.094664],[140.106449,35.094764],[140.107336,35.093981],[140.107674,35.093864],[140.107661,35.093647],[140.107286,35.093714],[140.107049,35.093664],[140.107074,35.093389],[140.106074,35.093214],[140.105262,35.092589],[140.105524,35.092339],[140.105374,35.092198],[140.105099,35.092239],[140.104974,35.091281],[140.106762,35.091089],[140.108149,35.091648],[140.108349,35.092306],[140.108449,35.092281],[140.108611,35.092714],[140.108999,35.092639],[140.108661,35.091448],[140.107286,35.090831],[140.106812,35.090764],[140.104512,35.091006],[140.103962,35.090714],[140.103049,35.090764],[140.103087,35.091073],[140.102687,35.091139],[140.102349,35.091339],[140.101587,35.091148],[140.101349,35.090898],[140.100637,35.089906],[140.100375,35.089681],[140.100025,35.089465],[140.099925,35.089256],[140.100037,35.089065],[140.100475,35.088823],[140.100812,35.088506],[140.100937,35.088332],[140.101187,35.08819],[140.101587,35.088023],[140.101725,35.087707],[140.101762,35.08724],[140.101662,35.086998],[140.101037,35.086765],[140.10095,35.086665],[140.100987,35.086648],[140.100812,35.086423],[140.100687,35.08644],[140.100487,35.086373],[140.100412,35.086257],[140.099887,35.086124],[140.099587,35.08614],[140.099212,35.086182],[140.099087,35.086065],[140.098912,35.085799],[140.098475,35.084874],[140.098425,35.08444],[140.098437,35.084032],[140.098537,35.083607],[140.098762,35.083116],[140.098987,35.082891],[140.0998,35.082916],[140.099875,35.082874],[140.0999,35.082716],[140.099775,35.082532],[140.0996,35.082349],[140.09925,35.082257],[140.0992,35.082007],[140.099237,35.081399],[140.099287,35.081174],[140.099437,35.080366],[140.099575,35.079958],[140.099825,35.079624],[140.100075,35.079599],[140.100225,35.079491],[140.10025,35.079308],[140.101087,35.079024],[140.101512,35.078783],[140.101887,35.078666],[140.102662,35.078558],[140.102812,35.078408],[140.102762,35.078316],[140.102462,35.078241],[140.101887,35.078266],[140.101925,35.078016],[140.102175,35.078016],[140.102225,35.077608],[140.101925,35.077583],[140.1018,35.077341],[140.101425,35.077175],[140.10105,35.077133],[140.10095,35.077108],[140.100625,35.076583],[140.101,35.076408],[140.100962,35.076358],[140.100575,35.076292],[140.100225,35.07645],[140.0997,35.076533],[140.099275,35.076825],[140.09905,35.076708],[140.098275,35.076658],[140.098125,35.076158],[140.098963,35.075267],[140.099013,35.07495],[140.099163,35.074975],[140.099313,35.07495],[140.099438,35.074775],[140.099413,35.074683],[140.099188,35.074592],[140.099038,35.074475],[140.098763,35.074433],[140.098038,35.074558],[140.097688,35.0749],[140.097113,35.075008],[140.096713,35.075142],[140.0965,35.075383],[140.0966,35.075592],[140.096825,35.075633],[140.09715,35.075567],[140.0974,35.075575],[140.09745,35.075642],[140.097375,35.075775],[140.096775,35.075817],[140.096525,35.075792],[140.09615,35.0759],[140.095625,35.076075],[140.095575,35.076058],[140.0954,35.075875],[140.0948,35.075867],[140.094488,35.076],[140.094388,35.076025],[140.094163,35.075883],[140.094076,35.075642],[140.094201,35.075392],[140.094401,35.075208],[140.094351,35.075008],[140.094126,35.0748],[140.093726,35.074733],[140.093426,35.0748],[140.093101,35.0748],[140.092601,35.074684],[140.091726,35.07425],[140.090926,35.073967],[140.090776,35.073634],[140.090163,35.073217],[140.090113,35.073242],[140.089864,35.07315],[140.089764,35.072875],[140.089539,35.072767],[140.089414,35.072584],[140.089414,35.072542],[140.089289,35.072426],[140.088451,35.072942],[140.087951,35.072984],[140.087751,35.073067],[140.087576,35.07325],[140.086851,35.073517],[140.086364,35.0738],[140.085939,35.073934],[140.085514,35.073884],[140.085039,35.073684],[140.084914,35.073567],[140.084776,35.072984],[140.084876,35.072617],[140.084789,35.071601],[140.084714,35.071492],[140.084714,35.071201],[140.084539,35.071042],[140.077301,35.071131],[140.070242,35.072148],[140.064115,35.073941],[140.058554,35.077021],[140.052214,35.079064],[140.046216,35.080997],[140.040894,35.080997],[140.036637,35.080997],[140.031509,35.082414],[140.029194,35.082414],[140.026729,35.082084],[140.024594,35.082474],[140.023121,35.083525],[140.02256,35.084616],[140.020057,35.086656],[140.02007,35.08674],[140.019882,35.087598],[140.019995,35.087748],[140.020495,35.087881],[140.020507,35.088056],[140.020445,35.088339],[140.02027,35.088606],[140.02017,35.088698],[140.01882,35.089114],[140.018532,35.089589],[140.018195,35.089839],[140.017795,35.089906],[140.016745,35.089981],[140.016483,35.090206],[140.015395,35.09138],[140.01482,35.092114],[140.014408,35.092297],[140.01327,35.092522],[140.012895,35.092688],[140.012545,35.093022],[140.012021,35.093688],[140.011183,35.094188],[140.010658,35.094546],[140.009758,35.095371],[140.008458,35.096038],[140.008083,35.096304],[140.007833,35.096363],[140.006958,35.096121],[140.006571,35.095921],[140.006234,35.095596],[140.006121,35.095555],[140.005184,35.095521],[140.004684,35.095363],[140.004509,35.095238],[140.003959,35.094996],[140.003284,35.094863],[140.001896,35.094655],[140.001371,35.094621],[140.001034,35.094463],[140.000822,35.094246],[140.000447,35.093613],[140.000234,35.093463],[139.999759,35.093413],[139.999097,35.093372],[139.998397,35.093388],[139.997784,35.09343],[139.997384,35.09353],[139.997122,35.09338],[139.996972,35.093255],[139.996884,35.093163],[139.996797,35.093097],[139.996771,35.093002],[139.996547,35.09298],[139.996409,35.095455],[139.996422,35.095679],[139.996497,35.095813],[139.996647,35.096313],[139.997159,35.096738],[139.997434,35.096796],[139.997759,35.096871],[139.998222,35.097013],[139.998272,35.097113],[139.998359,35.097562],[139.998672,35.097787],[139.998872,35.097871],[139.998959,35.098179],[139.998922,35.098671],[139.998834,35.098937],[139.998722,35.099179],[139.998634,35.09932],[139.998709,35.099737],[139.998822,35.100187],[139.998922,35.100587],[139.999047,35.10077],[139.999384,35.100987],[139.999684,35.101145],[139.999734,35.101212],[139.999684,35.101295],[139.999584,35.10147],[139.999259,35.101795],[139.999122,35.10177],[139.998884,35.101937],[139.998359,35.102303],[139.997897,35.10267],[139.997459,35.10287],[139.997159,35.102878],[139.996734,35.102986],[139.996434,35.10312],[139.99466,35.103736],[139.994635,35.10412],[139.99466,35.10437],[139.994497,35.104728],[139.99411,35.105361],[139.994122,35.105636],[139.99431,35.105969],[139.994672,35.106219],[139.995122,35.106444],[139.995147,35.106536],[139.995072,35.106852],[139.994922,35.107027],[139.994135,35.108452],[139.99411,35.108594],[139.994135,35.109044],[139.994335,35.109377],[139.994772,35.109827],[139.995722,35.11021],[139.995859,35.110369],[139.995972,35.110727],[139.996009,35.111085],[139.996172,35.111335],[139.996622,35.111535],[139.99677,35.111642],[139.997247,35.111952],[139.997384,35.112243],[139.997584,35.112901],[139.997984,35.113885],[139.998047,35.11421],[139.998009,35.114543],[139.997959,35.114676],[139.997497,35.115151],[139.997159,35.115401],[139.996847,35.115559],[139.99677,35.115558],[139.996247,35.115468],[139.995722,35.115443],[139.995172,35.115359],[139.99436,35.115243],[139.993835,35.115293],[139.993422,35.115426],[139.992835,35.115434],[139.992535,35.115501],[139.992147,35.115726],[139.99176,35.115859],[139.991035,35.115801],[139.990672,35.115509],[139.990422,35.115368],[139.990097,35.115393],[139.989597,35.115576],[139.989397,35.115709],[139.98841,35.115809],[139.98746,35.116151],[139.98686,35.116218],[139.98616,35.116218],[139.983273,35.115534],[139.983186,35.115168],[139.983186,35.114993],[139.983511,35.113976],[139.983536,35.113451],[139.983423,35.112893],[139.983236,35.112393],[139.983123,35.112235],[139.982948,35.111768],[139.982861,35.111043],[139.982998,35.110227],[139.983048,35.109602],[139.983236,35.10926],[139.983323,35.109194],[139.983436,35.108877],[139.983348,35.108494],[139.983398,35.108111],[139.983811,35.107652],[139.984198,35.107069],[139.984336,35.106544],[139.984473,35.106386],[139.98461,35.106003],[139.98471,35.105511],[139.984273,35.105353],[139.983473,35.105153],[139.983223,35.105178],[139.982586,35.105311],[139.982086,35.105586],[139.981723,35.105928],[139.981286,35.106269],[139.980211,35.106944],[139.978598,35.108261],[139.977724,35.108444],[139.976999,35.108719],[139.976524,35.108852],[139.975611,35.108785],[139.974974,35.108902],[139.974336,35.10911],[139.973836,35.109385],[139.973099,35.109835],[139.972874,35.11011],[139.972711,35.110602],[139.972486,35.11101],[139.972049,35.11146],[139.971887,35.11176],[139.972087,35.112368],[139.971787,35.11311],[139.972261,35.114218],[139.971537,35.113785],[139.971199,35.113385],[139.970949,35.112976],[139.970787,35.112485],[139.970724,35.112418],[139.970587,35.112352],[139.970224,35.112418],[139.969812,35.112376],[139.969449,35.112127],[139.968949,35.111718],[139.968524,35.111677],[139.968505,35.11165],[139.968287,35.111952],[139.967487,35.11261],[139.967312,35.112676],[139.966562,35.112701],[139.965787,35.11266],[139.965287,35.112543],[139.964262,35.111918],[139.963562,35.111693],[139.963037,35.111718],[139.96235,35.112018],[139.961325,35.112401],[139.960775,35.112468],[139.959325,35.11241],[139.9588,35.11241],[139.958713,35.112435],[139.958438,35.112818],[139.958275,35.113335],[139.95825,35.113543],[139.958338,35.114009],[139.958375,35.114918],[139.958288,35.115393],[139.95805,35.116067],[139.957738,35.116476],[139.957075,35.117217],[139.956163,35.117767],[139.955538,35.11835],[139.95525,35.118425],[139.953975,35.118609],[139.953376,35.118767],[139.952901,35.118725],[139.951901,35.1192],[139.951513,35.11945],[139.950451,35.121258],[139.949951,35.121958],[139.949763,35.122458],[139.949738,35.123],[139.949576,35.123408],[139.949188,35.123741],[139.948738,35.124041],[139.948301,35.124149],[139.947776,35.124041],[139.947163,35.123816],[139.946626,35.123525],[139.946126,35.1233],[139.944326,35.122883],[139.943376,35.122591],[139.942939,35.122433],[139.942576,35.122616],[139.941776,35.122641],[139.941439,35.122866],[139.940752,35.1224],[139.939077,35.122108],[139.938464,35.121591],[139.938277,35.12155],[139.937664,35.121525],[139.936727,35.121775],[139.936552,35.121758],[139.936227,35.121825],[139.935977,35.122075],[139.935427,35.122749],[139.935364,35.122933],[139.935064,35.123208],[139.934927,35.123458],[139.934902,35.123724],[139.934764,35.123908],[139.934402,35.123999],[139.933802,35.124674],[139.93369,35.124857],[139.933302,35.126299],[139.93339,35.126682],[139.933365,35.12709],[139.933177,35.127449],[139.93254,35.128382],[139.932127,35.12854],[139.931515,35.128515],[139.931077,35.12859],[139.930902,35.128657],[139.93094,35.128882],[139.930627,35.129715],[139.93049,35.129848],[139.930277,35.130532],[139.930277,35.130623],[139.930415,35.130781],[139.93089,35.130865],[139.93059,35.131548],[139.93039,35.132131],[139.930315,35.132515],[139.930502,35.132606],[139.931115,35.132715],[139.931202,35.132806],[139.931265,35.133098],[139.931152,35.133414],[139.93074,35.133914],[139.930515,35.134298],[139.930352,35.135264],[139.930527,35.135489],[139.930777,35.135622],[139.930964,35.136147],[139.931327,35.136689],[139.931727,35.137022],[139.932027,35.137355],[139.932002,35.138197],[139.932427,35.138714],[139.932452,35.13898],[139.932202,35.138964],[139.931739,35.139164],[139.931677,35.139297],[139.931489,35.13998],[139.931689,35.140297],[139.931802,35.141013],[139.931002,35.14203],[139.930914,35.142238],[139.931252,35.142663],[139.931389,35.143588],[139.931289,35.144804],[139.931127,35.145479],[139.930777,35.146412],[139.930802,35.146587],[139.931102,35.146771],[139.931714,35.147604],[139.932002,35.147687],[139.932552,35.147737],[139.933776,35.147637],[139.934414,35.147479],[139.934689,35.147321],[139.934939,35.147054],[139.935401,35.146662],[139.936201,35.146388],[139.936839,35.146321],[139.937339,35.146321],[139.937626,35.146113],[139.937951,35.145938],[139.938264,35.146004],[139.938701,35.146363],[139.939176,35.146521],[139.939239,35.146971],[139.939201,35.147146],[139.939763,35.147279],[139.940063,35.147412],[139.940763,35.147437],[139.942063,35.147729],[139.942513,35.147879],[139.942576,35.148487],[139.941963,35.149012],[139.941938,35.149129],[139.942026,35.149462],[139.942188,35.149871],[139.942276,35.150204],[139.942863,35.15072],[139.943363,35.151329],[139.943751,35.151712],[139.944475,35.151937],[139.945025,35.152137],[139.945338,35.152479],[139.946113,35.152904],[139.94645,35.152854],[139.947613,35.152262],[139.948188,35.152062],[139.9488,35.15197],[139.949138,35.152012],[139.9495,35.152237],[139.949913,35.15262],[139.950337,35.152979],[139.951112,35.153204],[139.951475,35.153695],[139.95175,35.153787],[139.952587,35.153737],[139.952837,35.153645],[139.953487,35.152745],[139.954187,35.152154],[139.956012,35.151987],[139.956174,35.152196],[139.956349,35.152754],[139.956574,35.153254],[139.956662,35.153612],[139.956887,35.153812],[139.958412,35.153787],[139.958937,35.153945],[139.959074,35.154029],[139.959987,35.154254],[139.960387,35.154454],[139.960799,35.154504],[139.960849,35.154479],[139.961299,35.154454],[139.961774,35.154704],[139.962186,35.154695],[139.962936,35.154787],[139.963374,35.15447],[139.964236,35.154129],[139.964424,35.153879],[139.964624,35.153312],[139.965899,35.153245],[139.966336,35.153329],[139.966611,35.153329],[139.967498,35.152971],[139.968273,35.152562],[139.968911,35.152462],[139.969523,35.152329],[139.970073,35.152279],[139.970498,35.152187],[139.970961,35.151937],[139.971548,35.151754],[139.971686,35.151687],[139.971873,35.151662],[139.972273,35.152204],[139.972402,35.152549],[139.972436,35.152546],[139.972998,35.152521],[139.973161,35.152471],[139.973548,35.152454],[139.973935,35.152587],[139.97521,35.152804],[139.97566,35.152804],[139.97646,35.152871],[139.97696,35.153071],[139.97746,35.153179],[139.977873,35.153112],[139.978648,35.152904],[139.978985,35.152929],[139.979847,35.153445],[139.980322,35.153554],[139.980872,35.153512],[139.98151,35.15342],[139.981847,35.153504],[139.982435,35.15382],[139.98296,35.153912],[139.984622,35.154062],[139.984959,35.153995],[139.985284,35.153695],[139.985559,35.153695],[139.985984,35.153854],[139.986422,35.154145],[139.986822,35.154345],[139.988034,35.154387],[139.988709,35.154362],[139.989209,35.154454],[139.989671,35.154695],[139.990259,35.154945],[139.991121,35.15517],[139.991596,35.155345],[139.992071,35.15537],[139.992396,35.15532],[139.992871,35.155412],[139.993034,35.155479],[139.994208,35.155587],[139.994696,35.155495],[139.994896,35.155404],[139.995646,35.155262],[139.996308,35.155554],[139.996721,35.155512],[139.996821,35.155479],[139.997258,35.155445],[139.998308,35.155262],[139.998771,35.155312],[139.999658,35.155695],[140.000208,35.155812],[140.000895,35.155912],[140.000958,35.15547],[140.00117,35.155129],[140.001645,35.154887],[140.002183,35.154737],[140.00282,35.154487],[140.00382,35.154162],[140.00432,35.154087],[140.004895,35.154162],[140.005295,35.154496],[140.005695,35.154904],[140.006107,35.155637],[140.006707,35.155579],[140.00737,35.155637],[140.007607,35.155504],[140.007682,35.155529],[140.008257,35.155912],[140.00882,35.15652],[140.008895,35.156545],[140.009807,35.155521],[140.010332,35.155337],[140.011644,35.154979],[140.013057,35.154762],[140.013869,35.154304],[140.014857,35.153854],[140.015207,35.153804],[140.015469,35.153996],[140.015681,35.154337],[140.015906,35.154837],[140.016081,35.154862],[140.016469,35.154771],[140.016869,35.154796],[140.017619,35.155021],[140.018269,35.155304],[140.018694,35.155587],[140.018919,35.155996],[140.020081,35.156696],[140.020318,35.157012],[140.020368,35.15717],[140.020331,35.157462],[140.020443,35.157704],[140.020706,35.157962],[140.021181,35.15887],[140.021731,35.15972],[140.021893,35.159887],[140.022343,35.160162],[140.022681,35.160253],[140.022831,35.160262],[140.023493,35.16062],[140.024105,35.161028],[140.026018,35.162095],[140.026455,35.162153],[140.026568,35.162145],[140.026905,35.16227],[140.027218,35.162495],[140.02733,35.162536],[140.027793,35.162528],[140.028118,35.162678],[140.02853,35.162961],[140.028655,35.163228],[140.02873,35.163653],[140.028892,35.164003],[140.02928,35.164269],[140.029405,35.164303],[140.030317,35.164111],[140.030492,35.164128],[140.030905,35.164286],[140.031067,35.164253],[140.030992,35.163211],[140.031042,35.162795],[140.031292,35.162511],[140.031455,35.16222],[140.031617,35.161811],[140.03198,35.161403],[140.032492,35.161145],[140.03288,35.160837],[140.033155,35.160328],[140.03328,35.15982],[140.033305,35.159487],[140.033442,35.15937],[140.03358,35.159362],[140.034242,35.159204],[140.034642,35.158987],[140.034879,35.158987],[140.035667,35.159104],[140.036842,35.159145]]]},"properties":{"id_url":"G17003.html","kuni_url":"/kg/resource/K17.html","kuni":"安房","id":"G17003","yomi":"ながさ","name":"長狭","pref":"千葉県","kuni_id":"K17"}}]}