{"type":"FeatureCollection","features":[{"geometry":{"coordinates":[[[140.326395,35.58985],[140.326332,35.589933],[140.32632,35.590008],[140.326432,35.590141],[140.326507,35.590216],[140.32662,35.590433],[140.32672,35.590625],[140.32672,35.590725],[140.32677,35.5909],[140.32677,35.591008],[140.326807,35.591125],[140.326832,35.5912],[140.32687,35.591316],[140.326945,35.59145],[140.326995,35.591558],[140.327007,35.591666],[140.32697,35.591766],[140.32687,35.591825],[140.326445,35.591899],[140.326357,35.591899],[140.32627,35.591874],[140.326182,35.591883],[140.326045,35.591841],[140.325945,35.591849],[140.325857,35.591833],[140.325682,35.591849],[140.325595,35.591849],[140.325458,35.591891],[140.325333,35.591933],[140.325195,35.591958],[140.32502,35.591966],[140.32487,35.592008],[140.324633,35.592174],[140.32447,35.592233],[140.32432,35.592266],[140.32417,35.592258],[140.324045,35.592258],[140.323895,35.592249],[140.32387,35.592533],[140.324383,35.592591],[140.324333,35.592691],[140.324245,35.592833],[140.324145,35.592933],[140.324108,35.593041],[140.324033,35.593316],[140.32347,35.594674],[140.32322,35.594991],[140.32277,35.595391],[140.32227,35.595707],[140.322083,35.595907],[140.322295,35.597149],[140.322707,35.598124],[140.322745,35.598374],[140.322632,35.599099],[140.322595,35.60004],[140.322657,35.600224],[140.322982,35.600724],[140.323007,35.601015],[140.322207,35.600965],[140.321495,35.600832],[140.320832,35.600898],[140.320195,35.60114],[140.319695,35.601273],[140.318945,35.601257],[140.318058,35.600957],[140.31732,35.600823],[140.316545,35.600457],[140.316295,35.600257],[140.31572,35.600249],[140.314883,35.600115],[140.314033,35.60009],[140.313646,35.600115],[140.313083,35.60029],[140.312696,35.600357],[140.312283,35.600082],[140.311958,35.59954],[140.311346,35.599049],[140.311633,35.59849],[140.311608,35.59839],[140.311583,35.598182],[140.311521,35.597882],[140.311483,35.597799],[140.310934,35.597699],[140.310921,35.597849],[140.310821,35.597907],[140.310709,35.597949],[140.310471,35.597924],[140.310384,35.597899],[140.310259,35.597832],[140.310171,35.59779],[140.310059,35.597707],[140.309996,35.597632],[140.309934,35.597507],[140.309746,35.597332],[140.309584,35.597157],[140.309484,35.59709],[140.309396,35.597015],[140.308871,35.596424],[140.308871,35.596032],[140.308671,35.595649],[140.307184,35.594882],[140.306159,35.594266],[140.305809,35.594224],[140.305772,35.594249],[140.305972,35.594424],[140.306497,35.594791],[140.307047,35.595216],[140.308072,35.595649],[140.308396,35.596057],[140.308509,35.596507],[140.308671,35.59694],[140.308921,35.597124],[140.309084,35.59739],[140.310046,35.598182],[140.310746,35.599407],[140.311071,35.599899],[140.311921,35.600607],[140.312121,35.600898],[140.311433,35.601323],[140.311258,35.60144],[140.311321,35.601507],[140.311508,35.601598],[140.312033,35.601257],[140.312283,35.601165],[140.313258,35.601082],[140.313883,35.600882],[140.314858,35.60079],[140.31577,35.60084],[140.316483,35.601065],[140.317095,35.601365],[140.317707,35.601765],[140.318607,35.60209],[140.319357,35.60204],[140.32022,35.60184],[140.320907,35.601615],[140.321132,35.601507],[140.321182,35.601532],[140.321132,35.601932],[140.321294,35.60304],[140.322319,35.603473],[140.322619,35.60379],[140.323719,35.604315],[140.326681,35.605132],[140.328693,35.605315],[140.329006,35.60539],[140.329193,35.60559],[140.329531,35.60604],[140.330106,35.606223],[140.330156,35.606381],[140.329843,35.606656],[140.329268,35.606715],[140.327068,35.606406],[140.326606,35.606681],[140.326268,35.606848],[140.325906,35.607006],[140.325656,35.607098],[140.325331,35.607106],[140.324956,35.607206],[140.324619,35.607248],[140.324356,35.607273],[140.324131,35.607298],[140.324044,35.607306],[140.324094,35.607456],[140.324119,35.607673],[140.324206,35.607973],[140.324231,35.608273],[140.324181,35.608565],[140.324131,35.608723],[140.324043,35.608881],[140.323981,35.60884],[140.323881,35.608781],[140.323743,35.60869],[140.323543,35.608573],[140.323443,35.608498],[140.323106,35.608323],[140.322644,35.60804],[140.322556,35.607981],[140.321981,35.607673],[140.321119,35.607215],[140.320556,35.606931],[140.320394,35.606865],[140.319469,35.606481],[140.319094,35.606256],[140.318869,35.606148],[140.318582,35.60599],[140.318057,35.605806],[140.317682,35.605673],[140.317145,35.605506],[140.317032,35.60544],[140.31682,35.60534],[140.316732,35.605315],[140.316595,35.60519],[140.31617,35.60504],[140.315907,35.604915],[140.315557,35.60474],[140.315282,35.604607],[140.31512,35.604415],[140.314832,35.604082],[140.31477,35.604198],[140.314682,35.604357],[140.314645,35.604457],[140.31452,35.604723],[140.314357,35.605073],[140.314207,35.605498],[140.314107,35.605865],[140.314007,35.606148],[140.313907,35.606323],[140.313832,35.606398],[140.313732,35.606456],[140.313595,35.60644],[140.313395,35.606298],[140.313032,35.606098],[140.312895,35.606065],[140.31287,35.606323],[140.31297,35.606431],[140.313007,35.606523],[140.313307,35.606606],[140.313532,35.606781],[140.313782,35.606923],[140.31392,35.606948],[140.314257,35.607073],[140.31447,35.607181],[140.314695,35.607265],[140.314932,35.607306],[140.315169,35.607415],[140.315319,35.607523],[140.315457,35.607631],[140.315507,35.607756],[140.315457,35.607915],[140.315357,35.60799],[140.315194,35.608056],[140.315019,35.608065],[140.314682,35.608115],[140.314332,35.608206],[140.313982,35.608348],[140.313694,35.608506],[140.313532,35.608631],[140.313419,35.608706],[140.313207,35.608915],[140.313007,35.609098],[140.312794,35.609331],[140.312619,35.609573],[140.312582,35.609689],[140.312532,35.609923],[140.312532,35.610139],[140.312607,35.610406],[140.312669,35.610648],[140.312669,35.610781],[140.312607,35.610881],[140.312469,35.611064],[140.312357,35.611323],[140.312307,35.611506],[140.312119,35.611773],[140.312069,35.611898],[140.311857,35.611956],[140.311694,35.611956],[140.311607,35.611906],[140.311519,35.611823],[140.311482,35.611739],[140.311432,35.611623],[140.311332,35.611448],[140.311157,35.611164],[140.311094,35.611039],[140.310894,35.610814],[140.310669,35.610564],[140.310644,35.610414],[140.310557,35.610306],[140.310407,35.610114],[140.31017,35.609989],[140.309857,35.609906],[140.30977,35.609881],[140.30942,35.609814],[140.30932,35.609889],[140.30927,35.609956],[140.309257,35.610073],[140.309495,35.610173],[140.309695,35.610164],[140.30992,35.610239],[140.310095,35.610306],[140.310232,35.610364],[140.310344,35.610564],[140.310394,35.610639],[140.310432,35.610714],[140.310444,35.610831],[140.310544,35.611006],[140.310644,35.611089],[140.310694,35.611156],[140.310732,35.611264],[140.310744,35.611464],[140.310744,35.611548],[140.310532,35.611731],[140.310257,35.611848],[140.310057,35.611998],[140.309982,35.612098],[140.309782,35.612289],[140.309632,35.612381],[140.309482,35.612464],[140.309307,35.612573],[140.309169,35.612706],[140.309082,35.612781],[140.308957,35.612856],[140.308857,35.612948],[140.308869,35.613048],[140.308919,35.613181],[140.308957,35.613281],[140.308832,35.613364],[140.308819,35.613448],[140.308882,35.613664],[140.308982,35.613881],[140.309069,35.614089],[140.309232,35.614339],[140.309319,35.614456],[140.309856,35.614797],[140.310231,35.614864],[140.310606,35.615056],[140.310919,35.615347],[140.311006,35.615131],[140.311031,35.615072],[140.311119,35.615031],[140.311669,35.615331],[140.311844,35.615389],[140.311894,35.615464],[140.311869,35.615614],[140.311869,35.615681],[140.311844,35.615772],[140.312094,35.615764],[140.312256,35.615647],[140.312331,35.615647],[140.312431,35.615681],[140.312556,35.615722],[140.312719,35.615739],[140.312893,35.615856],[140.313031,35.616022],[140.313381,35.616264],[140.313406,35.616356],[140.313368,35.616456],[140.313306,35.616539],[140.313418,35.616656],[140.313506,35.616706],[140.313906,35.616697],[140.314118,35.616706],[140.314456,35.616722],[140.314656,35.616706],[140.314906,35.616772],[140.315006,35.616831],[140.315318,35.616939],[140.315593,35.617081],[140.315681,35.617156],[140.315805,35.617256],[140.315843,35.617406],[140.315843,35.617472],[140.315705,35.617631],[140.315593,35.617789],[140.315443,35.617897],[140.315093,35.618131],[140.314593,35.618389],[140.31443,35.618455],[140.313993,35.618647],[140.31393,35.618847],[140.313855,35.619097],[140.313393,35.61918],[140.31328,35.619155],[140.31323,35.619264],[140.313143,35.619455],[140.313055,35.61978],[140.312968,35.620064],[140.312855,35.620372],[140.31283,35.62063],[140.312918,35.621097],[140.312955,35.621413],[140.31288,35.621705],[140.312655,35.621688],[140.31203,35.621655],[140.311918,35.62163],[140.311505,35.621613],[140.310918,35.621688],[140.310493,35.621813],[140.310206,35.621888],[140.309806,35.622088],[140.309568,35.622222],[140.309356,35.62238],[140.309093,35.62253],[140.308893,35.622647],[140.308518,35.62283],[140.308343,35.622888],[140.308231,35.622888],[140.307906,35.62288],[140.307968,35.623071],[140.308056,35.623288],[140.308256,35.623621],[140.308193,35.623721],[140.308131,35.623813],[140.308268,35.623938],[140.308356,35.624038],[140.308306,35.624221],[140.308006,35.624455],[140.307893,35.62453],[140.307831,35.624605],[140.308106,35.624913],[140.308331,35.625146],[140.308568,35.625263],[140.309105,35.625771],[140.309568,35.626179],[140.310068,35.626688],[140.310305,35.626988],[140.31068,35.627296],[140.310942,35.627471],[140.311017,35.627504],[140.311342,35.627621],[140.311817,35.627813],[140.311992,35.627896],[140.31258,35.628279],[140.313055,35.628629],[140.313292,35.628821],[140.313754,35.629104],[140.314104,35.629313],[140.314679,35.629604],[140.314804,35.629654],[140.314942,35.629738],[140.315329,35.629854],[140.315592,35.629938],[140.315942,35.630113],[140.316079,35.630254],[140.316217,35.630437],[140.316454,35.630629],[140.316604,35.630787],[140.316691,35.630846],[140.316816,35.630796],[140.316941,35.630771],[140.317066,35.630746],[140.317654,35.630654],[140.317954,35.630638],[140.318354,35.630588],[140.318704,35.630429],[140.319191,35.630079],[140.319529,35.629738],[140.319841,35.629463],[140.320216,35.629105],[140.320516,35.628746],[140.320553,35.628671],[140.322316,35.627897],[140.322403,35.627997],[140.322566,35.628172],[140.322853,35.628297],[140.322978,35.62838],[140.323078,35.628363],[140.323366,35.628113],[140.323641,35.627855],[140.323841,35.627655],[140.324191,35.627455],[140.324278,35.62738],[140.324628,35.627288],[140.324728,35.626955],[140.325841,35.626163],[140.326728,35.627305],[140.326653,35.627655],[140.327016,35.628372],[140.327353,35.628205],[140.327928,35.629371],[140.328765,35.630946],[140.32914,35.631604],[140.329278,35.632388],[140.329278,35.632929],[140.333373,35.632114],[140.337594,35.631056],[140.343515,35.630584],[140.346739,35.630299],[140.347558,35.629392],[140.349061,35.628417],[140.350484,35.628056],[140.352358,35.628056],[140.354279,35.628327],[140.356741,35.629275],[140.358457,35.630223],[140.360106,35.630674],[140.3606,35.630311],[140.361261,35.629501],[140.361434,35.628833],[140.361757,35.628833],[140.362268,35.628558],[140.362574,35.628316],[140.363004,35.627589],[140.362542,35.626938],[140.361761,35.626016],[140.360349,35.624648],[140.357756,35.623838],[140.355865,35.622975],[140.354442,35.622039],[140.353787,35.62031],[140.353138,35.616739],[140.353138,35.613753],[140.353138,35.611741],[140.354417,35.610855],[140.35617,35.610855],[140.357861,35.610086],[140.359836,35.610086],[140.361708,35.609186],[140.363299,35.607194],[140.365341,35.604638],[140.367471,35.603137],[140.367577,35.603116],[140.367965,35.603074],[140.368065,35.603233],[140.368077,35.603349],[140.36809,35.603466],[140.368115,35.603599],[140.36819,35.603691],[140.368327,35.603741],[140.368515,35.603766],[140.368777,35.603841],[140.368952,35.603933],[140.369064,35.603999],[140.369114,35.604091],[140.369639,35.604716],[140.370139,35.605941],[140.370577,35.606799],[140.370802,35.606841],[140.370989,35.606441],[140.371164,35.605874],[140.371352,35.605466],[140.371726,35.60528],[140.371802,35.605266],[140.371902,35.605249],[140.371989,35.605241],[140.371964,35.605141],[140.371952,35.605074],[140.371914,35.605016],[140.371864,35.604908],[140.371852,35.604849],[140.371827,35.604783],[140.371964,35.604708],[140.372051,35.604733],[140.372226,35.604874],[140.372314,35.604966],[140.372401,35.605024],[140.372514,35.605091],[140.372614,35.605024],[140.372714,35.604966],[140.372789,35.604941],[140.372901,35.604858],[140.373001,35.604758],[140.373114,35.604666],[140.373189,35.604583],[140.373314,35.604458],[140.373376,35.604366],[140.373426,35.6043],[140.373389,35.604183],[140.373326,35.604108],[140.373264,35.604041],[140.373364,35.60405],[140.373426,35.603991],[140.373476,35.603925],[140.373614,35.603816],[140.373676,35.603725],[140.373714,35.60365],[140.373801,35.603558],[140.373914,35.603433],[140.373951,35.603375],[140.373989,35.603291],[140.374039,35.603216],[140.374226,35.603241],[140.374364,35.603208],[140.374514,35.603158],[140.374664,35.603066],[140.374814,35.602983],[140.374889,35.60295],[140.374976,35.602917],[140.375126,35.602941],[140.375364,35.602958],[140.375539,35.602983],[140.375826,35.603025],[140.376063,35.603075],[140.376338,35.603141],[140.376526,35.603166],[140.376688,35.603158],[140.376876,35.603166],[140.377051,35.603183],[140.377263,35.603216],[140.377363,35.603075],[140.377538,35.603017],[140.377601,35.603091],[140.377738,35.603183],[140.377801,35.60325],[140.377888,35.603341],[140.378163,35.603466],[140.378363,35.603558],[140.378513,35.6036],[140.378626,35.603633],[140.378788,35.603675],[140.378913,35.603691],[140.379201,35.603716],[140.379313,35.603733],[140.37945,35.603733],[140.379538,35.603741],[140.379813,35.603725],[140.379963,35.603716],[140.380113,35.603733],[140.380188,35.603758],[140.380275,35.603808],[140.380488,35.603925],[140.380713,35.604066],[140.38085,35.604141],[140.380975,35.6042],[140.381238,35.604308],[140.38145,35.604391],[140.381538,35.60445],[140.381638,35.60445],[140.38175,35.604441],[140.381913,35.604425],[140.382175,35.604391],[140.38235,35.604375],[140.382488,35.604375],[140.382738,35.604375],[140.382838,35.604375],[140.382937,35.604383],[140.383012,35.604316],[140.383075,35.604241],[140.383125,35.604166],[140.383187,35.604091],[140.383262,35.604016],[140.383312,35.603941],[140.383387,35.603825],[140.383462,35.6037],[140.383587,35.603475],[140.383687,35.603325],[140.38375,35.603225],[140.383775,35.603158],[140.383812,35.603083],[140.383725,35.603042],[140.383625,35.602967],[140.383687,35.60285],[140.38375,35.602742],[140.383825,35.60275],[140.383937,35.602775],[140.384025,35.602742],[140.384075,35.602667],[140.38415,35.602617],[140.384287,35.602675],[140.38445,35.602742],[140.384575,35.602833],[140.384675,35.602808],[140.384787,35.602733],[140.3847,35.60265],[140.384537,35.60255],[140.384412,35.60245],[140.384337,35.602367],[140.38425,35.602308],[140.3842,35.602233],[140.384175,35.602167],[140.384237,35.602075],[140.384425,35.601892],[140.384575,35.601783],[140.384725,35.601683],[140.384862,35.601583],[140.385012,35.601508],[140.38515,35.601442],[140.385225,35.6014],[140.385375,35.601517],[140.385662,35.601692],[140.385787,35.601775],[140.385887,35.601692],[140.386337,35.60145],[140.3864,35.601358],[140.38655,35.60125],[140.386737,35.601092],[140.3869,35.600942],[140.386937,35.600858],[140.38695,35.600733],[140.386912,35.60055],[140.3868,35.600367],[140.386612,35.600209],[140.386362,35.600059],[140.386137,35.600009],[140.385862,35.599984],[140.385662,35.599975],[140.3855,35.599967],[140.385325,35.599842],[140.3853,35.59965],[140.3853,35.59955],[140.385337,35.599342],[140.385362,35.599275],[140.385362,35.59915],[140.38535,35.599075],[140.3853,35.598975],[140.385162,35.598692],[140.385062,35.598467],[140.384987,35.598226],[140.384937,35.598092],[140.384887,35.597917],[140.384788,35.597659],[140.384788,35.597584],[140.384875,35.597509],[140.385037,35.597442],[140.385362,35.597767],[140.385537,35.598034],[140.3856,35.598101],[140.385687,35.598009],[140.385812,35.597867],[140.385875,35.597776],[140.385975,35.597651],[140.3861,35.597484],[140.386212,35.597351],[140.386362,35.597176],[140.386425,35.597109],[140.386487,35.597001],[140.386475,35.596901],[140.386387,35.596859],[140.3862,35.597042],[140.386012,35.597242],[140.3859,35.597367],[140.385825,35.597384],[140.385775,35.597226],[140.385662,35.596976],[140.3856,35.596884],[140.385525,35.596784],[140.385387,35.596784],[140.38515,35.596784],[140.384963,35.596751],[140.384875,35.596684],[140.384813,35.596609],[140.384775,35.596484],[140.384738,35.596359],[140.384738,35.596276],[140.3848,35.596118],[140.384913,35.595993],[140.384988,35.595893],[140.385075,35.595776],[140.3851,35.595668],[140.385088,35.595576],[140.385038,35.595426],[140.385038,35.595368],[140.38495,35.595401],[140.384763,35.595401],[140.384713,35.595318],[140.384863,35.595184],[140.384875,35.595018],[140.384813,35.594876],[140.384575,35.594809],[140.384375,35.594809],[140.384325,35.594751],[140.3843,35.594576],[140.384313,35.594493],[140.384363,35.594368],[140.384463,35.594351],[140.384538,35.594193],[140.384575,35.594051],[140.384575,35.593901],[140.384588,35.593835],[140.384588,35.59366],[140.385075,35.592393],[140.385463,35.591893],[140.386288,35.59126],[140.386263,35.590918],[140.386375,35.590743],[140.389062,35.588802],[140.389775,35.58821],[140.391137,35.58726],[140.39185,35.586627],[140.391887,35.586593],[140.392012,35.586435],[140.392187,35.586235],[140.39235,35.58606],[140.3925,35.585985],[140.3926,35.585977],[140.3937,35.58536],[140.394537,35.585827],[140.395812,35.585168],[140.395949,35.58531],[140.396187,35.585493],[140.396312,35.585693],[140.396249,35.585835],[140.396249,35.586043],[140.396387,35.586202],[140.396562,35.586352],[140.396749,35.586527],[140.398124,35.58786],[140.399224,35.588585],[140.399749,35.589101],[140.399999,35.589285],[140.400861,35.588851],[140.403511,35.587251],[140.403986,35.587093],[140.404236,35.587276],[140.404898,35.587951],[140.406548,35.589518],[140.407185,35.590259],[140.407847,35.590668],[140.408322,35.591209],[140.408847,35.591592],[140.408922,35.591617],[140.409172,35.591484],[140.409835,35.590968],[140.410222,35.590734],[140.411047,35.590901],[140.410997,35.590601],[140.409535,35.589084],[140.40951,35.588926],[140.409835,35.588343],[140.41001,35.58816],[140.41141,35.588143],[140.413072,35.58796],[140.413372,35.58821],[140.414484,35.587443],[140.414534,35.587485],[140.416059,35.589526],[140.416634,35.590176],[140.417546,35.590884],[140.417271,35.591218],[140.418708,35.592534],[140.419733,35.591851],[140.419921,35.591968],[140.420421,35.592442],[140.419333,35.594884],[140.419396,35.594909],[140.422408,35.595767],[140.422733,35.5959],[140.422658,35.59645],[140.422758,35.596534],[140.423483,35.596692],[140.423758,35.596609],[140.424008,35.596467],[140.424808,35.595684],[140.425195,35.595051],[140.425995,35.593009],[140.426495,35.591884],[140.426945,35.591409],[140.427058,35.589735],[140.426945,35.588152],[140.427058,35.587593],[140.427471,35.586593],[140.427383,35.586352],[140.427408,35.586085],[140.427521,35.585702],[140.427596,35.585544],[140.427921,35.584477],[140.428271,35.583669],[140.428558,35.582111],[140.428808,35.581452],[140.429021,35.581044],[140.429296,35.580211],[140.429508,35.579736],[140.429808,35.579461],[140.430171,35.579261],[140.430496,35.579119],[140.430796,35.57892],[140.431071,35.578486],[140.431258,35.578078],[140.431421,35.57752],[140.431471,35.576595],[140.431546,35.57587],[140.431483,35.574903],[140.431509,35.574587],[140.431584,35.574295],[140.432046,35.573479],[140.432184,35.573162],[140.432234,35.572754],[140.432246,35.571737],[140.432496,35.571196],[140.433634,35.569662],[140.434259,35.568779],[140.434696,35.568213],[140.435071,35.567779],[140.435821,35.568196],[140.435671,35.568354],[140.436246,35.569304],[140.436358,35.569054],[140.436471,35.569171],[140.436346,35.569546],[140.436433,35.569671],[140.436471,35.570054],[140.436671,35.570137],[140.437396,35.569138],[140.438895,35.568671],[140.439533,35.569171],[140.439583,35.569229],[140.439608,35.569304],[140.439683,35.569396],[140.439683,35.569463],[140.439758,35.569929],[140.44002,35.569896],[140.440008,35.569179],[140.439383,35.568513],[140.439558,35.568346],[140.441008,35.567163],[140.441795,35.566646],[140.442195,35.566938],[140.442445,35.56718],[140.44312,35.566796],[140.444632,35.565663],[140.445807,35.564888],[140.44642,35.564455],[140.447195,35.563814],[140.447995,35.564522],[140.448132,35.564439],[140.448407,35.56468],[140.449482,35.564055],[140.449344,35.56393],[140.449257,35.563755],[140.449194,35.563589],[140.449219,35.563472],[140.449257,35.563347],[140.449294,35.56328],[140.450544,35.562156],[140.451307,35.562739],[140.452219,35.562014],[140.452232,35.561839],[140.452332,35.561631],[140.452444,35.561481],[140.452532,35.561414],[140.451732,35.560673],[140.452894,35.559581],[140.452732,35.559281],[140.453444,35.559114],[140.454269,35.560264],[140.456031,35.55879],[140.456244,35.558956],[140.457144,35.558298],[140.456156,35.557465],[140.458144,35.555798],[140.459206,35.556448],[140.460956,35.55489],[140.460193,35.554224],[140.460293,35.554032],[140.460431,35.55389],[140.460543,35.553749],[140.460643,35.553657],[140.460793,35.553524],[140.460993,35.553382],[140.461218,35.553182],[140.461306,35.553116],[140.461381,35.553057],[140.461481,35.552957],[140.461581,35.552882],[140.461681,35.552782],[140.462893,35.551916],[140.462606,35.551608],[140.463718,35.550924],[140.464518,35.550399],[140.464755,35.550299],[140.464955,35.550199],[140.465068,35.550158],[140.465218,35.5501],[140.46528,35.550025],[140.469593,35.548333],[140.468818,35.54755],[140.468618,35.547275],[140.468455,35.547125],[140.468205,35.546967],[140.467955,35.546608],[140.46753,35.545909],[140.466393,35.544175],[140.465993,35.543725],[140.465405,35.542692],[140.464968,35.542159],[140.46463,35.541592],[140.464268,35.541126],[140.463643,35.539568],[140.463556,35.539168],[140.463518,35.538376],[140.463818,35.537701],[140.464006,35.536935],[140.463643,35.536818],[140.462906,35.536668],[140.462156,35.536401],[140.461981,35.536243],[140.461456,35.535568],[140.460231,35.534243],[140.460181,35.534135],[140.459843,35.534268],[140.458444,35.53511],[140.458256,35.535243],[140.458119,35.53486],[140.457944,35.534635],[140.457281,35.53421],[140.457081,35.533968],[140.456944,35.533718],[140.455919,35.532818],[140.455169,35.531876],[140.454544,35.531043],[140.454244,35.530485],[140.454069,35.530035],[140.453882,35.529702],[140.453319,35.52916],[140.452344,35.528535],[140.452094,35.528443],[140.451232,35.527068],[140.451182,35.526843],[140.451232,35.526685],[140.451119,35.526443],[140.451219,35.525835],[140.45122,35.525519],[140.451157,35.525177],[140.450995,35.524977],[140.450745,35.524885],[140.450382,35.524869],[140.45017,35.524685],[140.449782,35.524602],[140.449495,35.524469],[140.449032,35.524335],[140.448782,35.52431],[140.448532,35.52406],[140.448332,35.523819],[140.447807,35.523435],[140.447532,35.523144],[140.447332,35.522827],[140.44697,35.52256],[140.446895,35.522452],[140.44672,35.52191],[140.44652,35.521619],[140.445945,35.520969],[140.445658,35.520719],[140.445333,35.520269],[140.444995,35.519661],[140.44432,35.518877],[140.444095,35.518519],[140.443483,35.517802],[140.44337,35.517711],[140.44312,35.517369],[140.442895,35.516969],[140.442596,35.516494],[140.442308,35.516161],[140.441871,35.515369],[140.440633,35.513911],[140.440108,35.513078],[140.439746,35.51247],[140.439358,35.51187],[140.439021,35.511395],[140.438771,35.51092],[140.438459,35.510561],[140.437621,35.509328],[140.437346,35.509037],[140.435784,35.506787],[140.435559,35.506537],[140.435309,35.50607],[140.434909,35.505329],[140.434634,35.504945],[140.434547,35.504904],[140.434209,35.504179],[140.433847,35.503662],[140.433684,35.503329],[140.433522,35.502921],[140.433135,35.502312],[140.43266,35.501796],[140.432485,35.501437],[140.431985,35.500788],[140.431485,35.500046],[140.430585,35.498854],[140.43036,35.498479],[140.430223,35.498321],[140.42966,35.497105],[140.42921,35.496388],[140.428623,35.495197],[140.427636,35.493513],[140.425786,35.490189],[140.425424,35.489672],[140.424049,35.487264],[140.423636,35.486373],[140.422562,35.484598],[140.421974,35.483631],[140.421137,35.482123],[140.420999,35.481723],[140.420212,35.480057],[140.419337,35.478482],[140.418862,35.47754],[140.418637,35.476866],[140.418437,35.476466],[140.41785,35.475632],[140.417038,35.474532],[140.416788,35.474124],[140.416288,35.473116],[140.415725,35.472108],[140.415613,35.471766],[140.415263,35.471827],[140.414813,35.471908],[140.412701,35.472299],[140.411463,35.472533],[140.409501,35.472791],[140.406877,35.473224],[140.405927,35.473324],[140.405377,35.473441],[140.404764,35.473641],[140.403989,35.473849],[140.402727,35.474124],[140.402165,35.474282],[140.401927,35.474465],[140.40134,35.474674],[140.400877,35.474699],[140.400265,35.47479],[140.397503,35.475073],[140.392791,35.47579],[140.391804,35.475823],[140.391304,35.475865],[140.389417,35.476148],[140.387017,35.476448],[140.385542,35.476639],[140.38543,35.476589],[140.384655,35.476531],[140.384305,35.476623],[140.383693,35.476873],[140.383393,35.476531],[140.382118,35.476989],[140.381331,35.475398],[140.380668,35.475664],[140.381031,35.476431],[140.379981,35.476906],[140.379956,35.476572],[140.379868,35.476481],[140.379506,35.476547],[140.378981,35.476731],[140.379406,35.477789],[140.379556,35.478355],[140.379368,35.479522],[140.379231,35.47948],[140.379006,35.479505],[140.378731,35.479572],[140.378506,35.479755],[140.378181,35.479889],[140.378294,35.480247],[140.378481,35.480605],[140.378706,35.480564],[140.379181,35.480489],[140.379181,35.480789],[140.379131,35.481097],[140.378693,35.482405],[140.378031,35.483713],[140.378006,35.483896],[140.378481,35.484163],[140.378543,35.484521],[140.378706,35.485088],[140.378681,35.485196],[140.378018,35.485313],[140.378106,35.485921],[140.378193,35.486013],[140.378743,35.485946],[140.378793,35.485963],[140.378881,35.486413],[140.379006,35.487604],[140.377043,35.488429],[140.376743,35.488629],[140.376718,35.488879],[140.377193,35.489713],[140.376281,35.490504],[140.375231,35.491162],[140.374819,35.491479],[140.374706,35.491746],[140.374769,35.492246],[140.374719,35.492329],[140.374131,35.492496],[140.374356,35.493304],[140.374331,35.49362],[140.374194,35.493754],[140.374094,35.494045],[140.373619,35.49427],[140.373206,35.494412],[140.372681,35.494437],[140.372206,35.494329],[140.372044,35.494237],[140.371769,35.49417],[140.37173,35.494099],[140.371682,35.493887],[140.370932,35.493737],[140.370494,35.493579],[140.369532,35.493354],[140.369057,35.493312],[140.368369,35.493337],[140.367245,35.49347],[140.366695,35.493612],[140.36617,35.493704],[140.36592,35.493795],[140.36562,35.49402],[140.36527,35.494379],[140.36507,35.494654],[140.364995,35.494854],[140.364795,35.495129],[140.364807,35.49517],[140.364657,35.495104],[140.364657,35.495062],[140.363482,35.495337],[140.36332,35.495579],[140.363045,35.495404],[140.362895,35.49527],[140.362895,35.494979],[140.362708,35.494437],[140.362395,35.494479],[140.36227,35.495137],[140.362208,35.495245],[140.361495,35.495679],[140.361383,35.494979],[140.36122,35.494779],[140.361083,35.494729],[140.360945,35.494804],[140.36092,35.495095],[140.360833,35.495295],[140.359508,35.49537],[140.358633,35.495395],[140.358583,35.495304],[140.358546,35.495104],[140.358158,35.495037],[140.358158,35.494962],[140.357583,35.494787],[140.357421,35.49452],[140.357083,35.49472],[140.356971,35.494695],[140.356971,35.49452],[140.356646,35.494404],[140.356446,35.49382],[140.356221,35.49357],[140.355946,35.493504],[140.355733,35.49362],[140.355558,35.493754],[140.355396,35.49412],[140.355071,35.49452],[140.355021,35.49482],[140.355108,35.495112],[140.355433,35.495154],[140.355658,35.495154],[140.355746,35.495695],[140.354833,35.49592],[140.354421,35.495654],[140.354283,35.495495],[140.354146,35.495112],[140.353808,35.495095],[140.353446,35.495112],[140.353233,35.495204],[140.353121,35.495387],[140.353021,35.495879],[140.352771,35.495995],[140.352796,35.496112],[140.352883,35.496154],[140.353233,35.496062],[140.353521,35.496395],[140.353408,35.49647],[140.352633,35.49672],[140.352421,35.49667],[140.351909,35.495954],[140.351471,35.495054],[140.351384,35.49467],[140.350821,35.492821],[140.350459,35.491921],[140.349909,35.490979],[140.349897,35.490829],[140.349859,35.490721],[140.349747,35.490562],[140.349659,35.490446],[140.349584,35.490262],[140.349509,35.490029],[140.349459,35.489912],[140.349409,35.489712],[140.349372,35.489646],[140.349334,35.489479],[140.349322,35.489362],[140.349272,35.489246],[140.349222,35.489121],[140.349184,35.489046],[140.349134,35.488946],[140.349059,35.488821],[140.348922,35.488446],[140.34876,35.488013],[140.348622,35.487746],[140.348572,35.487629],[140.348447,35.487204],[140.34836,35.486896],[140.348322,35.486738],[140.348285,35.486546],[140.348222,35.486196],[140.348122,35.485904],[140.347997,35.485654],[140.347885,35.485471],[140.34766,35.485279],[140.347535,35.485179],[140.347535,35.485063],[140.347548,35.484896],[140.347498,35.484821],[140.34721,35.484821],[140.346848,35.484829],[140.346523,35.484863],[140.34606,35.484963],[140.34581,35.485038],[140.345485,35.485121],[140.34531,35.485163],[140.345198,35.485138],[140.34501,35.485138],[140.344885,35.485179],[140.344136,35.485154],[140.343448,35.485229],[140.343036,35.485362],[140.342736,35.485546],[140.341336,35.486654],[140.341311,35.486879],[140.341423,35.487237],[140.341448,35.487512],[140.341423,35.487596],[140.341486,35.487804],[140.341348,35.487895],[140.339698,35.488687],[140.338511,35.489279],[140.337961,35.489479],[140.336811,35.489845],[140.336374,35.490028],[140.335849,35.490412],[140.334249,35.490778],[140.332912,35.490911],[140.332049,35.491186],[140.331037,35.491645],[140.330874,35.491528],[140.330649,35.491645],[140.330349,35.491395],[140.329912,35.491711],[140.329337,35.492003],[140.328887,35.492144],[140.327762,35.492278],[140.327262,35.492286],[140.326775,35.492236],[140.326387,35.492169],[140.326025,35.492061],[140.32595,35.492086],[140.325837,35.492086],[140.325587,35.492286],[140.324187,35.493194],[140.32345,35.493761],[140.323287,35.493852],[140.32285,35.494186],[140.32285,35.494236],[140.323262,35.494886],[140.32455,35.494519],[140.325875,35.494294],[140.3261,35.494427],[140.326599,35.494944],[140.326899,35.495394],[140.327312,35.495869],[140.327674,35.495844],[140.327724,35.495886],[140.328199,35.496919],[140.328237,35.497077],[140.328537,35.497686],[140.328624,35.497736],[140.328837,35.497686],[140.329612,35.497502],[140.329749,35.497686],[140.329749,35.497844],[140.329611,35.498136],[140.329536,35.498427],[140.329186,35.499102],[140.328937,35.499469],[140.328586,35.500185],[140.328137,35.500419],[140.326874,35.500985],[140.325699,35.501327],[140.325274,35.500852],[140.324674,35.50101],[140.324174,35.501077],[140.324012,35.500943],[140.323687,35.500968],[140.322862,35.501127],[140.32255,35.50061],[140.321512,35.500885],[140.32145,35.50066],[140.3215,35.500593],[140.322,35.50041],[140.32205,35.500368],[140.321687,35.499668],[140.32155,35.49931],[140.321275,35.499327],[140.32095,35.499402],[140.320775,35.49931],[140.319512,35.499535],[140.319462,35.499427],[140.319762,35.499135],[140.319675,35.499068],[140.3191,35.499135],[140.3191,35.49916],[140.3182,35.50031],[140.317762,35.50076],[140.317675,35.50081],[140.3169,35.500876],[140.31685,35.500626],[140.316575,35.50061],[140.3163,35.500651],[140.316275,35.500835],[140.315912,35.500926],[140.315937,35.501126],[140.315662,35.501218],[140.315675,35.501576],[140.315975,35.502751],[140.315762,35.502843],[140.315487,35.502635],[140.31535,35.50241],[140.315312,35.502143],[140.315175,35.502076],[140.315175,35.502343],[140.314787,35.502418],[140.314825,35.50226],[140.31465,35.502143],[140.313963,35.502126],[140.313775,35.502193],[140.31355,35.502193],[140.313325,35.501876],[140.313163,35.501901],[140.31295,35.502059],[140.312725,35.502101],[140.312288,35.502059],[140.311513,35.502059],[140.311125,35.501951],[140.310488,35.501593],[140.310463,35.501551],[140.30955,35.501643],[140.309225,35.501776],[140.309113,35.501618],[140.308838,35.501668],[140.308038,35.501643],[140.307738,35.501576],[140.307575,35.501443],[140.307426,35.501084],[140.307176,35.500609],[140.307038,35.500201],[140.306951,35.500159],[140.305938,35.499893],[140.305213,35.499759],[140.305026,35.499651],[140.304476,35.498993],[140.304063,35.499293],[140.303838,35.499384],[140.303338,35.499134],[140.302601,35.498976],[140.302189,35.498934],[140.301914,35.498959],[140.301801,35.498684],[140.301876,35.498485],[140.302239,35.498168],[140.301376,35.497335],[140.301039,35.496951],[140.300801,35.497068],[140.300326,35.497135],[140.299914,35.497568],[140.298326,35.497751],[140.297714,35.498268],[140.297439,35.498676],[140.297364,35.498726],[140.297226,35.498659],[140.297002,35.498476],[140.296589,35.498301],[140.296452,35.498184],[140.296339,35.498026],[140.296314,35.497826],[140.296589,35.497759],[140.296889,35.497734],[140.297901,35.497751],[140.297964,35.497551],[140.297739,35.49746],[140.296889,35.497351],[140.296589,35.497376],[140.296302,35.497351],[140.296139,35.497376],[140.296002,35.497351],[140.295752,35.497376],[140.295539,35.496951],[140.295252,35.496743],[140.295064,35.496793],[140.294764,35.496726],[140.294514,35.496526],[140.292964,35.496351],[140.292752,35.496193],[140.292552,35.49646],[140.292315,35.49646],[140.291565,35.49631],[140.291177,35.49626],[140.290815,35.49631],[140.29044,35.496218],[140.290215,35.496284],[140.289415,35.496676],[140.289115,35.496768],[140.288727,35.496609],[140.28859,35.496626],[140.288402,35.496943],[140.288202,35.497084],[140.287927,35.497109],[140.287715,35.497034],[140.286852,35.496909],[140.286465,35.496884],[140.286052,35.496818],[140.285677,35.496868],[140.28554,35.497176],[140.285402,35.497993],[140.28524,35.498101],[140.28504,35.498176],[140.284802,35.498126],[140.284465,35.497967],[140.284277,35.497951],[140.283252,35.498292],[140.283065,35.498426],[140.282352,35.499309],[140.28219,35.499334],[140.281915,35.499284],[140.281165,35.498909],[140.280803,35.498792],[140.280478,35.498776],[140.280253,35.498617],[140.278428,35.496593],[140.277703,35.496009],[140.277678,35.495851],[140.277753,35.495351],[140.277678,35.495218],[140.277016,35.494793],[140.276678,35.494701],[140.276379,35.494685],[140.275691,35.494568],[140.274204,35.494076],[140.273504,35.493793],[140.272454,35.493593],[140.272179,35.493501],[140.270917,35.493685],[140.269954,35.493643],[140.269929,35.494135],[140.269954,35.494518],[140.269854,35.495284],[140.269829,35.495626],[140.270054,35.496551],[140.270379,35.497067],[140.270829,35.497676],[140.271216,35.498326],[140.271391,35.498817],[140.271353,35.499134],[140.271253,35.499409],[140.270403,35.500217],[140.270041,35.500425],[140.268666,35.500833],[140.267978,35.5012],[140.267191,35.501741],[140.266966,35.501875],[140.266166,35.501225],[140.265416,35.500708],[140.265116,35.500442],[140.263766,35.501316],[140.263191,35.501791],[140.262966,35.502025],[140.262641,35.502225],[140.262254,35.502],[140.261954,35.501891],[140.261654,35.501841],[140.261566,35.501866],[140.261316,35.50185],[140.261154,35.501758],[140.260991,35.501466],[140.260679,35.501508],[140.260741,35.501916],[140.260604,35.502391],[140.260554,35.502408],[140.260441,35.502341],[140.260141,35.502208],[140.259754,35.501966],[140.259554,35.501783],[140.259467,35.501516],[140.259529,35.501133],[140.259692,35.500816],[140.259992,35.500433],[140.260342,35.499775],[140.260342,35.499667],[140.260567,35.499392],[140.261217,35.499033],[140.261304,35.498942],[140.261492,35.498575],[140.261692,35.498575],[140.261717,35.498667],[140.261667,35.498917],[140.261942,35.499008],[140.262042,35.499008],[140.262267,35.498867],[140.262429,35.498958],[140.262904,35.499117],[140.263317,35.498709],[140.263417,35.498509],[140.263617,35.4983],[140.263667,35.498192],[140.263417,35.497809],[140.263142,35.497875],[140.262704,35.497875],[140.262292,35.498084],[140.261692,35.498259],[140.261079,35.497675],[140.260829,35.497409],[140.260717,35.497384],[140.260467,35.497275],[140.260467,35.496959],[140.260717,35.496917],[140.261067,35.496934],[140.261317,35.496975],[140.261429,35.497042],[140.261542,35.497317],[140.261842,35.497584],[140.262092,35.497875],[140.262154,35.497875],[140.262367,35.497767],[140.262567,35.497542],[140.262754,35.497134],[140.262642,35.496817],[140.262667,35.496326],[140.262392,35.495759],[140.262442,35.495509],[140.262667,35.495084],[140.262605,35.494793],[140.262767,35.494409],[140.262742,35.494251],[140.262492,35.494251],[140.261892,35.494409],[140.261555,35.494451],[140.261192,35.494409],[140.260705,35.494184],[140.26048,35.494051],[140.260205,35.493943],[140.259843,35.493851],[140.257918,35.493543],[140.257618,35.493743],[140.257368,35.494017],[140.257005,35.494176],[140.25638,35.494292],[140.256268,35.494292],[140.25503,35.494476],[140.255118,35.495192],[140.25498,35.495401],[140.254568,35.495759],[140.254268,35.496325],[140.254293,35.496484],[140.254405,35.496567],[140.254705,35.496617],[140.255593,35.496525],[140.255568,35.496609],[140.255643,35.496684],[140.256143,35.496884],[140.256167,35.497042],[140.256117,35.497084],[140.255755,35.497017],[140.25488,35.496909],[140.254043,35.496934],[140.253805,35.497134],[140.253643,35.497425],[140.254105,35.497742],[140.25483,35.498283],[140.254742,35.498392],[140.254667,35.498417],[140.254005,35.498917],[140.253892,35.49905],[140.25403,35.499392],[140.25403,35.499616],[140.25428,35.500083],[140.254705,35.500625],[140.25473,35.500758],[140.254505,35.501058],[140.254567,35.5013],[140.254705,35.501525],[140.255042,35.502183],[140.255317,35.502558],[140.255404,35.502741],[140.255367,35.502783],[140.255292,35.502766],[140.254979,35.502516],[140.25413,35.501758],[140.25388,35.501799],[140.252555,35.502166],[140.25168,35.502283],[140.25138,35.502191],[140.250855,35.501991],[140.250543,35.501808],[140.250355,35.501791],[140.24903,35.501908],[140.248668,35.501883],[140.248618,35.502108],[140.248455,35.502608],[140.248155,35.503232],[140.248243,35.503266],[140.248243,35.503374],[140.248168,35.503532],[140.24803,35.503599],[140.24728,35.503691],[140.247143,35.503849],[140.247055,35.504032],[140.246918,35.504049],[140.246693,35.504057],[140.24638,35.503991],[140.24598,35.503749],[140.245455,35.503766],[140.245155,35.503741],[140.244368,35.503457],[140.243568,35.503349],[140.243043,35.503416],[140.242618,35.503574],[140.242343,35.503757],[140.242343,35.503941],[140.242568,35.504882],[140.242618,35.504974],[140.242793,35.505415],[140.242581,35.505424],[140.239131,35.505199],[140.238206,35.50509],[140.237256,35.50509],[140.236381,35.504807],[140.235606,35.504632],[140.234719,35.50439],[140.233332,35.50394],[140.232782,35.503832],[140.232507,35.503807],[140.232332,35.503865],[140.231969,35.504207],[140.231982,35.504499],[140.231882,35.504882],[140.231607,35.505315],[140.231507,35.505832],[140.231269,35.505923],[140.231144,35.505923],[140.230732,35.506015],[140.230582,35.506148],[140.230232,35.506865],[140.229932,35.507057],[140.229307,35.507348],[140.228932,35.507623],[140.228569,35.508015],[140.228357,35.508473],[140.228469,35.509056],[140.228744,35.50934],[140.228944,35.509481],[140.229182,35.509748],[140.229119,35.509973],[140.228944,35.510081],[140.228294,35.510256],[140.228194,35.510314],[140.227569,35.511306],[140.227282,35.511614],[140.227157,35.511881],[140.227194,35.512264],[140.227257,35.512397],[140.227507,35.512681],[140.227682,35.512964],[140.227657,35.513272],[140.227469,35.513472],[140.227082,35.513764],[140.226619,35.513905],[140.226332,35.51413],[140.226057,35.514539],[140.22577,35.514789],[140.225607,35.515022],[140.225207,35.515364],[140.224482,35.51583],[140.223795,35.516322],[140.222995,35.517138],[140.222657,35.517422],[140.221745,35.518063],[140.22307,35.51883],[140.22377,35.519105],[140.224145,35.519155],[140.224332,35.519113],[140.224857,35.51873],[140.225619,35.518305],[140.225894,35.518113],[140.226069,35.51788],[140.226082,35.51743],[140.225944,35.51703],[140.225919,35.516763],[140.226057,35.516297],[140.226244,35.516038],[140.226594,35.515789],[140.226819,35.515764],[140.226819,35.515922],[140.226432,35.516688],[140.226319,35.517163],[140.226319,35.517447],[140.226432,35.517705],[140.226657,35.517847],[140.226819,35.51788],[140.227157,35.517838],[140.227769,35.517547],[140.228094,35.517472],[140.228669,35.517447],[140.228944,35.51738],[140.229207,35.517255],[140.229706,35.517088],[140.230081,35.51693],[140.230444,35.51653],[140.230669,35.516513],[140.230744,35.516672],[140.230719,35.516863],[140.230619,35.517022],[140.230444,35.517122],[140.230369,35.517313],[140.230131,35.517313],[140.229894,35.517363],[140.229619,35.51758],[140.229207,35.517655],[140.228944,35.517796],[140.228719,35.518005],[140.228582,35.518255],[140.228569,35.518355],[140.228682,35.518763],[140.228882,35.518971],[140.229269,35.519246],[140.230206,35.519588],[140.231219,35.519946],[140.231244,35.520204],[140.230919,35.520254],[140.230106,35.520013],[140.228819,35.519513],[140.228482,35.519296],[140.228269,35.519063],[140.228232,35.518721],[140.228257,35.51828],[140.228132,35.517921],[140.226794,35.518205],[140.226269,35.518371],[140.225732,35.518638],[140.225519,35.51883],[140.225482,35.519088],[140.225244,35.519305],[140.224507,35.519596],[140.22412,35.519838],[140.223495,35.520346],[140.223132,35.520563],[140.222645,35.520754],[140.221582,35.520879],[140.221282,35.520871],[140.221182,35.520888],[140.221045,35.521096],[140.221157,35.521238],[140.22137,35.521271],[140.221795,35.521254],[140.22232,35.521396],[140.222732,35.521488],[140.224032,35.521571],[140.224832,35.521571],[140.224895,35.521771],[140.224832,35.521879],[140.224457,35.521979],[140.224057,35.522004],[140.22307,35.521971],[140.222582,35.521904],[140.221882,35.521754],[140.221482,35.521729],[140.221407,35.521813],[140.221507,35.521929],[140.222157,35.522404],[140.22222,35.522513],[140.221945,35.522471],[140.221682,35.522346],[140.221407,35.522154],[140.22112,35.521904],[140.22097,35.521838],[140.220958,35.522113],[140.220645,35.523646],[140.220658,35.523779],[140.221257,35.523721],[140.22172,35.523771],[140.222707,35.524104],[140.223207,35.524329],[140.22427,35.524995],[140.22467,35.52507],[140.225169,35.524854],[140.225344,35.52472],[140.225419,35.524995],[140.226157,35.52667],[140.226332,35.527212],[140.226269,35.527528],[140.226044,35.527837],[140.226069,35.528037],[140.226132,35.52807],[140.226432,35.528003],[140.226669,35.527887],[140.226919,35.527878],[140.227269,35.52792],[140.227594,35.527878],[140.227619,35.528228],[140.227819,35.528428],[140.228132,35.528445],[140.229006,35.528303],[140.229181,35.528361],[140.229244,35.528561],[140.228969,35.52882],[140.228881,35.52897],[140.228881,35.52932],[140.229544,35.529995],[140.229619,35.530161],[140.229531,35.53057],[140.229506,35.53097],[140.229681,35.531228],[140.230156,35.531628],[140.230481,35.531961],[140.230744,35.532394],[140.231106,35.532836],[140.231394,35.533094],[140.231756,35.533278],[140.232044,35.533411],[140.231769,35.534453],[140.231419,35.535569],[140.231056,35.536394],[140.230756,35.536902],[140.229894,35.537936],[140.229357,35.538769],[140.229019,35.539285],[140.227482,35.54071],[140.226557,35.541544],[140.226132,35.54181],[140.225557,35.542052],[140.22422,35.542693],[140.223395,35.543002],[140.223145,35.543035],[140.221945,35.543218],[140.220571,35.543402],[140.219958,35.543527],[140.219608,35.543777],[140.219083,35.543927],[140.218171,35.544027],[140.217908,35.544127],[140.217846,35.544843],[140.220121,35.544473],[140.223525,35.544473],[140.226784,35.544473],[140.229666,35.543692],[140.23342,35.542676],[140.237053,35.541249],[140.241036,35.540744],[140.243611,35.541557],[140.249491,35.544911],[140.253008,35.546359],[140.257936,35.547985],[140.259466,35.549777],[140.260597,35.551516],[140.260597,35.552811],[140.259643,35.554805],[140.259414,35.555846],[140.259855,35.557116],[140.260915,35.557981],[140.261441,35.559494],[140.261628,35.559419],[140.262116,35.55931],[140.262416,35.559252],[140.262641,35.55911],[140.262803,35.55896],[140.262878,35.558902],[140.263116,35.558969],[140.263478,35.558952],[140.263741,35.559027],[140.263966,35.559019],[140.264241,35.559035],[140.264478,35.559027],[140.264603,35.559035],[140.264816,35.559002],[140.265003,35.55901],[140.265216,35.558835],[140.265291,35.558835],[140.265378,35.558894],[140.265641,35.55896],[140.265716,35.55896],[140.265828,35.558952],[140.265953,35.558919],[140.266091,35.558819],[140.266253,35.558652],[140.266228,35.558469],[140.266178,35.558144],[140.266103,35.557927],[140.266166,35.557844],[140.266266,35.557844],[140.266403,35.55776],[140.266591,35.557727],[140.266603,35.557794],[140.266641,35.557919],[140.266728,35.558077],[140.266778,35.558302],[140.266791,35.558469],[140.266828,35.55861],[140.266866,35.558744],[140.266928,35.558885],[140.266978,35.55896],[140.267141,35.559194],[140.267241,35.55941],[140.267341,35.559544],[140.267528,35.559777],[140.267603,35.559927],[140.267691,35.560185],[140.267728,35.560285],[140.267716,35.560427],[140.267716,35.560493],[140.267766,35.560643],[140.267841,35.560785],[140.267903,35.561068],[140.267978,35.561202],[140.268016,35.561302],[140.268091,35.561443],[140.268203,35.56156],[140.268216,35.561693],[140.268078,35.561843],[140.267953,35.56201],[140.267803,35.562193],[140.267816,35.562268],[140.267916,35.562302],[140.268078,35.56236],[140.268166,35.562435],[140.268453,35.562735],[140.268578,35.56286],[140.268628,35.562952],[140.268666,35.563143],[140.268753,35.563243],[140.268841,35.563285],[140.269053,35.563468],[140.269216,35.563568],[140.269366,35.563818],[140.269403,35.564018],[140.269441,35.564201],[140.269553,35.564335],[140.269816,35.564518],[140.27009,35.564701],[140.270328,35.564893],[140.27054,35.565068],[140.270778,35.565226],[140.27099,35.565485],[140.271053,35.565676],[140.271028,35.565735],[140.27094,35.565743],[140.270803,35.56576],[140.270528,35.565785],[140.270315,35.565785],[140.270103,35.565776],[140.26974,35.565726],[140.26964,35.565735],[140.269515,35.565801],[140.26944,35.565885],[140.269365,35.565976],[140.26924,35.566143],[140.269153,35.566276],[140.269053,35.56646],[140.269015,35.566735],[140.269015,35.566985],[140.269078,35.567226],[140.26914,35.567418],[140.26929,35.567659],[140.269415,35.567751],[140.269565,35.567834],[140.26969,35.567876],[140.26984,35.567893],[140.269965,35.567984],[140.270178,35.568326],[140.270203,35.568559],[140.270103,35.568784],[140.270078,35.568884],[140.27009,35.569018],[140.27029,35.569184],[140.270515,35.569301],[140.270653,35.569351],[140.270953,35.569309],[140.271178,35.569109],[140.271453,35.569009],[140.271503,35.568918],[140.271615,35.568851],[140.27174,35.568818],[140.271828,35.568826],[140.27194,35.568768],[140.27204,35.568734],[140.272153,35.568709],[140.272315,35.568743],[140.272615,35.568709],[140.272827,35.568709],[140.272965,35.568759],[140.273165,35.568801],[140.27339,35.568893],[140.273552,35.569018],[140.273702,35.569051],[140.273927,35.569084],[140.27414,35.569201],[140.274352,35.569376],[140.274477,35.569476],[140.274615,35.569609],[140.274677,35.569809],[140.274689,35.570009],[140.274764,35.570259],[140.274852,35.570601],[140.274889,35.570843],[140.274952,35.570909],[140.275102,35.571051],[140.275214,35.571151],[140.275452,35.571293],[140.275727,35.571401],[140.275827,35.571384],[140.276027,35.571451],[140.276127,35.571476],[140.276377,35.571543],[140.276752,35.571634],[140.276852,35.571651],[140.276964,35.571693],[140.277164,35.571734],[140.277501,35.571759],[140.277664,35.571718],[140.277901,35.571718],[140.278414,35.571701],[140.278651,35.571676],[140.279001,35.571601],[140.279076,35.571609],[140.279164,35.571576],[140.279189,35.571518],[140.279289,35.571459],[140.279301,35.571393],[140.279389,35.571301],[140.279451,35.571234],[140.279626,35.571126],[140.279714,35.571118],[140.279976,35.571159],[140.280126,35.571159],[140.280351,35.571184],[140.280601,35.571226],[140.280876,35.571259],[140.281026,35.571301],[140.281363,35.571309],[140.281488,35.571318],[140.281613,35.571318],[140.281751,35.571268],[140.281863,35.571176],[140.281976,35.571068],[140.282051,35.570976],[140.282213,35.570993],[140.282388,35.571035],[140.282501,35.571068],[140.282838,35.571151],[140.282938,35.571201],[140.283051,35.571226],[140.283276,35.571293],[140.283351,35.571301],[140.283676,35.57146],[140.284,35.571501],[140.284188,35.57151],[140.284288,35.571476],[140.284413,35.571426],[140.2845,35.57141],[140.284675,35.571318],[140.284925,35.571276],[140.285038,35.571243],[140.2851,35.571176],[140.285275,35.57116],[140.285438,35.571126],[140.285525,35.57111],[140.285613,35.571151],[140.2857,35.571135],[140.285888,35.571101],[140.286188,35.571026],[140.286338,35.571026],[140.286513,35.57101],[140.286688,35.570935],[140.286975,35.57086],[140.287275,35.570701],[140.287537,35.57061],[140.28775,35.570543],[140.28795,35.570451],[140.288225,35.570326],[140.288387,35.570293],[140.288562,35.570218],[140.288637,35.57016],[140.288762,35.570118],[140.289075,35.570027],[140.288775,35.570318],[140.288,35.57161],[140.287725,35.57181],[140.287237,35.57231],[140.287037,35.572693],[140.286987,35.572918],[140.288225,35.572776],[140.288475,35.57271],[140.290299,35.572568],[140.290737,35.572501],[140.291849,35.572451],[140.292337,35.572501],[140.292699,35.572651],[140.293037,35.572876],[140.293449,35.573035],[140.294636,35.573668],[140.294749,35.573751],[140.294999,35.573868],[140.295324,35.57391],[140.295911,35.574135],[140.296349,35.57436],[140.296486,35.574385],[140.297486,35.574851],[140.298236,35.575168],[140.298536,35.575343],[140.298673,35.575568],[140.298898,35.575751],[140.300361,35.576426],[140.300536,35.576534],[140.301311,35.576934],[140.302023,35.577251],[140.302685,35.577593],[140.30321,35.577901],[140.305573,35.579042],[140.307172,35.579992],[140.307422,35.580167],[140.308722,35.580842],[140.309335,35.581201],[140.311247,35.582584],[140.311334,35.582625],[140.311534,35.582709],[140.311959,35.582917],[140.312122,35.582984],[140.312209,35.583184],[140.312347,35.583492],[140.312372,35.583592],[140.312459,35.58365],[140.312972,35.583875],[140.313584,35.584142],[140.314259,35.584425],[140.314921,35.584684],[140.315496,35.58485],[140.315809,35.584934],[140.315909,35.584942],[140.315996,35.584959],[140.316071,35.584959],[140.316046,35.585192],[140.316009,35.585383],[140.316096,35.5854],[140.316609,35.5856],[140.316821,35.585675],[140.316884,35.585558],[140.317071,35.585567],[140.317684,35.585733],[140.318346,35.5859],[140.319158,35.586025],[140.319896,35.586117],[140.320408,35.586183],[140.320846,35.586183],[140.321508,35.586192],[140.321808,35.5862],[140.322008,35.586183],[140.322121,35.586175],[140.322758,35.586167],[140.323108,35.586142],[140.323358,35.586108],[140.32367,35.586067],[140.324645,35.585975],[140.325283,35.585942],[140.32637,35.585867],[140.32772,35.5858],[140.328707,35.585725],[140.329432,35.585692],[140.33017,35.585667],[140.330757,35.585659],[140.331282,35.585759],[140.331794,35.585867],[140.331869,35.585892],[140.332119,35.585909],[140.332807,35.585726],[140.333807,35.585526],[140.334719,35.585367],[140.335856,35.585101],[140.337331,35.585351],[140.337406,35.585367],[140.337881,35.585792],[140.338269,35.585817],[140.338494,35.585884],[140.338768,35.586226],[140.338656,35.586592],[140.338543,35.586809],[140.338268,35.586851],[140.337994,35.586959],[140.337906,35.58705],[140.337369,35.5882],[140.337294,35.588334],[140.337231,35.588442],[140.337081,35.588609],[140.336956,35.588767],[140.336844,35.588834],[140.336731,35.588984],[140.336631,35.589158],[140.336531,35.589292],[140.336469,35.589417],[140.336381,35.5896],[140.336394,35.589767],[140.336431,35.590025],[140.336469,35.5902],[140.336469,35.5903],[140.336456,35.590367],[140.336369,35.590375],[140.336269,35.590417],[140.336106,35.590408],[140.335881,35.590375],[140.335619,35.5903],[140.335294,35.590217],[140.334981,35.590092],[140.334769,35.590017],[140.334619,35.589942],[140.334506,35.589942],[140.334381,35.589808],[140.334331,35.589742],[140.334294,35.589675],[140.334181,35.5895],[140.333969,35.589442],[140.333881,35.589408],[140.333769,35.589417],[140.333581,35.589367],[140.333456,35.589333],[140.333319,35.589317],[140.333206,35.589258],[140.333057,35.589158],[140.332932,35.589117],[140.332719,35.589117],[140.332482,35.589125],[140.332332,35.5891],[140.332232,35.589117],[140.332157,35.589008],[140.332132,35.588908],[140.332107,35.588783],[140.332069,35.588675],[140.332082,35.588542],[140.332169,35.58845],[140.332082,35.5884],[140.331982,35.588308],[140.331894,35.588242],[140.331769,35.588175],[140.331657,35.588217],[140.331507,35.588325],[140.331394,35.588425],[140.331219,35.588542],[140.331119,35.588592],[140.330932,35.58875],[140.330732,35.588883],[140.330619,35.588933],[140.330432,35.589017],[140.330319,35.58905],[140.330219,35.589117],[140.330132,35.589167],[140.329994,35.58925],[140.329844,35.589375],[140.329694,35.589425],[140.329532,35.589467],[140.329332,35.589492],[140.329232,35.589542],[140.329195,35.589658],[140.329295,35.589733],[140.329382,35.589825],[140.329457,35.589933],[140.329469,35.590008],[140.329494,35.590158],[140.329519,35.590333],[140.329507,35.590525],[140.329519,35.590675],[140.329507,35.59085],[140.329444,35.590991],[140.329369,35.591116],[140.329232,35.59125],[140.329082,35.591391],[140.328957,35.591475],[140.328832,35.591466],[140.328707,35.591416],[140.328545,35.591341],[140.32837,35.591358],[140.328282,35.591391],[140.328145,35.591383],[140.328032,35.5914],[140.327845,35.591433],[140.327632,35.59145],[140.327557,35.591433],[140.327482,35.5914],[140.327395,35.591325],[140.32737,35.591266],[140.327332,35.591175],[140.327282,35.591083],[140.327245,35.590966],[140.327195,35.590816],[140.327145,35.590658],[140.327082,35.59045],[140.327032,35.590333],[140.326882,35.590133],[140.32682,35.59005],[140.326757,35.589983],[140.326595,35.589908],[140.326507,35.589883],[140.326395,35.58985]]],"type":"Polygon"},"properties":{"kuni_url":"/kg/resource/K18.html","id_url":"G18008.html","id":"G18008","kuni":"上総","name":"山辺","yomi":"やまべ","kuni_id":"K18","pref":"千葉県"},"type":"Feature"}]}