{"type":"FeatureCollection","features":[{"properties":{"name":"東葛飾","yomi":"ひがしかつしか","kuni_id":"K19","pref":"千葉県","kuni_url":"/kg/resource/K19.html","id_url":"G19002.html","kuni":"下総","id":"G19002"},"geometry":{"type":"Polygon","coordinates":[[[139.776137,36.090819],[139.776099,36.091436],[139.776012,36.091977],[139.775974,36.093377],[139.776087,36.094802],[139.776199,36.095685],[139.776412,36.09641],[139.776837,36.097118],[139.777399,36.097843],[139.777462,36.09796],[139.778349,36.098877],[139.779524,36.09966],[139.779849,36.099852],[139.780861,36.100268],[139.782148,36.100877],[139.782511,36.101018],[139.783436,36.101526],[139.784311,36.102176],[139.785098,36.102701],[139.78636,36.103718],[139.786735,36.104085],[139.786785,36.104018],[139.787185,36.103793],[139.78901,36.102377],[139.789523,36.101935],[139.790085,36.10151],[139.791797,36.100269],[139.792497,36.099827],[139.795247,36.097919],[139.795697,36.097569],[139.796247,36.097236],[139.797434,36.096369],[139.798272,36.095636],[139.798622,36.095303],[139.799722,36.09412],[139.800009,36.09372],[139.800947,36.092328],[139.801147,36.091928],[139.802147,36.090245],[139.802672,36.089237],[139.803709,36.086921],[139.803884,36.086521],[139.803972,36.086437],[139.804072,36.085621],[139.804122,36.085471],[139.804259,36.084496],[139.804984,36.081705],[139.805534,36.079705],[139.806335,36.076705],[139.806935,36.074881],[139.807297,36.073647],[139.80771,36.072406],[139.80791,36.071639],[139.80866,36.069573],[139.808935,36.06894],[139.80976,36.067482],[139.81021,36.06654],[139.810573,36.065998],[139.81216,36.064207],[139.812598,36.06369],[139.812898,36.063215],[139.813635,36.062416],[139.81411,36.062007],[139.814998,36.061316],[139.815273,36.061074],[139.815685,36.060641],[139.816135,36.060199],[139.816673,36.059791],[139.817173,36.059483],[139.818135,36.058724],[139.818585,36.058408],[139.819323,36.057783],[139.820148,36.057225],[139.821185,36.056333],[139.82176,36.055858],[139.824672,36.053175],[139.825351,36.052499],[139.826115,36.051715],[139.826897,36.051067],[139.82871,36.049367],[139.829272,36.048767],[139.833947,36.044309],[139.835059,36.043184],[139.836272,36.042068],[139.837584,36.040768],[139.838797,36.039677],[139.840609,36.038377],[139.841097,36.037952],[139.842359,36.037019],[139.845209,36.035227],[139.845959,36.034719],[139.847571,36.033827],[139.849734,36.032828],[139.853284,36.031294],[139.856321,36.02992],[139.857208,36.029403],[139.857758,36.028937],[139.858196,36.028512],[139.859021,36.027545],[139.860846,36.025687],[139.862533,36.024029],[139.863446,36.023071],[139.864508,36.022037],[139.865046,36.021454],[139.866283,36.020271],[139.866333,36.020163],[139.867246,36.019379],[139.868271,36.018321],[139.868958,36.017446],[139.869695,36.016638],[139.870908,36.015388],[139.871258,36.014988],[139.871755,36.014509],[139.871795,36.014313],[139.872045,36.014122],[139.872295,36.013897],[139.874595,36.01213],[139.875533,36.011489],[139.87607,36.01103],[139.87667,36.010364],[139.877808,36.008656],[139.878445,36.007198],[139.878833,36.005598],[139.879283,36.003823],[139.879483,36.003198],[139.879683,36.002631],[139.879933,36.001598],[139.880233,35.999765],[139.880258,35.999273],[139.880458,35.998665],[139.880595,35.997765],[139.881208,35.99494],[139.88137,35.994465],[139.882158,35.991782],[139.88287,35.990274],[139.883657,35.989283],[139.884095,35.988833],[139.88462,35.988408],[139.886482,35.986783],[139.88762,35.9859],[139.889707,35.984417],[139.890257,35.98405],[139.892057,35.982767],[139.893057,35.981975],[139.894119,35.981059],[139.894582,35.980534],[139.895232,35.980042],[139.896694,35.978984],[139.897369,35.978551],[139.898782,35.977784],[139.900781,35.976951],[139.902694,35.976301],[139.906219,35.97486],[139.909331,35.973527],[139.909968,35.973118],[139.911456,35.972243],[139.912656,35.97161],[139.914343,35.970894],[139.915706,35.97046],[139.916405,35.970327],[139.917068,35.970235],[139.919593,35.97026],[139.920393,35.970236],[139.922755,35.970236],[139.923313,35.970443],[139.923592,35.970577],[139.924142,35.970577],[139.92598,35.970327],[139.927117,35.970244],[139.927417,35.970169],[139.928417,35.970086],[139.929917,35.969878],[139.930942,35.969703],[139.931779,35.969653],[139.932667,35.969411],[139.933829,35.968528],[139.934079,35.968394],[139.934129,35.968328],[139.934554,35.968078],[139.935304,35.967511],[139.936466,35.966478],[139.936716,35.966161],[139.937241,35.96537],[139.937654,35.964495],[139.938266,35.962779],[139.938216,35.962104],[139.938129,35.961879],[139.937241,35.960504],[139.936329,35.958721],[139.935492,35.957279],[139.934992,35.957229],[139.934792,35.957146],[139.934517,35.956921],[139.934042,35.956196],[139.933854,35.955812],[139.933942,35.955179],[139.933904,35.954821],[139.933742,35.954346],[139.933554,35.954096],[139.933055,35.953379],[139.932805,35.952788],[139.932405,35.952113],[139.93163,35.950738],[139.93208,35.949705],[139.932717,35.948122],[139.932967,35.947605],[139.933517,35.946588],[139.934242,35.945439],[139.936105,35.942847],[139.936492,35.942422],[139.937704,35.941223],[139.938379,35.940773],[139.939179,35.940298],[139.940092,35.939848],[139.941979,35.939131],[139.942616,35.938973],[139.944141,35.938723],[139.944916,35.938565],[139.945616,35.93839],[139.948616,35.937415],[139.949353,35.937107],[139.950053,35.936857],[139.951216,35.936315],[139.952053,35.935749],[139.952353,35.93559],[139.95369,35.934599],[139.95429,35.934216],[139.954928,35.933724],[139.955965,35.933066],[139.957565,35.932099],[139.958265,35.931716],[139.959453,35.930975],[139.960678,35.929917],[139.962703,35.92845],[139.963527,35.927817],[139.96439,35.927259],[139.964915,35.926967],[139.96589,35.926559],[139.969352,35.925609],[139.970877,35.925301],[139.971715,35.925076],[139.974427,35.924168],[139.975952,35.923543],[139.977152,35.922868],[139.978014,35.922326],[139.978477,35.921985],[139.979502,35.921151],[139.980289,35.920385],[139.980702,35.919877],[139.980814,35.919843],[139.981114,35.91941],[139.982164,35.918169],[139.983789,35.916494],[139.984864,35.915544],[139.985664,35.914952],[139.986701,35.914277],[139.988139,35.913252],[139.988801,35.912869],[139.989301,35.912511],[139.989989,35.912078],[139.990714,35.911694],[139.991626,35.911111],[139.990677,35.909343],[139.98656,35.90285],[139.984017,35.895925],[139.982054,35.892984],[139.980214,35.891268],[139.980214,35.888939],[139.981318,35.887223],[139.982299,35.88563],[139.982054,35.88465],[139.982054,35.882811],[139.98776,35.877685],[139.990468,35.876196],[139.993446,35.875304],[139.992952,35.874967],[139.99254,35.874608],[139.992502,35.874525],[139.992527,35.873733],[139.992465,35.873417],[139.99214,35.873125],[139.99074,35.872909],[139.990778,35.8723],[139.991002,35.872384],[139.99119,35.871167],[139.991802,35.871359],[139.991752,35.871201],[139.991802,35.871101],[139.99204,35.871034],[139.992102,35.870834],[139.99224,35.870609],[139.992152,35.870334],[139.992102,35.870034],[139.99219,35.869759],[139.992265,35.869651],[139.99239,35.869509],[139.99249,35.869426],[139.993677,35.867551],[139.996751,35.86694],[140.008388,35.861802],[140.008226,35.861761],[140.007476,35.861427],[140.006701,35.861027],[140.006276,35.860844],[140.005426,35.860402],[140.004976,35.860219],[140.004476,35.859977],[140.004064,35.859661],[140.003251,35.859236],[140.002702,35.859019],[140.002202,35.858769],[140.001614,35.858544],[140.000927,35.858144],[140.000114,35.857561],[139.998939,35.856445],[139.998864,35.856403],[139.998527,35.855995],[139.997914,35.855328],[139.997777,35.855253],[139.997552,35.855203],[139.99739,35.854887],[139.997165,35.855028],[139.99689,35.855086],[139.996751,35.854833],[139.99604,35.853695],[139.995877,35.85382],[139.99524,35.852862],[139.99559,35.852645],[139.995177,35.85192],[139.996227,35.851412],[139.99604,35.851204],[139.995265,35.850462],[139.994677,35.849971],[139.99054,35.846246],[139.990378,35.845955],[139.990353,35.845755],[139.990378,35.845296],[139.990565,35.844671],[139.991028,35.84338],[139.99124,35.842905],[139.991315,35.842572],[139.991715,35.842638],[139.991978,35.841822],[139.992178,35.841847],[139.992503,35.84083],[139.991915,35.840722],[139.992165,35.83988],[139.99314,35.837131],[139.993278,35.836556],[139.993265,35.836248],[139.993378,35.835906],[139.993465,35.835606],[139.993603,35.835106],[139.993653,35.834881],[139.993728,35.834498],[139.99374,35.83434],[139.993728,35.833956],[139.993715,35.833781],[139.993615,35.833048],[139.993553,35.832623],[139.993528,35.832357],[139.993503,35.832173],[139.99344,35.831573],[139.99344,35.831432],[139.993465,35.831323],[139.993503,35.831207],[139.993553,35.831098],[139.99364,35.830957],[139.993765,35.830773],[139.993965,35.830557],[139.994165,35.830332],[139.994453,35.830032],[139.995128,35.829324],[139.995878,35.828574],[139.996103,35.82834],[139.996253,35.82819],[139.996365,35.828074],[139.996603,35.827799],[139.996678,35.827724],[139.996903,35.827449],[139.99749,35.826849],[139.997753,35.826666],[139.998615,35.825791],[139.998928,35.825549],[139.999428,35.824583],[139.999578,35.824108],[139.999828,35.823666],[139.999915,35.823416],[139.999678,35.821591],[139.999441,35.820908],[139.999191,35.82055],[139.998816,35.8196],[139.998303,35.81845],[139.998303,35.8184],[139.997891,35.818425],[139.997804,35.818017],[139.997641,35.817725],[139.997541,35.817317],[139.997541,35.817],[139.997629,35.816301],[139.997604,35.815942],[139.997304,35.815401],[139.997066,35.815059],[139.996753,35.814497],[139.996416,35.814376],[139.995966,35.814551],[139.995442,35.814726],[139.995229,35.814776],[139.994867,35.814901],[139.994792,35.814884],[139.994567,35.814793],[139.994229,35.814659],[139.994154,35.814501],[139.994042,35.814326],[139.993892,35.814068],[139.993779,35.813934],[139.993667,35.813784],[139.993592,35.813701],[139.993529,35.813626],[139.993417,35.813484],[139.993179,35.813543],[139.993042,35.813309],[139.992904,35.813051],[139.992792,35.812843],[139.992704,35.812668],[139.992629,35.812476],[139.992592,35.812326],[139.992792,35.812218],[139.993092,35.812051],[139.993204,35.81201],[139.993292,35.811943],[139.993429,35.811868],[139.993517,35.811785],[139.993479,35.811543],[139.993429,35.811485],[139.993304,35.811393],[139.993117,35.811293],[139.993005,35.81121],[139.993167,35.811035],[139.993105,35.810985],[139.992855,35.81081],[139.992767,35.810735],[139.992467,35.810551],[139.991955,35.810185],[139.99168,35.81001],[139.991217,35.809618],[139.991005,35.80946],[139.99088,35.809343],[139.99073,35.809227],[139.990442,35.808985],[139.99038,35.80896],[139.99028,35.808968],[139.990067,35.809085],[139.989855,35.809235],[139.989105,35.809802],[139.988567,35.810227],[139.988143,35.809968],[139.987355,35.809485],[139.986855,35.80921],[139.986268,35.80891],[139.985955,35.808752],[139.98558,35.808552],[139.985068,35.808293],[139.984818,35.808135],[139.984355,35.807852],[139.983743,35.807444],[139.983468,35.80726],[139.982781,35.806785],[139.982306,35.80646],[139.981881,35.80616],[139.981393,35.80581],[139.980681,35.805335],[139.980331,35.805102],[139.979019,35.804211],[139.977769,35.803344],[139.977556,35.803194],[139.976169,35.802278],[139.974957,35.801428],[139.974907,35.801394],[139.974769,35.801303],[139.973857,35.800694],[139.973407,35.800361],[139.974207,35.800044],[139.974932,35.799753],[139.975594,35.799495],[139.976232,35.799236],[139.978794,35.79822],[139.979056,35.798528],[139.979044,35.798703],[139.979019,35.79877],[139.979044,35.798811],[139.979056,35.79887],[139.979119,35.798945],[139.979369,35.799395],[139.979456,35.799553],[139.979519,35.79962],[139.979556,35.79972],[139.979594,35.799928],[139.979631,35.800169],[139.979656,35.800403],[139.979644,35.800594],[139.979869,35.800486],[139.980081,35.800411],[139.980344,35.800319],[139.980519,35.800503],[139.980569,35.800519],[139.980631,35.800503],[139.980731,35.800453],[139.981044,35.800361],[139.981331,35.800253],[139.981456,35.800203],[139.981494,35.800228],[139.981606,35.800403],[139.981644,35.800519],[139.981756,35.800678],[139.981819,35.800819],[139.981831,35.800869],[139.981881,35.800994],[139.981969,35.801119],[139.982069,35.801203],[139.982219,35.801278],[139.982319,35.801361],[139.982394,35.801428],[139.982481,35.801536],[139.982668,35.801661],[139.982843,35.801844],[139.983056,35.802061],[139.983156,35.802186],[139.983256,35.802336],[139.983593,35.802628],[139.983868,35.802894],[139.984143,35.803186],[139.984418,35.803436],[139.984656,35.803686],[139.984793,35.803852],[139.984856,35.803911],[139.984931,35.804002],[139.985031,35.804127],[139.985156,35.804419],[139.985206,35.804502],[139.985281,35.804644],[139.985368,35.804761],[139.985431,35.804861],[139.985556,35.804944],[139.985781,35.805052],[139.986093,35.805136],[139.986318,35.805211],[139.98643,35.805261],[139.98653,35.805344],[139.98663,35.805502],[139.98668,35.805677],[139.986768,35.805869],[139.98683,35.805944],[139.98693,35.80606],[139.987018,35.806152],[139.986805,35.806252],[139.986255,35.806527],[139.986405,35.806677],[139.986193,35.806844],[139.985855,35.80656],[139.985718,35.806635],[139.98553,35.806627],[139.985293,35.80681],[139.985743,35.807169],[139.985543,35.80726],[139.985705,35.807385],[139.985993,35.807544],[139.986543,35.807052],[139.98668,35.806994],[139.98703,35.807277],[139.987468,35.807019],[139.987618,35.806919],[139.987755,35.806827],[139.987305,35.806252],[139.98773,35.806044],[139.987843,35.805969],[139.988193,35.806244],[139.988418,35.806369],[139.988743,35.806569],[139.988843,35.806669],[139.989018,35.806827],[139.98958,35.806477],[139.989818,35.806327],[139.990118,35.80616],[139.99033,35.806069],[139.990168,35.805885],[139.991205,35.805469],[139.991618,35.806002],[139.991818,35.80591],[139.99138,35.805377],[139.991218,35.805244],[139.991093,35.805136],[139.990955,35.804994],[139.99078,35.804752],[139.99038,35.804211],[139.989518,35.804627],[139.988555,35.803619],[139.988805,35.803469],[139.989255,35.803236],[139.989443,35.803119],[139.98933,35.802994],[139.989293,35.802877],[139.98943,35.802777],[139.98948,35.802744],[139.989518,35.802669],[139.989605,35.802486],[139.989705,35.802353],[139.989805,35.802236],[139.989943,35.802086],[139.990068,35.802011],[139.990155,35.801986],[139.990355,35.801953],[139.99073,35.801878],[139.990905,35.801853],[139.991193,35.801719],[139.991418,35.801619],[139.991743,35.802019],[139.991893,35.802236],[139.992205,35.802636],[139.992418,35.802919],[139.99268,35.802827],[139.992793,35.802986],[139.993143,35.803452],[139.993718,35.803069],[139.993868,35.802994],[139.99403,35.802886],[139.99428,35.802686],[139.994543,35.802494],[139.994893,35.802194],[139.995118,35.801978],[139.995205,35.801986],[139.995355,35.802061],[139.99578,35.802311],[139.995555,35.802528],[139.995718,35.802653],[139.995918,35.802786],[139.99608,35.802969],[139.996155,35.803136],[139.996305,35.803252],[139.996753,35.803715],[139.997005,35.803819],[139.997092,35.803886],[139.997617,35.804136],[139.997755,35.804294],[139.99783,35.804319],[139.99808,35.804069],[139.998617,35.803627],[139.99848,35.803461],[139.997767,35.802919],[139.997655,35.802802],[139.997855,35.802628],[139.997442,35.802286],[139.996867,35.801744],[139.996755,35.801653],[139.997642,35.800778],[139.997817,35.800553],[139.997955,35.800644],[139.998205,35.800736],[139.998805,35.801353],[139.999055,35.801486],[139.99953,35.801469],[139.999742,35.801603],[139.99993,35.801986],[139.999955,35.802394],[140.000067,35.802777],[140.000317,35.802961],[140.000729,35.803144],[140.001054,35.803486],[140.001417,35.803711],[140.002217,35.804011],[140.003104,35.803852],[140.003179,35.803811],[140.003542,35.803727],[140.006091,35.803536],[140.007429,35.803227],[140.008066,35.802961],[140.008978,35.802544],[140.010603,35.801653],[140.011716,35.801211],[140.013016,35.800744],[140.013516,35.800478],[140.014353,35.799961],[140.01489,35.799586],[140.016103,35.798986],[140.01619,35.798986],[140.016828,35.79872],[140.017503,35.798362],[140.019027,35.797695],[140.019677,35.797112],[140.01979,35.796937],[140.01999,35.796212],[140.01999,35.795854],[140.019877,35.795879],[140.01839,35.795637],[140.017853,35.795662],[140.017578,35.795704],[140.01719,35.795679],[140.016528,35.795762],[140.016503,35.795537],[140.016553,35.795495],[140.017115,35.795404],[140.018503,35.795412],[140.019302,35.795512],[140.019965,35.795629],[140.02074,35.795837],[140.02124,35.795904],[140.02184,35.795954],[140.02289,35.796212],[140.023414,35.796662],[140.023777,35.797054],[140.024127,35.797254],[140.024652,35.79742],[140.025177,35.797529],[140.025427,35.797645],[140.026227,35.79817],[140.026664,35.798262],[140.026914,35.798512],[140.027164,35.798829],[140.027601,35.799078],[140.028289,35.799353],[140.028764,35.799245],[140.028989,35.79907],[140.028901,35.798704],[140.028689,35.79832],[140.028151,35.797145],[140.027101,35.796054],[140.026614,35.795379],[140.026039,35.794004],[140.025802,35.793796],[140.025252,35.793163],[140.024927,35.792621],[140.024539,35.792163],[140.024289,35.792071],[140.023852,35.791663],[140.023664,35.791413],[140.023302,35.791004],[140.022015,35.789938],[140.02149,35.789438],[140.021077,35.788946],[140.020777,35.788805],[140.020253,35.788805],[140.019753,35.788913],[140.019665,35.788638],[140.020028,35.788555],[140.020253,35.788421],[140.020365,35.788171],[140.020203,35.787905],[140.020065,35.787788],[140.01979,35.787405],[140.019628,35.78693],[140.019615,35.786005],[140.019478,35.78573],[140.019203,35.785322],[140.018853,35.784988],[140.018503,35.784013],[140.018066,35.783222],[140.017703,35.78268],[140.017603,35.782563],[140.017303,35.782047],[140.016941,35.781522],[140.016891,35.781413],[140.017091,35.781188],[140.017766,35.78218],[140.01869,35.783455],[140.01889,35.783563],[140.019453,35.782913],[140.020065,35.78233],[140.02204,35.780655],[140.022402,35.780481],[140.023352,35.780414],[140.024952,35.780431],[140.025839,35.780389],[140.026089,35.780348],[140.027177,35.780331],[140.027589,35.780356],[140.027752,35.780331],[140.025827,35.778764],[140.024677,35.777898],[140.023328,35.776764],[140.02289,35.776473],[140.021978,35.776056],[140.021515,35.775806],[140.021403,35.775556],[140.021078,35.775039],[140.020528,35.774289],[140.020141,35.774172],[140.019141,35.774214],[140.018154,35.774364],[140.017854,35.773822],[140.017329,35.773006],[140.016616,35.772039],[140.016267,35.771472],[140.015667,35.770114],[140.015404,35.768989],[140.015254,35.767972],[140.015667,35.767431],[140.016479,35.766698],[140.017167,35.766589],[140.017954,35.766406],[140.019279,35.765923],[140.020116,35.765723],[140.020866,35.76544],[140.021141,35.765573],[140.021166,35.765623],[140.021741,35.76594],[140.023178,35.766823],[140.024553,35.767807],[140.025878,35.768598],[140.029727,35.771173],[140.030352,35.771515],[140.031277,35.770982],[140.032389,35.77024],[140.033052,35.76989],[140.034252,35.769174],[140.034839,35.769041],[140.036226,35.768874],[140.037326,35.768807],[140.037801,35.768816],[140.038089,35.768249],[140.038114,35.768074],[140.038251,35.767716],[140.038514,35.766832],[140.038739,35.766699],[140.039401,35.766458],[140.039839,35.766599],[140.039976,35.766691],[140.040526,35.766941],[140.040701,35.767049],[140.041276,35.767349],[140.041988,35.767783],[140.042244,35.767811],[140.045268,35.765372],[140.046378,35.763726],[140.047937,35.761413],[140.047526,35.759087],[140.046802,35.756716],[140.045494,35.754987],[140.042284,35.752857],[140.039238,35.751289],[140.037669,35.749845],[140.037263,35.748378],[140.037263,35.746484],[140.036199,35.745452],[140.033825,35.744328],[140.03236,35.742819],[140.031918,35.740571],[140.031456,35.737322],[140.031456,35.736159],[140.031984,35.735215],[140.033412,35.735215],[140.035038,35.73482],[140.037389,35.73482],[140.039103,35.734249],[140.040391,35.733444],[140.041195,35.732211],[140.041626,35.731075],[140.041116,35.730312],[140.040215,35.730077],[140.039019,35.72947],[140.037883,35.72947],[140.03369,35.728103],[140.03078,35.727185],[140.026176,35.72498],[140.025093,35.724282],[140.022863,35.722844],[140.021698,35.722653],[140.018508,35.722131],[140.016963,35.721628],[140.015947,35.720885],[140.013998,35.719279],[140.013203,35.718475],[140.012753,35.71771],[140.012615,35.716251],[140.012012,35.715187],[140.010796,35.714103],[140.010149,35.713297],[140.010149,35.71279],[140.010038,35.711823],[140.01058,35.710638],[140.012529,35.708551],[140.012846,35.70666],[140.013269,35.703884],[140.013016,35.701485],[140.011084,35.697126],[140.009749,35.694987],[140.009471,35.695197],[140.009083,35.695447],[140.008696,35.695497],[140.008583,35.695247],[140.008196,35.694772],[140.007259,35.693272],[140.006984,35.692706],[140.006171,35.691514],[140.005534,35.690456],[140.004621,35.689381],[140.004422,35.688839],[140.003984,35.688414],[140.003822,35.688164],[140.003572,35.687689],[140.002984,35.687131],[140.002397,35.686548],[140.002009,35.685806],[140.001872,35.68569],[140.001484,35.685473],[140.00071,35.683965],[139.998622,35.680457],[139.998435,35.679782],[139.998435,35.679332],[139.998485,35.679057],[139.998147,35.678749],[139.99796,35.678499],[139.99801,35.678299],[140.000047,35.674291],[140.00071,35.673075],[140.001147,35.673091],[140.002085,35.67125],[140.002547,35.67075],[140.003185,35.670183],[140.003597,35.669908],[140.004835,35.668842],[140.001898,35.665759],[140.00186,35.665851],[139.996747,35.665231],[139.985961,35.663926],[139.984836,35.669908],[139.992111,35.672416],[139.991761,35.674899],[139.983849,35.677258],[139.986998,35.684023],[139.986473,35.68424],[139.986298,35.684682],[139.986436,35.685073],[139.986323,35.68514],[139.986298,35.685456],[139.988123,35.689898],[139.987573,35.690098],[139.987623,35.690273],[139.98771,35.690272],[139.98781,35.690506],[139.988373,35.690347],[139.988723,35.691072],[139.98756,35.691472],[139.98731,35.690981],[139.987148,35.691022],[139.987173,35.691139],[139.984748,35.691964],[139.984461,35.691372],[139.986898,35.690522],[139.98681,35.690348],[139.986485,35.690447],[139.986348,35.690156],[139.984511,35.690872],[139.983386,35.688631],[139.985586,35.687581],[139.983049,35.681707],[139.982686,35.681824],[139.982624,35.68169],[139.975074,35.683507],[139.974987,35.683365],[139.974849,35.68344],[139.974199,35.682007],[139.968637,35.682524],[139.968312,35.683382],[139.967587,35.683599],[139.9669,35.681724],[139.964487,35.681941],[139.964487,35.681824],[139.963575,35.681866],[139.963575,35.681524],[139.963238,35.681549],[139.9599,35.679408],[139.959263,35.679491],[139.9548,35.689373],[139.95435,35.689465],[139.953963,35.689165],[139.953751,35.689232],[139.953413,35.68894],[139.953051,35.688399],[139.952538,35.68774],[139.952476,35.687599],[139.952888,35.687332],[139.953663,35.687199],[139.958076,35.677433],[139.954501,35.673284],[139.954863,35.673084],[139.954689,35.672892],[139.954339,35.67305],[139.953151,35.671767],[139.947389,35.680008],[139.942839,35.67795],[139.936727,35.673409],[139.93564,35.673359],[139.93294,35.675742],[139.931328,35.674584],[139.933028,35.673168],[139.928866,35.670301],[139.929228,35.669985],[139.929316,35.66991],[139.929928,35.669443],[139.93159,35.66991],[139.944902,35.672942],[139.945902,35.672717],[139.947489,35.669909],[139.945177,35.668784],[139.943377,35.668318],[139.94244,35.668134],[139.940827,35.667685],[139.939565,35.667551],[139.93804,35.667326],[139.937265,35.66726],[139.93649,35.667151],[139.935565,35.667085],[139.93289,35.666726],[139.93264,35.666735],[139.931878,35.666618],[139.930578,35.66651],[139.930303,35.666443],[139.927091,35.664418],[139.925529,35.663502],[139.924041,35.662552],[139.923841,35.66246],[139.921042,35.660711],[139.920879,35.660619],[139.918267,35.655528],[139.937203,35.642962],[139.939516,35.641112],[139.939616,35.640837],[139.939516,35.640521],[139.909894,35.624464],[139.904744,35.628605],[139.904807,35.629505],[139.907069,35.631397],[139.905231,35.632913],[139.901657,35.629963],[139.900494,35.630822],[139.900882,35.631163],[139.900094,35.631746],[139.897432,35.629422],[139.89867,35.628463],[139.899445,35.629088],[139.906932,35.623164],[139.905382,35.621881],[139.905794,35.621456],[139.897645,35.61669],[139.896195,35.61749],[139.894883,35.621006],[139.895045,35.621056],[139.894833,35.621481],[139.89472,35.621464],[139.89352,35.624889],[139.892708,35.625572],[139.888258,35.621922],[139.87251,35.625488],[139.872347,35.633054],[139.874721,35.637295],[139.872834,35.638603],[139.874046,35.639653],[139.874509,35.640003],[139.875496,35.640587],[139.878296,35.641903],[139.880196,35.642945],[139.882045,35.644061],[139.882833,35.644711],[139.883558,35.645536],[139.883633,35.645786],[139.883695,35.645895],[139.88402,35.646794],[139.884158,35.647453],[139.88447,35.648419],[139.88472,35.648911],[139.885032,35.649386],[139.885307,35.650044],[139.885945,35.651227],[139.88692,35.65391],[139.88712,35.654569],[139.887319,35.655594],[139.887382,35.656519],[139.887169,35.659043],[139.887169,35.66096],[139.887057,35.661868],[139.887094,35.664043],[139.887082,35.664876],[139.887169,35.666551],[139.887356,35.667426],[139.887256,35.668284],[139.886981,35.669451],[139.886556,35.669909],[139.885931,35.670759],[139.885894,35.671184],[139.885631,35.671617],[139.885481,35.672292],[139.885419,35.672842],[139.885394,35.673684],[139.885456,35.67435],[139.885494,35.674992],[139.885594,35.675675],[139.885756,35.676842],[139.886056,35.677783],[139.886219,35.67835],[139.886419,35.678867],[139.887731,35.679892],[139.889068,35.680642],[139.890118,35.681125],[139.891118,35.681458],[139.892056,35.681717],[139.893218,35.681884],[139.894543,35.682109],[139.89568,35.682267],[139.89718,35.682551],[139.89848,35.682709],[139.902255,35.682984],[139.903417,35.683034],[139.904329,35.683192],[139.905054,35.683442],[139.905804,35.683759],[139.906604,35.684175],[139.907542,35.684759],[139.908679,35.685875],[139.909491,35.686617],[139.911154,35.68825],[139.912591,35.689617],[139.913478,35.690683],[139.915928,35.693924],[139.916578,35.694899],[139.917753,35.696416],[139.918453,35.697565],[139.918628,35.697815],[139.918728,35.698724],[139.91869,35.699357],[139.918215,35.701115],[139.918153,35.701523],[139.917565,35.702898],[139.917453,35.703481],[139.917028,35.704631],[139.916915,35.705056],[139.91654,35.706073],[139.916528,35.706414],[139.916415,35.706756],[139.916053,35.707381],[139.916015,35.707764],[139.91554,35.708689],[139.915365,35.709072],[139.91504,35.70948],[139.91464,35.709772],[139.913653,35.710305],[139.912028,35.711272],[139.911565,35.711497],[139.91059,35.71203],[139.90909,35.712972],[139.90814,35.713622],[139.90744,35.714513],[139.907328,35.714813],[139.90674,35.715738],[139.906553,35.716254],[139.905678,35.717696],[139.904953,35.718595],[139.903141,35.720212],[139.901303,35.72147],[139.900591,35.721895],[139.900053,35.722294],[139.899203,35.722803],[139.898353,35.723736],[139.898166,35.724052],[139.897578,35.725194],[139.897091,35.72671],[139.897066,35.727202],[139.897141,35.72771],[139.897191,35.728843],[139.897403,35.730193],[139.897653,35.731018],[139.898041,35.731851],[139.898203,35.732126],[139.898341,35.732693],[139.898591,35.733318],[139.898916,35.733909],[139.900065,35.735634],[139.900378,35.736242],[139.900615,35.736942],[139.901015,35.739],[139.90099,35.739517],[139.900628,35.741041],[139.900253,35.7424],[139.899753,35.743774],[139.899028,35.744832],[139.898603,35.745324],[139.89769,35.746132],[139.897278,35.746374],[139.896878,35.746516],[139.896003,35.746957],[139.895053,35.747307],[139.893553,35.747782],[139.893003,35.747982],[139.892466,35.74829],[139.892078,35.748607],[139.891741,35.74894],[139.891278,35.749257],[139.890828,35.749657],[139.890603,35.749973],[139.890378,35.750398],[139.889991,35.750832],[139.887928,35.753231],[139.887728,35.753406],[139.887628,35.753498],[139.887428,35.753681],[139.887116,35.753973],[139.886354,35.754789],[139.886241,35.754923],[139.885791,35.755406],[139.885479,35.755773],[139.885254,35.756006],[139.884941,35.756356],[139.884741,35.756564],[139.884291,35.757081],[139.884004,35.757531],[139.883691,35.757864],[139.883604,35.758022],[139.883379,35.758322],[139.883316,35.758497],[139.883166,35.758872],[139.883079,35.759555],[139.882941,35.760189],[139.882691,35.761938],[139.882579,35.762355],[139.882491,35.762547],[139.882416,35.762705],[139.882341,35.762863],[139.882241,35.762997],[139.882079,35.76323],[139.881679,35.763663],[139.881479,35.763888],[139.881316,35.764096],[139.881079,35.764371],[139.880791,35.764738],[139.880579,35.765071],[139.880354,35.765455],[139.880104,35.765913],[139.879916,35.766296],[139.879716,35.766796],[139.879566,35.767171],[139.879491,35.767421],[139.879416,35.767854],[139.879416,35.768037],[139.879429,35.768296],[139.879454,35.768546],[139.879604,35.769054],[139.879879,35.769829],[139.880129,35.770412],[139.880379,35.77102],[139.880491,35.771195],[139.880628,35.771495],[139.880841,35.77182],[139.880928,35.771929],[139.881203,35.772212],[139.881353,35.772412],[139.881691,35.772778],[139.882191,35.773153],[139.882353,35.773262],[139.882878,35.773528],[139.883353,35.773753],[139.884253,35.77417],[139.884741,35.774386],[139.885216,35.774561],[139.885503,35.774678],[139.885891,35.774828],[139.886316,35.774978],[139.887066,35.77527],[139.887403,35.775378],[139.887678,35.775495],[139.887865,35.775561],[139.888203,35.77572],[139.888528,35.775828],[139.888965,35.775994],[139.889603,35.776261],[139.890403,35.776653],[139.891278,35.777044],[139.891928,35.777369],[139.892415,35.777669],[139.89264,35.777844],[139.89329,35.778227],[139.893615,35.778502],[139.893853,35.778727],[139.894128,35.779061],[139.894377,35.779444],[139.894527,35.779719],[139.894652,35.780077],[139.894715,35.780494],[139.89469,35.780835],[139.89464,35.781052],[139.894627,35.78111],[139.894527,35.781377],[139.89434,35.781744],[139.894227,35.781927],[139.89414,35.782052],[139.89399,35.782302],[139.893715,35.782785],[139.893627,35.78291],[139.893477,35.78326],[139.89319,35.78381],[139.892927,35.784252],[139.892802,35.784585],[139.89254,35.785251],[139.89224,35.786151],[139.892052,35.786718],[139.89164,35.787959],[139.891427,35.788568],[139.891315,35.788859],[139.891115,35.789393],[139.89099,35.789693],[139.89084,35.790126],[139.890565,35.790617],[139.89044,35.790851],[139.890327,35.791051],[139.890215,35.791226],[139.889402,35.792234],[139.888965,35.792917],[139.888602,35.793609],[139.888515,35.793817],[139.888415,35.794059],[139.888352,35.7943],[139.88829,35.794542],[139.88824,35.7948],[139.888215,35.795134],[139.888227,35.795525],[139.888277,35.79585],[139.88834,35.796067],[139.888415,35.796242],[139.888527,35.796442],[139.888802,35.796725],[139.888965,35.796908],[139.889165,35.797083],[139.88939,35.797275],[139.889627,35.797475],[139.889764,35.797625],[139.889914,35.797816],[139.890027,35.797925],[139.890139,35.798083],[139.890227,35.7983],[139.890389,35.798616],[139.890477,35.798841],[139.890564,35.799016],[139.890639,35.799208],[139.890727,35.799533],[139.890764,35.799783],[139.890814,35.800025],[139.890839,35.800308],[139.890814,35.800599],[139.890764,35.801016],[139.890702,35.801333],[139.890614,35.801649],[139.890527,35.801933],[139.890339,35.802516],[139.890177,35.802891],[139.889914,35.803466],[139.889727,35.803941],[139.889577,35.804274],[139.889402,35.804782],[139.889239,35.805332],[139.889077,35.805915],[139.888989,35.806274],[139.888827,35.806965],[139.888802,35.807132],[139.888802,35.807257],[139.888814,35.807382],[139.888852,35.80759],[139.888902,35.807707],[139.888989,35.807949],[139.889039,35.80814],[139.889264,35.80869],[139.889902,35.809907],[139.889989,35.810048],[139.890064,35.810223],[139.890176,35.810482],[139.890251,35.810615],[139.890289,35.810732],[139.890339,35.810848],[139.890376,35.810973],[139.890426,35.811198],[139.890501,35.811465],[139.890526,35.811715],[139.890564,35.812015],[139.890639,35.812573],[139.890676,35.813056],[139.890714,35.813348],[139.890776,35.813723],[139.890876,35.814198],[139.890976,35.814648],[139.891189,35.815631],[139.891426,35.816747],[139.891489,35.817039],[139.891589,35.817597],[139.891639,35.818039],[139.891639,35.818472],[139.891601,35.818789],[139.891576,35.819047],[139.891526,35.819222],[139.891476,35.819364],[139.891364,35.819555],[139.891164,35.819864],[139.891051,35.820005],[139.890639,35.820397],[139.890264,35.820747],[139.890001,35.820939],[139.889926,35.82103],[139.889564,35.821347],[139.889401,35.82148],[139.888851,35.82193],[139.888601,35.822213],[139.888476,35.82238],[139.888201,35.822813],[139.888039,35.82318],[139.888001,35.82333],[139.887951,35.823547],[139.887939,35.823638],[139.887939,35.82398],[139.887964,35.824313],[139.888026,35.82463],[139.888164,35.825046],[139.888276,35.825371],[139.888376,35.82558],[139.888414,35.825746],[139.888489,35.82593],[139.888601,35.826296],[139.888676,35.826563],[139.888751,35.826846],[139.888801,35.82713],[139.888826,35.827321],[139.888888,35.827654],[139.888876,35.827988],[139.888888,35.828063],[139.888876,35.828163],[139.888851,35.828354],[139.888813,35.828546],[139.888763,35.828646],[139.888638,35.829279],[139.888463,35.830196],[139.888451,35.830612],[139.888451,35.830671],[139.888438,35.830887],[139.888463,35.831887],[139.888526,35.832346],[139.888526,35.832512],[139.888576,35.832646],[139.888613,35.832895],[139.888638,35.833062],[139.888701,35.833262],[139.888738,35.833395],[139.888763,35.833487],[139.888801,35.833587],[139.888826,35.833687],[139.889013,35.834195],[139.889138,35.83462],[139.889276,35.834945],[139.889351,35.835104],[139.889513,35.835537],[139.889588,35.83572],[139.889651,35.835887],[139.889701,35.836012],[139.889738,35.836228],[139.889813,35.836553],[139.889863,35.836837],[139.889901,35.837353],[139.889876,35.837778],[139.889638,35.839295],[139.8895,35.840286],[139.889538,35.840778],[139.889513,35.841811],[139.88965,35.842419],[139.88985,35.843319],[139.890025,35.843819],[139.890475,35.844852],[139.891237,35.846244],[139.891562,35.846735],[139.89185,35.847252],[139.892212,35.848085],[139.892662,35.84896],[139.893162,35.849752],[139.894037,35.850718],[139.895424,35.851968],[139.895849,35.852443],[139.896124,35.852935],[139.896124,35.853093],[139.896812,35.855384],[139.897636,35.858692],[139.898136,35.859659],[139.899086,35.860967],[139.899399,35.8615],[139.899736,35.862],[139.900011,35.862533],[139.900273,35.863417],[139.900298,35.863817],[139.900198,35.864766],[139.899948,35.865333],[139.899148,35.866866],[139.899073,35.866974],[139.898386,35.868807],[139.897961,35.87034],[139.897224,35.872298],[139.896699,35.873315],[139.896324,35.873856],[139.895411,35.875439],[139.895224,35.875864],[139.894786,35.876631],[139.894536,35.877222],[139.894461,35.877514],[139.893836,35.87993],[139.893511,35.881797],[139.893249,35.884229],[139.893061,35.885021],[139.892386,35.886979],[139.891886,35.887995],[139.891399,35.889212],[139.890249,35.891761],[139.889187,35.893611],[139.887762,35.895869],[139.887262,35.896552],[139.887124,35.896794],[139.885224,35.89926],[139.883799,35.901068],[139.882249,35.902693],[139.880737,35.903985],[139.880299,35.904434],[139.879937,35.904934],[139.879174,35.906334],[139.878687,35.907434],[139.878137,35.908451],[139.876737,35.910642],[139.876074,35.9115],[139.875662,35.911975],[139.874662,35.912967],[139.873312,35.914441],[139.872462,35.91525],[139.871752,35.915803],[139.871624,35.9162],[139.871212,35.916849],[139.870386,35.918724],[139.870161,35.919532],[139.870136,35.919691],[139.870086,35.919874],[139.870011,35.919907],[139.869986,35.920132],[139.869749,35.920965],[139.869074,35.922415],[139.868736,35.923024],[139.868336,35.92404],[139.867261,35.925823],[139.865711,35.928039],[139.864724,35.929198],[139.863074,35.930847],[139.861611,35.932047],[139.860949,35.932406],[139.858961,35.933497],[139.857974,35.93393],[139.856074,35.934797],[139.854612,35.935613],[139.852762,35.936505],[139.849312,35.938296],[139.848487,35.938888],[139.847687,35.939546],[139.847174,35.940088],[139.846075,35.941487],[139.84465,35.943612],[139.844075,35.944387],[139.843637,35.945103],[139.843462,35.945287],[139.838812,35.952244],[139.837612,35.954302],[139.836987,35.95561],[139.8365,35.956901],[139.835487,35.958993],[139.835025,35.960193],[139.83495,35.960776],[139.835037,35.961876],[139.835212,35.962959],[139.835312,35.964201],[139.835287,35.964809],[139.835012,35.965867],[139.834337,35.967467],[139.833325,35.968942],[139.832887,35.969342],[139.832437,35.969592],[139.83075,35.970233],[139.828575,35.970783],[139.8276,35.97115],[139.8268,35.9716],[139.826225,35.972125],[139.82555,35.972933],[139.825338,35.973566],[139.825163,35.974491],[139.825175,35.975058],[139.825287,35.975591],[139.825425,35.976049],[139.82585,35.977099],[139.826012,35.977707],[139.826325,35.978516],[139.826637,35.980024],[139.826762,35.980949],[139.826825,35.981757],[139.826825,35.982432],[139.826787,35.983132],[139.826587,35.98369],[139.8258,35.984823],[139.8253,35.98534],[139.824725,35.985882],[139.823562,35.986881],[139.822,35.988623],[139.821125,35.989773],[139.81905,35.992322],[139.818488,35.993089],[139.818288,35.993272],[139.817825,35.993839],[139.8173,35.994339],[139.815325,35.995655],[139.814875,35.996055],[139.814363,35.99683],[139.814175,35.997305],[139.814175,35.997905],[139.814513,35.998897],[139.81485,35.999455],[139.815613,36.000288],[139.816313,36.00098],[139.816575,36.001363],[139.816888,36.002305],[139.816863,36.003196],[139.816825,36.00388],[139.81675,36.004513],[139.81675,36.004804],[139.816613,36.005588],[139.816438,36.006196],[139.8163,36.006804],[139.815888,36.008312],[139.815888,36.008471],[139.81575,36.008946],[139.815675,36.009712],[139.815512,36.010612],[139.8154,36.011829],[139.815137,36.013362],[139.814887,36.015595],[139.814625,36.017078],[139.814262,36.018428],[139.813825,36.020569],[139.813687,36.021386],[139.813475,36.022219],[139.8134,36.023161],[139.813487,36.023702],[139.813737,36.024519],[139.81415,36.025352],[139.815587,36.027377],[139.816374,36.028369],[139.817174,36.029727],[139.817436,36.030318],[139.817511,36.030677],[139.817549,36.031243],[139.817424,36.032127],[139.817299,36.032502],[139.817011,36.033043],[139.816474,36.034193],[139.816274,36.034551],[139.815861,36.035651],[139.815149,36.037043],[139.814536,36.037768],[139.814086,36.038168],[139.813599,36.038526],[139.812062,36.039551],[139.810424,36.040734],[139.809949,36.041134],[139.808862,36.0419],[139.807624,36.042659],[139.807474,36.042792],[139.806874,36.043167],[139.804987,36.044242],[139.80455,36.044575],[139.804125,36.045],[139.803612,36.045692],[139.802925,36.046933],[139.80145,36.049333],[139.800975,36.049941],[139.800037,36.050633],[139.798325,36.051699],[139.797512,36.052491],[139.796962,36.053141],[139.796625,36.053657],[139.795337,36.055357],[139.794525,36.056074],[139.793437,36.05674],[139.791775,36.057723],[139.7912,36.058282],[139.790863,36.058757],[139.790663,36.059165],[139.789562,36.06184],[139.7891,36.062623],[139.788775,36.063114],[139.788662,36.063389],[139.788062,36.064264],[139.787525,36.064914],[139.786212,36.066372],[139.783475,36.069238],[139.7833,36.069505],[139.782837,36.070005],[139.782537,36.070613],[139.782437,36.071063],[139.782287,36.07293],[139.782312,36.073221],[139.782275,36.073988],[139.781962,36.075413],[139.781812,36.075838],[139.78095,36.077004],[139.780512,36.077721],[139.780312,36.078262],[139.780075,36.079054],[139.78,36.079596],[139.779937,36.080312],[139.779962,36.081104],[139.780024,36.08212],[139.779862,36.082703],[139.779449,36.083895],[139.778887,36.084912],[139.777824,36.08652],[139.777612,36.086886],[139.776937,36.088419],[139.776287,36.090444],[139.776287,36.090602],[139.776137,36.090819]]]},"type":"Feature"}]}