{"type":"FeatureCollection","features":[{"type":"Feature","geometry":{"type":"Polygon","coordinates":[[[139.849312,35.938296],[139.846925,35.936955],[139.845175,35.93588],[139.8444,35.93593],[139.843812,35.935997],[139.843313,35.936088],[139.84305,35.936255],[139.842138,35.937405],[139.841813,35.937746],[139.840675,35.938446],[139.840125,35.938746],[139.839525,35.938946],[139.838913,35.939046],[139.8384,35.939021],[139.838,35.938913],[139.83755,35.938688],[139.837163,35.938571],[139.836476,35.938604],[139.836001,35.938579],[139.835501,35.938654],[139.835088,35.938746],[139.833001,35.939746],[139.832388,35.939971],[139.831801,35.940087],[139.831038,35.940112],[139.830701,35.940071],[139.8282,35.941478],[139.824821,35.943241],[139.820854,35.945884],[139.817988,35.947573],[139.814536,35.949556],[139.811376,35.951539],[139.809227,35.952851],[139.808402,35.95306],[139.807677,35.953426],[139.806965,35.953826],[139.805565,35.954851],[139.804765,35.955509],[139.804265,35.955826],[139.803715,35.956234],[139.801865,35.957551],[139.799915,35.959042],[139.796553,35.96145],[139.795891,35.961858],[139.794703,35.9627],[139.794128,35.963175],[139.793003,35.964008],[139.791791,35.964958],[139.791091,35.965433],[139.788666,35.967274],[139.787654,35.968116],[139.785204,35.969766],[139.784604,35.970474],[139.784154,35.971149],[139.783391,35.972749],[139.782991,35.973857],[139.782454,35.975698],[139.782341,35.976265],[139.782041,35.977398],[139.781704,35.97954],[139.781591,35.980848],[139.781579,35.982131],[139.781529,35.982764],[139.781516,35.984106],[139.781391,35.985889],[139.781366,35.987064],[139.781241,35.989289],[139.781153,35.989672],[139.781141,35.990239],[139.781228,35.990797],[139.781441,35.991447],[139.782628,35.99423],[139.783553,35.995846],[139.783816,35.996371],[139.783916,35.996838],[139.783953,35.997196],[139.783841,35.998188],[139.783678,35.998613],[139.782741,35.999229],[139.782116,35.999571],[139.781641,35.999904],[139.781403,36.000271],[139.781266,36.000571],[139.781178,36.000954],[139.781078,36.001846],[139.780994,36.003196],[139.781016,36.003329],[139.780978,36.004704],[139.780841,36.005645],[139.780728,36.006712],[139.780716,36.008153],[139.780778,36.009595],[139.780753,36.009845],[139.780578,36.010111],[139.779741,36.010536],[139.779416,36.010736],[139.779241,36.010936],[139.779191,36.011186],[139.779353,36.01157],[139.779553,36.011728],[139.779803,36.01187],[139.779953,36.011911],[139.781453,36.012395],[139.782328,36.012245],[139.782716,36.012253],[139.783091,36.012295],[139.783341,36.012386],[139.783453,36.01257],[139.783478,36.012661],[139.783428,36.012928],[139.783303,36.013295],[139.783078,36.013536],[139.782941,36.013719],[139.782891,36.013969],[139.782966,36.014328],[139.783016,36.014436],[139.783366,36.014853],[139.783616,36.015078],[139.783591,36.015078],[139.783616,36.015103],[139.783503,36.015411],[139.783453,36.016019],[139.783503,36.016361],[139.783765,36.017219],[139.78359,36.017511],[139.783315,36.017694],[139.782528,36.017977],[139.781903,36.018336],[139.780866,36.018894],[139.780216,36.019402],[139.780003,36.019744],[139.779778,36.020302],[139.779441,36.021452],[139.778641,36.023977],[139.778416,36.024427],[139.778178,36.02501],[139.777928,36.02571],[139.777916,36.02591],[139.778016,36.026043],[139.778191,36.026185],[139.778891,36.026552],[139.77964,36.026893],[139.78029,36.027143],[139.78089,36.027418],[139.782601,36.030183],[139.78387,36.032591],[139.783437,36.03328],[139.781815,36.034608],[139.779422,36.035485],[139.778757,36.036548],[139.778066,36.039151],[139.778066,36.040054],[139.779502,36.041758],[139.779752,36.041958],[139.779902,36.042258],[139.77984,36.042458],[139.77959,36.04295],[139.779615,36.043091],[139.780015,36.043658],[139.780152,36.044083],[139.780227,36.044466],[139.780127,36.044941],[139.77994,36.045166],[139.779515,36.045433],[139.77894,36.045908],[139.778852,36.046266],[139.778877,36.046649],[139.778852,36.046783],[139.77899,36.047574],[139.779089,36.048616],[139.779227,36.049266],[139.779252,36.050032],[139.779164,36.050282],[139.779089,36.050324],[139.780139,36.050649],[139.780539,36.050741],[139.780602,36.052774],[139.780801,36.055482],[139.780889,36.056115],[139.780864,36.056473],[139.780814,36.056498],[139.781189,36.056565],[139.781914,36.056548],[139.782089,36.056507],[139.782214,36.056373],[139.782501,36.055857],[139.782576,36.055765],[139.782901,36.055765],[139.784426,36.05569],[139.785263,36.055465],[139.785413,36.055715],[139.786113,36.055923],[139.787001,36.05629],[139.786976,36.056698],[139.787101,36.05724],[139.787201,36.057307],[139.78815,36.057498],[139.788525,36.057632],[139.78855,36.057723],[139.788138,36.058148],[139.787963,36.058465],[139.788038,36.058982],[139.7883,36.05964],[139.78845,36.06009],[139.788475,36.060615],[139.788175,36.060523],[139.787775,36.06029],[139.78785,36.06004],[139.78775,36.059906],[139.78755,36.059748],[139.786975,36.059381],[139.78675,36.05934],[139.7864,36.059331],[139.785975,36.059423],[139.785726,36.059581],[139.785351,36.059756],[139.785301,36.059465],[139.785251,36.058715],[139.784976,36.058581],[139.784851,36.058556],[139.784501,36.058981],[139.784301,36.059481],[139.784213,36.060173],[139.784238,36.060448],[139.785013,36.060498],[139.78635,36.060031],[139.787238,36.06049],[139.787313,36.060698],[139.787663,36.061148],[139.788213,36.061465],[139.788613,36.061581],[139.789412,36.06179],[139.789562,36.06184],[139.790663,36.059165],[139.790863,36.058757],[139.7912,36.058282],[139.791775,36.057723],[139.793437,36.05674],[139.794525,36.056074],[139.795337,36.055357],[139.796625,36.053657],[139.796962,36.053141],[139.797512,36.052491],[139.798325,36.051699],[139.800037,36.050633],[139.800975,36.049941],[139.80145,36.049333],[139.802925,36.046933],[139.803612,36.045692],[139.804125,36.045],[139.80455,36.044575],[139.804987,36.044242],[139.806874,36.043167],[139.807474,36.042792],[139.807624,36.042659],[139.808862,36.0419],[139.809949,36.041134],[139.810424,36.040734],[139.812062,36.039551],[139.813599,36.038526],[139.814086,36.038168],[139.814536,36.037768],[139.815149,36.037043],[139.815861,36.035651],[139.816274,36.034551],[139.816474,36.034193],[139.817011,36.033043],[139.817299,36.032502],[139.817424,36.032127],[139.817549,36.031243],[139.817511,36.030677],[139.817436,36.030318],[139.817174,36.029727],[139.816374,36.028369],[139.815587,36.027377],[139.81415,36.025352],[139.813737,36.024519],[139.813487,36.023702],[139.8134,36.023161],[139.813475,36.022219],[139.813687,36.021386],[139.813825,36.020569],[139.814262,36.018428],[139.814625,36.017078],[139.814887,36.015595],[139.815137,36.013362],[139.8154,36.011829],[139.815512,36.010612],[139.815675,36.009712],[139.81575,36.008946],[139.815888,36.008471],[139.815888,36.008312],[139.8163,36.006804],[139.816438,36.006196],[139.816613,36.005588],[139.81675,36.004804],[139.81675,36.004513],[139.816825,36.00388],[139.816863,36.003196],[139.816888,36.002305],[139.816575,36.001363],[139.816313,36.00098],[139.815613,36.000288],[139.81485,35.999455],[139.814513,35.998897],[139.814175,35.997905],[139.814175,35.997305],[139.814363,35.99683],[139.814875,35.996055],[139.815325,35.995655],[139.8173,35.994339],[139.817825,35.993839],[139.818288,35.993272],[139.818488,35.993089],[139.81905,35.992322],[139.821125,35.989773],[139.822,35.988623],[139.823562,35.986881],[139.824725,35.985882],[139.8253,35.98534],[139.8258,35.984823],[139.826587,35.98369],[139.826787,35.983132],[139.826825,35.982432],[139.826825,35.981757],[139.826762,35.980949],[139.826637,35.980024],[139.826325,35.978516],[139.826012,35.977707],[139.82585,35.977099],[139.825425,35.976049],[139.825287,35.975591],[139.825175,35.975058],[139.825163,35.974491],[139.825338,35.973566],[139.82555,35.972933],[139.826225,35.972125],[139.8268,35.9716],[139.8276,35.97115],[139.828575,35.970783],[139.83075,35.970233],[139.832437,35.969592],[139.832887,35.969342],[139.833325,35.968942],[139.834337,35.967467],[139.835012,35.965867],[139.835287,35.964809],[139.835312,35.964201],[139.835212,35.962959],[139.835037,35.961876],[139.83495,35.960776],[139.835025,35.960193],[139.835487,35.958993],[139.8365,35.956901],[139.836987,35.95561],[139.837612,35.954302],[139.838812,35.952244],[139.843462,35.945287],[139.843637,35.945103],[139.844075,35.944387],[139.84465,35.943612],[139.846075,35.941487],[139.847174,35.940088],[139.847687,35.939546],[139.848487,35.938888],[139.849312,35.938296]]]},"properties":{"id_url":"G19015.html","kuni_url":"/kg/resource/K19.html","id":"G19015","kuni":"下総","yomi":"なかかつしか","name":"中葛飾","pref":"千葉県","kuni_id":"K19"}}]}