{"type":"FeatureCollection","features":[{"type":"Feature","geometry":{"type":"Polygon","coordinates":[[[139.949191,36.029763],[139.951713,36.030571],[139.95409,36.030847],[139.957076,36.031179],[139.959731,36.030682],[139.961721,36.029577],[139.963435,36.027864],[139.965371,36.025709],[139.965647,36.024107],[139.9662,36.023444],[139.967859,36.023389],[139.969573,36.023499],[139.970513,36.023002],[139.9709,36.021676],[139.970845,36.020239],[139.971585,36.019802],[139.972838,36.019454],[139.973813,36.019733],[139.974718,36.019385],[139.974649,36.017924],[139.974525,36.016475],[139.97437,36.014654],[139.975693,36.012915],[139.975554,36.011245],[139.975624,36.009924],[139.97632,36.008671],[139.977782,36.008393],[139.979523,36.008115],[139.981402,36.009576],[139.9837,36.010132],[139.985371,36.008741],[139.987061,36.005579],[139.987966,36.003631],[139.990125,36.001614],[139.990544,35.999589],[139.990175,35.997316],[139.990421,35.995719],[139.991651,35.99363],[139.993434,35.991787],[139.993622,35.989301],[139.993868,35.986536],[139.99436,35.985062],[139.994483,35.98242],[139.994791,35.980454],[139.996143,35.977874],[139.99725,35.976154],[140.000694,35.970608],[140.003446,35.968239],[140.003446,35.966924],[140.004575,35.965571],[140.006671,35.964231],[140.006459,35.963107],[140.006334,35.962682],[140.005997,35.961965],[140.005934,35.961698],[140.005947,35.960748],[140.006247,35.960565],[140.006497,35.960357],[140.006822,35.960157],[140.007347,35.959899],[140.007697,35.959757],[140.008222,35.959665],[140.008384,35.959365],[140.008772,35.958757],[140.009359,35.958049],[140.010096,35.957549],[140.011121,35.957124],[140.012146,35.956824],[140.012996,35.956657],[140.013821,35.956441],[140.016258,35.956008],[140.017546,35.955541],[140.018271,35.955308],[140.019395,35.954708],[140.01972,35.954499],[140.02002,35.954249],[140.020733,35.95365],[140.022233,35.952125],[140.02392,35.950658],[140.025145,35.949792],[140.025945,35.949108],[140.026895,35.948059],[140.027195,35.94765],[140.02757,35.947034],[140.027907,35.946126],[140.028045,35.945901],[140.028282,35.945042],[140.028632,35.942851],[140.028945,35.942018],[140.029357,35.941268],[140.030245,35.940243],[140.030632,35.939918],[140.031807,35.939235],[140.033432,35.93851],[140.034169,35.938235],[140.036882,35.93746],[140.037981,35.937102],[140.039356,35.936527],[140.040319,35.935952],[140.041269,35.935194],[140.042219,35.934286],[140.042356,35.934102],[140.042981,35.933502],[140.043656,35.932594],[140.044206,35.931936],[140.044644,35.931569],[140.044969,35.931503],[140.045481,35.931761],[140.046594,35.932111],[140.047168,35.932236],[140.048406,35.932744],[140.048768,35.932986],[140.049081,35.933319],[140.049818,35.934394],[140.050243,35.934794],[140.051556,35.935719],[140.052455,35.936294],[140.052955,35.936561],[140.053718,35.937027],[140.05463,35.937486],[140.055168,35.937619],[140.055305,35.937686],[140.055755,35.937744],[140.05638,35.937736],[140.05713,35.937569],[140.057793,35.937361],[140.059255,35.937119],[140.06008,35.936878],[140.060992,35.936536],[140.061517,35.936369],[140.062705,35.936128],[140.063067,35.936169],[140.063392,35.936253],[140.06493,35.936844],[140.065692,35.937244],[140.066242,35.937619],[140.069054,35.939836],[140.069904,35.940461],[140.070541,35.940969],[140.071304,35.941677],[140.072903,35.942877],[140.073828,35.943269],[140.075753,35.94386],[140.076916,35.94416],[140.07839,35.944435],[140.080278,35.944702],[140.08089,35.944744],[140.082028,35.944702],[140.082553,35.944677],[140.08344,35.944502],[140.083827,35.94441],[140.08429,35.944227],[140.085577,35.943419],[140.085877,35.943394],[140.086277,35.943619],[140.086477,35.943952],[140.086565,35.944269],[140.086852,35.944827],[140.087052,35.944977],[140.087302,35.945044],[140.087627,35.94486],[140.088115,35.944177],[140.08814,35.944019],[140.088077,35.943477],[140.087915,35.942669],[140.087602,35.942086],[140.087515,35.941844],[140.08749,35.941569],[140.087515,35.941369],[140.08779,35.941411],[140.08804,35.941703],[140.088302,35.942077],[140.088465,35.942144],[140.088715,35.942119],[140.089052,35.942136],[140.08944,35.942611],[140.089927,35.943477],[140.090164,35.944019],[140.090277,35.944111],[140.091477,35.943369],[140.092789,35.942569],[140.093377,35.942244],[140.093639,35.942036],[140.093839,35.941944],[140.094052,35.941894],[140.094277,35.941894],[140.095114,35.943511],[140.098189,35.942411],[140.098701,35.942744],[140.098839,35.942903],[140.099014,35.943394],[140.099076,35.943636],[140.099051,35.943869],[140.099076,35.943886],[140.100514,35.943444],[140.101888,35.946086],[140.102301,35.946102],[140.110563,35.94312],[140.113037,35.947728],[140.113687,35.947269],[140.114362,35.947894],[140.114475,35.947803],[140.114725,35.947686],[140.115075,35.947453],[140.115712,35.947136],[140.117487,35.946078],[140.118474,35.945586],[140.119024,35.94522],[140.120037,35.944353],[140.120274,35.944078],[140.120387,35.944012],[140.120637,35.943737],[140.120874,35.943553],[140.121587,35.942895],[140.121736,35.942799],[140.122049,35.942603],[140.122762,35.94202],[140.123087,35.941687],[140.123974,35.940987],[140.124749,35.94057],[140.124974,35.940479],[140.126336,35.939945],[140.126511,35.939862],[140.127324,35.939571],[140.127799,35.939304],[140.128074,35.939079],[140.132411,35.936046],[140.132511,35.935979],[140.132486,35.935888],[140.132186,35.935546],[140.130299,35.932238],[140.133111,35.931155],[140.133061,35.931063],[140.132924,35.930297],[140.132924,35.930205],[140.132549,35.929888],[140.132274,35.929563],[140.132024,35.929072],[140.131836,35.928213],[140.131786,35.927939],[140.131349,35.927122],[140.131074,35.926464],[140.130849,35.926105],[140.130774,35.926105],[140.130474,35.926189],[140.130149,35.926322],[140.129749,35.926455],[140.129049,35.926589],[140.128299,35.92658],[140.127724,35.924072],[140.127424,35.923372],[140.127187,35.922539],[140.127162,35.922081],[140.127237,35.921497],[140.127474,35.920848],[140.127937,35.919856],[140.128412,35.919548],[140.129499,35.919164],[140.130187,35.91894],[140.130549,35.918765],[140.131224,35.918581],[140.131662,35.918365],[140.132024,35.918073],[140.132362,35.917706],[140.133112,35.916765],[140.133812,35.915548],[140.134124,35.915207],[140.134261,35.915123],[140.134786,35.914923],[140.135286,35.91479],[140.136624,35.914523],[140.137286,35.914323],[140.137961,35.914007],[140.138849,35.913424],[140.139636,35.912815],[140.140211,35.912207],[140.140798,35.91169],[140.141723,35.910749],[140.142473,35.910282],[140.142948,35.910141],[140.143386,35.910099],[140.144748,35.910357],[140.145385,35.910424],[140.145885,35.910424],[140.146448,35.910291],[140.147335,35.909799],[140.147785,35.909349],[140.148148,35.908899],[140.148448,35.908224],[140.148785,35.907324],[140.148985,35.906399],[140.14911,35.905316],[140.149085,35.904799],[140.148973,35.904341],[140.148948,35.9038],[140.14906,35.903558],[140.149248,35.903533],[140.149673,35.903425],[140.15086,35.902633],[140.15156,35.903041],[140.151973,35.902983],[140.151973,35.902933],[140.151923,35.902891],[140.151835,35.902033],[140.151785,35.902008],[140.151373,35.902025],[140.151335,35.902208],[140.15101,35.902166],[140.15096,35.901666],[140.150898,35.9016],[140.151235,35.901533],[140.150635,35.899542],[140.15016,35.89965],[140.149261,35.897367],[140.152335,35.896775],[140.152198,35.89625],[140.153285,35.897],[140.15426,35.896167],[140.15381,35.895784],[140.153198,35.896234],[140.152098,35.895442],[140.151535,35.895367],[140.151073,35.895234],[140.151161,35.894259],[140.151548,35.894284],[140.15146,35.894984],[140.15176,35.895076],[140.151798,35.894309],[140.152098,35.894359],[140.151985,35.895076],[140.152235,35.895167],[140.153073,35.893001],[140.151998,35.892934],[140.151023,35.892909],[140.149773,35.892992],[140.146698,35.893134],[140.145311,35.893242],[140.144886,35.893217],[140.144561,35.893126],[140.143811,35.892334],[140.143561,35.891993],[140.143399,35.891834],[140.143074,35.891409],[140.142374,35.890793],[140.141499,35.890493],[140.141049,35.890426],[140.140299,35.890359],[140.139187,35.890168],[140.138312,35.889743],[140.137399,35.888901],[140.136974,35.888626],[140.136812,35.888468],[140.135737,35.88781],[140.1351,35.88751],[140.13465,35.887418],[140.1343,35.887468],[140.13415,35.88751],[140.133875,35.887801],[140.133787,35.887985],[140.133625,35.889001],[140.13345,35.889609],[140.13325,35.889943],[140.132975,35.890284],[140.132562,35.890576],[140.131862,35.890909],[140.131362,35.891068],[140.1307,35.891176],[140.13045,35.891151],[140.130312,35.891059],[140.129975,35.890701],[140.129513,35.890309],[140.1294,35.890018],[140.129238,35.889251],[140.129238,35.88871],[140.129325,35.888235],[140.13,35.886885],[140.130275,35.886435],[140.130675,35.885535],[140.130813,35.885327],[140.130925,35.88501],[140.1299,35.884285],[140.129538,35.884085],[140.129288,35.883877],[140.12885,35.883402],[140.128438,35.883019],[140.128375,35.882902],[140.127775,35.882385],[140.12755,35.882244],[140.127413,35.882085],[140.127475,35.882085],[140.128388,35.881635],[140.129113,35.881369],[140.129275,35.881285],[140.1293,35.881235],[140.129275,35.880985],[140.129363,35.880919],[140.13,35.880877],[140.130638,35.880877],[140.132413,35.881027],[140.13255,35.881002],[140.132638,35.880819],[140.132912,35.880644],[140.133637,35.880511],[140.133525,35.880444],[140.133587,35.880327],[140.134162,35.879744],[140.134387,35.879636],[140.135025,35.879519],[140.135087,35.879544],[140.135112,35.879519],[140.1357,35.879752],[140.135975,35.879977],[140.136137,35.880002],[140.13655,35.879802],[140.137187,35.879802],[140.137687,35.879919],[140.138075,35.880344],[140.138887,35.880352],[140.139212,35.880394],[140.139375,35.880461],[140.1391,35.881052],[140.139125,35.881227],[140.139262,35.881186],[140.1396,35.881011],[140.1398,35.880852],[140.139899,35.880802],[140.140262,35.880852],[140.140799,35.880827],[140.141599,35.880611],[140.142487,35.880477],[140.143237,35.880302],[140.143849,35.880027],[140.144299,35.879627],[140.144737,35.879311],[140.145212,35.879153],[140.145774,35.879044],[140.146237,35.879094],[140.147099,35.879544],[140.147399,35.879661],[140.147849,35.879661],[140.148536,35.879486],[140.148736,35.879461],[140.150924,35.879494],[140.151399,35.879428],[140.151674,35.879453],[140.152111,35.879952],[140.152424,35.880019],[140.152861,35.880019],[140.153449,35.879869],[140.154248,35.879869],[140.154836,35.879828],[140.155786,35.879378],[140.156148,35.879311],[140.156286,35.879311],[140.157111,35.879519],[140.157273,35.879519],[140.157886,35.879386],[140.158336,35.879369],[140.159023,35.879553],[140.159448,35.879486],[140.159548,35.879503],[140.160298,35.879461],[140.16061,35.879378],[140.160948,35.879169],[140.161198,35.879061],[140.161335,35.879128],[140.16196,35.880219],[140.162023,35.880419],[140.162323,35.881011],[140.162923,35.881686],[140.163148,35.882002],[140.16351,35.882702],[140.163585,35.883002],[140.16306,35.883244],[140.163222,35.883944],[140.16261,35.884077],[140.162748,35.884602],[140.16336,35.884469],[140.163797,35.885894],[140.163235,35.886027],[140.163297,35.886318],[140.16391,35.88621],[140.164185,35.886952],[140.164847,35.88691],[140.165485,35.88696],[140.165622,35.887027],[140.165785,35.887227],[140.16581,35.887368],[140.166372,35.88721],[140.16631,35.88701],[140.166847,35.886785],[140.16691,35.885719],[140.167297,35.885635],[140.16771,35.885502],[140.168547,35.885569],[140.168709,35.885594],[140.169234,35.885594],[140.169322,35.885644],[140.169484,35.886369],[140.169509,35.88661],[140.169447,35.886727],[140.170122,35.886794],[140.170084,35.88716],[140.170584,35.887185],[140.170672,35.886502],[140.171334,35.88651],[140.171384,35.887593],[140.171921,35.887635],[140.171996,35.887818],[140.173221,35.887843],[140.173359,35.88801],[140.174771,35.887943],[140.175296,35.888152],[140.175434,35.887944],[140.175884,35.888152],[140.175821,35.888352],[140.177571,35.888902],[140.178908,35.88796],[140.178608,35.887644],[140.179108,35.887285],[140.179771,35.887877],[140.180608,35.887202],[140.180908,35.887494],[140.181858,35.886686],[140.184845,35.888619],[140.187158,35.886277],[140.185583,35.884936],[140.18717,35.88332],[140.187308,35.883436],[140.188533,35.882178],[140.188033,35.881837],[140.188733,35.881203],[140.18892,35.881337],[140.189708,35.880462],[140.18932,35.880187],[140.19077,35.878662],[140.190633,35.87852],[140.191358,35.877804],[140.19102,35.877554],[140.191108,35.877512],[140.192133,35.876387],[140.19267,35.875871],[140.193495,35.875196],[140.194808,35.874005],[140.195445,35.873305],[140.19582,35.872721],[140.196183,35.872313],[140.20177,35.874771],[140.207119,35.877055],[140.209244,35.87268],[140.214331,35.875297],[140.215106,35.875688],[140.215331,35.875663],[140.215918,35.875422],[140.216168,35.875238],[140.216781,35.87468],[140.217168,35.874389],[140.217218,35.874205],[140.217143,35.873889],[140.217118,35.873597],[140.217143,35.873322],[140.217456,35.872739],[140.217481,35.872489],[140.217181,35.870456],[140.217043,35.869914],[140.216893,35.868198],[140.216581,35.867448],[140.215981,35.866615],[140.215756,35.866206],[140.215506,35.86559],[140.214769,35.864307],[140.214519,35.86394],[140.213944,35.862765],[140.213807,35.862315],[140.213644,35.861999],[140.211732,35.861965],[140.20982,35.861823],[140.207482,35.86154],[140.206345,35.861398],[140.205707,35.861307],[140.20432,35.861032],[140.202995,35.860665],[140.201783,35.86019],[140.200621,35.85969],[140.198846,35.858982],[140.198233,35.858707],[140.197596,35.858365],[140.196934,35.858065],[140.195409,35.857223],[140.192759,35.855457],[140.191459,35.854615],[140.191047,35.854274],[140.190159,35.85364],[140.189472,35.853165],[140.18841,35.852549],[140.187472,35.852157],[140.186897,35.85189],[140.186197,35.851657],[140.185698,35.851457],[140.184598,35.851107],[140.183735,35.850924],[140.18321,35.850765],[140.180773,35.850215],[140.179086,35.849757],[140.178361,35.849507],[140.177311,35.849207],[140.173936,35.84804],[140.172111,35.847224],[140.171387,35.846974],[140.170087,35.846449],[140.169612,35.846215],[140.168649,35.845807],[140.167899,35.845515],[140.167712,35.845465],[140.167124,35.845265],[140.164687,35.84464],[140.163937,35.84439],[140.160675,35.843632],[140.160288,35.843565],[140.158738,35.843149],[140.157263,35.842832],[140.155963,35.842665],[140.154738,35.842615],[140.153938,35.842682],[140.152638,35.842857],[140.151026,35.843257],[140.150363,35.843507],[140.148826,35.84424],[140.147663,35.84489],[140.146688,35.845565],[140.146551,35.845632],[140.146126,35.846081],[140.145238,35.847256],[140.145013,35.84764],[140.143726,35.849164],[140.143313,35.849573],[140.142226,35.850964],[140.141413,35.851864],[140.140888,35.852456],[140.140776,35.852614],[140.140413,35.852947],[140.139513,35.853822],[140.137513,35.855688],[140.137376,35.855872],[140.134888,35.85828],[140.134226,35.858996],[140.134113,35.859088],[140.133863,35.859405],[140.133663,35.85958],[140.132938,35.860529],[140.132488,35.861204],[140.131676,35.862329],[140.130951,35.863746],[140.130501,35.864404],[140.130251,35.864871],[140.129726,35.86577],[140.129326,35.866537],[140.129101,35.867079],[140.128238,35.869062],[140.127976,35.869562],[140.127813,35.869987],[140.127501,35.870487],[140.127163,35.870887],[140.126913,35.87102],[140.125638,35.87192],[140.125476,35.871986],[140.124913,35.872345],[140.124363,35.87262],[140.122913,35.873286],[140.121989,35.873603],[140.121739,35.87364],[140.121539,35.873703],[140.120601,35.873911],[140.120214,35.873936],[140.118301,35.874278],[140.117277,35.874511],[140.116614,35.874628],[140.115127,35.875019],[140.113827,35.875386],[140.113052,35.875569],[140.112502,35.875752],[140.11049,35.876594],[140.10919,35.877186],[140.10759,35.878044],[140.106953,35.87841],[140.10499,35.879477],[140.103403,35.880385],[140.102653,35.880752],[140.100966,35.88146],[140.100253,35.88171],[140.099366,35.882068],[140.096691,35.882918],[140.096054,35.883143],[140.095229,35.883376],[140.093017,35.88381],[140.092317,35.88391],[140.091242,35.884001],[140.088917,35.884076],[140.087942,35.883993],[140.087505,35.88386],[140.086667,35.883435],[140.086142,35.883126],[140.085617,35.882743],[140.083505,35.881602],[140.082055,35.880985],[140.081555,35.880693],[140.081143,35.880352],[140.08088,35.880043],[140.080581,35.879702],[140.080156,35.879369],[140.079243,35.878385],[140.078856,35.878094],[140.078406,35.877869],[140.077631,35.877577],[140.076131,35.877019],[140.075244,35.876802],[140.074906,35.876761],[140.073994,35.876744],[140.073669,35.876786],[140.072619,35.877219],[140.070432,35.878444],[140.067982,35.879943],[140.066519,35.880985],[140.065944,35.881593],[140.065507,35.88216],[140.065282,35.882385],[140.064907,35.882885],[140.064407,35.883426],[140.064082,35.883901],[140.063669,35.884351],[140.062982,35.885301],[140.06282,35.885484],[140.06222,35.886459],[140.061282,35.887859],[140.060707,35.888375],[140.060207,35.88865],[140.058007,35.88965],[140.057482,35.889925],[140.055932,35.890583],[140.054745,35.89095],[140.053145,35.891225],[140.05032,35.891624],[140.048496,35.891833],[140.046508,35.892316],[140.045258,35.892749],[140.044184,35.893182],[140.042971,35.89384],[140.041871,35.89459],[140.041346,35.895065],[140.039584,35.896465],[140.039084,35.896806],[140.037347,35.897739],[140.036022,35.898356],[140.033285,35.899539],[140.032322,35.899972],[140.030635,35.900855],[140.03056,35.900922],[140.030397,35.901055],[140.029897,35.90133],[140.027635,35.902713],[140.027135,35.903121],[140.025373,35.904771],[140.024148,35.906263],[140.02381,35.906788],[140.023648,35.906963],[140.022523,35.908162],[140.021998,35.908596],[140.021248,35.909046],[140.020486,35.909437],[140.019823,35.909687],[140.018186,35.910229],[140.016948,35.910579],[140.015199,35.910895],[140.014261,35.91097],[140.012624,35.91107],[140.011549,35.911028],[140.009499,35.91077],[140.006725,35.910328],[140.005812,35.910086],[140.002925,35.909561],[140.001513,35.909361],[139.998626,35.909153],[139.998326,35.90917],[139.997938,35.909153],[139.996888,35.909245],[139.996749,35.909224],[139.996488,35.909261],[139.996076,35.90937],[139.995151,35.909553],[139.994239,35.909853],[139.993026,35.910328],[139.991926,35.910919],[139.991626,35.911111],[139.990714,35.911694],[139.989989,35.912078],[139.989301,35.912511],[139.988801,35.912869],[139.988139,35.913252],[139.986701,35.914277],[139.985664,35.914952],[139.984864,35.915544],[139.983789,35.916494],[139.982164,35.918169],[139.981114,35.91941],[139.980814,35.919843],[139.980702,35.919877],[139.980289,35.920385],[139.979502,35.921151],[139.978477,35.921985],[139.978014,35.922326],[139.977152,35.922868],[139.975952,35.923543],[139.974427,35.924168],[139.971715,35.925076],[139.970877,35.925301],[139.969352,35.925609],[139.96589,35.926559],[139.964915,35.926967],[139.96439,35.927259],[139.963527,35.927817],[139.962703,35.92845],[139.960678,35.929917],[139.959453,35.930975],[139.958265,35.931716],[139.957565,35.932099],[139.955965,35.933066],[139.954928,35.933724],[139.95429,35.934216],[139.95369,35.934599],[139.952353,35.93559],[139.952053,35.935749],[139.951216,35.936315],[139.950053,35.936857],[139.949353,35.937107],[139.948616,35.937415],[139.945616,35.93839],[139.944916,35.938565],[139.944141,35.938723],[139.942616,35.938973],[139.941979,35.939131],[139.940092,35.939848],[139.939179,35.940298],[139.938379,35.940773],[139.937704,35.941223],[139.936492,35.942422],[139.936105,35.942847],[139.934242,35.945439],[139.933517,35.946588],[139.932967,35.947605],[139.932717,35.948122],[139.93208,35.949705],[139.93163,35.950738],[139.932405,35.952113],[139.932805,35.952788],[139.933055,35.953379],[139.933554,35.954096],[139.933742,35.954346],[139.933904,35.954821],[139.933942,35.955179],[139.933854,35.955812],[139.934042,35.956196],[139.934517,35.956921],[139.934792,35.957146],[139.934992,35.957229],[139.935492,35.957279],[139.936329,35.958721],[139.937241,35.960504],[139.938129,35.961879],[139.938216,35.962104],[139.938266,35.962779],[139.937654,35.964495],[139.937241,35.96537],[139.936716,35.966161],[139.936466,35.966478],[139.935304,35.967511],[139.934554,35.968078],[139.934129,35.968328],[139.934079,35.968394],[139.933829,35.968528],[139.932667,35.969411],[139.931779,35.969653],[139.930942,35.969703],[139.929917,35.969878],[139.928417,35.970086],[139.927417,35.970169],[139.927117,35.970244],[139.92598,35.970327],[139.924142,35.970577],[139.923592,35.970577],[139.923417,35.975085],[139.923392,35.977002],[139.923204,35.979301],[139.923092,35.981468],[139.923092,35.982101],[139.922892,35.984784],[139.922729,35.986209],[139.922417,35.99065],[139.921092,35.991742],[139.920979,35.993867],[139.920692,35.994175],[139.919367,35.995158],[139.919254,35.995358],[139.919454,35.996758],[139.919904,35.998041],[139.920342,35.998991],[139.920566,35.999683],[139.920541,36.000091],[139.920204,36.000974],[139.919979,36.001424],[139.919617,36.002441],[139.919504,36.003182],[139.919367,36.003982],[139.918791,36.006524],[139.918679,36.006807],[139.917429,36.00684],[139.917142,36.006815],[139.916979,36.008748],[139.916417,36.010457],[139.916417,36.010682],[139.916604,36.01174],[139.916517,36.012531],[139.916604,36.012681],[139.917104,36.012956],[139.917091,36.014115],[139.917166,36.015281],[139.918666,36.015306],[139.919003,36.015556],[139.919653,36.015531],[139.919853,36.015598],[139.919878,36.015698],[139.920153,36.016173],[139.921003,36.017289],[139.921141,36.017739],[139.921141,36.018031],[139.920991,36.018506],[139.920578,36.019373],[139.920453,36.020039],[139.919953,36.020606],[139.919853,36.020814],[139.91974,36.021831],[139.920415,36.021939],[139.92089,36.022081],[139.921203,36.022264],[139.92159,36.022389],[139.92229,36.022714],[139.92274,36.022856],[139.924165,36.023139],[139.92579,36.023347],[139.926577,36.023589],[139.927014,36.023739],[139.927502,36.023706],[139.928402,36.023556],[139.928852,36.023614],[139.929214,36.023806],[139.929789,36.024456],[139.930239,36.024614],[139.930639,36.024556],[139.931489,36.024322],[139.931564,36.024081],[139.932001,36.023947],[139.932589,36.023947],[139.932576,36.024506],[139.932514,36.025489],[139.932589,36.025539],[139.932739,36.025556],[139.933739,36.025389],[139.934301,36.025422],[139.934751,36.025556],[139.936251,36.025981],[139.936713,36.026206],[139.936301,36.027039],[139.937638,36.027514],[139.937801,36.027539],[139.938488,36.026756],[139.939751,36.027339],[139.94095,36.027989],[139.940975,36.028147],[139.941463,36.029347],[139.941738,36.029439],[139.9419,36.029355],[139.942338,36.028331],[139.942688,36.028097],[139.943738,36.027514],[139.945763,36.026156],[139.94595,36.026398],[139.946388,36.026456],[139.9469,36.026481],[139.947375,36.026589],[139.947525,36.026673],[139.9479,36.026781],[139.94835,36.026781],[139.949137,36.026448],[139.9494,36.026789],[139.949425,36.027389],[139.949137,36.028481],[139.949191,36.029763]]]},"properties":{"yomi":"きたそうま","name":"北相馬","pref":"茨城県","kuni_id":"K19","id_url":"G19008.html","kuni_url":"/kg/resource/K19.html","id":"G19008","kuni":"下総"}}]}