{"type":"FeatureCollection","features":[{"type":"Feature","geometry":{"type":"Polygon","coordinates":[[[140.304108,36.273053],[140.304158,36.273078],[140.304608,36.272919],[140.305108,36.272678],[140.307671,36.271528],[140.308208,36.271311],[140.308708,36.27097],[140.315407,36.265037],[140.31557,36.264929],[140.315682,36.264654],[140.315545,36.264637],[140.314732,36.264679],[140.31292,36.264987],[140.311645,36.26512],[140.310495,36.265145],[140.309833,36.265095],[140.30927,36.265254],[140.308658,36.265229],[140.307971,36.265412],[140.307521,36.265454],[140.307321,36.265429],[140.305983,36.265045],[140.305733,36.26507],[140.305296,36.265229],[140.305071,36.265245],[140.304321,36.265045],[140.303784,36.26477],[140.303096,36.264587],[140.302221,36.264495],[140.301359,36.26432],[140.300696,36.264071],[140.300109,36.263637],[140.299672,36.263437],[140.299134,36.263371],[140.298109,36.263296],[140.297434,36.263162],[140.297159,36.262896],[140.296797,36.262171],[140.296434,36.261179],[140.29631,36.258213],[140.29636,36.257396],[140.296335,36.255955],[140.29626,36.255055],[140.296285,36.25438],[140.296235,36.253997],[140.296122,36.253888],[140.29601,36.253955],[140.295035,36.254313],[140.294222,36.254538],[140.293722,36.254763],[140.293335,36.255346],[140.293085,36.255596],[140.292722,36.255613],[140.28971,36.255563],[140.288848,36.255538],[140.287735,36.255563],[140.287448,36.255271],[140.286648,36.255405],[140.285561,36.255471],[140.285061,36.255538],[140.284698,36.255671],[140.284411,36.255688],[140.283436,36.255554],[140.282636,36.255488],[140.282211,36.255396],[140.282024,36.255213],[140.281849,36.254946],[140.281074,36.255054],[140.280686,36.254896],[140.280549,36.254713],[140.280411,36.254313],[140.280436,36.254105],[140.280524,36.253838],[140.280799,36.253205],[140.281324,36.253021],[140.281611,36.252821],[140.281661,36.252738],[140.281836,36.252605],[140.281924,36.252446],[140.281511,36.252063],[140.281174,36.251813],[140.281174,36.251697],[140.281374,36.251388],[140.281349,36.251297],[140.280986,36.25118],[140.280899,36.251205],[140.280599,36.251155],[140.279599,36.251172],[140.279424,36.251197],[140.279174,36.250972],[140.278687,36.25043],[140.278462,36.250205],[140.277974,36.249363],[140.277812,36.248697],[140.277237,36.247639],[140.277112,36.247164],[140.277037,36.246447],[140.276737,36.245881],[140.276699,36.245722],[140.276824,36.245297],[140.276849,36.245122],[140.276449,36.243839],[140.276037,36.242873],[140.275987,36.242423],[140.276024,36.242039],[140.275537,36.24024],[140.275462,36.239365],[140.275337,36.239098],[140.2742,36.237806],[140.273937,36.237448],[140.273662,36.23689],[140.27355,36.236732],[140.2735,36.236482],[140.273525,36.23644],[140.273225,36.235607],[140.27315,36.235248],[140.272525,36.233874],[140.272337,36.233265],[140.272287,36.233199],[140.272225,36.232907],[140.2721,36.232524],[140.271963,36.231491],[140.271938,36.231132],[140.271975,36.230816],[140.272088,36.230482],[140.27235,36.230082],[140.272213,36.229582],[140.272088,36.228758],[140.27215,36.228083],[140.272375,36.227391],[140.272625,36.226899],[140.272888,36.226474],[140.273562,36.225783],[140.2739,36.225333],[140.275037,36.223566],[140.275375,36.223192],[140.275737,36.222942],[140.276325,36.222725],[140.276775,36.222642],[140.2771,36.222658],[140.277662,36.2226],[140.278162,36.222467],[140.278612,36.22225],[140.278837,36.222117],[140.278975,36.222067],[140.279837,36.221533],[140.279987,36.221517],[140.280562,36.221342],[140.281549,36.221192],[140.282349,36.220859],[140.282712,36.2207],[140.282999,36.220525],[140.283412,36.22035],[140.283862,36.220284],[140.284449,36.220359],[140.284812,36.220517],[140.285112,36.220492],[140.285562,36.220225],[140.286687,36.219159],[140.287499,36.218584],[140.287949,36.218267],[140.288874,36.217426],[140.289499,36.216576],[140.289699,36.216218],[140.289861,36.215951],[140.290086,36.215701],[140.290486,36.215418],[140.291399,36.215034],[140.292161,36.214868],[140.292686,36.21471],[140.293324,36.214576],[140.293724,36.214468],[140.294586,36.214276],[140.294724,36.214276],[140.296061,36.213926],[140.297098,36.213685],[140.297373,36.213576],[140.298048,36.212927],[140.298473,36.212327],[140.298648,36.21201],[140.299286,36.211368],[140.300411,36.210502],[140.300773,36.210369],[140.301048,36.210319],[140.301748,36.210369],[140.303185,36.21076],[140.303973,36.211035],[140.304385,36.211018],[140.304773,36.210927],[140.305223,36.210735],[140.30561,36.210444],[140.306123,36.210177],[140.306847,36.209752],[140.307322,36.209644],[140.307622,36.209602],[140.309147,36.209885],[140.30926,36.209952],[140.310097,36.210094],[140.310572,36.210119],[140.310985,36.210052],[140.311235,36.209944],[140.311884,36.209494],[140.312022,36.209269],[140.312397,36.208894],[140.312847,36.208019],[140.312934,36.207552],[140.312997,36.206811],[140.313034,36.206336],[140.313009,36.205977],[140.313072,36.205536],[140.313109,36.204519],[140.31306,36.203853],[140.313147,36.202769],[140.31336,36.202078],[140.313497,36.201769],[140.314034,36.201211],[140.314284,36.201053],[140.314622,36.20092],[140.315372,36.200703],[140.316009,36.200611],[140.316062,36.200608],[140.316984,36.200486],[140.317709,36.200311],[140.318272,36.200095],[140.319422,36.199178],[140.320596,36.197862],[140.322396,36.196104],[140.324484,36.193845],[140.324821,36.193537],[140.325096,36.193179],[140.326246,36.192337],[140.326584,36.192137],[140.327146,36.191737],[140.327371,36.191621],[140.327534,36.191604],[140.328096,36.191671],[140.329058,36.191879],[140.329733,36.191996],[140.330283,36.192179],[140.330733,36.192254],[140.332171,36.192554],[140.333108,36.192871],[140.33522,36.193721],[140.335695,36.193746],[140.336308,36.193521],[140.336495,36.193387],[140.337008,36.192854],[140.337258,36.192654],[140.337508,36.192338],[140.338208,36.191896],[140.33847,36.191763],[140.339358,36.191504],[140.340895,36.190838],[140.341032,36.190813],[140.34137,36.190596],[140.342795,36.189996],[140.343382,36.189663],[140.343632,36.189488],[140.343882,36.189238],[140.344145,36.188863],[140.344395,36.188188],[140.344607,36.18718],[140.344745,36.18613],[140.344895,36.185588],[140.34487,36.185497],[140.344532,36.185388],[140.344745,36.184464],[140.344795,36.184222],[140.34477,36.184155],[140.344882,36.183814],[140.344857,36.183772],[140.345007,36.183214],[140.345095,36.182922],[140.345545,36.181664],[140.345607,36.181331],[140.345695,36.181222],[140.346095,36.180014],[140.346408,36.178731],[140.346758,36.177706],[140.346895,36.177189],[140.346908,36.176939],[140.347283,36.175464],[140.347345,36.174631],[140.347458,36.17439],[140.347933,36.173606],[140.34892,36.172756],[140.349558,36.172248],[140.35027,36.17149],[140.350345,36.171307],[140.350345,36.17129],[140.350433,36.171265],[140.35057,36.17129],[140.35117,36.17039],[140.351333,36.170215],[140.351533,36.169857],[140.351795,36.169382],[140.35157,36.169107],[140.35132,36.168948],[140.35072,36.168623],[140.350695,36.168582],[140.350895,36.168315],[140.351158,36.167815],[140.351508,36.167774],[140.351908,36.167824],[140.352308,36.168032],[140.352408,36.168165],[140.352283,36.168324],[140.35232,36.168524],[140.352682,36.168574],[140.352807,36.168549],[140.352857,36.16844],[140.352807,36.168215],[140.352657,36.168057],[140.352558,36.168032],[140.352558,36.167849],[140.35312,36.16639],[140.35252,36.165732],[140.353108,36.165174],[140.352958,36.164557],[140.35412,36.163866],[140.35422,36.163641],[140.35412,36.163399],[140.354033,36.163032],[140.354208,36.162699],[140.35532,36.161374],[140.355583,36.160899],[140.355708,36.160449],[140.355708,36.160224],[140.355995,36.15915],[140.35607,36.158466],[140.356233,36.158108],[140.356583,36.157775],[140.356733,36.157708],[140.357645,36.15695],[140.357995,36.156608],[140.358195,36.156],[140.358183,36.155575],[140.35782,36.153725],[140.357845,36.153675],[140.357608,36.152483],[140.357583,36.151959],[140.357745,36.150884],[140.357808,36.150184],[140.357783,36.149575],[140.357708,36.148942],[140.351783,36.131336],[140.356758,36.129719],[140.357708,36.129503],[140.36022,36.128953],[140.362683,36.128478],[140.363883,36.128194],[140.365945,36.127736],[140.366995,36.127586],[140.36827,36.127436],[140.368807,36.127328],[140.371282,36.126936],[140.371706,36.126858],[140.373195,36.125845],[140.374657,36.124604],[140.37577,36.123445],[140.37687,36.122137],[140.398957,36.093624],[140.405007,36.086534],[140.416869,36.047114],[140.37171,36.043309],[140.267383,36.051468],[140.24672,36.053088],[140.231575,36.054453],[140.231561,36.054537],[140.231447,36.054955],[140.230915,36.055505],[140.230744,36.056113],[140.230649,36.056663],[140.230387,36.056995],[140.230023,36.057222],[140.229842,36.05751],[140.229675,36.05798],[140.229432,36.058328],[140.228902,36.058783],[140.22883,36.059053],[140.228884,36.059696],[140.228775,36.06027],[140.228406,36.060912],[140.228406,36.062033],[140.22835,36.062908],[140.228786,36.064283],[140.228741,36.065765],[140.229684,36.068413],[140.229415,36.069176],[140.227753,36.071241],[140.22708,36.072318],[140.227259,36.073485],[140.227035,36.074293],[140.227394,36.074922],[140.227214,36.07555],[140.227304,36.076538],[140.224789,36.076224],[140.221825,36.075999],[140.218762,36.076239],[140.218159,36.076356],[140.216419,36.078022],[140.2133,36.079326],[140.206604,36.081101],[140.204138,36.081101],[140.201455,36.081173],[140.198481,36.081318],[140.194928,36.08284],[140.192607,36.083637],[140.191592,36.084869],[140.190431,36.086463],[140.188908,36.087188],[140.187095,36.08697],[140.184775,36.086318],[140.183832,36.085883],[140.183759,36.084797],[140.182744,36.084217],[140.181221,36.084434],[140.17832,36.084797],[140.176507,36.085883],[140.173969,36.087695],[140.171503,36.089941],[140.170125,36.092043],[140.170415,36.093057],[140.171431,36.093927],[140.173099,36.093854],[140.174114,36.093492],[140.17832,36.091173],[140.182019,36.088709],[140.184122,36.087695],[140.186153,36.08813],[140.188256,36.088709],[140.188256,36.090014],[140.187893,36.091753],[140.186588,36.092695],[140.185137,36.09313],[140.183542,36.09313],[140.181004,36.093637],[140.177523,36.095738],[140.175057,36.097767],[140.172301,36.101173],[140.170488,36.103129],[140.169037,36.105665],[140.16737,36.10726],[140.165266,36.108346],[140.163526,36.107912],[140.161303,36.106183],[140.160865,36.105975],[140.160153,36.105558],[140.160153,36.105492],[140.159665,36.104992],[140.15939,36.105117],[140.159353,36.105167],[140.158891,36.105067],[140.158203,36.104875],[140.158128,36.104625],[140.158353,36.104425],[140.158291,36.104267],[140.158328,36.104067],[140.158091,36.103384],[140.158178,36.103117],[140.157678,36.10195],[140.157678,36.101884],[140.157991,36.101525],[140.158466,36.1012],[140.158041,36.100784],[140.157416,36.1003],[140.157466,36.100075],[140.157441,36.10005],[140.156928,36.099434],[140.157041,36.099184],[140.156941,36.098826],[140.156629,36.098051],[140.156304,36.097751],[140.155591,36.097359],[140.154954,36.097142],[140.153666,36.096542],[140.152866,36.096642],[140.151979,36.096809],[140.151092,36.096934],[140.150992,36.096701],[140.150704,36.095642],[140.150479,36.094367],[140.150592,36.094234],[140.150929,36.094218],[140.151954,36.094234],[140.152004,36.094209],[140.152429,36.093743],[140.152817,36.093543],[140.152092,36.092834],[140.151029,36.091801],[140.151117,36.091576],[140.151654,36.091151],[140.152154,36.090984],[140.152629,36.09076],[140.153192,36.090385],[140.154067,36.089676],[140.155292,36.08931],[140.155742,36.089068],[140.155929,36.088885],[140.156229,36.089026],[140.156179,36.088935],[140.156367,36.088168],[140.156342,36.087993],[140.156404,36.087743],[140.156929,36.087635],[140.157116,36.087635],[140.157816,36.08756],[140.157816,36.087468],[140.157466,36.086985],[140.157391,36.08681],[140.157367,36.086535],[140.157442,36.086327],[140.157729,36.085943],[140.158042,36.085677],[140.157592,36.085152],[140.157667,36.084968],[140.157217,36.08451],[140.156829,36.084027],[140.156629,36.083577],[140.156542,36.083127],[140.156267,36.082852],[140.155904,36.082352],[140.155842,36.082236],[140.155767,36.081802],[140.155792,36.081102],[140.155692,36.080536],[140.15533,36.079361],[140.155167,36.078703],[140.155055,36.078269],[140.155267,36.076895],[140.155505,36.075737],[140.15598,36.074328],[140.156705,36.074228],[140.157342,36.07417],[140.158242,36.074162],[140.160779,36.073879],[140.161529,36.07367],[140.161979,36.07347],[140.162629,36.073096],[140.163204,36.072662],[140.163617,36.072296],[140.164004,36.071896],[140.164879,36.070796],[140.165517,36.070013],[140.165942,36.069655],[140.166379,36.069438],[140.166854,36.069246],[140.167192,36.069163],[140.167467,36.06903],[140.169029,36.06888],[140.169529,36.068655],[140.170442,36.068255],[140.170904,36.068105],[140.171867,36.067397],[140.172154,36.067064],[140.172354,36.066905],[140.172717,36.066464],[140.173117,36.066197],[140.173204,36.065914],[140.173179,36.065472],[140.172279,36.065839],[140.171354,36.065872],[140.170915,36.065519],[140.171004,36.064697],[140.171154,36.064422],[140.171179,36.064197],[140.171079,36.064114],[140.170642,36.062498],[140.170179,36.061364],[140.169879,36.061073],[140.169267,36.061031],[140.169079,36.060831],[140.168967,36.060823],[140.167579,36.061214],[140.166954,36.061456],[140.165542,36.061889],[140.164067,36.062364],[140.16353,36.062622],[140.163167,36.062706],[140.163117,36.062772],[140.16298,36.062597],[140.162617,36.062197],[140.161992,36.061356],[140.161705,36.061081],[140.161342,36.060931],[140.160705,36.060639],[140.16033,36.060547],[140.159705,36.060314],[140.159305,36.059947],[140.15878,36.059639],[140.15813,36.059331],[140.157768,36.059106],[140.157705,36.059031],[140.157668,36.058706],[140.157818,36.058431],[140.157755,36.058206],[140.157618,36.057764],[140.157368,36.057523],[140.15703,36.057356],[140.156718,36.057256],[140.156255,36.057189],[140.155993,36.056906],[140.15593,36.056423],[140.155955,36.056298],[140.155955,36.056148],[140.155893,36.055973],[140.155768,36.05589],[140.155168,36.055706],[140.154743,36.05559],[140.154068,36.055256],[140.153893,36.05524],[140.153218,36.054415],[140.152281,36.053048],[140.151543,36.052898],[140.150906,36.052707],[140.150518,36.05254],[140.150481,36.052565],[140.147743,36.051623],[140.147181,36.051565],[140.146881,36.051365],[140.144369,36.047782],[140.143967,36.047926],[140.143414,36.049407],[140.143414,36.051087],[140.144043,36.052856],[140.14437,36.054242],[140.14437,36.055099],[140.142228,36.058755],[140.140135,36.062135],[140.138057,36.065111],[140.137282,36.067386],[140.134515,36.06913],[140.13291,36.069447],[140.131446,36.068319],[140.130581,36.067262],[140.129417,36.066575],[140.128641,36.067421],[140.126972,36.071789],[140.125335,36.074353],[140.123509,36.076718],[140.121773,36.077755],[140.119678,36.078293],[140.118121,36.078851],[140.115498,36.080691],[140.111924,36.083039],[140.110457,36.083783],[140.109101,36.083783],[140.108457,36.083236],[140.107395,36.082336],[140.106343,36.081444],[140.104518,36.07785],[140.101543,36.074574],[140.098645,36.071012],[140.097772,36.068761],[140.09491,36.063269],[140.093335,36.061123],[140.092426,36.060229],[140.0904,36.058235],[140.088797,36.056657],[140.087947,36.05595],[140.087068,36.054727],[140.086562,36.053808],[140.085929,36.052103],[140.084582,36.049638],[140.083754,36.049443],[140.082342,36.049697],[140.080264,36.049697],[140.079371,36.049697],[140.078787,36.049297],[140.077541,36.048444],[140.074977,36.046333],[140.074423,36.045999],[140.073393,36.04582],[140.073099,36.046669],[140.072021,36.048314],[140.071478,36.049307],[140.071016,36.050812],[140.070565,36.05159],[140.069978,36.053178],[140.068839,36.056011],[140.068293,36.056649],[140.068084,36.057284],[140.068416,36.057904],[140.069185,36.059337],[140.070258,36.06042],[140.071682,36.061007],[140.072869,36.061205],[140.073519,36.061205],[140.074123,36.061205],[140.074648,36.061532],[140.0748,36.062056],[140.074578,36.062604],[140.073376,36.062826],[140.072744,36.063404],[140.073951,36.065006],[140.075758,36.066617],[140.077147,36.069162],[140.076007,36.070394],[140.075243,36.071862],[140.074888,36.073415],[140.075245,36.074576],[140.075618,36.075336],[140.076248,36.078621],[140.076248,36.081727],[140.07565,36.085025],[140.074279,36.08677],[140.074279,36.087915],[140.074707,36.09025],[140.074707,36.091103],[140.074992,36.092023],[140.075561,36.092592],[140.07684,36.093454],[140.078429,36.094831],[140.080559,36.099183],[140.08173,36.102354],[140.082061,36.103698],[140.082061,36.105105],[140.081469,36.106789],[140.079602,36.109693],[140.08145,36.109135],[140.083375,36.109135],[140.085705,36.108644],[140.087026,36.108644],[140.089519,36.10902],[140.091151,36.109659],[140.093322,36.109659],[140.09471,36.109383],[140.095666,36.10906],[140.096012,36.108206],[140.096192,36.106968],[140.096636,36.106063],[140.097747,36.105448],[140.098473,36.104782],[140.099276,36.104782],[140.100011,36.105096],[140.100902,36.105908],[140.101595,36.106773],[140.101758,36.107534],[140.101651,36.109164],[140.100877,36.110584],[140.099177,36.112719],[140.097963,36.114434],[140.096253,36.118152],[140.094977,36.120281],[140.093629,36.12253],[140.092868,36.123973],[140.091785,36.124294],[140.090585,36.123934],[140.089805,36.123329],[140.087076,36.12253],[140.085925,36.121859],[140.084591,36.121859],[140.08392,36.122094],[140.083248,36.122722],[140.081949,36.124247],[140.080839,36.124997],[140.079432,36.125277],[140.077647,36.125423],[140.07649,36.125641],[140.073605,36.125798],[140.071896,36.125678],[140.070759,36.125519],[140.068605,36.126082],[140.066548,36.127022],[140.065469,36.127273],[140.061953,36.128902],[140.060725,36.129163],[140.059034,36.128841],[140.056235,36.128841],[140.05553,36.128157],[140.055269,36.127373],[140.055269,36.126106],[140.054866,36.125683],[140.053819,36.125683],[140.05241,36.126045],[140.051363,36.127433],[140.050718,36.129083],[140.050165,36.130996],[140.048406,36.134225],[140.047793,36.136146],[140.047328,36.139174],[140.047328,36.140231],[140.048073,36.143225],[140.048454,36.145063],[140.048671,36.146109],[140.048423,36.147066],[140.047905,36.14951],[140.047436,36.153418],[140.048181,36.156065],[140.048479,36.156919],[140.049195,36.158969],[140.04977,36.160085],[140.050355,36.160529],[140.051486,36.160902],[140.052638,36.161282],[140.053525,36.161569],[140.054557,36.162333],[140.055799,36.163278],[140.056276,36.163798],[140.056406,36.164036],[140.056164,36.165116],[140.056018,36.166862],[140.055915,36.168616],[140.056098,36.169428],[140.056668,36.171126],[140.054792,36.171561],[140.053559,36.171561],[140.053025,36.171801],[140.052664,36.174498],[140.053115,36.17535],[140.053626,36.175969],[140.054289,36.176772],[140.054678,36.176888],[140.056009,36.176648],[140.056842,36.176838],[140.057603,36.177012],[140.058098,36.177292],[140.058404,36.178044],[140.058623,36.179234],[140.059954,36.180434],[140.061146,36.181718],[140.061674,36.183263],[140.061674,36.184225],[140.061259,36.185374],[140.059957,36.186354],[140.059957,36.187334],[140.06082,36.187526],[140.06223,36.186968],[140.063931,36.185679],[140.065115,36.185493],[140.066358,36.1857],[140.068068,36.185892],[140.07096,36.186216],[140.074817,36.186755],[140.076228,36.186531],[140.078735,36.183202],[140.078481,36.181317],[140.077896,36.180501],[140.077896,36.179957],[140.078726,36.179777],[140.07986,36.179777],[140.081292,36.179646],[140.081483,36.178286],[140.082271,36.177702],[140.082494,36.177331],[140.082321,36.176619],[140.081968,36.176199],[140.081176,36.175747],[140.08061,36.17316],[140.079996,36.172378],[140.079864,36.17168],[140.080249,36.17109],[140.081032,36.170272],[140.081947,36.169839],[140.082839,36.169012],[140.084317,36.166611],[140.085125,36.166377],[140.086991,36.164754],[140.08708,36.164404],[140.085185,36.161736],[140.087407,36.162253],[140.087979,36.162253],[140.088183,36.161858],[140.088033,36.161341],[140.087229,36.160592],[140.089355,36.160375],[140.090225,36.158295],[140.091452,36.156871],[140.092329,36.155174],[140.093508,36.154707],[140.094848,36.154493],[140.096218,36.153935],[140.096628,36.153499],[140.096628,36.15272],[140.096282,36.151658],[140.096282,36.151054],[140.09649,36.150441],[140.097041,36.149508],[140.097431,36.147163],[140.098864,36.145883],[140.101296,36.143914],[140.103644,36.142948],[140.104763,36.142699],[140.106063,36.143034],[140.107316,36.143856],[140.107973,36.14461],[140.108837,36.144453],[140.109471,36.144188],[140.110326,36.143928],[140.112691,36.143835],[140.113621,36.144018],[140.114043,36.144326],[140.11494,36.145194],[140.116529,36.144449],[140.118437,36.143797],[140.119824,36.143262],[140.120944,36.14249],[140.123731,36.140567],[140.124663,36.139778],[140.12569,36.139391],[140.126433,36.138847],[140.127389,36.138547],[140.127889,36.138439],[140.129747,36.137717],[140.130651,36.137717],[140.131575,36.138199],[140.132871,36.1387],[140.133368,36.137942],[140.134653,36.138288],[140.135623,36.138496],[140.136,36.138395],[140.137969,36.136266],[140.139576,36.134813],[140.140797,36.134517],[140.142498,36.133931],[140.144403,36.133589],[140.144868,36.133471],[140.145845,36.133587],[140.146696,36.134277],[140.147639,36.13504],[140.147953,36.135797],[140.148244,36.136751],[140.148129,36.137682],[140.147963,36.138294],[140.147618,36.138441],[140.14651,36.138596],[140.1452,36.138732],[140.143807,36.138523],[140.142452,36.138414],[140.142033,36.138514],[140.141818,36.139373],[140.141587,36.140188],[140.141587,36.140794],[140.141666,36.141313],[140.141854,36.141703],[140.142519,36.14237],[140.143041,36.143073],[140.14373,36.143834],[140.144507,36.144022],[140.144971,36.143913],[140.145472,36.143595],[140.146595,36.142327],[140.147168,36.141602],[140.148658,36.141724],[140.150105,36.141919],[140.151382,36.141919],[140.153568,36.14153],[140.154893,36.141294],[140.155444,36.141451],[140.156001,36.142285],[140.156186,36.143401],[140.156284,36.144503],[140.156438,36.145406],[140.156895,36.147193],[140.15778,36.150023],[140.159335,36.152239],[140.160021,36.153709],[140.16022,36.154623],[140.160048,36.155331],[140.159101,36.156518],[140.158258,36.158501],[140.158048,36.158997],[140.158409,36.159439],[140.158955,36.159439],[140.159887,36.159439],[140.160887,36.158972],[140.161667,36.156877],[140.162433,36.156877],[140.163025,36.156353],[140.163501,36.154676],[140.165323,36.152142],[140.168011,36.149282],[140.169555,36.147345],[140.174351,36.141507],[140.176322,36.140031],[140.177513,36.140331],[140.180469,36.140546],[140.183565,36.140767],[140.184837,36.140932],[140.184886,36.141247],[140.184637,36.141397],[140.183937,36.141522],[140.183349,36.141581],[140.183074,36.141531],[140.182637,36.141372],[140.182549,36.141439],[140.182499,36.141597],[140.182599,36.141772],[140.183124,36.141989],[140.182749,36.142431],[140.182474,36.142614],[140.182087,36.142581],[140.181787,36.142489],[140.181487,36.142531],[140.181287,36.142639],[140.181287,36.142706],[140.181474,36.142847],[140.181912,36.142989],[140.182274,36.142922],[140.182412,36.142947],[140.182874,36.143114],[140.182912,36.143156],[140.182849,36.143206],[140.183561,36.143714],[140.183749,36.143755],[140.184311,36.143406],[140.185086,36.143147],[140.185761,36.143022],[140.186149,36.143047],[140.186086,36.143089],[140.185786,36.143197],[140.185424,36.143239],[140.185111,36.143731],[140.184536,36.144497],[140.184199,36.144847],[140.183999,36.145255],[140.183924,36.146247],[140.183986,36.146789],[140.184211,36.146905],[140.184824,36.146964],[140.185374,36.147064],[140.186249,36.14743],[140.186274,36.147389],[140.186523,36.147255],[140.186748,36.147214],[140.187623,36.147639],[140.188373,36.147872],[140.190211,36.148305],[140.191361,36.148705],[140.192135,36.148897],[140.19236,36.148922],[140.19291,36.149064],[140.19361,36.14978],[140.194073,36.150305],[140.194773,36.150922],[140.194973,36.150972],[140.19516,36.150955],[140.195635,36.150822],[140.195835,36.150738],[140.196672,36.150497],[140.197197,36.150397],[140.19761,36.15058],[140.19801,36.150905],[140.198147,36.15118],[140.198985,36.152455],[140.19916,36.15323],[140.199235,36.153272],[140.199322,36.153272],[140.199647,36.153388],[140.200622,36.153455],[140.202134,36.153605],[140.202547,36.153572],[140.202947,36.153372],[140.203134,36.153305],[140.203197,36.153238],[140.203197,36.153372],[140.203072,36.15358],[140.201959,36.155346],[140.201734,36.155546],[140.201372,36.155588],[140.201234,36.155763],[140.201109,36.156238],[140.200672,36.157746],[140.200634,36.157971],[140.200484,36.158379],[140.200284,36.158713],[140.199622,36.158796],[140.199284,36.158996],[140.198584,36.159571],[140.197572,36.160121],[140.196984,36.160654],[140.196559,36.161171],[140.195909,36.161771],[140.195147,36.162304],[140.194447,36.162587],[140.193559,36.16277],[140.192534,36.163029],[140.19001,36.163604],[140.189672,36.163712],[140.18811,36.164054],[140.18711,36.164329],[140.186535,36.164412],[140.186035,36.164312],[140.18546,36.164145],[140.185148,36.164145],[140.18446,36.164362],[140.183923,36.164554],[140.183873,36.164537],[140.182798,36.164604],[140.182148,36.164712],[140.181398,36.164878],[140.181186,36.164903],[140.180598,36.165028],[140.180236,36.165178],[140.179923,36.165403],[140.179536,36.165828],[140.179323,36.166162],[140.179248,36.166228],[140.178911,36.166378],[140.178436,36.16647],[140.177686,36.166545],[140.177136,36.16672],[140.176623,36.167212],[140.176486,36.167412],[140.176023,36.167903],[140.175998,36.168011],[140.176211,36.168353],[140.176398,36.168761],[140.176448,36.169078],[140.176436,36.16947],[140.176261,36.169845],[140.176373,36.169853],[140.176523,36.171836],[140.175186,36.171453],[140.173886,36.171369],[140.172861,36.171169],[140.171649,36.171111],[140.171311,36.170944],[140.170899,36.170936],[140.169686,36.171036],[140.169549,36.170994],[140.169074,36.170619],[140.168449,36.170569],[140.167887,36.170853],[140.167374,36.171228],[140.166824,36.171361],[140.166349,36.171553],[140.165887,36.171619],[140.165212,36.171786],[140.164762,36.172069],[140.164299,36.172544],[140.163924,36.172719],[140.163062,36.172844],[140.161862,36.173052],[140.160387,36.173552],[140.159725,36.173727],[140.159025,36.173936],[140.1588,36.174119],[140.158537,36.174619],[140.158087,36.174877],[140.15745,36.175094],[140.156975,36.175402],[140.156913,36.175294],[140.156325,36.174677],[140.155975,36.17471],[140.155775,36.17471],[140.155388,36.174594],[140.155013,36.174111],[140.154713,36.173627],[140.15445,36.173327],[140.153938,36.172877],[140.153425,36.172711],[140.152813,36.172894],[140.152576,36.173102],[140.152101,36.173236],[140.151626,36.173227],[140.151263,36.173319],[140.150763,36.173369],[140.150251,36.173185],[140.150188,36.173144],[140.149313,36.172827],[140.149176,36.172827],[140.148714,36.17271],[140.148439,36.172552],[140.148201,36.172227],[140.147901,36.171702],[140.147489,36.171494],[140.147051,36.171344],[140.146689,36.171327],[140.146576,36.171369],[140.145801,36.17156],[140.145414,36.171402],[140.145039,36.171277],[140.144676,36.171385],[140.144227,36.171694],[140.143827,36.171869],[140.143302,36.17191],[140.143164,36.171894],[140.142689,36.172152],[140.142514,36.172285],[140.142264,36.172602],[140.142027,36.173094],[140.141752,36.173427],[140.141014,36.173893],[140.140689,36.174002],[140.139777,36.173968],[140.139277,36.174052],[140.139139,36.174118],[140.138514,36.174627],[140.137252,36.175285],[140.13729,36.175468],[140.137477,36.175676],[140.137152,36.17621],[140.136702,36.177776],[140.136202,36.178418],[140.135977,36.178968],[140.136152,36.179393],[140.136577,36.179851],[140.136689,36.180101],[140.136652,36.180168],[140.136602,36.180234],[140.136402,36.180259],[140.136152,36.180334],[140.136002,36.180484],[140.135865,36.180826],[140.135665,36.180959],[140.135502,36.181418],[140.135152,36.182059],[140.134927,36.182226],[140.134527,36.182417],[140.134202,36.182492],[140.133952,36.182626],[140.133565,36.182867],[140.13299,36.183176],[140.132602,36.183451],[140.132315,36.183801],[140.132115,36.184225],[140.131902,36.185284],[140.13139,36.185892],[140.131052,36.186167],[140.13064,36.186459],[140.13034,36.18675],[140.130065,36.18715],[140.129915,36.187517],[140.129627,36.188408],[140.12939,36.18855],[140.128227,36.189033],[140.128115,36.189216],[140.128115,36.18935],[140.128215,36.189533],[140.12879,36.190133],[140.129552,36.190791],[140.129815,36.191183],[140.130202,36.191866],[140.130565,36.192291],[140.130615,36.192483],[140.130577,36.192933],[140.130552,36.193074],[140.13029,36.193566],[140.129765,36.194733],[140.129552,36.195616],[140.129027,36.195882],[140.128715,36.196099],[140.128502,36.196749],[140.128027,36.196924],[140.127815,36.197124],[140.127752,36.197399],[140.12779,36.197991],[140.127702,36.198257],[140.127577,36.198374],[140.127415,36.198657],[140.127352,36.198899],[140.127365,36.199365],[140.127527,36.199782],[140.127777,36.20009],[140.128152,36.20014],[140.129102,36.200015],[140.12929,36.200065],[140.129452,36.200249],[140.129589,36.200615],[140.129502,36.20079],[140.129214,36.201015],[140.128902,36.201324],[140.12859,36.201773],[140.128539,36.202815],[140.128364,36.203173],[140.12724,36.204398],[140.126927,36.204665],[140.12639,36.205315],[140.12534,36.205573],[140.12489,36.205748],[140.124602,36.206081],[140.124365,36.206664],[140.124202,36.207723],[140.12379,36.208872],[140.123477,36.209389],[140.122677,36.21058],[140.12194,36.21133],[140.121777,36.211647],[140.12179,36.212014],[140.121765,36.212122],[140.121902,36.213647],[140.122077,36.21423],[140.122252,36.215138],[140.12229,36.215772],[140.12259,36.217471],[140.12244,36.218046],[140.122215,36.218188],[140.121725,36.218334],[140.121652,36.21843],[140.121202,36.218621],[140.120227,36.219063],[140.119302,36.219663],[140.118965,36.219971],[140.118702,36.220354],[140.118527,36.220779],[140.11819,36.221246],[140.117852,36.221512],[140.117065,36.221954],[140.115865,36.222912],[140.115852,36.22307],[140.116215,36.223437],[140.116452,36.223804],[140.117215,36.22562],[140.11759,36.226079],[140.11789,36.226354],[140.118052,36.226562],[140.118052,36.22667],[140.117777,36.226845],[140.116402,36.227578],[140.115865,36.227928],[140.11469,36.22882],[140.11334,36.22837],[140.111915,36.228028],[140.111578,36.227928],[140.111528,36.22807],[140.111528,36.228211],[140.111465,36.228461],[140.111353,36.228595],[140.111315,36.228678],[140.11114,36.228828],[140.110978,36.228895],[140.110915,36.22897],[140.110915,36.229361],[140.11089,36.229528],[140.11079,36.229753],[140.110603,36.230044],[140.110503,36.230136],[140.110465,36.230469],[140.110477,36.230786],[140.11039,36.231178],[140.110377,36.231294],[140.110327,36.231403],[140.110777,36.231744],[140.110952,36.231811],[140.111327,36.232094],[140.11199,36.232486],[140.114015,36.233603],[140.115452,36.234544],[140.116027,36.234778],[140.116389,36.235011],[140.116489,36.235128],[140.116739,36.235511],[140.116839,36.235627],[140.117602,36.236319],[140.117627,36.236502],[140.117839,36.236977],[140.118114,36.237344],[140.118326,36.237727],[140.118676,36.238094],[140.118926,36.238127],[140.119564,36.238061],[140.120051,36.238119],[140.120389,36.238211],[140.120689,36.238577],[140.121151,36.238902],[140.121426,36.239044],[140.121724,36.239107],[140.122714,36.239986],[140.122963,36.240052],[140.123288,36.240077],[140.123976,36.240202],[140.124138,36.240677],[140.124138,36.240836],[140.124276,36.24106],[140.125063,36.241502],[140.125338,36.241869],[140.125463,36.242369],[140.125701,36.242502],[140.125876,36.242502],[140.126201,36.242802],[140.126576,36.243485],[140.127538,36.243977],[140.127751,36.244002],[140.128288,36.243519],[140.128813,36.24336],[140.129188,36.243119],[140.129325,36.243077],[140.129763,36.243235],[140.130125,36.243285],[140.1304,36.243069],[140.130763,36.242852],[140.131375,36.242836],[140.131838,36.242886],[140.132225,36.242977],[140.1325,36.243094],[140.132838,36.244185],[140.132775,36.244502],[140.132413,36.244852],[140.1325,36.245785],[140.132375,36.246235],[140.1324,36.246735],[140.132325,36.247252],[140.13205,36.247585],[140.131225,36.248235],[140.130525,36.248943],[140.130463,36.249035],[140.130025,36.24921],[140.129713,36.249243],[140.129363,36.249243],[140.129188,36.249468],[140.12915,36.249876],[140.129363,36.25026],[140.129325,36.250643],[140.1294,36.250801],[140.129738,36.251126],[140.130975,36.252018],[140.13145,36.252368],[140.131725,36.252643],[140.131775,36.252801],[140.131687,36.252934],[140.131413,36.253176],[140.131475,36.254026],[140.131525,36.254134],[140.131837,36.254518],[140.132412,36.255592],[140.132612,36.255817],[140.1327,36.255867],[140.132975,36.255909],[140.13325,36.256026],[140.133812,36.256359],[140.1342,36.256651],[140.134637,36.257059],[140.134775,36.257326],[140.13475,36.257776],[140.1347,36.257867],[140.13475,36.2582],[140.13495,36.258534],[140.135275,36.259617],[140.135225,36.259909],[140.134887,36.260292],[140.1345,36.260983],[140.13405,36.261975],[140.13405,36.262517],[140.133887,36.262783],[140.133525,36.263183],[140.133437,36.263433],[140.133387,36.263791],[140.133412,36.26465],[140.1335,36.264941],[140.133912,36.265566],[140.134,36.265924],[140.133975,36.266266],[140.134025,36.266624],[140.134187,36.266891],[140.134499,36.267166],[140.134687,36.267233],[140.135224,36.267541],[140.135662,36.267899],[140.136087,36.268083],[140.136724,36.268308],[140.137274,36.268216],[140.137774,36.268349],[140.138224,36.268624],[140.138587,36.268916],[140.139199,36.269208],[140.139311,36.269408],[140.139586,36.269658],[140.140311,36.269924],[140.140811,36.270016],[140.141036,36.270149],[140.141199,36.270824],[140.141174,36.271141],[140.140699,36.272099],[140.140861,36.272307],[140.141224,36.272482],[140.142398,36.27284],[140.143173,36.273565],[140.143486,36.27379],[140.143761,36.273874],[140.144486,36.273899],[140.144623,36.27394],[140.145373,36.274774],[140.145623,36.275224],[140.145673,36.275407],[140.145711,36.275898],[140.145673,36.276373],[140.145785,36.276707],[140.145985,36.277023],[140.146323,36.277448],[140.146348,36.277623],[140.146535,36.27799],[140.146623,36.278323],[140.147485,36.279515],[140.147623,36.279765],[140.147823,36.280456],[140.148073,36.281065],[140.148298,36.281423],[140.148985,36.282323],[140.149235,36.282748],[140.149522,36.283131],[140.149772,36.283556],[140.14996,36.284231],[140.150235,36.284789],[140.150485,36.285081],[140.150822,36.285581],[140.150985,36.285981],[140.15146,36.286589],[140.152072,36.287214],[140.152247,36.287464],[140.152247,36.287664],[140.152097,36.287956],[140.151822,36.288339],[140.151347,36.288722],[140.15116,36.289039],[140.151072,36.289422],[140.151047,36.289889],[140.151072,36.290247],[140.151047,36.290364],[140.151072,36.290605],[140.15096,36.291488],[140.150872,36.291755],[140.149985,36.293397],[140.149647,36.293847],[140.14946,36.293955],[140.14921,36.29398],[140.14826,36.294788],[140.147985,36.295146],[140.147697,36.295396],[140.147035,36.29573],[140.146448,36.296204],[140.145535,36.296629],[140.143835,36.297979],[140.143748,36.298088],[140.14356,36.298579],[140.143585,36.299304],[140.143473,36.300046],[140.143448,36.300829],[140.143473,36.301387],[140.143585,36.30182],[140.143697,36.302737],[140.143835,36.303304],[140.143997,36.30357],[140.14441,36.30402],[140.144522,36.304245],[140.144522,36.304578],[140.144022,36.30492],[140.143247,36.305678],[140.14316,36.305837],[140.143135,36.306061],[140.143772,36.306153],[140.145335,36.306578],[140.145922,36.306803],[140.146085,36.306895],[140.147035,36.307653],[140.147447,36.307945],[140.148147,36.308511],[140.148834,36.309053],[140.149447,36.309411],[140.149734,36.309703],[140.150397,36.310486],[140.150421,36.311161],[140.150559,36.311428],[140.150846,36.311769],[140.150959,36.312327],[140.150984,36.312669],[140.151171,36.313094],[140.151484,36.313402],[140.152071,36.314286],[140.152321,36.314369],[140.152759,36.314594],[140.153409,36.315252],[140.154633,36.316035],[140.154958,36.316102],[140.155883,36.315969],[140.156183,36.315985],[140.156633,36.316194],[140.157083,36.316527],[140.157246,36.316619],[140.15822,36.316952],[140.15867,36.317177],[140.15892,36.317135],[140.15942,36.31711],[140.16042,36.316977],[140.161033,36.317019],[140.161758,36.317269],[140.162258,36.317585],[140.16242,36.318144],[140.162458,36.31846],[140.16242,36.318644],[140.162707,36.318752],[140.163232,36.31891],[140.163757,36.31911],[140.16432,36.319377],[140.16512,36.319535],[140.165682,36.319535],[140.166707,36.319085],[140.166957,36.319135],[140.167719,36.319535],[140.167882,36.319669],[140.168544,36.320077],[140.168907,36.32021],[140.169607,36.320777],[140.170269,36.32111],[140.170694,36.321377],[140.170857,36.321427],[140.171032,36.321427],[140.172031,36.320977],[140.172694,36.320794],[140.173231,36.320619],[140.173669,36.320527],[140.174256,36.320502],[140.175456,36.320819],[140.175869,36.320819],[140.176406,36.320777],[140.176768,36.320844],[140.177768,36.32111],[140.178293,36.32111],[140.178356,36.321135],[140.179131,36.321085],[140.180156,36.321086],[140.180293,36.321069],[140.181218,36.320727],[140.182355,36.320169],[140.183718,36.319602],[140.185593,36.319203],[140.18603,36.319069],[140.186705,36.319019],[140.187617,36.318844],[140.18843,36.318528],[140.189492,36.318211],[140.190605,36.317986],[140.191742,36.317828],[140.192692,36.31767],[140.192967,36.31772],[140.193329,36.317961],[140.193604,36.318328],[140.193942,36.31857],[140.194304,36.318778],[140.194604,36.31902],[140.195941,36.319403],[140.196504,36.319495],[140.196891,36.319603],[140.197316,36.319919],[140.197616,36.320103],[140.199291,36.320886],[140.200153,36.321178],[140.200853,36.321786],[140.201403,36.322078],[140.201966,36.322144],[140.202466,36.322053],[140.202903,36.321736],[140.203266,36.321311],[140.203628,36.320953],[140.204128,36.320661],[140.204441,36.32062],[140.204778,36.320053],[140.205053,36.31927],[140.205128,36.318845],[140.205303,36.318595],[140.205441,36.318461],[140.205966,36.318078],[140.206078,36.318037],[140.20669,36.317945],[140.207053,36.317962],[140.207528,36.31812],[140.20814,36.318145],[140.20864,36.318078],[140.209528,36.317828],[140.210065,36.317628],[140.21034,36.317562],[140.210446,36.317572],[140.210953,36.317653],[140.21159,36.317537],[140.212065,36.317378],[140.212403,36.317153],[140.21249,36.317045],[140.21274,36.316412],[140.212953,36.316012],[140.213427,36.315445],[140.213565,36.315087],[140.21359,36.314212],[140.213765,36.313879],[140.21399,36.313787],[140.214202,36.313762],[140.214726,36.313871],[140.21479,36.313921],[140.215177,36.313446],[140.21529,36.312862],[140.21529,36.312487],[140.215127,36.311654],[140.215377,36.311088],[140.215565,36.310796],[140.215827,36.310571],[140.216102,36.310396],[140.216465,36.310238],[140.217852,36.309271],[140.218265,36.308955],[140.218827,36.30873],[140.219077,36.308596],[140.219465,36.308013],[140.220715,36.306713],[140.221052,36.30613],[140.222302,36.304597],[140.222502,36.304305],[140.222615,36.303905],[140.22264,36.303588],[140.222327,36.302239],[140.221965,36.301255],[140.221965,36.300889],[140.222277,36.299431],[140.22249,36.298914],[140.222852,36.298172],[140.22319,36.297339],[140.223602,36.296531],[140.224165,36.295656],[140.224665,36.295098],[140.22539,36.294423],[140.22569,36.294198],[140.22614,36.293948],[140.226365,36.293723],[140.226527,36.293415],[140.226665,36.293231],[140.227052,36.292981],[140.227802,36.292623],[140.22809,36.292381],[140.22864,36.29164],[140.228815,36.291348],[140.228952,36.291207],[140.22939,36.291048],[140.22989,36.290965],[140.230315,36.290848],[140.230677,36.290715],[140.230615,36.290673],[140.23089,36.290398],[140.231652,36.289948],[140.232265,36.289457],[140.232865,36.288424],[140.233015,36.288015],[140.233152,36.28719],[140.233315,36.287032],[140.233652,36.286965],[140.234652,36.287007],[140.23499,36.286899],[140.235352,36.286649],[140.23599,36.285999],[140.236152,36.285707],[140.236315,36.284941],[140.236515,36.284516],[140.237065,36.283907],[140.237652,36.283416],[140.238015,36.283208],[140.238402,36.283208],[140.23929,36.283549],[140.239627,36.283641],[140.23999,36.283658],[140.240514,36.283641],[140.241302,36.283549],[140.242302,36.283483],[140.243052,36.283483],[140.243502,36.283391],[140.244189,36.283191],[140.244727,36.282983],[140.244889,36.283033],[140.245752,36.283566],[140.246364,36.283841],[140.246589,36.283908],[140.246712,36.283971],[140.247176,36.284174],[140.247564,36.284241],[140.248764,36.284291],[140.249014,36.28425],[140.249126,36.283658],[140.249126,36.283325],[140.249064,36.283208],[140.249101,36.282758],[140.249289,36.2824],[140.249651,36.281975],[140.250101,36.281683],[140.250826,36.281325],[140.251776,36.281075],[140.252001,36.280917],[140.252139,36.280692],[140.252501,36.280333],[140.253001,36.279934],[140.253813,36.279459],[140.254126,36.279192],[140.254376,36.278834],[140.254738,36.2782],[140.255326,36.277484],[140.255438,36.276759],[140.255601,36.276426],[140.256701,36.275318],[140.256863,36.274984],[140.257088,36.274734],[140.257513,36.274493],[140.257876,36.273901],[140.257563,36.273435],[140.257563,36.27321],[140.257738,36.272843],[140.258176,36.272418],[140.258513,36.272193],[140.259163,36.27206],[140.259576,36.272043],[140.259963,36.271952],[140.260138,36.271885],[140.261138,36.271885],[140.261913,36.271793],[140.26445,36.271327],[140.264925,36.271193],[140.26515,36.271077],[140.265763,36.27056],[140.265963,36.270269],[140.267662,36.268361],[140.268,36.268069],[140.26825,36.268002],[140.268837,36.268027],[140.269312,36.268094],[140.269975,36.268277],[140.270837,36.268636],[140.271562,36.269336],[140.271987,36.269561],[140.2721,36.269652],[140.272624,36.269919],[140.273624,36.270352],[140.273962,36.27046],[140.274399,36.270419],[140.274912,36.270419],[140.275212,36.270552],[140.276212,36.270402],[140.276774,36.270352],[140.279474,36.270427],[140.279899,36.270386],[140.280224,36.270294],[140.281761,36.270094],[140.282348,36.270053],[140.282798,36.269936],[140.283411,36.269961],[140.283773,36.270094],[140.284236,36.270144],[140.284998,36.270119],[140.285498,36.270011],[140.285911,36.269744],[140.286335,36.269628],[140.286923,36.269653],[140.287473,36.269586],[140.288923,36.268978],[140.28906,36.269028],[140.289198,36.26912],[140.289823,36.269003],[140.290323,36.26887],[140.29066,36.268645],[140.29076,36.268536],[140.291097,36.26842],[140.291772,36.268511],[140.29236,36.26867],[140.292885,36.268878],[140.293385,36.268986],[140.293772,36.26892],[140.294047,36.268986],[140.294497,36.269236],[140.295272,36.269578],[140.295859,36.269753],[140.296922,36.270161],[140.297834,36.270545],[140.299234,36.271203],[140.299734,36.271478],[140.300009,36.271586],[140.300396,36.271678],[140.300896,36.271878],[140.300871,36.272036],[140.301009,36.272128],[140.301646,36.272419],[140.301459,36.272786],[140.301396,36.273053],[140.301396,36.273344],[140.301684,36.273436],[140.302909,36.273528],[140.303234,36.273528],[140.303683,36.273303],[140.304108,36.273053]]]},"properties":{"pref":"茨城県","kuni_id":"K20","yomi":"にいばり","name":"新治","id":"G20009","kuni":"常陸","id_url":"G20009.html","kuni_url":"/kg/resource/K20.html"}}]}