{"type":"FeatureCollection","features":[{"type":"Feature","properties":{"id":"G20010","kuni":"常陸","kuni_url":"/kg/resource/K20.html","id_url":"G20010.html","kuni_id":"K20","pref":"茨城県","name":"那珂","yomi":"なか"},"geometry":{"type":"Polygon","coordinates":[[[140.292494,36.712559],[140.292719,36.712742],[140.293281,36.712834],[140.293843,36.712984],[140.294018,36.713076],[140.294993,36.713976],[140.295281,36.714159],[140.295493,36.714159],[140.295668,36.713909],[140.295868,36.713368],[140.296168,36.712893],[140.296606,36.712509],[140.296956,36.712084],[140.297393,36.711793],[140.297956,36.711518],[140.298331,36.711143],[140.298806,36.710893],[140.299568,36.710935],[140.30048,36.711093],[140.300655,36.711185],[140.301243,36.711318],[140.30198,36.711251],[140.302068,36.711185],[140.30218,36.710801],[140.302355,36.710418],[140.302943,36.710143],[140.303418,36.709718],[140.303568,36.70976],[140.30413,36.710193],[140.304305,36.710418],[140.304892,36.710776],[140.306042,36.711226],[140.306592,36.711493],[140.307305,36.71176],[140.30763,36.712034],[140.308279,36.712434],[140.308979,36.712568],[140.309367,36.712101],[140.309592,36.711601],[140.310154,36.711243],[140.310392,36.71086],[140.310504,36.71021],[140.311154,36.709551],[140.311767,36.709102],[140.312004,36.708477],[140.315556,36.706584],[140.316677,36.705986],[140.318295,36.705764],[140.321533,36.706057],[140.323862,36.706303],[140.324939,36.706096],[140.32612,36.705525],[140.328708,36.703277],[140.330255,36.700609],[140.33205,36.697453],[140.33424,36.695512],[140.335865,36.695037],[140.336415,36.694796],[140.337002,36.694454],[140.337615,36.693529],[140.338202,36.693054],[140.338502,36.692563],[140.338727,36.692046],[140.339002,36.691838],[140.339315,36.691863],[140.340027,36.691979],[140.340289,36.691838],[140.340464,36.691571],[140.340927,36.690238],[140.341202,36.690105],[140.341464,36.69013],[140.342077,36.690063],[140.342552,36.689855],[140.343835,36.689074],[140.344127,36.688796],[140.345877,36.688796],[140.347616,36.68839],[140.350179,36.687189],[140.352425,36.686243],[140.354626,36.685735],[140.358839,36.684582],[140.362228,36.683856],[140.364163,36.683719],[140.366558,36.684123],[140.368604,36.684291],[140.37267,36.684067],[140.374699,36.683737],[140.375753,36.683313],[140.379382,36.682074],[140.381938,36.680278],[140.383914,36.678889],[140.387459,36.677156],[140.389481,36.676539],[140.391977,36.675476],[140.394845,36.675158],[140.398212,36.674282],[140.399587,36.674282],[140.402256,36.674919],[140.405994,36.675329],[140.407916,36.67554],[140.410886,36.675866],[140.413336,36.67644],[140.414941,36.677207],[140.417905,36.676072],[140.420245,36.674892],[140.422228,36.673094],[140.424252,36.67063],[140.427256,36.668039],[140.427256,36.666839],[140.426782,36.665701],[140.425722,36.664487],[140.424691,36.663308],[140.424302,36.662742],[140.423927,36.661791],[140.423522,36.660186],[140.423756,36.659315],[140.423972,36.658509],[140.425337,36.657543],[140.426281,36.656992],[140.427386,36.656347],[140.428166,36.655439],[140.428974,36.652662],[140.429916,36.651154],[140.430257,36.650607],[140.430828,36.649693],[140.430583,36.648903],[140.43027,36.648586],[140.430108,36.648294],[140.429771,36.647411],[140.429546,36.647203],[140.428958,36.646845],[140.428433,36.646686],[140.428071,36.646753],[140.427533,36.647045],[140.426633,36.647403],[140.425683,36.648094],[140.425371,36.648211],[140.425208,36.648186],[140.424709,36.647353],[140.424034,36.646944],[140.423946,36.646711],[140.423946,36.646261],[140.423834,36.646011],[140.423446,36.645603],[140.423009,36.644836],[140.422871,36.644411],[140.422721,36.644203],[140.422334,36.644045],[140.422196,36.643795],[140.421859,36.642962],[140.421447,36.64262],[140.421022,36.642412],[140.420772,36.642187],[140.420584,36.641762],[140.420609,36.641512],[140.420472,36.641328],[140.419522,36.64067],[140.418872,36.640512],[140.418234,36.64062],[140.418034,36.64062],[140.417835,36.640053],[140.41756,36.639828],[140.417135,36.639603],[140.416972,36.639379],[140.41686,36.638495],[140.416897,36.638112],[140.417172,36.637479],[140.417122,36.637279],[140.416785,36.637095],[140.416535,36.63707],[140.416335,36.637004],[140.416172,36.636862],[140.41601,36.63662],[140.415947,36.636412],[140.41601,36.636229],[140.416535,36.635762],[140.416397,36.634721],[140.416435,36.634379],[140.41621,36.633996],[140.416047,36.633812],[140.415597,36.633654],[140.415235,36.633471],[140.414848,36.632913],[140.414698,36.632521],[140.414598,36.631963],[140.414623,36.631888],[140.414823,36.631754],[140.415635,36.631421],[140.416947,36.631104],[140.417397,36.630954],[140.417485,36.630813],[140.417822,36.630454],[140.418185,36.630255],[140.419135,36.630121],[140.419922,36.629963],[140.420422,36.629738],[140.421097,36.629046],[140.421497,36.628838],[140.422059,36.628663],[140.422197,36.628663],[140.422472,36.628388],[140.422784,36.628321],[140.423097,36.62833],[140.423209,36.628255],[140.423484,36.62788],[140.423659,36.627563],[140.423772,36.627222],[140.423859,36.626588],[140.423634,36.625755],[140.423522,36.624914],[140.423947,36.624172],[140.424009,36.62388],[140.424209,36.623339],[140.424297,36.62268],[140.424597,36.621914],[140.424859,36.621739],[140.425447,36.621622],[140.426009,36.621489],[140.426122,36.621381],[140.426234,36.621172],[140.426372,36.621039],[140.426647,36.620639],[140.426822,36.620522],[140.427072,36.620481],[140.427322,36.620481],[140.427634,36.620298],[140.427997,36.620031],[140.428222,36.619781],[140.428534,36.619289],[140.428647,36.619214],[140.428809,36.618948],[140.428984,36.618723],[140.429772,36.618498],[140.430022,36.618248],[140.430109,36.618114],[140.430247,36.61769],[140.430359,36.617006],[140.430497,36.616923],[140.430871,36.616765],[140.431059,36.616556],[140.431259,36.616106],[140.431371,36.61604],[140.431771,36.615973],[140.432246,36.615956],[140.432684,36.615823],[140.433246,36.615507],[140.433621,36.615098],[140.433671,36.61499],[140.433696,36.614673],[140.433759,36.61449],[140.433921,36.61449],[140.434509,36.614648],[140.434796,36.61454],[140.435446,36.613707],[140.435496,36.613432],[140.435384,36.612982],[140.435284,36.612482],[140.435421,36.612174],[140.435646,36.611832],[140.435584,36.61154],[140.435334,36.611149],[140.434471,36.61029],[140.434334,36.609932],[140.433634,36.609157],[140.433559,36.608549],[140.433609,36.608207],[140.434121,36.607899],[140.434259,36.607624],[140.434346,36.607241],[140.434546,36.606991],[140.434771,36.606633],[140.43477,36.606627],[140.434709,36.606383],[140.4343,36.604747],[140.433465,36.602467],[140.433199,36.601815],[140.432863,36.60099],[140.432768,36.599987],[140.432768,36.598779],[140.433374,36.596877],[140.434492,36.595096],[140.4354,36.593666],[140.43619,36.59125],[140.437458,36.589844],[140.43888,36.58824],[140.439739,36.587039],[140.440391,36.58596],[140.440391,36.584567],[140.441013,36.582242],[140.44242,36.580266],[140.444075,36.578435],[140.444668,36.577199],[140.445138,36.576066],[140.445298,36.574925],[140.445766,36.573111],[140.4466,36.571525],[140.448269,36.568818],[140.449844,36.566307],[140.451356,36.563922],[140.451933,36.563337],[140.452965,36.56308],[140.454353,36.56308],[140.455159,36.56287],[140.456079,36.561839],[140.456079,36.560089],[140.456079,36.557368],[140.456079,36.556536],[140.455386,36.555236],[140.455131,36.554473],[140.455131,36.553627],[140.455642,36.552668],[140.456649,36.551391],[140.458471,36.549619],[140.459407,36.548932],[140.460919,36.548142],[140.462806,36.546949],[140.463899,36.546045],[140.464859,36.544962],[140.465942,36.543382],[140.466813,36.541625],[140.468022,36.538884],[140.469462,36.535835],[140.470365,36.533924],[140.473,36.529621],[140.475284,36.526481],[140.478952,36.521108],[140.479815,36.519901],[140.480747,36.519147],[140.481279,36.518261],[140.482189,36.516022],[140.482631,36.514939],[140.483737,36.514099],[140.485817,36.51252],[140.488426,36.51118],[140.49079,36.509666],[140.490431,36.509244],[140.49017,36.508979],[140.489383,36.508554],[140.48852,36.507896],[140.488208,36.507588],[140.48787,36.506979],[140.487845,36.506663],[140.487908,36.506571],[140.48812,36.506413],[140.488658,36.506163],[140.488595,36.506138],[140.48852,36.506004],[140.487733,36.505554],[140.487395,36.505288],[140.48712,36.504971],[140.485971,36.504163],[140.486783,36.503388],[140.486533,36.503188],[140.486433,36.503121],[140.485808,36.502746],[140.485921,36.502588],[140.486146,36.502405],[140.486646,36.501838],[140.486371,36.501638],[140.486171,36.501572],[140.486146,36.501522],[140.486171,36.501413],[140.487083,36.500238],[140.487333,36.49978],[140.487383,36.49978],[140.488258,36.500363],[140.488871,36.500813],[140.488958,36.500838],[140.489633,36.500763],[140.49002,36.50083],[140.490608,36.501055],[140.49122,36.501147],[140.491895,36.501613],[140.492508,36.501113],[140.492595,36.501005],[140.492558,36.50053],[140.492308,36.499564],[140.49292,36.499155],[140.494033,36.499955],[140.494933,36.49923],[140.495645,36.49858],[140.495957,36.498239],[140.49617,36.497897],[140.496232,36.497947],[140.496532,36.497964],[140.496673,36.498014],[140.49677,36.498005],[140.496957,36.498097],[140.497207,36.498172],[140.49772,36.498172],[140.49817,36.498064],[140.498545,36.497906],[140.499145,36.497614],[140.499557,36.497306],[140.499857,36.496989],[140.500007,36.496656],[140.500195,36.495731],[140.500232,36.494781],[140.500207,36.494398],[140.49987,36.492839],[140.499907,36.492206],[140.500132,36.491806],[140.500382,36.49149],[140.501245,36.490773],[140.501645,36.490481],[140.502232,36.490265],[140.502557,36.490265],[140.502832,36.490356],[140.503082,36.490556],[140.50317,36.490765],[140.50307,36.491081],[140.50297,36.491306],[140.503095,36.491798],[140.503082,36.492048],[140.503182,36.49234],[140.503632,36.492865],[140.503732,36.493115],[140.504319,36.493798],[140.504469,36.494023],[140.505169,36.494114],[140.505794,36.494373],[140.506119,36.494623],[140.506907,36.495531],[140.507681,36.496348],[140.508419,36.497364],[140.509094,36.498564],[140.509531,36.499856],[140.509669,36.50033],[140.510018,36.501055],[140.510093,36.501189],[140.510343,36.501439],[140.510918,36.50183],[140.512256,36.502355],[140.513231,36.502614],[140.514905,36.503155],[140.51513,36.503255],[140.515805,36.503389],[140.516843,36.503455],[140.518093,36.503547],[140.519243,36.503622],[140.520305,36.503755],[140.52313,36.503964],[140.524217,36.503947],[140.52433,36.503897],[140.525442,36.50388],[140.526117,36.503814],[140.527629,36.503589],[140.529304,36.503281],[140.529579,36.503164],[140.529742,36.503106],[140.530329,36.502839],[140.531104,36.502331],[140.533254,36.500831],[140.534004,36.500406],[140.534566,36.500164],[140.535191,36.49999],[140.535691,36.499923],[140.536091,36.499906],[140.537516,36.500073],[140.538666,36.500348],[140.539591,36.500698],[140.540066,36.500948],[140.540366,36.50124],[140.540616,36.501673],[140.540828,36.502331],[140.540928,36.502981],[140.540978,36.503139],[140.541041,36.503189],[140.541153,36.503298],[140.541591,36.503614],[140.542378,36.504048],[140.542653,36.504139],[140.543778,36.504231],[140.544366,36.504323],[140.544553,36.504323],[140.54629,36.504664],[140.546903,36.504731],[140.547578,36.504756],[140.548715,36.504689],[140.550428,36.504423],[140.551203,36.50424],[140.55174,36.503973],[140.551878,36.503856],[140.55269,36.50339],[140.552828,36.503206],[140.55294,36.503156],[140.553053,36.503131],[140.553565,36.502756],[140.554215,36.502015],[140.554752,36.50134],[140.555027,36.500848],[140.55524,36.500332],[140.555452,36.49884],[140.555427,36.498432],[140.555615,36.497399],[140.555977,36.496632],[140.556277,36.496207],[140.556764,36.495691],[140.557164,36.495424],[140.557664,36.495182],[140.558827,36.494808],[140.559577,36.494649],[140.559827,36.494658],[140.560052,36.494591],[140.560777,36.494483],[140.560977,36.494483],[140.563539,36.494274],[140.565566,36.494285],[140.566289,36.494316],[140.569695,36.491965],[140.5718,36.492148],[140.573951,36.492148],[140.575568,36.49198],[140.57723,36.491492],[140.579332,36.489938],[140.580187,36.489558],[140.581728,36.489082],[140.584189,36.488477],[140.587035,36.487633],[140.588206,36.487462],[140.588847,36.487268],[140.590249,36.486933],[140.591497,36.486397],[140.593085,36.485626],[140.594164,36.48497],[140.595417,36.484001],[140.597044,36.482243],[140.598757,36.480742],[140.599759,36.48016],[140.601164,36.479936],[140.602046,36.479936],[140.603481,36.480802],[140.604399,36.481926],[140.606152,36.482715],[140.608167,36.48483],[140.610145,36.48773],[140.611836,36.488026],[140.611823,36.486601],[140.611723,36.486059],[140.611811,36.485993],[140.611811,36.485834],[140.612586,36.485684],[140.612261,36.484776],[140.613273,36.484584],[140.613586,36.485459],[140.619385,36.484193],[140.618848,36.482568],[140.617485,36.481702],[140.616036,36.48311],[140.613861,36.483593],[140.613273,36.481718],[140.613223,36.481601],[140.613023,36.480727],[140.612736,36.479868],[140.612223,36.47891],[140.611724,36.477802],[140.611674,36.477602],[140.611661,36.477177],[140.611686,36.476744],[140.611511,36.476335],[140.611349,36.475777],[140.611349,36.47521],[140.611399,36.474736],[140.611111,36.474127],[140.610936,36.473244],[140.610924,36.472702],[140.611136,36.470428],[140.611049,36.469928],[140.610949,36.469544],[140.610749,36.469136],[140.610299,36.469003],[140.610124,36.468753],[140.610386,36.468411],[140.610461,36.468211],[140.610386,36.468053],[140.612661,36.467886],[140.612499,36.466986],[140.610999,36.467086],[140.611036,36.46752],[140.610386,36.467561],[140.610299,36.466861],[140.610149,36.466745],[140.610074,36.466403],[140.610199,36.466336],[140.610224,36.466203],[140.610111,36.464937],[140.611111,36.464837],[140.610836,36.464495],[140.610699,36.464203],[140.610624,36.463903],[140.610399,36.463545],[140.609986,36.462254],[140.609699,36.460854],[140.609649,36.460337],[140.609437,36.459046],[140.609062,36.456496],[140.609037,36.455846],[140.608874,36.454604],[140.608787,36.453021],[140.608624,36.451105],[140.608562,36.44993],[140.608449,36.449297],[140.608162,36.446997],[140.608174,36.445689],[140.607925,36.443722],[140.607887,36.442239],[140.60785,36.440048],[140.607887,36.439439],[140.607962,36.438898],[140.607962,36.438498],[140.6079,36.438065],[140.607775,36.437023],[140.607787,36.435831],[140.607687,36.433507],[140.607712,36.432607],[140.607675,36.43204],[140.607812,36.429674],[140.60775,36.428391],[140.607762,36.427824],[140.60785,36.425841],[140.607825,36.425482],[140.607887,36.425008],[140.607962,36.424174],[140.607975,36.422841],[140.608038,36.421358],[140.6083,36.420183],[140.608388,36.419758],[140.608762,36.418492],[140.609062,36.416167],[140.609087,36.415675],[140.609137,36.415425],[140.609162,36.414925],[140.609137,36.414025],[140.609187,36.41335],[140.609312,36.412467],[140.609687,36.411342],[140.609737,36.410801],[140.60965,36.409467],[140.6097,36.408976],[140.610037,36.407709],[140.610225,36.406901],[140.610625,36.405184],[140.6107,36.404485],[140.611387,36.401435],[140.611887,36.399902],[140.612099,36.39891],[140.612149,36.398185],[140.612249,36.397485],[140.612762,36.396494],[140.613024,36.395685],[140.613149,36.394985],[140.613599,36.393269],[140.614299,36.391194],[140.614449,36.390378],[140.614612,36.389969],[140.614849,36.389586],[140.615524,36.388328],[140.616161,36.38742],[140.616186,36.387236],[140.616399,36.386678],[140.616799,36.386045],[140.617386,36.38527],[140.618036,36.384687],[140.618974,36.384003],[140.619436,36.383737],[140.619899,36.383595],[140.621348,36.383054],[140.621674,36.38305],[140.621836,36.38312],[140.622323,36.383345],[140.622786,36.383504],[140.623136,36.38382],[140.623436,36.384245],[140.623598,36.384812],[140.623873,36.384787],[140.624061,36.384737],[140.624223,36.384378],[140.624623,36.38397],[140.624761,36.383654],[140.624948,36.383404],[140.625411,36.383154],[140.625623,36.382954],[140.625761,36.382479],[140.625911,36.38212],[140.626698,36.381287],[140.626861,36.381212],[140.626911,36.380854],[140.626723,36.380337],[140.626711,36.379979],[140.626873,36.379346],[140.626948,36.378871],[140.626973,36.378421],[140.626923,36.377721],[140.626836,36.377338],[140.626648,36.376846],[140.626373,36.376346],[140.625911,36.375629],[140.625673,36.375313],[140.624848,36.374638],[140.624611,36.374488],[140.624498,36.374346],[140.624198,36.373046],[140.624136,36.372505],[140.624136,36.372055],[140.624248,36.371605],[140.624573,36.371147],[140.624486,36.370247],[140.624561,36.369797],[140.624673,36.369572],[140.624498,36.36858],[140.624073,36.368313],[140.623174,36.367347],[140.622899,36.366939],[140.622686,36.366489],[140.622161,36.364822],[140.621961,36.363006],[140.621911,36.362756],[140.621675,36.362236],[140.621024,36.361023],[140.620586,36.360323],[140.620186,36.359923],[140.619399,36.359406],[140.619124,36.359648],[140.618474,36.359381],[140.618287,36.359339],[140.617912,36.359181],[140.617449,36.358939],[140.617312,36.358798],[140.617124,36.358465],[140.616799,36.35804],[140.616599,36.357948],[140.6162,36.357856],[140.6159,36.35784],[140.615662,36.357748],[140.615662,36.357631],[140.615762,36.35714],[140.615,36.356956],[140.61455,36.356623],[140.61435,36.356307],[140.613887,36.355882],[140.613787,36.355698],[140.614025,36.355407],[140.6141,36.355223],[140.6138,36.354998],[140.613512,36.355273],[140.6133,36.35539],[140.612912,36.355365],[140.6124,36.355098],[140.612325,36.355007],[140.612638,36.354648],[140.612313,36.35449],[140.611913,36.354965],[140.611288,36.35469],[140.61045,36.354265],[140.61005,36.353907],[140.609713,36.35339],[140.609501,36.352832],[140.609226,36.352424],[140.609013,36.352174],[140.609038,36.352065],[140.608763,36.351882],[140.608651,36.351774],[140.608351,36.351099],[140.607988,36.349632],[140.607576,36.347966],[140.606764,36.346883],[140.606439,36.346391],[140.605976,36.345966],[140.605402,36.345558],[140.604777,36.345266],[140.604671,36.34528],[140.604652,36.34525],[140.604839,36.345158],[140.605452,36.344541],[140.605877,36.343575],[140.605989,36.343458],[140.605627,36.342917],[140.604502,36.343467],[140.604364,36.343308],[140.603989,36.343492],[140.600965,36.339667],[140.599815,36.340167],[140.598691,36.338634],[140.597541,36.339134],[140.598328,36.340867],[140.596716,36.341642],[140.594079,36.337976],[140.594241,36.337951],[140.594104,36.337392],[140.594854,36.336509],[140.594579,36.336359],[140.594354,36.336317],[140.593741,36.336226],[140.593292,36.336151],[140.592367,36.336059],[140.590979,36.336084],[140.590055,36.336009],[140.589592,36.336034],[140.589142,36.336009],[140.588305,36.336026],[140.587855,36.336117],[140.58758,36.336226],[140.587242,36.336384],[140.587217,36.336476],[140.587155,36.336509],[140.586967,36.336651],[140.586805,36.336692],[140.586617,36.336917],[140.586218,36.337076],[140.58468,36.337876],[140.58288,36.3391],[140.58183,36.340025],[140.581293,36.340542],[140.580593,36.341317],[140.580193,36.3419],[140.579255,36.342941],[140.57868,36.343391],[140.577205,36.344366],[140.576668,36.344708],[140.575455,36.345299],[140.575243,36.345391],[140.57413,36.345733],[140.572093,36.346483],[140.571193,36.346783],[140.568343,36.348049],[140.566243,36.348957],[140.563406,36.350257],[140.562169,36.350957],[140.561631,36.351365],[140.561156,36.35179],[140.560481,36.352698],[140.560132,36.353056],[140.560061,36.353318],[140.559969,36.353306],[140.559894,36.35344],[140.558707,36.354781],[140.558232,36.355481],[140.557257,36.356564],[140.556532,36.357222],[140.556157,36.357464],[140.555519,36.358031],[140.555407,36.358056],[140.553945,36.357156],[140.553757,36.357139],[140.552482,36.356514],[140.55192,36.357147],[140.551645,36.357531],[140.55157,36.357606],[140.551407,36.357797],[140.551357,36.358006],[140.55182,36.358522],[140.552232,36.358939],[140.55287,36.359555],[140.551395,36.360414],[140.550257,36.36098],[140.547783,36.36203],[140.546733,36.362438],[140.544171,36.363213],[140.543821,36.363255],[140.542071,36.363713],[140.540258,36.364054],[140.538696,36.364238],[140.538396,36.364313],[140.534621,36.364771],[140.531622,36.365279],[140.529347,36.365712],[140.527385,36.366012],[140.526622,36.366195],[140.525247,36.36667],[140.52326,36.367495],[140.522185,36.368011],[140.52156,36.368286],[140.519748,36.369145],[140.518273,36.369919],[140.517623,36.370211],[140.51706,36.370553],[140.516498,36.370844],[140.515685,36.371319],[140.514173,36.372094],[140.513148,36.372686],[140.511648,36.373661],[140.510348,36.374677],[140.509648,36.37531],[140.508361,36.376735],[140.507961,36.377318],[140.506211,36.379601],[140.505511,36.380343],[140.503924,36.381751],[140.502986,36.382293],[140.502424,36.382451],[140.501362,36.382543],[140.500662,36.382459],[140.499874,36.382234],[140.499499,36.382076],[140.498962,36.381809],[140.498574,36.381559],[140.497824,36.380959],[140.497524,36.380643],[140.496684,36.379689],[140.496624,36.379543],[140.496374,36.379201],[140.495962,36.378368],[140.495562,36.37751],[140.495225,36.376893],[140.495062,36.376468],[140.494812,36.37606],[140.494537,36.375768],[140.493725,36.375152],[140.493412,36.374993],[140.493112,36.374885],[140.492575,36.374743],[140.492487,36.374768],[140.49205,36.375377],[140.490737,36.37746],[140.49015,36.378518],[140.4899,36.379293],[140.48965,36.379718],[140.488725,36.380401],[140.4887,36.380468],[140.488887,36.380668],[140.489062,36.381576],[140.489225,36.382226],[140.488775,36.382368],[140.48825,36.382476],[140.48445,36.383467],[140.484175,36.383517],[140.484175,36.384559],[140.487112,36.386659],[140.485375,36.387609],[140.484625,36.38745],[140.484425,36.390167],[140.487862,36.394966],[140.48675,36.395508],[140.487725,36.396791],[140.487812,36.396749],[140.488475,36.397699],[140.483475,36.400049],[140.483362,36.402016],[140.482837,36.401974],[140.48275,36.402041],[140.482725,36.402515],[140.482637,36.403007],[140.48245,36.403324],[140.482,36.403715],[140.481975,36.403732],[140.48175,36.403799],[140.481025,36.40389],[140.480462,36.404049],[140.479987,36.404299],[140.479875,36.404165],[140.479825,36.40369],[140.479625,36.40344],[140.47935,36.403374],[140.479088,36.403099],[140.47865,36.403482],[140.476775,36.401807],[140.477338,36.401399],[140.4744,36.398958],[140.471576,36.401032],[140.471801,36.401216],[140.471238,36.401624],[140.472188,36.402457],[140.471801,36.402757],[140.472026,36.402932],[140.471501,36.403366],[140.470963,36.402957],[140.468976,36.404399],[140.469513,36.404832],[140.461689,36.410573],[140.463138,36.411798],[140.460801,36.41349],[140.460764,36.413531],[140.460439,36.41374],[140.459401,36.414665],[140.458676,36.414323],[140.457864,36.415431],[140.458926,36.415998],[140.458726,36.416181],[140.458614,36.416381],[140.457914,36.417289],[140.457751,36.417398],[140.456964,36.417448],[140.456801,36.417556],[140.456751,36.417739],[140.455714,36.419831],[140.454564,36.42298],[140.454476,36.423072],[140.454226,36.422955],[140.454064,36.42363],[140.453864,36.423655],[140.453701,36.423863],[140.451876,36.425313],[140.453301,36.426571],[140.453389,36.426613],[140.453939,36.426321],[140.454839,36.42573],[140.455051,36.42548],[140.455301,36.425297],[140.455614,36.425205],[140.455839,36.425072],[140.455914,36.424847],[140.455914,36.424688],[140.456026,36.424572],[140.456476,36.424522],[140.456839,36.424413],[140.457001,36.424547],[140.457339,36.424705],[140.457726,36.424772],[140.458064,36.424788],[140.458826,36.425238],[140.460563,36.426447],[140.460926,36.426788],[140.460988,36.426896],[140.460988,36.427121],[140.460826,36.427413],[140.459826,36.428546],[140.459626,36.42873],[140.459126,36.429071],[140.458076,36.429504],[140.457038,36.429779],[140.456763,36.429963],[140.456651,36.430229],[140.456713,36.430546],[140.456963,36.430771],[140.457476,36.431129],[140.457913,36.431512],[140.458001,36.431671],[140.458238,36.432862],[140.458551,36.433354],[140.459001,36.434012],[140.459113,36.434437],[140.459088,36.434862],[140.458926,36.435179],[140.457676,36.435887],[140.457251,36.436087],[140.456776,36.436204],[140.455801,36.43607],[140.455051,36.436237],[140.454638,36.43642],[140.454326,36.436645],[140.454101,36.43687],[140.454026,36.437212],[140.454088,36.438561],[140.454151,36.438695],[140.454451,36.438695],[140.454901,36.438761],[140.454963,36.439145],[140.454963,36.439661],[140.454888,36.44052],[140.454676,36.441869],[140.454538,36.442594],[140.454263,36.442661],[140.453238,36.444177],[140.452551,36.445694],[140.452413,36.446185],[140.452188,36.44666],[140.451888,36.447027],[140.451138,36.448293],[140.450813,36.44881],[140.450563,36.449085],[140.449951,36.449577],[140.449538,36.450035],[140.449263,36.450418],[140.448538,36.451776],[140.448301,36.452043],[140.448076,36.452093],[140.448076,36.451885],[140.448488,36.451235],[140.448701,36.450826],[140.442414,36.450284],[140.438927,36.450034],[140.438339,36.450984],[140.435127,36.450501],[140.435077,36.450809],[140.434802,36.451201],[140.434577,36.451176],[140.434065,36.451067],[140.432815,36.451051],[140.432727,36.451001],[140.432527,36.450734],[140.432365,36.450351],[140.432215,36.449476],[140.432265,36.448884],[140.43279,36.447418],[140.432253,36.447351],[140.431703,36.447784],[140.431115,36.448168],[140.43064,36.448534],[140.430565,36.448551],[140.430415,36.448509],[140.430278,36.448351],[140.430228,36.448218],[140.43059,36.447859],[140.430553,36.447701],[140.430078,36.447451],[140.42949,36.447226],[140.428116,36.446576],[140.427916,36.446443],[140.427366,36.446176],[140.426691,36.445909],[140.426403,36.445843],[140.426266,36.445893],[140.425966,36.446451],[140.425878,36.446659],[140.425941,36.446793],[140.426028,36.446859],[140.426116,36.447109],[140.426091,36.447809],[140.426066,36.448142],[140.425816,36.448459],[140.425541,36.448734],[140.425291,36.449092],[140.424978,36.449392],[140.424429,36.449642],[140.424116,36.449892],[140.423704,36.450675],[140.423616,36.450725],[140.423366,36.450767],[140.422929,36.451017],[140.416329,36.455108],[140.418129,36.456091],[140.418017,36.457083],[140.417942,36.45735],[140.417417,36.457941],[140.414667,36.460816],[140.414442,36.460932],[140.413667,36.461791],[140.413417,36.461991],[140.413079,36.462199],[140.412392,36.462765],[140.41208,36.463107],[140.411942,36.463399],[140.411779,36.46414],[140.411404,36.465157],[140.411067,36.465765],[140.410792,36.466065],[140.410542,36.466198],[140.410317,36.466157],[140.410005,36.465907],[140.409617,36.46559],[140.408805,36.465482],[140.408105,36.46549],[140.408017,36.465507],[140.407967,36.46574],[140.408117,36.46659],[140.408255,36.467023],[140.408717,36.469156],[140.40898,36.470131],[140.409267,36.471506],[140.409292,36.471998],[140.409492,36.473189],[140.409567,36.475156],[140.409579,36.476639],[140.409642,36.477181],[140.409704,36.478939],[140.409404,36.480247],[140.408942,36.481539],[140.408629,36.482214],[140.408242,36.482805],[140.406779,36.484097],[140.405967,36.484797],[140.405417,36.485138],[140.403604,36.48593],[140.403042,36.486246],[140.40048,36.48703],[140.400392,36.487005],[140.39963,36.486446],[140.39863,36.485588],[140.397642,36.484963],[140.396918,36.484788],[140.396355,36.48468],[140.39593,36.484388],[140.395618,36.484072],[140.395343,36.483713],[140.394493,36.482855],[140.39413,36.48263],[140.39383,36.482547],[140.393318,36.482572],[140.392731,36.482688],[140.391818,36.483005],[140.391481,36.483072],[140.390306,36.483438],[140.389806,36.483555],[140.388306,36.484255],[140.387581,36.484505],[140.387193,36.484713],[140.386831,36.48503],[140.394443,36.487996],[140.39448,36.488088],[140.394368,36.488629],[140.394518,36.490163],[140.39463,36.490638],[140.394605,36.490704],[140.394055,36.491446],[140.39383,36.491837],[140.393518,36.492237],[140.392218,36.494187],[140.392055,36.49452],[140.39168,36.496104],[140.391405,36.496579],[140.390118,36.498028],[140.38993,36.49832],[140.389843,36.498387],[140.389793,36.498503],[140.38923,36.499178],[140.388868,36.499495],[140.388818,36.499586],[140.38843,36.499861],[140.387793,36.50022],[140.386955,36.500586],[140.38603,36.500995],[140.385668,36.50122],[140.384718,36.501586],[140.384305,36.501678],[140.383518,36.501753],[140.382906,36.501661],[140.382768,36.501728],[140.382768,36.502494],[140.383055,36.502853],[140.383168,36.503128],[140.383255,36.503153],[140.373181,36.521467],[140.371692,36.522437],[140.366119,36.526158],[140.368093,36.528291],[140.367993,36.528307],[140.367818,36.528374],[140.366993,36.528666],[140.365481,36.529332],[140.364406,36.529957],[140.363919,36.530174],[140.363444,36.53049],[140.362769,36.531049],[140.362456,36.531207],[140.362181,36.531473],[140.361906,36.531873],[140.361656,36.532123],[140.360869,36.532565],[140.360669,36.53279],[140.360419,36.532973],[140.359894,36.533098],[140.359432,36.533231],[140.358782,36.533498],[140.358382,36.533765],[140.357019,36.534431],[140.356269,36.534948],[140.354719,36.536264],[140.353944,36.536873],[140.353794,36.537006],[140.352907,36.537539],[140.352407,36.537897],[140.350945,36.538855],[140.349907,36.539505],[140.349082,36.54008],[140.348857,36.540305],[140.347032,36.541447],[140.346707,36.541622],[140.346257,36.541955],[140.34527,36.542538],[140.34502,36.542646],[140.344695,36.542846],[140.34382,36.543205],[140.342883,36.543555],[140.342833,36.543605],[140.342858,36.54383],[140.332058,36.546687],[140.324984,36.549795],[140.324968,36.549774],[140.321819,36.550944],[140.319414,36.552799],[140.317965,36.553128],[140.315151,36.553474],[140.312402,36.554],[140.30812,36.554],[140.306469,36.553645],[140.305372,36.553275],[140.304217,36.553275],[140.299513,36.553932],[140.295561,36.55467],[140.293326,36.555354],[140.289554,36.55618],[140.286302,36.556892],[140.284467,36.557664],[140.28346,36.558088],[140.281155,36.558617],[140.279281,36.559024],[140.277414,36.559136],[140.27628,36.559418],[140.273664,36.559546],[140.271358,36.559693],[140.269108,36.56024],[140.266722,36.56024],[140.260266,36.56024],[140.255921,36.560508],[140.251823,36.560813],[140.245606,36.560813],[140.243741,36.562842],[140.244078,36.563175],[140.244528,36.563692],[140.244865,36.56425],[140.245103,36.5645],[140.24569,36.564533],[140.24664,36.56455],[140.246701,36.564572],[140.246765,36.564542],[140.246865,36.564558],[140.246965,36.564792],[140.246715,36.564967],[140.246701,36.56513],[140.246478,36.565117],[140.24614,36.565275],[140.245728,36.565592],[140.24564,36.565733],[140.245678,36.5662],[140.246015,36.566308],[140.24644,36.566425],[140.246415,36.566558],[140.246128,36.5669],[140.24614,36.566983],[140.246553,36.567208],[140.246553,36.567233],[140.246665,36.56725],[140.246701,36.56723],[140.246765,36.567408],[140.246815,36.567633],[140.246715,36.567675],[140.246701,36.56763],[140.245678,36.568675],[140.245515,36.568816],[140.245465,36.56895],[140.245553,36.5694],[140.245528,36.569575],[140.245278,36.569916],[140.245365,36.570008],[140.24559,36.5701],[140.245865,36.570141],[140.245928,36.570116],[140.245953,36.570341],[140.24554,36.571149],[140.24539,36.572008],[140.245252,36.572283],[140.245028,36.572466],[140.242915,36.573824],[140.242665,36.574099],[140.24264,36.574349],[140.242728,36.574524],[140.243153,36.574816],[140.24394,36.575057],[140.244252,36.575232],[140.244365,36.575349],[140.244677,36.575999],[140.244777,36.57719],[140.24484,36.577415],[140.244902,36.578065],[140.245052,36.578923],[140.244977,36.579823],[140.24504,36.580207],[140.245477,36.58189],[140.245627,36.582181],[140.245652,36.582356],[140.245627,36.582423],[140.245264,36.582606],[140.244902,36.582565],[140.244502,36.58239],[140.244427,36.582431],[140.243902,36.582931],[140.24384,36.583023],[140.243927,36.58309],[140.244102,36.583156],[140.244327,36.58334],[140.244352,36.583556],[140.244302,36.583898],[140.24419,36.584123],[140.244027,36.584256],[140.243665,36.584373],[140.243302,36.584556],[140.243215,36.584648],[140.243789,36.585364],[140.244164,36.586014],[140.244339,36.586473],[140.243877,36.586656],[140.243677,36.586922],[140.243877,36.587689],[140.243739,36.588281],[140.243739,36.588439],[140.243964,36.588572],[140.244127,36.588589],[140.244439,36.588731],[140.244552,36.589047],[140.244627,36.589539],[140.244802,36.590105],[140.245077,36.590597],[140.245389,36.59103],[140.245639,36.591547],[140.245777,36.592022],[140.245976,36.592447],[140.246064,36.592763],[140.245926,36.593597],[140.245926,36.594005],[140.246039,36.594322],[140.246289,36.594497],[140.246651,36.594655],[140.2467,36.594719],[140.246776,36.594872],[140.246801,36.595463],[140.247001,36.59578],[140.247201,36.59598],[140.247164,36.596455],[140.247001,36.596721],[140.246976,36.596855],[140.247089,36.596905],[140.247476,36.596971],[140.247901,36.597221],[140.248064,36.59783],[140.248451,36.598588],[140.248738,36.598971],[140.248988,36.599246],[140.249101,36.599471],[140.248951,36.599879],[140.248901,36.600263],[140.248788,36.600646],[140.248788,36.601029],[140.248926,36.601362],[140.249176,36.601637],[140.249213,36.601904],[140.248988,36.602154],[140.248788,36.602487],[140.248763,36.602762],[140.249076,36.603162],[140.249151,36.603412],[140.248763,36.604654],[140.248551,36.605037],[140.248351,36.605287],[140.248126,36.605445],[140.248013,36.605604],[140.248301,36.606229],[140.248276,36.606845],[140.248351,36.607403],[140.248213,36.608195],[140.248238,36.60862],[140.248576,36.609228],[140.248501,36.610045],[140.248413,36.610511],[140.248276,36.610945],[140.247776,36.611845],[140.247438,36.612278],[140.247213,36.612661],[140.246699,36.613175],[140.246676,36.613244],[140.246238,36.613511],[140.245788,36.613878],[140.245676,36.614144],[140.245938,36.614911],[140.245788,36.615319],[140.245551,36.615819],[140.245351,36.617102],[140.245238,36.617527],[140.244963,36.617869],[140.244713,36.618477],[140.244638,36.618569],[140.243801,36.619069],[140.243438,36.619452],[140.243276,36.619902],[140.243213,36.620377],[140.242888,36.621119],[140.242801,36.62146],[140.242551,36.62171],[140.241888,36.622493],[140.241588,36.622727],[140.241138,36.622968],[140.240613,36.623785],[140.239826,36.624301],[140.239726,36.624668],[140.239726,36.624935],[140.239476,36.625001],[140.239001,36.624918],[140.238576,36.624668],[140.237601,36.623768],[140.236564,36.623135],[140.236289,36.62291],[140.235564,36.623001],[140.234976,36.623226],[140.234626,36.623768],[140.234901,36.624968],[140.234851,36.625735],[140.234939,36.626276],[140.234826,36.626793],[140.235101,36.626968],[140.235414,36.627268],[140.235576,36.627626],[140.235076,36.628101],[140.235139,36.628484],[140.235139,36.628893],[140.234976,36.629117],[140.234889,36.629634],[140.234976,36.630059],[140.234914,36.630442],[140.234751,36.630509],[140.234501,36.630809],[140.234364,36.632],[140.234339,36.633284],[140.234176,36.633625],[140.233764,36.633967],[140.233701,36.634234],[140.233876,36.634459],[140.234201,36.634575],[140.234401,36.63455],[140.235213,36.634209],[140.235563,36.634209],[140.236238,36.634275],[140.236913,36.634409],[140.237213,36.634775],[140.237413,36.635159],[140.238251,36.635134],[140.238776,36.635225],[140.239638,36.635242],[140.240063,36.635517],[140.240476,36.6356],[140.241088,36.635667],[140.241738,36.635942],[140.2424,36.636325],[140.242788,36.636617],[140.242875,36.636884],[140.242688,36.637159],[140.242238,36.637383],[140.241988,36.637633],[140.241963,36.638108],[140.241875,36.638442],[140.241688,36.638892],[140.241625,36.639508],[140.241738,36.64005],[140.241963,36.640475],[140.241975,36.640858],[140.241725,36.641333],[140.241663,36.6421],[140.24155,36.642508],[140.2415,36.643024],[140.24125,36.643316],[140.240813,36.643991],[140.2405,36.644216],[140.2402,36.644241],[140.2398,36.644333],[140.23955,36.644607],[140.239413,36.645032],[140.239225,36.645466],[140.239175,36.645824],[140.239288,36.646157],[140.2392,36.646316],[140.239225,36.646541],[140.23945,36.646857],[140.23965,36.647224],[140.239738,36.647782],[140.23995,36.648165],[140.240425,36.648507],[140.240875,36.64889],[140.24105,36.649274],[140.240825,36.649973],[140.240888,36.650873],[140.240613,36.651573],[140.240075,36.652248],[140.239713,36.652406],[140.239275,36.652523],[140.238688,36.653223],[140.23855,36.653448],[140.238413,36.653831],[140.2383,36.653965],[140.238075,36.654123],[140.2378,36.654148],[140.237525,36.653856],[140.237325,36.653806],[140.23705,36.653881],[140.236938,36.654189],[140.236963,36.655006],[140.236775,36.655414],[140.236413,36.655798],[140.235988,36.656064],[140.235775,36.656356],[140.235713,36.656989],[140.23555,36.657372],[140.234776,36.657647],[140.233988,36.658031],[140.233326,36.658914],[140.232776,36.659247],[140.232126,36.659564],[140.231488,36.659772],[140.231188,36.660014],[140.231051,36.660405],[140.230963,36.66083],[140.230938,36.661213],[140.230801,36.661372],[140.230238,36.661413],[140.229376,36.662097],[140.229301,36.662388],[140.229326,36.662522],[140.229576,36.662813],[140.229988,36.663022],[140.231276,36.663197],[140.231751,36.663288],[140.231951,36.663447],[140.232176,36.664305],[140.232725,36.665455],[140.232788,36.665788],[140.232675,36.66608],[140.231925,36.666738],[140.231738,36.667213],[140.231625,36.667754],[140.231538,36.667954],[140.231575,36.668704],[140.231513,36.669104],[140.231475,36.669796],[140.2314,36.669904],[140.231288,36.670179],[140.230863,36.670471],[140.229175,36.671396],[140.228176,36.671554],[140.227776,36.671671],[140.227526,36.672145],[140.227163,36.672237],[140.226588,36.672304],[140.226051,36.672487],[140.225501,36.672729],[140.225163,36.672687],[140.224863,36.672687],[140.223576,36.67287],[140.222801,36.672937],[140.222439,36.673095],[140.222101,36.673529],[140.221801,36.674045],[140.221576,36.674228],[140.221464,36.67427],[140.221501,36.674703],[140.221714,36.675128],[140.221913,36.675312],[140.222088,36.675578],[140.222026,36.675937],[140.221951,36.676145],[140.221863,36.67657],[140.221613,36.677178],[140.221526,36.677561],[140.221863,36.67772],[140.222176,36.677586],[140.222613,36.677311],[140.223451,36.676887],[140.223613,36.676837],[140.224013,36.676928],[140.224763,36.677195],[140.224838,36.677286],[140.224901,36.677828],[140.224513,36.67887],[140.224263,36.679361],[140.224438,36.679836],[140.224401,36.680194],[140.224301,36.680603],[140.224188,36.680786],[140.223851,36.681103],[140.223601,36.681578],[140.223576,36.682678],[140.223438,36.683361],[140.223188,36.683652],[140.222888,36.683761],[140.222351,36.684011],[140.222213,36.683994],[140.221776,36.683744],[140.221213,36.683677],[140.220713,36.683677],[140.220551,36.683811],[140.220076,36.684444],[140.220076,36.684536],[140.220238,36.684827],[140.220576,36.685235],[140.220438,36.685844],[140.220363,36.686635],[140.220438,36.687194],[140.220776,36.687444],[140.221676,36.687827],[140.2222,36.688277],[140.222863,36.688543],[140.223675,36.688977],[140.223988,36.689402],[140.224288,36.690052],[140.224662,36.690593],[140.225125,36.69091],[140.2263,36.691785],[140.226812,36.692601],[140.22695,36.693143],[140.227062,36.693976],[140.227399,36.695076],[140.227737,36.695534],[140.228187,36.696409],[140.228374,36.696676],[140.228874,36.697109],[140.229186,36.697467],[140.229274,36.697967],[140.229436,36.698326],[140.229724,36.698709],[140.230524,36.699226],[140.230949,36.699609],[140.231424,36.699834],[140.232011,36.699992],[140.232648,36.700217],[140.233148,36.700234],[140.233961,36.700601],[140.234073,36.700526],[140.234036,36.700484],[140.234073,36.700059],[140.234461,36.699917],[140.235261,36.699717],[140.236123,36.699426],[140.236523,36.699442],[140.237048,36.699626],[140.237711,36.699467],[140.238386,36.699259],[140.238686,36.699217],[140.239548,36.699284],[140.240085,36.699259],[140.240423,36.699193],[140.240748,36.699009],[140.241085,36.698693],[140.24136,36.698284],[140.241448,36.697976],[140.241835,36.697793],[140.242248,36.697968],[140.242898,36.698034],[140.243698,36.697651],[140.244035,36.697743],[140.244198,36.698084],[140.244485,36.699168],[140.244735,36.699459],[140.244823,36.699976],[140.245185,36.700559],[140.24541,36.701101],[140.245822,36.701759],[140.246047,36.702001],[140.246272,36.702159],[140.246585,36.702292],[140.246694,36.70228],[140.247135,36.702284],[140.24751,36.702192],[140.24816,36.701967],[140.248897,36.701992],[140.249685,36.702101],[140.25046,36.702284],[140.250872,36.702351],[140.25131,36.702217],[140.251597,36.702009],[140.251897,36.701943],[140.254159,36.702101],[140.255097,36.702709],[140.255722,36.702976],[140.256222,36.703001],[140.256859,36.702726],[140.257334,36.702434],[140.257947,36.702234],[140.258184,36.702009],[140.258397,36.701693],[140.259097,36.701376],[140.259834,36.701268],[140.260359,36.701285],[140.261247,36.701468],[140.261771,36.701934],[140.262246,36.702251],[140.262834,36.702276],[140.263596,36.702251],[140.265534,36.702501],[140.266071,36.702651],[140.266659,36.702701],[140.267296,36.702543],[140.267921,36.702293],[140.268383,36.702335],[140.268596,36.702651],[140.268708,36.702968],[140.269183,36.703126],[140.269483,36.703418],[140.269833,36.703934],[140.270721,36.704718],[140.270983,36.705018],[140.270983,36.705393],[140.270721,36.706251],[140.270871,36.706543],[140.271508,36.706951],[140.271958,36.707059],[140.272783,36.707401],[140.27337,36.707534],[140.274133,36.707759],[140.274695,36.708092],[140.274958,36.708184],[140.275045,36.708159],[140.27587,36.707418],[140.276283,36.707101],[140.276833,36.707034],[140.278245,36.707151],[140.279745,36.707351],[140.280545,36.707484],[140.282245,36.708201],[140.282395,36.708626],[140.282607,36.708968],[140.283157,36.709526],[140.283482,36.709976],[140.283544,36.710584],[140.283457,36.711059],[140.283394,36.711192],[140.284107,36.711309],[140.284694,36.711709],[140.285319,36.712292],[140.285607,36.712517],[140.286082,36.712434],[140.286819,36.712226],[140.287431,36.712134],[140.289306,36.711976],[140.289894,36.712001],[140.292194,36.712451],[140.292494,36.712559]]]}}]}