{"type":"FeatureCollection","features":[{"properties":{"id":"G21008","kuni":"近江","kuni_url":"/kg/resource/K21.html","id_url":"G21008.html","kuni_id":"K21","pref":"滋賀県","name":"犬上","yomi":"いぬかみ"},"geometry":{"type":"Polygon","coordinates":[[[136.149648,35.318387],[136.231051,35.276545],[136.232114,35.275482],[136.236248,35.270104],[136.238845,35.265613],[136.240134,35.264664],[136.242234,35.264942],[136.244029,35.264844],[136.244854,35.264539],[136.246587,35.263078],[136.246926,35.262049],[136.246473,35.260902],[136.245922,35.260207],[136.24562,35.259591],[136.245872,35.257459],[136.245872,35.255563],[136.24704,35.253002],[136.249967,35.245362],[136.249729,35.243554],[136.249923,35.242611],[136.251202,35.240431],[136.251391,35.235787],[136.25035,35.235787],[136.248918,35.236226],[136.248462,35.235592],[136.249894,35.233576],[136.250446,35.232327],[136.250139,35.230902],[136.250333,35.229446],[136.251889,35.227327],[136.252089,35.22721],[136.252801,35.226627],[136.253701,35.225969],[136.254339,35.225411],[136.254639,35.225202],[136.254701,35.225027],[136.254726,35.225294],[136.254701,35.225677],[136.254726,35.226627],[136.254701,35.227144],[136.254614,35.227794],[136.254614,35.228069],[136.254889,35.228585],[136.255163,35.228902],[136.255851,35.22946],[136.256213,35.229894],[136.257663,35.22836],[136.258326,35.229144],[136.258876,35.229644],[136.259238,35.229394],[136.259863,35.23016],[136.260751,35.229635],[136.261463,35.230494],[136.261763,35.230377],[136.262175,35.230135],[136.262363,35.229977],[136.2633,35.229435],[136.263488,35.22966],[136.264425,35.229069],[136.265913,35.228277],[136.267475,35.227377],[136.266763,35.226569],[136.26795,35.225936],[136.268112,35.226069],[136.268475,35.225844],[136.268912,35.225619],[136.269562,35.226386],[136.269787,35.226294],[136.270062,35.226586],[136.270837,35.226161],[136.271525,35.225794],[136.2719,35.226244],[136.272287,35.226019],[136.272949,35.226761],[136.273687,35.227669],[136.275062,35.229486],[136.274049,35.230011],[136.272399,35.230886],[136.271249,35.23141],[136.271387,35.231569],[136.270837,35.231835],[136.269849,35.232377],[136.270224,35.232852],[136.270837,35.23371],[136.272262,35.235485],[136.271437,35.235918],[136.273036,35.237877],[136.273286,35.23891],[136.273449,35.239001],[136.273674,35.239043],[136.273886,35.239185],[136.274411,35.239968],[136.274686,35.240326],[136.274874,35.240193],[136.275124,35.239743],[136.275186,35.239268],[136.275349,35.23891],[136.275874,35.238885],[136.276111,35.23891],[136.276424,35.239068],[136.276636,35.239243],[136.278036,35.240801],[136.278311,35.24116],[136.279111,35.242035],[136.279448,35.242285],[136.279636,35.242285],[136.279911,35.242193],[136.280273,35.241993],[136.280573,35.241743],[136.280786,35.241493],[136.281098,35.241268],[136.280873,35.240951],[136.281148,35.240685],[136.281948,35.240368],[136.282635,35.240277],[136.282985,35.240318],[136.28406,35.240543],[136.28431,35.240543],[136.285048,35.240318],[136.285223,35.240293],[136.285298,35.240343],[136.285435,35.240835],[136.285573,35.240993],[136.285773,35.241043],[136.28591,35.240993],[136.286397,35.240902],[136.286735,35.240877],[136.28731,35.240968],[136.287697,35.24106],[136.287935,35.241168],[136.288135,35.241535],[136.288297,35.242143],[136.288572,35.242977],[136.288847,35.243377],[136.288872,35.243585],[136.289035,35.244035],[136.289347,35.24421],[136.28981,35.244551],[136.290034,35.244801],[136.290222,35.24496],[136.290884,35.245268],[136.291109,35.245451],[136.291384,35.245901],[136.291597,35.245993],[136.291959,35.24606],[136.292147,35.24601],[136.292259,35.245901],[136.292559,35.245401],[136.292697,35.245268],[136.293109,35.245293],[136.293522,35.245385],[136.294047,35.245335],[136.294234,35.245268],[136.294372,35.245293],[136.294372,35.245585],[136.294296,35.245918],[136.294484,35.246168],[136.294509,35.24651],[136.294646,35.246668],[136.294821,35.246751],[136.295059,35.246751],[136.295284,35.246801],[136.295421,35.246935],[136.295559,35.24736],[136.295584,35.24761],[136.295696,35.24781],[136.296496,35.248576],[136.296821,35.248918],[136.296884,35.249051],[136.296821,35.249685],[136.297208,35.250759],[136.297133,35.251009],[136.296858,35.251301],[136.296446,35.251618],[136.296446,35.251776],[136.296633,35.252184],[136.296658,35.252701],[136.296796,35.253209],[136.297246,35.253867],[136.297746,35.254267],[136.298933,35.254967],[136.299158,35.255142],[136.299608,35.255709],[136.299633,35.256134],[136.299683,35.256384],[136.300295,35.256834],[136.300633,35.257151],[136.300883,35.257176],[136.301133,35.257084],[136.301795,35.256784],[136.302157,35.256651],[136.30287,35.256242],[136.303482,35.255742],[136.303782,35.255609],[136.304095,35.255609],[136.304507,35.255701],[136.304957,35.255767],[136.304432,35.256942],[136.304482,35.257092],[136.304932,35.257342],[136.304982,35.257317],[136.305532,35.257367],[136.305782,35.257434],[136.305932,35.257526],[136.306232,35.257817],[136.306669,35.257834],[136.306982,35.257767],[136.307307,35.257651],[136.307532,35.257634],[136.307694,35.257676],[136.309169,35.258867],[136.309894,35.259592],[136.310169,35.259767],[136.310806,35.260284],[136.311444,35.260984],[136.311806,35.261275],[136.312169,35.261392],[136.312731,35.2615],[136.313256,35.262067],[136.313668,35.262334],[136.313831,35.262584],[136.313806,35.262742],[136.313643,35.262942],[136.313593,35.2631],[136.313731,35.263483],[136.314031,35.2638],[136.314256,35.263933],[136.314956,35.26425],[136.315231,35.26445],[136.315806,35.264741],[136.316031,35.2649],[136.316256,35.265283],[136.316256,35.265375],[136.316506,35.265616],[136.31678,35.265733],[136.317618,35.265891],[136.31803,35.265908],[136.318555,35.265866],[136.318943,35.265725],[136.31933,35.265566],[136.319668,35.2655],[136.31978,35.265566],[136.32003,35.266041],[136.320055,35.266225],[136.319968,35.266558],[136.319755,35.266833],[136.319618,35.266874],[136.31948,35.266966],[136.319393,35.267099],[136.319393,35.267191],[136.31953,35.267258],[136.321005,35.267683],[136.321217,35.267683],[136.321917,35.267391],[136.322242,35.267299],[136.323017,35.267208],[136.32363,35.267183],[136.323967,35.267091],[136.324192,35.267066],[136.324792,35.267183],[136.325354,35.267249],[136.325542,35.267224],[136.325679,35.267133],[136.325904,35.266883],[136.326092,35.266774],[136.326592,35.266658],[136.326817,35.266549],[136.327229,35.266224],[136.327542,35.266066],[136.328004,35.265666],[136.328317,35.265508],[136.328667,35.265416],[136.329554,35.265233],[136.330229,35.265391],[136.331054,35.265408],[136.331504,35.265366],[136.332141,35.265408],[136.332854,35.265333],[136.333129,35.265425],[136.333629,35.26565],[136.333878,35.265608],[136.335266,35.265108],[136.335603,35.264633],[136.335878,35.264316],[136.336428,35.263975],[136.336953,35.263842],[136.337453,35.263792],[136.337953,35.263833],[136.338503,35.263925],[136.33879,35.264125],[136.338928,35.264333],[136.339203,35.264625],[136.33964,35.264941],[136.339753,35.265116],[136.34004,35.265325],[136.340865,35.265566],[136.341565,35.265791],[136.34184,35.266016],[136.342177,35.266441],[136.34329,35.267549],[136.343727,35.267841],[136.344502,35.267908],[136.344665,35.267974],[136.34484,35.268108],[136.345115,35.268516],[136.345427,35.268691],[136.345639,35.268716],[136.346089,35.268649],[136.346527,35.268508],[136.346752,35.268533],[136.346914,35.268649],[136.347414,35.269116],[136.347639,35.269233],[136.347864,35.269274],[136.348227,35.269166],[136.348752,35.268933],[136.349964,35.268166],[136.350264,35.268074],[136.350439,35.268099],[136.350664,35.268191],[136.350876,35.268324],[136.351076,35.268524],[136.351301,35.268841],[136.351464,35.269424],[136.351601,35.269649],[136.351551,35.269991],[136.351439,35.270216],[136.351389,35.270416],[136.351414,35.271141],[136.351476,35.271657],[136.351414,35.271882],[136.351276,35.272249],[136.351251,35.272724],[136.351339,35.273149],[136.351451,35.273848],[136.351451,35.274115],[136.352176,35.274498],[136.352838,35.274682],[136.353063,35.274698],[136.353313,35.274682],[136.353663,35.274565],[136.353976,35.274432],[136.354226,35.274432],[136.354476,35.274473],[136.355251,35.274698],[136.355438,35.27479],[136.355751,35.275057],[136.356051,35.275507],[136.356775,35.275982],[136.357475,35.27659],[136.357725,35.27699],[136.3577,35.277623],[136.358,35.27774],[136.359163,35.278273],[136.35945,35.278365],[136.359862,35.278614],[136.36,35.278656],[136.360225,35.278681],[136.360837,35.278856],[136.361475,35.279198],[136.361725,35.279289],[136.362362,35.279464],[136.362612,35.279598],[136.362775,35.279806],[136.363112,35.280522],[136.363362,35.280772],[136.363999,35.281106],[136.364724,35.281289],[136.365187,35.281331],[136.366274,35.281464],[136.367162,35.281664],[136.368274,35.281756],[136.368636,35.281822],[136.369799,35.281931],[136.369961,35.282022],[136.370161,35.282247],[136.370299,35.282472],[136.370524,35.283172],[136.371136,35.283689],[136.371236,35.283889],[136.371524,35.28423],[136.372074,35.284405],[136.372224,35.284355],[136.372586,35.284488],[136.372948,35.284755],[136.373086,35.284913],[136.373361,35.285297],[136.373448,35.285655],[136.373636,35.286038],[136.373811,35.28618],[136.374061,35.286263],[136.375223,35.286488],[136.375536,35.28658],[136.376261,35.286963],[136.376648,35.287055],[136.376711,35.28723],[136.376848,35.28748],[136.377073,35.287588],[136.377261,35.287613],[136.377511,35.287588],[136.377711,35.287522],[136.377798,35.28743],[136.377823,35.287072],[136.377873,35.286355],[136.378073,35.286055],[136.378348,35.28583],[136.378573,35.285788],[136.379073,35.285963],[136.379323,35.286038],[136.379523,35.28603],[136.37966,35.285988],[136.380023,35.285788],[136.38046,35.285247],[136.380598,35.284947],[136.380798,35.284205],[136.380935,35.28403],[136.381023,35.284005],[136.38116,35.284022],[136.38166,35.284272],[136.382447,35.284814],[136.382947,35.285264],[136.383197,35.285397],[136.383672,35.285555],[136.38531,35.286797],[136.385622,35.286863],[136.38651,35.286747],[136.38671,35.286772],[136.38766,35.287063],[136.388047,35.287263],[136.388322,35.287305],[136.388572,35.287288],[136.389272,35.287147],[136.390159,35.286897],[136.391159,35.286805],[136.391634,35.286947],[136.391772,35.287055],[136.393084,35.286222],[136.393309,35.286014],[136.393559,35.28563],[136.394084,35.284622],[136.394446,35.283872],[136.394809,35.283422],[136.394784,35.283289],[136.394559,35.283106],[136.394471,35.282997],[136.394446,35.282789],[136.394559,35.282406],[136.394696,35.282164],[136.395134,35.281689],[136.395309,35.281531],[136.395884,35.280781],[136.396059,35.280381],[136.396084,35.280173],[136.395996,35.279564],[136.395883,35.27914],[136.395746,35.278756],[136.395833,35.278331],[136.395908,35.278148],[136.395933,35.277765],[136.395883,35.277023],[136.395908,35.276298],[136.395883,35.275807],[136.395933,35.27499],[136.395933,35.274698],[136.395821,35.273932],[136.395658,35.273507],[136.395508,35.273299],[136.395146,35.272915],[136.395008,35.272715],[136.394733,35.271841],[136.394596,35.270757],[136.394696,35.270166],[136.394646,35.269491],[136.394808,35.268233],[136.394896,35.2674],[136.394896,35.267175],[136.394808,35.266716],[136.394358,35.266025],[136.394133,35.265525],[136.394108,35.265325],[136.394133,35.26505],[136.394221,35.264875],[136.394471,35.264558],[136.394558,35.2644],[136.394583,35.264109],[136.394546,35.2639],[136.393658,35.262442],[136.393596,35.261942],[136.393683,35.261626],[136.394158,35.260543],[136.394233,35.260301],[136.394383,35.260076],[136.394458,35.259843],[136.394521,35.259034],[136.394983,35.258693],[136.396296,35.258243],[136.396771,35.257993],[136.396996,35.257793],[136.396821,35.257385],[136.396296,35.256685],[136.396046,35.256393],[136.395096,35.255543],[136.394596,35.255135],[136.394346,35.254793],[136.394234,35.254485],[136.394009,35.254144],[136.393921,35.253785],[136.393946,35.253402],[136.393871,35.253352],[136.393646,35.25331],[136.393396,35.25321],[136.393246,35.25301],[136.392771,35.252627],[136.392384,35.252177],[136.391459,35.251344],[136.390984,35.251053],[136.390184,35.250669],[136.389984,35.250511],[136.389347,35.249836],[136.388984,35.249611],[136.388809,35.249561],[136.387584,35.24952],[136.387309,35.249478],[136.387134,35.249403],[136.386522,35.249003],[136.38536,35.248395],[136.38516,35.248353],[136.38466,35.248353],[136.384047,35.24842],[136.38401,35.248437],[136.383235,35.248445],[136.382235,35.248195],[136.381948,35.24817],[136.381485,35.248237],[136.381223,35.24842],[136.381035,35.24867],[136.380923,35.24867],[136.38081,35.24862],[136.380448,35.248287],[136.379386,35.247612],[136.379248,35.247428],[136.379086,35.246804],[136.379023,35.246329],[136.378911,35.245987],[136.378686,35.245604],[136.378661,35.245495],[136.378798,35.245245],[136.379073,35.245045],[136.379223,35.244862],[136.379161,35.244679],[136.378911,35.244346],[136.378711,35.244121],[136.378161,35.243754],[136.377374,35.243396],[136.377349,35.243287],[136.377399,35.243129],[136.377574,35.242904],[136.377799,35.242837],[136.378436,35.242654],[136.378661,35.242538],[136.378823,35.242338],[136.378936,35.241954],[136.378986,35.241688],[136.379073,35.241504],[136.379211,35.241346],[136.379986,35.240913],[136.380686,35.240688],[136.381523,35.240555],[136.382248,35.240505],[136.382386,35.240488],[136.382523,35.240371],[136.382811,35.240013],[136.38311,35.239855],[136.383585,35.239763],[136.383723,35.239655],[136.383835,35.239496],[136.383885,35.23918],[136.383973,35.238996],[136.38456,35.238497],[136.384673,35.238363],[136.384948,35.237647],[136.385335,35.237055],[136.38556,35.236497],[136.38561,35.236289],[136.38556,35.235955],[136.38561,35.235322],[136.385673,35.235189],[136.385885,35.235047],[136.386723,35.234847],[136.38706,35.234714],[136.387335,35.234647],[136.388285,35.234555],[136.388535,35.234464],[136.388785,35.234305],[136.388923,35.234255],[136.389235,35.234255],[136.389485,35.234347],[136.390047,35.234439],[136.391347,35.234413],[136.391885,35.234297],[136.39211,35.234188],[136.392497,35.233847],[136.392772,35.233422],[136.39311,35.23238],[136.393222,35.232155],[136.39366,35.231522],[136.393885,35.23103],[136.39391,35.230847],[136.393797,35.230514],[136.393685,35.230422],[136.392685,35.230081],[136.392547,35.229972],[136.39251,35.229856],[136.393022,35.229614],[136.393385,35.229522],[136.394022,35.229314],[136.394635,35.229205],[136.39511,35.229064],[136.395584,35.228839],[136.396047,35.22873],[136.396309,35.22868],[136.397222,35.228322],[136.397784,35.228164],[136.398059,35.228114],[136.398509,35.228113],[136.398697,35.228072],[136.398834,35.227955],[136.399084,35.22728],[136.399197,35.226564],[136.399197,35.225972],[136.399422,35.225839],[136.399784,35.225839],[136.400584,35.225905],[136.401034,35.22588],[136.401346,35.225655],[136.401671,35.225138],[136.401896,35.225022],[136.402009,35.225005],[136.402396,35.225088],[136.402646,35.22518],[136.402934,35.225338],[136.403234,35.22538],[136.403434,35.225297],[136.403684,35.225113],[136.404071,35.224613],[136.404796,35.22403],[136.405271,35.224096],[136.405659,35.224188],[136.405883,35.224188],[136.406383,35.224071],[136.406971,35.223688],[136.407246,35.223646],[136.408246,35.223663],[136.408471,35.223596],[136.409383,35.222779],[136.410308,35.221855],[136.410533,35.221588],[136.410583,35.221405],[136.410583,35.22123],[136.410696,35.220955],[136.410896,35.220863],[136.411033,35.220613],[136.411608,35.219871],[136.411858,35.219288],[136.41197,35.21913],[136.41217,35.218971],[136.412195,35.218855],[136.41197,35.218522],[136.412033,35.21843],[136.412195,35.21838],[136.413733,35.218222],[136.414258,35.218088],[136.41517,35.21768],[136.415345,35.217363],[136.415483,35.21723],[136.415595,35.217047],[136.415845,35.21608],[136.41592,35.215355],[136.41592,35.215047],[136.416557,35.214589],[136.41667,35.214481],[136.416645,35.214206],[136.416557,35.213964],[136.416395,35.213056],[136.416083,35.211889],[136.41597,35.211231],[136.416083,35.210514],[136.416158,35.209989],[136.41622,35.209248],[136.416357,35.208773],[136.416382,35.207873],[136.416245,35.207556],[136.41602,35.207198],[136.415883,35.206907],[136.41582,35.206657],[136.415845,35.206207],[136.415983,35.205507],[136.416182,35.205165],[136.41657,35.204873],[136.417245,35.204607],[136.417457,35.204357],[136.417682,35.20399],[136.417845,35.203857],[136.417882,35.203724],[136.417657,35.20354],[136.417482,35.20334],[136.417207,35.202824],[136.417007,35.202732],[136.416645,35.20269],[136.416457,35.202599],[136.41592,35.202174],[136.41537,35.201949],[136.415008,35.201516],[136.414645,35.200907],[136.414358,35.200432],[136.414283,35.200124],[136.414058,35.199716],[136.413858,35.199424],[136.413745,35.198949],[136.413833,35.198433],[136.413795,35.197983],[136.413545,35.197216],[136.413095,35.196449],[136.412658,35.195908],[136.412733,35.195475],[136.412845,35.195166],[136.412958,35.194533],[136.412933,35.1937],[136.412783,35.1923],[136.412708,35.191983],[136.41237,35.191558],[136.411945,35.191217],[136.411395,35.190817],[136.411195,35.190292],[136.41092,35.189775],[136.410608,35.189417],[136.410445,35.189192],[136.410108,35.1889],[136.409658,35.187842],[136.409408,35.187659],[136.40902,35.187525],[136.40882,35.187417],[136.408633,35.187209],[136.408183,35.187367],[136.407908,35.187459],[136.407321,35.187575],[136.406646,35.187775],[136.405846,35.187958],[136.405421,35.187958],[136.404871,35.187892],[136.404533,35.1878],[136.404008,35.187533],[136.403808,35.187467],[136.403621,35.187467],[136.403396,35.187533],[136.402946,35.18785],[136.402446,35.188433],[136.401971,35.188817],[136.401396,35.189225],[136.401171,35.189317],[136.400446,35.189383],[136.400021,35.189567],[136.399159,35.190266],[136.398659,35.190583],[136.398159,35.190991],[136.397972,35.191191],[136.397522,35.191466],[136.396297,35.19205],[136.395997,35.19225],[136.395859,35.192391],[136.395772,35.192841],[136.395747,35.193516],[136.395609,35.193741],[136.394997,35.194016],[136.394135,35.194191],[136.39321,35.194491],[136.39291,35.194599],[136.392547,35.194874],[136.39196,35.195524],[136.391797,35.195641],[136.390398,35.196116],[136.38976,35.196391],[136.38946,35.196499],[136.38926,35.196633],[136.389035,35.196724],[136.388898,35.196708],[136.388673,35.196483],[136.388373,35.195849],[136.388198,35.194791],[136.388198,35.194566],[136.388248,35.194291],[136.388423,35.193816],[136.388448,35.193416],[136.38836,35.192966],[136.38811,35.192241],[136.387885,35.191766],[136.387835,35.191591],[136.387835,35.191091],[136.387773,35.190891],[136.387685,35.190758],[136.387435,35.190683],[136.387273,35.190683],[136.386548,35.190866],[136.386323,35.190891],[136.38621,35.190849],[136.385935,35.190466],[136.385523,35.190149],[136.385123,35.189991],[136.384873,35.189924],[136.384286,35.189516],[136.384123,35.189316],[136.383848,35.189116],[136.383173,35.189066],[136.382511,35.189091],[136.381811,35.189274],[136.381473,35.189249],[136.381311,35.189158],[136.381148,35.189116],[136.380861,35.189166],[136.380449,35.189274],[136.380111,35.189274],[136.379724,35.189457],[136.379586,35.189416],[136.379474,35.189299],[136.379336,35.189007],[136.379049,35.188716],[136.378911,35.188199],[136.378886,35.187207],[136.378911,35.187157],[136.378574,35.187224],[136.378499,35.187224],[136.378074,35.186982],[136.377824,35.186824],[136.377636,35.186616],[136.377236,35.186374],[136.376761,35.186149],[136.376511,35.185966],[136.376399,35.185407],[136.376374,35.185249],[136.376286,35.185091],[136.376261,35.184866],[136.376324,35.184616],[136.376236,35.183941],[136.376261,35.183716],[136.376149,35.183399],[136.376036,35.183216],[136.375699,35.182924],[136.375449,35.182832],[136.375399,35.18279],[136.375336,35.18259],[136.375374,35.182207],[136.375311,35.181982],[136.375311,35.181524],[136.375536,35.181032],[136.375899,35.180374],[136.375949,35.180082],[136.375974,35.179632],[136.375861,35.179299],[136.375699,35.179024],[136.374974,35.178415],[136.374774,35.178174],[136.374611,35.17774],[136.374549,35.177066],[136.374749,35.176616],[136.374974,35.176366],[136.375161,35.176257],[136.375336,35.176207],[136.375524,35.176099],[136.375999,35.175508],[136.376199,35.175191],[136.376336,35.174475],[136.376336,35.174108],[136.376274,35.173975],[136.376136,35.173883],[136.375724,35.173683],[136.375186,35.17355],[136.375136,35.173433],[136.375249,35.173141],[136.375361,35.172892],[136.375386,35.172742],[136.375299,35.1724],[136.375324,35.172175],[136.376161,35.171225],[136.376186,35.171042],[136.375961,35.170442],[136.375886,35.169884],[136.375911,35.169609],[136.376524,35.168842],[136.377348,35.167351],[136.377461,35.167285],[136.377698,35.167218],[136.377948,35.167101],[136.378173,35.166651],[136.378911,35.166243],[136.379486,35.165752],[136.379548,35.165593],[136.379523,35.165052],[136.380011,35.164602],[136.380173,35.164219],[136.380148,35.163652],[136.380098,35.163402],[136.380173,35.162886],[136.380311,35.162502],[136.380536,35.162119],[136.380785,35.161869],[136.381135,35.161644],[136.38166,35.161486],[136.381748,35.161486],[136.382185,35.161378],[136.382348,35.161236],[136.382548,35.160969],[136.382873,35.160403],[136.383648,35.160378],[136.383972,35.160336],[136.384197,35.16027],[136.38516,35.159728],[136.385435,35.159678],[136.38546,35.159545],[136.385397,35.15912],[136.385435,35.158961],[136.385735,35.15842],[136.385972,35.158053],[136.386147,35.157987],[136.386285,35.157878],[136.386385,35.157603],[136.386522,35.156837],[136.38666,35.156595],[136.386772,35.15652],[136.386935,35.156503],[136.387247,35.156545],[136.387485,35.156478],[136.387985,35.15612],[136.388122,35.156095],[136.388422,35.156203],[136.388447,35.156228],[136.388897,35.155845],[136.389247,35.155687],[136.390234,35.155345],[136.390547,35.15517],[136.390734,35.154879],[136.390922,35.154379],[136.391097,35.154179],[136.391259,35.153795],[136.391422,35.15282],[136.391509,35.151854],[136.391447,35.151429],[136.391197,35.150754],[136.391034,35.150437],[136.390547,35.149779],[136.38851,35.147912],[136.388422,35.147779],[136.388472,35.147121],[136.388422,35.146738],[136.388335,35.146496],[136.387985,35.145954],[136.387272,35.145279],[136.386722,35.144579],[136.386198,35.144396],[136.38521,35.144379],[136.384685,35.144313],[136.384135,35.144021],[136.38326,35.143679],[136.383173,35.143588],[136.383123,35.143005],[136.38301,35.142846],[136.382873,35.142738],[136.382648,35.142646],[136.381961,35.142513],[136.381748,35.142488],[136.381498,35.141696],[136.381298,35.14143],[136.380723,35.14118],[136.380286,35.140938],[136.379786,35.14053],[136.379186,35.140213],[136.378136,35.140196],[136.377786,35.140438],[136.377674,35.14053],[136.377449,35.140421],[136.377011,35.140038],[136.376824,35.139921],[136.376549,35.139855],[136.375662,35.139813],[136.375424,35.139746],[136.374599,35.139246],[136.374374,35.139205],[136.373749,35.13918],[136.373137,35.139005],[136.372787,35.138938],[136.372512,35.138955],[136.372175,35.139096],[136.372115,35.139068],[136.372075,35.139155],[136.371937,35.139113],[136.371737,35.13893],[136.371487,35.138613],[136.370975,35.138438],[136.3707,35.138255],[136.370475,35.137963],[136.370313,35.137671],[136.3699,35.137421],[136.36945,35.13693],[136.368825,35.136271],[136.3686,35.136163],[136.368325,35.136121],[136.367338,35.136055],[136.366238,35.135763],[136.365551,35.135488],[136.365138,35.135171],[136.364889,35.135105],[136.363901,35.134996],[136.363739,35.135021],[136.363539,35.135155],[136.363326,35.135246],[136.362714,35.135355],[136.362339,35.135246],[136.362164,35.135263],[136.361977,35.135338],[136.361702,35.135538],[136.361239,35.136146],[136.361039,35.136329],[136.360852,35.136438],[136.360552,35.136529],[136.359864,35.136663],[136.359477,35.136621],[136.35909,35.136396],[136.357852,35.135379],[136.356502,35.134054],[136.356315,35.133671],[136.356253,35.133038],[136.356065,35.132613],[136.355903,35.13248],[136.35524,35.132138],[136.35504,35.131963],[136.354878,35.131688],[136.35469,35.131171],[136.354465,35.13133],[136.353978,35.131538],[136.353366,35.131871],[136.353091,35.131988],[136.352903,35.132005],[136.352441,35.131896],[136.352028,35.131963],[136.351778,35.131963],[136.351528,35.131871],[136.351278,35.131871],[136.350591,35.131946],[136.350479,35.132188],[136.350479,35.132413],[136.350404,35.132571],[136.349604,35.132938],[136.349141,35.133204],[136.348891,35.133296],[136.348454,35.133271],[136.348229,35.133163],[136.347879,35.133071],[136.347517,35.133096],[136.346942,35.133279],[136.346554,35.133521],[136.346367,35.133704],[136.346117,35.134113],[136.345792,35.134404],[136.345454,35.134562],[136.344805,35.134987],[136.344442,35.135196],[136.343917,35.135396],[136.343292,35.135754],[136.34318,35.135871],[136.343017,35.135962],[136.342468,35.136004],[136.34178,35.135987],[136.341343,35.135937],[136.341118,35.135962],[136.34073,35.136029],[136.340618,35.136146],[136.340481,35.136529],[136.340431,35.137071],[136.340218,35.13772],[136.340293,35.137987],[136.340381,35.138079],[136.340318,35.138529],[136.340406,35.138754],[136.340381,35.138937],[136.340293,35.138979],[136.340156,35.138962],[136.339668,35.138779],[136.339531,35.138779],[136.339256,35.138937],[136.339056,35.13912],[136.338918,35.13932],[136.338843,35.13952],[136.338731,35.139904],[136.338569,35.139862],[136.338406,35.13977],[136.338094,35.139704],[136.337719,35.139754],[136.337269,35.139687],[136.337106,35.139687],[136.337031,35.139754],[136.336919,35.139995],[136.336831,35.140428],[136.336807,35.140987],[136.336694,35.141103],[136.336319,35.141262],[136.336257,35.141462],[136.336344,35.141712],[136.336182,35.142003],[136.335732,35.142278],[136.335682,35.142453],[136.335657,35.142953],[136.335657,35.14327],[136.335882,35.14372],[136.335882,35.143945],[136.335769,35.144103],[136.335057,35.144778],[136.334695,35.145095],[136.334282,35.145545],[136.334232,35.145728],[136.334345,35.146128],[136.334207,35.14642],[136.333932,35.146578],[136.33387,35.146761],[136.33387,35.14692],[136.334095,35.147553],[136.334207,35.147686],[136.334482,35.147953],[136.334507,35.148086],[136.334482,35.148111],[136.33387,35.148403],[136.333432,35.148545],[136.333357,35.148678],[136.333332,35.148853],[136.333082,35.149286],[136.332283,35.149711],[136.332233,35.149894],[136.332333,35.150461],[136.331845,35.150861],[136.330833,35.151428],[136.330033,35.151719],[136.329283,35.152061],[136.328958,35.152169],[136.328709,35.152328],[136.328471,35.152578],[136.328409,35.152786],[136.328546,35.153236],[136.328434,35.153728],[136.328334,35.153928],[136.327809,35.154294],[136.327371,35.154544],[136.327071,35.154627],[136.326821,35.154652],[136.326097,35.154477],[136.325859,35.154336],[136.325384,35.153978],[136.324947,35.153686],[136.324784,35.153661],[136.324584,35.153736],[136.324309,35.154119],[136.324047,35.154344],[136.323797,35.154427],[136.323547,35.154452],[136.323297,35.154436],[136.322885,35.154344],[136.322747,35.154436],[136.32231,35.154519],[136.321922,35.154369],[136.321048,35.154594],[136.32066,35.154344],[136.32036,35.154302],[136.32006,35.154436],[136.319723,35.154686],[136.319473,35.154927],[136.318598,35.155044],[136.318073,35.155252],[136.317798,35.155294],[136.31706,35.155269],[136.316723,35.155294],[136.31631,35.155494],[136.316073,35.155519],[136.315598,35.155477],[136.315135,35.155277],[136.31491,35.155094],[136.314448,35.154802],[136.313835,35.154711],[136.31351,35.154777],[136.312961,35.155119],[136.312661,35.155211],[136.312248,35.155277],[136.311561,35.155594],[136.311098,35.155885],[136.310711,35.156269],[136.310436,35.156652],[136.310211,35.15726],[136.310136,35.157394],[136.309748,35.157419],[136.309523,35.157552],[136.309498,35.15771],[136.309523,35.157852],[136.309473,35.15821],[136.309248,35.158685],[136.308873,35.159452],[136.308786,35.160077],[136.308286,35.160602],[136.308211,35.160827],[136.308211,35.161093],[136.308123,35.161385],[136.307986,35.161543],[136.307748,35.161676],[136.307386,35.16211],[136.307223,35.162468],[136.307061,35.162626],[136.306536,35.162968],[136.305486,35.16326],[136.305323,35.163351],[136.305236,35.16351],[136.305073,35.163735],[136.304273,35.163851],[136.303148,35.163893],[136.302936,35.163934],[136.302548,35.164143],[136.302348,35.164301],[136.301973,35.164709],[136.301423,35.164934],[136.301086,35.165093],[136.300948,35.165226],[136.300923,35.165318],[136.300986,35.165701],[136.300598,35.166151],[136.300511,35.166401],[136.300398,35.166559],[136.300323,35.166576],[136.299711,35.166534],[136.298586,35.166242],[136.297899,35.166284],[136.297549,35.166401],[136.296861,35.166267],[136.296724,35.166267],[136.296586,35.166309],[136.296474,35.166559],[136.296249,35.166626],[136.296111,35.166676],[136.296036,35.166784],[136.295974,35.167059],[136.295861,35.167217],[136.295449,35.167234],[136.295174,35.167326],[136.294899,35.167984],[136.295099,35.168501],[136.295211,35.169017],[136.295374,35.1692],[136.295486,35.169375],[136.295536,35.169884],[136.295561,35.169892],[136.295461,35.170092],[136.295374,35.170567],[136.295399,35.170859],[136.295649,35.1714],[136.295761,35.171759],[136.295761,35.171984],[136.295711,35.172192],[136.295574,35.17235],[136.295349,35.172459],[136.294849,35.172592],[136.294524,35.17275],[136.294361,35.172933],[136.294274,35.1732],[136.294311,35.173342],[136.294274,35.174175],[136.294199,35.17435],[136.293724,35.174783],[136.293399,35.175883],[136.293536,35.176741],[136.293424,35.17735],[136.293099,35.178233],[136.292986,35.179041],[136.292986,35.179808],[136.293074,35.180349],[136.292961,35.180549],[136.292499,35.181024],[136.292336,35.181474],[136.292199,35.181699],[136.291974,35.181833],[136.291211,35.182374],[136.290686,35.182491],[136.290524,35.182557],[136.290274,35.182532],[136.289861,35.182149],[136.289561,35.181791],[136.289286,35.181699],[136.288536,35.181632],[136.287799,35.181366],[136.287524,35.181249],[136.287249,35.181074],[136.286612,35.180466],[136.286287,35.180216],[136.285962,35.180041],[136.285574,35.179883],[136.285187,35.179766],[136.284862,35.179766],[136.284012,35.179974],[136.283187,35.180108],[136.282737,35.180108],[136.28225,35.180241],[136.281887,35.180358],[136.2814,35.180466],[136.280687,35.180491],[136.28065,35.180466],[136.280712,35.180083],[136.280687,35.179999],[136.28055,35.179999],[136.2801,35.180199],[136.279662,35.180291],[136.27915,35.180091],[136.278875,35.180066],[136.278425,35.180266],[136.27815,35.180266],[136.277913,35.180183],[136.277663,35.180041],[136.27725,35.179708],[136.277025,35.179733],[136.276175,35.179999],[136.275988,35.179999],[136.275688,35.179908],[136.2751,35.179683],[136.274913,35.179641],[136.27475,35.179666],[136.2745,35.179825],[136.27445,35.179983],[136.2748,35.180516],[136.275238,35.180991],[136.275325,35.181149],[136.2753,35.181333],[136.2751,35.181808],[136.275075,35.182099],[136.2751,35.182482],[136.27505,35.182749],[136.274838,35.182932],[136.274313,35.183157],[136.273463,35.183474],[136.27305,35.183499],[136.272663,35.183407],[136.270513,35.183449],[136.270188,35.183499],[136.269476,35.183682],[136.269226,35.183816],[136.269038,35.183991],[136.268738,35.184424],[136.268213,35.184807],[136.267501,35.185165],[136.266788,35.185615],[136.266376,35.185799],[136.265601,35.185999],[136.264501,35.186249],[136.263514,35.186474],[136.261914,35.186723],[136.260514,35.187115],[136.257502,35.188148],[136.256477,35.188398],[136.256177,35.188598],[136.255164,35.189056],[136.253952,35.189456],[136.252577,35.189889],[136.251565,35.190114],[136.249777,35.190364],[136.24969,35.190364],[136.24969,35.190548],[136.24939,35.190589],[136.249027,35.190589],[136.248177,35.190656],[136.247215,35.190639],[136.247127,35.190608],[136.246427,35.190689],[136.245427,35.190722],[136.244752,35.190814],[136.243415,35.191164],[136.240853,35.19173],[136.239503,35.19213],[136.23844,35.192322],[136.23704,35.192647],[136.235916,35.193005],[136.234753,35.19358],[136.234703,35.193713],[136.234366,35.194146],[136.233716,35.194521],[136.233541,35.194655],[136.233516,35.194746],[136.233716,35.195088],[136.232628,35.195596],[136.232578,35.195596],[136.230841,35.196346],[136.229766,35.196746],[136.229666,35.196746],[136.229141,35.196179],[136.228991,35.195979],[136.229391,35.195863],[136.229491,35.195729],[136.229641,35.195871],[136.229716,35.195888],[136.230278,35.195696],[136.230978,35.195288],[136.230828,35.194813],[136.230553,35.194721],[136.230341,35.194338],[136.229941,35.193479],[136.230016,35.193213],[136.229878,35.192821],[136.229678,35.192488],[136.230353,35.192171],[136.231103,35.191838],[136.230916,35.191571],[136.2307,35.191231],[136.230699,35.19123],[136.229662,35.191707],[136.228223,35.192369],[136.225748,35.193508],[136.221721,35.197487],[136.220367,35.198289],[136.220367,35.199],[136.219473,35.200697],[136.219128,35.201866],[136.216701,35.202666],[136.215358,35.203512],[136.210761,35.206411],[136.208355,35.207684],[136.205948,35.208958],[136.204066,35.209442],[136.202067,35.209957],[136.201269,35.210499],[136.198771,35.21244],[136.197968,35.213913],[136.198182,35.214445],[136.199638,35.218244],[136.200445,35.22007],[136.200725,35.221435],[136.200373,35.222576],[136.198935,35.223802],[136.195968,35.225178],[136.193381,35.226889],[136.191177,35.227392],[136.189618,35.229215],[136.189338,35.230375],[136.190654,35.232432],[136.189878,35.234151],[136.18419,35.239498],[136.181957,35.243405],[136.11509,35.257244],[136.122139,35.269847],[136.149648,35.318387]]]},"type":"Feature"}]}