{"features":[{"type":"Feature","properties":{"name":"高島","yomi":"たかしま","kuni_id":"K21","pref":"滋賀県","kuni_url":"/kg/resource/K21.html","id_url":"G21002.html","kuni":"近江","id":"G21002"},"geometry":{"type":"Polygon","coordinates":[[[136.105424,35.528772],[136.105562,35.528706],[136.105587,35.528347],[136.105424,35.527172],[136.105312,35.526723],[136.10465,35.525489],[136.104425,35.524856],[136.104537,35.524314],[136.104587,35.523681],[136.104487,35.523031],[136.104512,35.522606],[136.104675,35.521948],[136.104512,35.521656],[136.104062,35.521365],[136.103712,35.521073],[136.10365,35.520823],[136.10365,35.520265],[136.103925,35.518773],[136.103925,35.517899],[136.104037,35.517582],[136.104912,35.516682],[136.104937,35.516365],[136.104725,35.515999],[136.10475,35.515799],[136.105025,35.515124],[136.105075,35.514674],[136.104962,35.514316],[136.104613,35.513566],[136.1043,35.513099],[136.103913,35.512782],[136.103563,35.512691],[136.103125,35.512757],[136.102875,35.513141],[136.102625,35.513141],[136.10235,35.512516],[136.1021,35.512216],[136.101913,35.511907],[136.10175,35.511458],[136.101525,35.511074],[136.101301,35.510466],[136.101363,35.510083],[136.101226,35.509558],[136.101051,35.509041],[136.101026,35.508658],[136.101051,35.508458],[136.101026,35.5083],[136.100888,35.507983],[136.100638,35.507583],[136.100563,35.507266],[136.100613,35.506883],[136.100526,35.50645],[136.100501,35.505983],[136.100563,35.505575],[136.100501,35.505508],[136.100288,35.505416],[136.099876,35.505166],[136.099401,35.504966],[136.099151,35.50465],[136.099126,35.504333],[136.099176,35.503975],[136.099289,35.503642],[136.099376,35.50355],[136.099489,35.503175],[136.099501,35.502942],[136.099714,35.502383],[136.099314,35.501134],[136.099214,35.501017],[136.099051,35.500584],[136.098939,35.500492],[136.098526,35.500267],[136.098589,35.499925],[136.099239,35.499234],[136.099751,35.498584],[136.099901,35.498109],[136.099938,35.497567],[136.099988,35.497434],[136.099938,35.496976],[136.099838,35.496842],[136.099701,35.496501],[136.099701,35.496367],[136.100238,35.495534],[136.100426,35.494992],[136.100426,35.494726],[136.100213,35.494001],[136.100176,35.493518],[136.100201,35.493343],[136.100513,35.492868],[136.100776,35.492101],[136.100813,35.491468],[136.100801,35.490951],[136.100851,35.490843],[136.101188,35.490485],[136.101226,35.489943],[136.101213,35.488985],[136.101138,35.488443],[136.100876,35.48781],[136.100838,35.487243],[136.101026,35.486068],[136.101001,35.485685],[136.100838,35.485593],[136.100176,35.48536],[136.099913,35.484993],[136.099638,35.484377],[136.099488,35.483693],[136.099501,35.483127],[136.099763,35.482369],[136.100076,35.481869],[136.100226,35.481402],[136.100088,35.480852],[136.099413,35.47996],[136.098926,35.479869],[136.098676,35.47986],[136.097913,35.479444],[136.097451,35.479077],[136.096626,35.478702],[136.096238,35.478319],[136.096276,35.47791],[136.096263,35.477252],[136.096101,35.476686],[136.096138,35.476344],[136.096951,35.475702],[136.097176,35.475252],[136.097276,35.474894],[136.097188,35.474736],[136.096176,35.474127],[136.095551,35.473486],[136.095476,35.473444],[136.095451,35.473469],[136.094951,35.473369],[136.094626,35.473203],[136.094863,35.472236],[136.095213,35.470978],[136.095363,35.470361],[136.095538,35.469845],[136.095438,35.46942],[136.095276,35.469278],[136.093901,35.468895],[136.093414,35.468553],[136.093026,35.468145],[136.092651,35.467845],[136.092564,35.467686],[136.092489,35.467203],[136.092539,35.466503],[136.092489,35.465987],[136.092239,35.465712],[136.091539,35.46527],[136.091714,35.464778],[136.092051,35.464287],[136.092501,35.463862],[136.092776,35.463662],[136.093176,35.463187],[136.093264,35.462645],[136.093414,35.462312],[136.093776,35.46202],[136.094051,35.46162],[136.094388,35.46137],[136.095088,35.461337],[136.095851,35.461345],[136.096551,35.461312],[136.096738,35.461245],[136.097101,35.461004],[136.097463,35.460829],[136.098463,35.460929],[136.099475,35.460804],[136.101388,35.460629],[136.101838,35.460454],[136.1022,35.460029],[136.102875,35.459671],[136.105,35.459229],[136.10575,35.459037],[136.122136,35.443421],[136.123286,35.442214],[136.130411,35.41985],[136.139911,35.390404],[136.150047,35.359083],[136.149773,35.336527],[136.149648,35.318387],[136.122139,35.269847],[136.11509,35.257244],[135.99715,35.26418],[135.993477,35.264332],[135.993365,35.264349],[135.992928,35.264774],[135.99249,35.265315],[135.992015,35.265724],[135.991628,35.26619],[135.991303,35.266457],[135.991053,35.266732],[135.990728,35.266999],[135.990615,35.267024],[135.990365,35.266865],[135.990228,35.266815],[135.98984,35.26679],[135.989265,35.266607],[135.988553,35.266815],[135.988028,35.266765],[135.987841,35.26679],[135.987666,35.267082],[135.987503,35.267573],[135.987453,35.267598],[135.987203,35.267932],[135.986841,35.26829],[135.986403,35.268398],[135.985828,35.268515],[135.985741,35.268607],[135.985716,35.268782],[135.985766,35.269165],[135.985516,35.269523],[135.985603,35.269906],[135.985053,35.270515],[135.984716,35.270806],[135.983528,35.271523],[135.983666,35.271906],[135.983666,35.272223],[135.983366,35.272289],[135.982728,35.272306],[135.981803,35.272148],[135.980941,35.272056],[135.980179,35.272006],[135.978741,35.272273],[135.977979,35.272314],[135.977179,35.272289],[135.976429,35.272489],[135.975992,35.272848],[135.975442,35.273006],[135.975254,35.273473],[135.972492,35.274414],[135.972029,35.274614],[135.971567,35.274656],[135.971292,35.274606],[135.970704,35.274764],[135.970654,35.274814],[135.969854,35.274922],[135.969442,35.274922],[135.968505,35.275047],[135.967792,35.275022],[135.966967,35.274931],[135.96603,35.274706],[135.96523,35.274772],[135.964655,35.274972],[135.96438,35.275147],[135.963855,35.275556],[135.963255,35.275864],[135.962643,35.276089],[135.962155,35.27638],[135.961743,35.276514],[135.960968,35.276489],[135.960443,35.276572],[135.95998,35.27693],[135.95948,35.277247],[135.958905,35.277197],[135.95838,35.277222],[135.957693,35.277422],[135.956843,35.277714],[135.956318,35.277689],[135.956205,35.277714],[135.956043,35.277255],[135.955581,35.276472],[135.955356,35.275572],[135.955331,35.275589],[135.954943,35.275589],[135.954556,35.275547],[135.953981,35.275381],[135.953356,35.275272],[135.952493,35.275289],[135.951918,35.274972],[135.951131,35.274631],[135.950444,35.274647],[135.949806,35.274764],[135.949369,35.274622],[135.948794,35.274239],[135.948519,35.273814],[135.948294,35.273381],[135.948181,35.273248],[135.947831,35.273023],[135.947094,35.271939],[135.946894,35.271739],[135.946594,35.271664],[135.946594,35.271623],[135.946407,35.271531],[135.946044,35.271439],[135.945857,35.271331],[135.945832,35.271281],[135.945969,35.271014],[135.946044,35.270923],[135.946219,35.270606],[135.946132,35.270406],[135.945607,35.270198],[135.945532,35.270115],[135.945582,35.269798],[135.945719,35.269506],[135.945694,35.269373],[135.945444,35.269056],[135.945119,35.26874],[135.944982,35.268423],[135.944907,35.267948],[135.944907,35.267657],[135.945269,35.267248],[135.945319,35.267232],[135.944882,35.267207],[135.944544,35.26709],[135.943069,35.26709],[135.941632,35.267265],[135.940807,35.267123],[135.94062,35.266965],[135.94037,35.266698],[135.940182,35.266265],[135.94007,35.265865],[135.938807,35.264532],[135.938595,35.264057],[135.938482,35.26354],[135.938432,35.263382],[135.93827,35.26214],[135.937745,35.260991],[135.937445,35.260607],[135.936983,35.260449],[135.936233,35.260424],[135.93522,35.260532],[135.934395,35.260757],[135.93332,35.261115],[135.932683,35.261024],[135.932246,35.260882],[135.931671,35.260407],[135.929996,35.258899],[135.929483,35.258599],[135.928733,35.258333],[135.927971,35.258124],[135.927833,35.258149],[135.927396,35.258416],[135.926733,35.258999],[135.926533,35.259107],[135.925596,35.259516],[135.925109,35.259666],[135.924421,35.259782],[135.923321,35.259774],[135.922984,35.259799],[135.922221,35.259749],[135.921534,35.259841],[135.921196,35.259974],[135.919596,35.26039],[135.918721,35.260932],[135.918109,35.26174],[135.917697,35.26239],[135.917447,35.262998],[135.917084,35.26414],[135.917159,35.265856],[135.917134,35.266006],[135.916884,35.265965],[135.916509,35.265606],[135.916009,35.264973],[135.915347,35.264565],[135.914584,35.264407],[135.913809,35.264473],[135.913147,35.26469],[135.912634,35.264757],[135.910685,35.264123],[135.910185,35.264257],[135.909572,35.264631],[135.90911,35.265081],[135.909047,35.265306],[135.909135,35.26549],[135.909185,35.265965],[135.90891,35.266523],[135.90836,35.267306],[135.907972,35.267731],[135.907585,35.268048],[135.907285,35.268473],[135.90676,35.268739],[135.906422,35.269014],[135.90631,35.269148],[135.905547,35.269797],[135.905185,35.270222],[135.904497,35.270922],[135.904872,35.271414],[135.905035,35.271889],[135.905122,35.272922],[135.905385,35.273597],[135.906097,35.27448],[135.906297,35.274797],[135.906272,35.274797],[135.90621,35.275197],[135.905935,35.27533],[135.905222,35.276047],[135.904635,35.276272],[135.904385,35.276322],[135.903835,35.276247],[135.90356,35.276155],[135.90291,35.276088],[135.90236,35.276247],[135.90051,35.27723],[135.899985,35.277588],[135.899573,35.277763],[135.89896,35.277921],[135.898223,35.277988],[135.897485,35.278113],[135.896685,35.278655],[135.896235,35.279013],[135.89591,35.279371],[135.89546,35.27973],[135.894698,35.280271],[135.894011,35.280421],[135.892486,35.280505],[135.891998,35.280755],[135.891686,35.281296],[135.891023,35.281629],[135.888436,35.282721],[135.887974,35.283054],[135.887749,35.283396],[135.887611,35.283504],[135.887224,35.283704],[135.885624,35.284013],[135.884936,35.284038],[135.884699,35.283988],[135.883974,35.284187],[135.883261,35.284504],[135.882687,35.284637],[135.882074,35.284321],[135.881562,35.284137],[135.880699,35.283912],[135.880049,35.283862],[135.879224,35.283879],[135.878262,35.283829],[135.877437,35.283671],[135.875925,35.283221],[135.87535,35.282946],[135.874475,35.282021],[135.874112,35.281771],[135.873375,35.281613],[135.872875,35.281588],[135.872413,35.281604],[135.872161,35.281694],[135.872138,35.281712],[135.871563,35.281829],[135.87005,35.282054],[135.86955,35.282079],[135.869163,35.281937],[135.868538,35.281354],[135.867988,35.281112],[135.867413,35.280929],[135.866776,35.280771],[135.866251,35.280504],[135.865976,35.280213],[135.864738,35.280529],[135.863701,35.280912],[135.862514,35.281454],[135.862214,35.281721],[135.862076,35.282129],[135.861801,35.282462],[135.861389,35.282712],[135.860976,35.28292],[135.860764,35.282987],[135.860601,35.28312],[135.860239,35.28332],[135.860076,35.28357],[135.859914,35.284445],[135.859664,35.285554],[135.859389,35.286028],[135.858789,35.286678],[135.858564,35.287045],[135.858439,35.28772],[135.858401,35.288212],[135.858439,35.289136],[135.858401,35.289295],[135.856977,35.289045],[135.855852,35.288645],[135.855252,35.288462],[135.854777,35.28822],[135.854389,35.287878],[135.853902,35.287137],[135.853564,35.28682],[135.852114,35.286303],[135.851777,35.286012],[135.851589,35.285587],[135.851427,35.285062],[135.851252,35.284095],[135.851114,35.283712],[135.85079,35.283329],[135.850377,35.282721],[135.850177,35.282137],[135.849677,35.280429],[135.84949,35.280062],[135.849165,35.279746],[135.84864,35.279479],[135.848202,35.279321],[135.848065,35.279188],[135.846552,35.279279],[135.84644,35.279096],[135.846027,35.278738],[135.84539,35.278488],[135.844677,35.278338],[135.843278,35.278313],[135.842453,35.278271],[135.84179,35.278154],[135.841103,35.277888],[135.840665,35.277571],[135.84039,35.277121],[135.840365,35.275863],[135.840253,35.275638],[135.839753,35.275521],[135.838691,35.275679],[135.838491,35.275654],[135.838191,35.275505],[135.838053,35.275188],[135.838028,35.274846],[135.837966,35.274671],[135.837416,35.27478],[135.836841,35.274713],[135.836178,35.274513],[135.835441,35.274238],[135.834891,35.274155],[135.834341,35.274171],[135.833541,35.274763],[135.832966,35.275096],[135.832479,35.275329],[135.831679,35.276096],[135.831454,35.276229],[135.830666,35.276479],[135.829891,35.276654],[135.829541,35.276929],[135.829091,35.277379],[135.828691,35.277896],[135.828466,35.278329],[135.828304,35.278821],[135.827567,35.279654],[135.827229,35.280312],[135.826817,35.280712],[135.825754,35.281437],[135.825279,35.28182],[135.825204,35.282045],[135.825554,35.282904],[135.825617,35.283329],[135.825342,35.284412],[135.825154,35.284862],[135.824879,35.285153],[135.824542,35.285312],[135.824379,35.285445],[135.824129,35.285895],[135.823804,35.286278],[135.823092,35.287203],[135.822654,35.287703],[135.822017,35.28872],[135.821855,35.288895],[135.82098,35.289553],[135.820617,35.290003],[135.820067,35.290969],[135.82018,35.291286],[135.820455,35.291603],[135.820267,35.292253],[135.820292,35.292619],[135.820567,35.293402],[135.820517,35.294219],[135.820617,35.294444],[135.820867,35.294577],[135.821255,35.294619],[135.821305,35.294669],[135.821367,35.295502],[135.821342,35.295994],[135.821367,35.296535],[135.821417,35.296719],[135.821367,35.297077],[135.82118,35.297369],[135.82068,35.297885],[135.820242,35.298269],[135.819992,35.298677],[135.819855,35.299194],[135.819442,35.299494],[135.81898,35.299735],[135.818342,35.299852],[135.816892,35.299918],[135.816342,35.300102],[135.81568,35.300643],[135.815292,35.300843],[135.815055,35.301027],[135.814967,35.301227],[135.81513,35.301518],[135.81538,35.301727],[135.81563,35.302043],[135.815655,35.302335],[135.81563,35.302602],[135.815705,35.302893],[135.815742,35.30326],[135.815542,35.303685],[135.815405,35.30416],[135.814967,35.305918],[135.814642,35.306818],[135.814505,35.307001],[135.814367,35.307068],[135.813293,35.307401],[135.811818,35.307926],[135.811543,35.308059],[135.810743,35.308284],[135.81038,35.308759],[135.810193,35.309117],[135.810193,35.309409],[135.810443,35.309526],[135.810743,35.309617],[135.811093,35.309792],[135.811318,35.310067],[135.81143,35.310717],[135.811455,35.311775],[135.811243,35.3125],[135.81118,35.3129],[135.811268,35.313492],[135.81113,35.313875],[135.810718,35.314192],[135.810493,35.314434],[135.81053,35.314575],[135.810418,35.315],[135.810055,35.315117],[135.809293,35.3152],[135.809368,35.316108],[135.809268,35.316508],[135.809018,35.316783],[135.808493,35.316917],[135.807418,35.31705],[135.806931,35.317008],[135.805831,35.316833],[135.804643,35.317125],[135.804043,35.317217],[135.803356,35.317375],[135.802856,35.317691],[135.801731,35.31825],[135.801368,35.318525],[135.800793,35.318816],[135.799306,35.319266],[135.798544,35.319566],[135.797906,35.319966],[135.797381,35.320399],[135.796894,35.320666],[135.796344,35.320916],[135.795406,35.321124],[135.795219,35.321208],[135.795194,35.321458],[135.795081,35.321841],[135.794994,35.321958],[135.794169,35.322383],[135.792956,35.322882],[135.792269,35.322974],[135.791582,35.323149],[135.791119,35.323516],[135.790907,35.323832],[135.790844,35.325182],[135.790706,35.325632],[135.790381,35.32624],[135.790381,35.326557],[135.790456,35.326965],[135.790431,35.32714],[135.790244,35.327665],[135.790131,35.32809],[135.789856,35.328382],[135.788894,35.328674],[135.788344,35.328923],[135.787744,35.329332],[135.786919,35.32999],[135.786532,35.330232],[135.786144,35.330348],[135.785819,35.330507],[135.785794,35.330798],[135.785932,35.331182],[135.785869,35.33154],[135.785757,35.331656],[135.784907,35.33204],[135.784744,35.332331],[135.784582,35.332756],[135.784307,35.333215],[135.784194,35.333523],[135.784007,35.334365],[135.783707,35.334831],[135.783257,35.335306],[135.782269,35.336231],[135.782182,35.336523],[135.782207,35.336673],[135.782482,35.337714],[135.782482,35.338164],[135.782432,35.338631],[135.781819,35.339581],[135.781407,35.339939],[135.780782,35.340572],[135.780557,35.340572],[135.779932,35.340255],[135.779682,35.340097],[135.779244,35.339947],[135.778807,35.340014],[135.778444,35.340347],[135.778282,35.340755],[135.778194,35.340872],[135.777869,35.341139],[135.775695,35.342114],[135.775032,35.342497],[135.77432,35.342788],[135.773695,35.342947],[135.772982,35.342897],[135.77237,35.342988],[135.771795,35.343305],[135.771195,35.343513],[135.770782,35.34353],[135.770395,35.343447],[135.769845,35.343447],[135.768995,35.343913],[135.768495,35.343938],[135.767733,35.343922],[135.766745,35.34408],[135.765858,35.34408],[135.765033,35.344146],[135.764708,35.344238],[135.764083,35.344488],[135.76377,35.345046],[135.76372,35.345455],[135.763945,35.346288],[135.76427,35.346854],[135.764658,35.347321],[135.76507,35.347704],[135.76572,35.348179],[135.766195,35.348629],[135.766108,35.349038],[135.76592,35.349438],[135.765895,35.349938],[135.766083,35.350296],[135.766583,35.350571],[135.76707,35.350746],[135.76737,35.351287],[135.767545,35.351962],[135.767595,35.353046],[135.767645,35.353179],[135.768445,35.353312],[135.769057,35.353496],[135.76947,35.353829],[135.769682,35.354371],[135.769545,35.355204],[135.769195,35.355679],[135.768782,35.35602],[135.76927,35.35742],[135.769707,35.359128],[135.769932,35.359853],[135.770257,35.360237],[135.771082,35.360928],[135.77177,35.361403],[135.772157,35.362036],[135.772432,35.362303],[135.772632,35.362436],[135.773594,35.363336],[135.773807,35.363969],[135.773832,35.364553],[135.773919,35.364694],[135.774632,35.365319],[135.775732,35.365369],[135.776444,35.365478],[135.777406,35.365794],[135.777544,35.365886],[135.777769,35.366244],[135.777744,35.366894],[135.778644,35.368361],[135.779119,35.369394],[135.779331,35.37086],[135.779744,35.371985],[135.779144,35.372527],[135.778844,35.373068],[135.778869,35.373227],[135.779056,35.373502],[135.779531,35.373768],[135.780519,35.37426],[135.782031,35.374777],[135.782831,35.375301],[135.783218,35.375768],[135.783568,35.376285],[135.783931,35.376968],[135.784256,35.377326],[135.784693,35.377418],[135.785243,35.377301],[135.785931,35.37746],[135.786618,35.377776],[135.78728,35.377951],[135.78863,35.378243],[135.790055,35.378401],[135.790605,35.378743],[135.791018,35.379301],[135.791793,35.380809],[135.79198,35.381417],[135.791955,35.381551],[135.79193,35.381551],[135.791655,35.382076],[135.79078,35.383809],[135.790643,35.384259],[135.790718,35.3848],[135.790718,35.385367],[135.79083,35.386625],[135.79108,35.386742],[135.79268,35.38705],[135.793417,35.387325],[135.793742,35.387392],[135.794842,35.387475],[135.795692,35.387317],[135.796742,35.386933],[135.797455,35.386575],[135.798117,35.386142],[135.798642,35.38565],[135.799154,35.384884],[135.799567,35.384884],[135.800154,35.385042],[135.800367,35.385058],[135.801492,35.384992],[135.802042,35.385108],[135.802629,35.385108],[135.803179,35.385017],[135.803529,35.3849],[135.804354,35.384542],[135.805092,35.384384],[135.805816,35.384542],[135.806466,35.384767],[135.806966,35.384967],[135.807429,35.385258],[135.807541,35.385458],[135.807816,35.3862],[135.807816,35.386742],[135.808016,35.387283],[135.808566,35.387866],[135.808754,35.388325],[135.808891,35.388775],[135.809029,35.389425],[135.809304,35.390058],[135.810053,35.391358],[135.810053,35.391566],[135.809891,35.391924],[135.808979,35.392441],[135.808479,35.392966],[135.808316,35.393207],[135.808079,35.393799],[135.808016,35.394382],[135.808129,35.395149],[135.808316,35.395824],[135.809066,35.397449],[135.809366,35.397874],[135.809591,35.398299],[135.809566,35.398749],[135.809391,35.39929],[135.809503,35.399699],[135.809891,35.400082],[135.810091,35.400465],[135.810028,35.401182],[135.810166,35.401615],[135.810341,35.402557],[135.810553,35.403082],[135.810478,35.403865],[135.810391,35.404157],[135.810366,35.404815],[135.81044,35.405332],[135.81064,35.406098],[135.810665,35.407565],[135.810615,35.408081],[135.81064,35.408915],[135.810753,35.409365],[135.811003,35.409881],[135.81139,35.410489],[135.812328,35.411639],[135.813015,35.412723],[135.813528,35.413189],[135.813778,35.413256],[135.814628,35.413031],[135.815427,35.413123],[135.816065,35.412848],[135.816777,35.412673],[135.818015,35.412689],[135.818927,35.412581],[135.819527,35.412623],[135.820577,35.412939],[135.82189,35.413548],[135.822602,35.413789],[135.824565,35.414739],[135.82509,35.414647],[135.82574,35.414331],[135.826077,35.414414],[135.826602,35.414622],[135.827014,35.414597],[135.827177,35.414556],[135.827752,35.414306],[135.828327,35.413898],[135.829127,35.413556],[135.830064,35.413264],[135.831164,35.412748],[135.831627,35.412406],[135.831927,35.412248],[135.832639,35.412448],[135.833277,35.412273],[135.833777,35.412064],[135.835889,35.411998],[135.836214,35.412023],[135.836852,35.412223],[135.837214,35.412648],[135.837564,35.413456],[135.837864,35.413797],[135.838364,35.414206],[135.838802,35.414339],[135.839051,35.414356],[135.839601,35.414131],[135.840539,35.413456],[135.841389,35.413098],[135.842189,35.413023],[135.842989,35.413073],[135.843589,35.413139],[135.843951,35.413073],[135.844276,35.412914],[135.844964,35.412281],[135.845426,35.411939],[135.846201,35.411223],[135.846414,35.411239],[135.846939,35.411381],[135.847076,35.411373],[135.847464,35.411306],[135.847901,35.411064],[135.848401,35.411039],[135.848789,35.410973],[135.849201,35.410814],[135.849638,35.410589],[135.850463,35.410514],[135.851151,35.410581],[135.851676,35.410581],[135.852251,35.410539],[135.852526,35.410631],[135.852826,35.410923],[135.853151,35.411531],[135.853288,35.411506],[135.854363,35.410556],[135.855438,35.409406],[135.8556,35.409023],[135.855625,35.408756],[135.855488,35.407565],[135.855263,35.406998],[135.854713,35.406415],[135.854575,35.406032],[135.854825,35.405215],[135.854988,35.404382],[135.855013,35.40384],[135.85515,35.403257],[135.855063,35.402874],[135.854463,35.40229],[135.854275,35.401841],[135.854275,35.401366],[135.8544,35.400782],[135.854788,35.400399],[135.856,35.399766],[135.856088,35.399699],[135.85635,35.399291],[135.85655,35.398591],[135.8569,35.398008],[135.857925,35.397174],[135.858062,35.397108],[135.85855,35.397016],[135.859187,35.396858],[135.8597,35.396449],[135.860175,35.395483],[135.860637,35.395141],[135.861275,35.394983],[135.861925,35.395033],[135.862787,35.395141],[135.862975,35.395116],[135.863499,35.394983],[135.864162,35.394641],[135.864787,35.394416],[135.865287,35.394483],[135.865724,35.3946],[135.866437,35.394683],[135.867187,35.394708],[135.867674,35.394825],[135.868062,35.395116],[135.868287,35.395475],[135.868662,35.395766],[135.869461,35.395966],[135.870174,35.396033],[135.871361,35.395966],[135.871636,35.396033],[135.871861,35.396325],[135.872136,35.396841],[135.872158,35.396881],[135.872549,35.396966],[135.872649,35.396966],[135.873174,35.397075],[135.874111,35.397116],[135.874199,35.397091],[135.874886,35.3972],[135.875323,35.397375],[135.875773,35.397666],[135.876686,35.398558],[135.877323,35.398958],[135.877936,35.399274],[135.878511,35.399408],[135.879398,35.399733],[135.880148,35.400491],[135.880586,35.400716],[135.882435,35.400749],[135.882935,35.401108],[135.883235,35.401441],[135.883648,35.401624],[135.884285,35.401708],[135.884785,35.401949],[135.885223,35.402216],[135.885923,35.402508],[135.886935,35.402774],[135.88776,35.402924],[135.888785,35.402983],[135.889722,35.402958],[135.890272,35.403091],[135.890635,35.403133],[135.890772,35.403782],[135.890972,35.404274],[135.892122,35.406382],[135.89231,35.406824],[135.892372,35.40739],[135.892347,35.407949],[135.892885,35.409582],[135.893372,35.410574],[135.893372,35.41124],[135.893247,35.412048],[135.893697,35.41369],[135.893785,35.414206],[135.893822,35.414673],[135.893772,35.415415],[135.893635,35.416223],[135.893572,35.417281],[135.893485,35.417839],[135.893497,35.418356],[135.893035,35.419598],[135.893022,35.419848],[135.89296,35.419856],[135.89336,35.420222],[135.893685,35.420339],[135.893885,35.420456],[135.894172,35.420814],[135.894597,35.421497],[135.895022,35.421722],[135.896022,35.421914],[135.896172,35.422114],[135.896285,35.422456],[135.896485,35.422814],[135.896785,35.423089],[135.897235,35.423247],[135.897709,35.423389],[135.897884,35.423639],[135.897909,35.423822],[135.898122,35.424389],[135.898797,35.424889],[135.899322,35.425072],[135.899722,35.425139],[135.899997,35.425455],[135.900272,35.425705],[135.901022,35.425872],[135.901234,35.42653],[135.901409,35.427205],[135.901872,35.428405],[135.902209,35.429013],[135.902759,35.429522],[135.903234,35.429655],[135.904134,35.429572],[135.904409,35.429622],[135.905834,35.43008],[135.906334,35.430063],[135.906821,35.429972],[135.907296,35.42973],[135.907796,35.429555],[135.908496,35.429605],[135.908896,35.429814],[135.909621,35.430064],[135.911471,35.430347],[135.912071,35.430514],[135.912695,35.430855],[135.91342,35.431355],[135.913783,35.431789],[135.914108,35.432214],[135.914795,35.434338],[135.914833,35.435022],[135.914783,35.43538],[135.91462,35.435805],[135.91437,35.437005],[135.914558,35.43743],[135.914583,35.437746],[135.914433,35.438288],[135.914045,35.438805],[135.913545,35.439205],[135.912883,35.440013],[135.912533,35.440504],[135.91227,35.441088],[135.912345,35.441679],[135.912908,35.442696],[135.913133,35.443171],[135.91307,35.444121],[135.913083,35.444954],[135.913033,35.445229],[135.912758,35.445521],[135.912208,35.445671],[135.911383,35.445662],[135.910908,35.445596],[135.910396,35.445704],[135.910296,35.446037],[135.909921,35.446512],[135.909733,35.446829],[135.909733,35.447162],[135.909958,35.44757],[135.910458,35.447804],[135.911908,35.448329],[135.912495,35.448854],[135.912995,35.449487],[135.91382,35.45037],[135.914083,35.450854],[135.914383,35.45157],[135.914595,35.452478],[135.914508,35.453603],[135.914683,35.454237],[135.91527,35.45517],[135.915395,35.455553],[135.91547,35.456045],[135.915332,35.45657],[135.914845,35.457845],[135.914795,35.458478],[135.914858,35.459136],[135.914982,35.459586],[135.91567,35.460853],[135.915895,35.461486],[135.916157,35.462886],[135.916195,35.463586],[135.91617,35.464111],[135.916607,35.464969],[135.916807,35.465552],[135.916832,35.465802],[135.91717,35.466685],[135.917307,35.46741],[135.917257,35.468019],[135.91702,35.46896],[135.916695,35.469593],[135.916307,35.470135],[135.915982,35.47051],[135.915907,35.470877],[135.915957,35.471052],[135.91612,35.471143],[135.916607,35.471193],[135.916895,35.471327],[135.91727,35.47156],[135.91752,35.471993],[135.917907,35.47296],[135.917882,35.47346],[135.918057,35.473818],[135.918382,35.474001],[135.918882,35.474168],[135.919157,35.474393],[135.919645,35.475118],[135.919695,35.475159],[135.920045,35.475276],[135.920619,35.475601],[135.921619,35.475676],[135.921844,35.475851],[135.921869,35.476101],[135.921682,35.476801],[135.921607,35.477384],[135.921644,35.477976],[135.921819,35.478267],[135.922119,35.478609],[135.922369,35.478967],[135.922557,35.479584],[135.922807,35.480192],[135.923082,35.480692],[135.923107,35.480667],[135.923482,35.481009],[135.923769,35.481417],[135.923844,35.481642],[135.923719,35.482],[135.923307,35.48245],[135.923107,35.482767],[135.923057,35.483242],[135.923094,35.48385],[135.923044,35.48455],[135.922382,35.485875],[135.922432,35.486058],[135.923257,35.486467],[135.923669,35.486742],[135.923869,35.487258],[135.923919,35.48755],[135.924157,35.488116],[135.924282,35.488958],[135.924482,35.489475],[135.924819,35.489816],[135.924994,35.489883],[135.925619,35.490025],[135.927094,35.490258],[135.927531,35.49035],[135.927769,35.490533],[135.927919,35.490833],[135.928669,35.491758],[135.929019,35.491808],[135.929444,35.491716],[135.930118,35.491841],[135.930193,35.491841],[135.930168,35.492083],[135.930193,35.492449],[135.930356,35.492874],[135.930431,35.493758],[135.930793,35.494141],[135.931418,35.495024],[135.931468,35.495499],[135.931531,35.495641],[135.931806,35.496632],[135.931818,35.497149],[135.931768,35.497491],[135.931793,35.497716],[135.932581,35.498982],[135.932956,35.499774],[135.933143,35.500365],[135.933118,35.50079],[135.933131,35.50149],[135.933181,35.501873],[135.933481,35.502282],[135.933856,35.502598],[135.934331,35.503173],[135.934831,35.503415],[135.935243,35.503665],[135.935468,35.503848],[135.93543,35.504565],[135.93568,35.50549],[135.935793,35.506056],[135.93653,35.507564],[135.936843,35.508822],[135.93698,35.509272],[135.937255,35.509614],[135.937468,35.509972],[135.93758,35.510331],[135.93758,35.510464],[135.937418,35.511006],[135.93753,35.511097],[135.93788,35.511189],[135.93778,35.512247],[135.93783,35.512764],[135.937805,35.512947],[135.93783,35.513197],[135.93778,35.51353],[135.937555,35.513822],[135.937505,35.513964],[135.93753,35.514122],[135.93778,35.51488],[135.937968,35.515222],[135.938142,35.516147],[135.938555,35.51653],[135.93888,35.517113],[135.938967,35.517613],[135.938767,35.518063],[135.938692,35.518396],[135.93883,35.51898],[135.939155,35.519863],[135.939455,35.520338],[135.939542,35.520379],[135.940092,35.520354],[135.940592,35.520263],[135.940855,35.520354],[135.941105,35.520604],[135.941405,35.520738],[135.94218,35.520804],[135.942455,35.521004],[135.942729,35.521029],[135.943167,35.521146],[135.943467,35.521188],[135.943942,35.521163],[135.944567,35.521229],[135.945229,35.521054],[135.945779,35.521138],[135.946104,35.521138],[135.946467,35.520963],[135.946854,35.520646],[135.947067,35.520396],[135.947616,35.519654],[135.948216,35.51848],[135.948741,35.517155],[135.948854,35.516696],[135.949291,35.516363],[135.950029,35.515597],[135.950554,35.514672],[135.950604,35.514222],[135.950804,35.513705],[135.951354,35.512489],[135.951654,35.511964],[135.951891,35.511064],[135.951866,35.510414],[135.951891,35.510006],[135.952116,35.509597],[135.952229,35.509198],[135.952029,35.508448],[135.951866,35.507956],[135.951779,35.507481],[135.951941,35.506939],[135.952391,35.506223],[135.952828,35.505998],[135.953428,35.50584],[135.953816,35.505681],[135.954441,35.505565],[135.954991,35.505615],[135.955578,35.505765],[135.956041,35.50579],[135.956478,35.505923],[135.956866,35.505973],[135.957441,35.505898],[135.957828,35.505673],[135.958515,35.504798],[135.958703,35.504365],[135.958978,35.504032],[135.959965,35.503215],[135.960053,35.503173],[135.96039,35.50269],[135.960678,35.502065],[135.961078,35.501907],[135.961478,35.501865],[135.961653,35.501824],[135.961903,35.50164],[135.96224,35.501349],[135.962715,35.501132],[135.96364,35.501449],[135.96374,35.501449],[135.96434,35.501682],[135.964715,35.501865],[135.965302,35.502432],[135.965777,35.50259],[135.966877,35.502874],[135.967565,35.50274],[135.967965,35.50254],[135.968364,35.502407],[135.968689,35.502365],[135.968839,35.502324],[135.969089,35.502099],[135.969627,35.501332],[135.969952,35.50104],[135.970339,35.500957],[135.971314,35.500824],[135.971689,35.500516],[135.972377,35.500157],[135.972677,35.499124],[135.972864,35.498582],[135.973139,35.498199],[135.973639,35.497891],[135.974101,35.497691],[135.974426,35.497491],[135.975214,35.495891],[135.975601,35.495241],[135.975826,35.49495],[135.975876,35.494766],[135.975939,35.494183],[135.976214,35.493691],[135.977301,35.492792],[135.978138,35.491783],[135.978713,35.490933],[135.979001,35.490392],[135.979151,35.489675],[135.979138,35.488842],[135.979213,35.488567],[135.979488,35.488342],[135.979901,35.488192],[135.980151,35.487942],[135.980663,35.486817],[135.980913,35.486551],[135.981313,35.486576],[135.981838,35.486759],[135.982338,35.487076],[135.983425,35.488075],[135.98455,35.489167],[135.9855,35.489675],[135.9865,35.490109],[135.986937,35.4904],[135.987412,35.491125],[135.988237,35.4919],[135.98925,35.492517],[135.989775,35.4927],[135.990349,35.492658],[135.991037,35.492533],[135.991662,35.492267],[135.992212,35.492],[135.992824,35.491775],[135.993424,35.491642],[135.994324,35.491609],[135.994999,35.491725],[135.995524,35.49195],[135.996599,35.492617],[135.996649,35.492617],[135.996774,35.49255],[135.997049,35.492325],[135.997149,35.492165],[135.997236,35.492042],[135.997511,35.491575],[135.997711,35.49135],[135.998623,35.4915],[135.998923,35.491592],[135.999861,35.49165],[136.000448,35.491567],[136.000998,35.491667],[136.001623,35.49185],[136.002198,35.491884],[136.003173,35.491534],[136.003873,35.490951],[136.004048,35.490934],[136.005448,35.491426],[136.006235,35.491592],[136.006685,35.491734],[136.006922,35.4921],[136.006997,35.492484],[136.00701,35.493275],[136.007285,35.493442],[136.008222,35.493592],[136.008772,35.493775],[136.009447,35.4946],[136.010035,35.495217],[136.010447,35.495742],[136.010834,35.496608],[136.011547,35.497433],[136.011597,35.497775],[136.011447,35.498242],[136.011159,35.49865],[136.010672,35.499641],[136.010835,35.499958],[136.011647,35.500491],[136.011722,35.500916],[136.011722,35.501441],[136.011809,35.502099],[136.011747,35.502908],[136.012047,35.503174],[136.012097,35.503183],[136.012234,35.503366],[136.012372,35.503658],[136.012072,35.503974],[136.011747,35.504516],[136.011722,35.504757],[136.011935,35.505324],[136.012509,35.506041],[136.012922,35.506674],[136.013372,35.507532],[136.013784,35.507915],[136.014297,35.50814],[136.014797,35.508499],[136.015184,35.508999],[136.015672,35.510257],[136.015734,35.510773],[136.015209,35.511407],[136.015147,35.511515],[136.015234,35.511815],[136.015559,35.512123],[136.016034,35.512265],[136.016997,35.512348],[136.017784,35.512373],[136.018509,35.512215],[136.019059,35.511965],[136.019709,35.511807],[136.020159,35.511898],[136.020396,35.512307],[136.020784,35.513315],[136.021171,35.514131],[136.021834,35.515456],[136.022434,35.516873],[136.023034,35.518164],[136.023171,35.518906],[136.023209,35.519539],[136.023371,35.520056],[136.023809,35.520347],[136.024821,35.520889],[136.025321,35.521289],[136.025846,35.521539],[136.027058,35.521831],[136.027383,35.522147],[136.027846,35.52273],[136.028433,35.52318],[136.028621,35.523747],[136.028346,35.52408],[136.027771,35.524514],[136.027521,35.524605],[136.027196,35.524847],[136.027196,35.524922],[136.027433,35.525455],[136.027658,35.526138],[136.027633,35.526272],[136.027158,35.526405],[136.026483,35.52668],[136.026171,35.526905],[136.026096,35.52753],[136.026446,35.528863],[136.026446,35.52958],[136.027908,35.529088],[136.029283,35.52933],[136.029833,35.529396],[136.030246,35.529621],[136.030795,35.529805],[136.030845,35.52978],[136.03272,35.530121],[136.033483,35.530163],[136.03662,35.530721],[136.037195,35.530905],[136.037632,35.531196],[136.038207,35.531463],[136.039282,35.531621],[136.039894,35.532005],[136.040494,35.532321],[136.040882,35.532455],[136.041182,35.532363],[136.041682,35.531513],[136.041869,35.531105],[136.042169,35.530971],[136.042719,35.530896],[136.044256,35.530921],[136.044894,35.530763],[136.045381,35.530763],[136.045856,35.530555],[136.046206,35.530222],[136.046269,35.530197],[136.046344,35.53033],[136.046544,35.530922],[136.046644,35.531505],[136.046619,35.532088],[136.046819,35.532471],[136.047206,35.53308],[136.047506,35.533738],[136.048056,35.534571],[136.048331,35.534771],[136.048819,35.534746],[136.049406,35.534571],[136.050143,35.534496],[136.050881,35.534479],[136.051456,35.534388],[136.052206,35.533979],[136.052781,35.53373],[136.053106,35.53348],[136.053443,35.533321],[136.05393,35.533321],[136.05443,35.533571],[136.054893,35.53373],[136.055393,35.533705],[136.055918,35.533638],[136.05613,35.533255],[136.056493,35.532913],[136.057068,35.532738],[136.057418,35.532488],[136.057555,35.532238],[136.058142,35.532055],[136.058717,35.532055],[136.059092,35.532196],[136.059567,35.532238],[136.060167,35.532055],[136.060692,35.531855],[136.060967,35.531513],[136.061192,35.531022],[136.061354,35.530413],[136.061429,35.53023],[136.061729,35.529039],[136.061954,35.528539],[136.062067,35.52843],[136.062367,35.528222],[136.062917,35.528155],[136.063167,35.528205],[136.063767,35.52818],[136.064679,35.528064],[136.065004,35.52818],[136.065279,35.528355],[136.065466,35.528022],[136.066079,35.527389],[136.066566,35.527006],[136.067041,35.526797],[136.067641,35.526639],[136.067941,35.526531],[136.068516,35.526372],[136.069566,35.526322],[136.070253,35.526572],[136.071291,35.527181],[136.071928,35.527656],[136.072178,35.527972],[136.072341,35.528397],[136.07284,35.52903],[136.074078,35.529747],[136.074515,35.529855],[136.074928,35.529814],[136.07534,35.529905],[136.076103,35.530289],[136.076815,35.530514],[136.07709,35.530647],[136.07754,35.531297],[136.07759,35.531747],[136.077427,35.532222],[136.07724,35.53263],[136.077102,35.53378],[136.076827,35.534405],[136.077127,35.534721],[136.077627,35.535063],[136.078115,35.535238],[136.079327,35.535513],[136.07969,35.535846],[136.079877,35.53643],[136.079965,35.536996],[136.080314,35.538171],[136.080652,35.539046],[136.081277,35.539204],[136.081452,35.539363],[136.081614,35.539879],[136.081777,35.540129],[136.082164,35.540371],[136.082739,35.540554],[136.083452,35.540396],[136.084339,35.540037],[136.085564,35.539696],[136.086801,35.539179],[136.087439,35.539038],[136.088539,35.538946],[136.088926,35.538638],[136.089438,35.538113],[136.090076,35.537755],[136.090788,35.53748],[136.091451,35.537396],[136.092113,35.537463],[136.092713,35.537571],[136.093288,35.537505],[136.093813,35.537071],[136.0945,35.536038],[136.094988,35.535538],[136.0962,35.534772],[136.097488,35.533897],[136.097963,35.53383],[136.098587,35.534005],[136.099137,35.534097],[136.099462,35.53398],[136.09985,35.533647],[136.099987,35.533355],[136.100187,35.532539],[136.100425,35.532114],[136.100787,35.532072],[136.101137,35.53193],[136.101825,35.531389],[136.10295,35.530739],[136.103537,35.53053],[136.103974,35.530305],[136.104349,35.529747],[136.105149,35.528772],[136.105312,35.528731],[136.105424,35.528772]]]}}],"type":"FeatureCollection"}