{"type":"FeatureCollection","features":[{"properties":{"kuni":"美濃","id":"G22004","id_url":"G22004.html","kuni_url":"/kg/resource/K22.html","pref":"岐阜県","kuni_id":"K22","yomi":"かいさい","name":"海西"},"geometry":{"coordinates":[[[136.677915,35.241008],[136.67779,35.240224],[136.67784,35.238983],[136.678015,35.2374],[136.678003,35.237133],[136.678115,35.236683],[136.67834,35.234875],[136.678603,35.233525],[136.678828,35.231742],[136.67904,35.231067],[136.679203,35.230409],[136.67959,35.228967],[136.679915,35.228176],[136.680015,35.227667],[136.680178,35.226993],[136.680428,35.226151],[136.680653,35.225251],[136.680865,35.224076],[136.681365,35.221326],[136.681778,35.218685],[136.681778,35.217243],[136.681828,35.21591],[136.682278,35.212486],[136.681891,35.209819],[136.681778,35.208644],[136.681891,35.206886],[136.682216,35.20522],[136.682966,35.204003],[136.683541,35.202761],[136.683428,35.20172],[136.683316,35.20037],[136.683078,35.19937],[136.682329,35.198337],[136.681366,35.19737],[136.680441,35.196462],[136.679067,35.195204],[136.677717,35.194121],[136.676579,35.193296],[136.676354,35.193104],[136.675942,35.192837],[136.675567,35.192504],[136.67523,35.192229],[136.674992,35.192029],[136.67453,35.191679],[136.674167,35.191312],[136.67393,35.191112],[136.673692,35.190929],[136.673542,35.190796],[136.673367,35.190646],[136.673317,35.190579],[136.673017,35.190271],[136.672792,35.189979],[136.672555,35.189638],[136.672442,35.189421],[136.672355,35.189171],[136.672305,35.188888],[136.672243,35.188629],[136.672218,35.188538],[136.672155,35.188313],[136.672143,35.188104],[136.672155,35.187963],[136.672118,35.18783],[136.672193,35.187446],[136.672143,35.186521],[136.67203,35.185505],[136.671918,35.184172],[136.671852,35.183549],[136.671517,35.183847],[136.669649,35.184781],[136.668196,35.18644],[136.66747,35.188203],[136.667054,35.190017],[136.667836,35.191993],[136.668661,35.193599],[136.668908,35.194752],[136.668908,35.19574],[136.667754,35.197675],[136.667095,35.198787],[136.667177,35.199364],[136.667878,35.199693],[136.668949,35.200187],[136.669402,35.201217],[136.66932,35.20237],[136.668702,35.203276],[136.668207,35.203193],[136.667754,35.203646],[136.667548,35.205331],[136.66671,35.208009],[136.667548,35.209768],[136.667967,35.211107],[136.66738,35.211693],[136.665537,35.211693],[136.662939,35.211023],[136.662101,35.211861],[136.661934,35.213535],[136.661347,35.215461],[136.660677,35.217972],[136.661012,35.220149],[136.661489,35.22456],[136.660358,35.226155],[136.659027,35.227419],[136.659227,35.229546],[136.660159,35.231275],[136.662155,35.234201],[136.664284,35.236262],[136.666014,35.238389],[136.666197,35.241358],[136.665861,35.243103],[136.664719,35.244914],[136.664652,35.246659],[136.664854,35.248135],[136.664585,35.248806],[136.663981,35.25102],[136.663981,35.251953],[136.664616,35.251689],[136.665241,35.251231],[136.665429,35.251031],[136.666241,35.24979],[136.668678,35.246523],[136.668841,35.246257],[136.669878,35.245049],[136.670116,35.244799],[136.670253,35.244599],[136.670716,35.244149],[136.671266,35.243757],[136.671866,35.243441],[136.673253,35.242891],[136.67389,35.242549],[136.674515,35.242182],[136.675478,35.241791],[136.67649,35.241558],[136.677365,35.241283],[136.677778,35.241099],[136.677915,35.241008]]],"type":"Polygon"},"type":"Feature"}]}