{"type":"FeatureCollection","features":[{"geometry":{"type":"Polygon","coordinates":[[[137.203394,35.469754],[137.203219,35.469354],[137.203019,35.469004],[137.202882,35.468646],[137.202857,35.468529],[137.202819,35.468404],[137.202719,35.467971],[137.202544,35.467704],[137.202494,35.467621],[137.202282,35.467388],[137.201957,35.467229],[137.201807,35.467121],[137.201732,35.467071],[137.201744,35.467004],[137.201719,35.466879],[137.201719,35.466763],[137.201732,35.466688],[137.201807,35.466554],[137.201894,35.466413],[137.201919,35.466313],[137.201957,35.466254],[137.201994,35.466146],[137.202057,35.466021],[137.202057,35.465946],[137.202057,35.465813],[137.202019,35.465629],[137.201944,35.465388],[137.201857,35.465179],[137.201819,35.465038],[137.201782,35.464954],[137.201757,35.464796],[137.201807,35.464721],[137.201957,35.464621],[137.202057,35.464546],[137.202144,35.464455],[137.202182,35.464421],[137.202219,35.464296],[137.202244,35.464146],[137.202194,35.463963],[137.202157,35.463855],[137.202207,35.463613],[137.202182,35.463396],[137.202044,35.463055],[137.201882,35.462946],[137.201757,35.462821],[137.201682,35.462738],[137.20157,35.462546],[137.201495,35.462396],[137.201457,35.462263],[137.201345,35.461705],[137.201307,35.461546],[137.201245,35.461471],[137.201145,35.46128],[137.20112,35.461238],[137.201007,35.461122],[137.200945,35.460972],[137.200795,35.460813],[137.200545,35.460497],[137.20022,35.460097],[137.20017,35.46003],[137.20012,35.459938],[137.20002,35.459747],[137.199995,35.459672],[137.199957,35.459488],[137.199895,35.459272],[137.199857,35.459222],[137.199782,35.459063],[137.199645,35.458613],[137.199645,35.458347],[137.199682,35.458189],[137.199857,35.457922],[137.200182,35.457764],[137.20027,35.457705],[137.200507,35.457564],[137.200957,35.45718],[137.201232,35.456889],[137.20127,35.456839],[137.201282,35.456822],[137.20147,35.456655],[137.201995,35.456139],[137.202095,35.456047],[137.202145,35.455972],[137.20222,35.455856],[137.202332,35.455656],[137.20237,35.455256],[137.20252,35.455064],[137.20257,35.454997],[137.202757,35.454722],[137.202832,35.454547],[137.202782,35.454347],[137.202757,35.454256],[137.202782,35.454172],[137.202895,35.453989],[137.20292,35.453814],[137.202945,35.453589],[137.20297,35.453497],[137.202757,35.453123],[137.202645,35.452906],[137.202545,35.452748],[137.202395,35.452681],[137.202245,35.452664],[137.20212,35.452656],[137.201482,35.452631],[137.201307,35.452664],[137.20107,35.452631],[137.20087,35.452556],[137.200707,35.452531],[137.19927,35.452239],[137.19902,35.452173],[137.19892,35.452123],[137.198683,35.452039],[137.198545,35.451923],[137.19842,35.451648],[137.198345,35.451448],[137.19817,35.451281],[137.198033,35.451189],[137.197958,35.451164],[137.197845,35.451114],[137.197745,35.450923],[137.19742,35.450589],[137.197333,35.450573],[137.197233,35.450589],[137.19707,35.450564],[137.196883,35.450506],[137.19682,35.450289],[137.196758,35.450114],[137.196758,35.449923],[137.196896,35.449789],[137.197008,35.449623],[137.197095,35.449548],[137.197245,35.449473],[137.197633,35.449339],[137.197808,35.449231],[137.197933,35.449156],[137.198008,35.449081],[137.198033,35.448848],[137.19802,35.448731],[137.19802,35.448431],[137.198183,35.448348],[137.198483,35.448298],[137.198595,35.448181],[137.19857,35.447906],[137.19857,35.447806],[137.198508,35.447381],[137.198445,35.447215],[137.19842,35.44714],[137.198408,35.44709],[137.19842,35.44699],[137.198458,35.446915],[137.19852,35.446848],[137.198633,35.44674],[137.198933,35.44659],[137.199083,35.446532],[137.199158,35.446473],[137.19917,35.446448],[137.199233,35.446357],[137.19927,35.446265],[137.199345,35.445915],[137.199308,35.445565],[137.199258,35.445265],[137.199258,35.445065],[137.199295,35.444723],[137.199383,35.44444],[137.199495,35.444082],[137.199558,35.443907],[137.199633,35.443365],[137.199633,35.443149],[137.199633,35.442865],[137.19962,35.442674],[137.199583,35.442499],[137.199021,35.441474],[137.199021,35.441274],[137.199133,35.44084],[137.199196,35.440666],[137.199221,35.440507],[137.199221,35.440341],[137.199221,35.440182],[137.199221,35.440049],[137.199208,35.439874],[137.199133,35.439607],[137.199033,35.439441],[137.199008,35.439249],[137.199033,35.438824],[137.199046,35.438716],[137.199046,35.438649],[137.198983,35.438574],[137.198783,35.438474],[137.198596,35.438357],[137.198471,35.438149],[137.198408,35.438007],[137.198408,35.437907],[137.198421,35.437558],[137.198446,35.437474],[137.198458,35.437458],[137.198721,35.437066],[137.198833,35.436941],[137.199033,35.436649],[137.199146,35.436441],[137.199171,35.436174],[137.199258,35.436024],[137.199433,35.435833],[137.199496,35.435724],[137.199508,35.435683],[137.199458,35.435349],[137.199371,35.435058],[137.199308,35.434733],[137.199308,35.434633],[137.199308,35.434541],[137.199308,35.434491],[137.199358,35.434416],[137.199458,35.434166],[137.199496,35.434108],[137.199558,35.434016],[137.199683,35.433716],[137.199883,35.4335],[137.199971,35.433416],[137.200121,35.433166],[137.200271,35.43305],[137.200333,35.432958],[137.200383,35.432875],[137.200383,35.432733],[137.200433,35.4326],[137.200521,35.432458],[137.200608,35.432391],[137.200771,35.43235],[137.201271,35.432317],[137.201708,35.432208],[137.201796,35.432175],[137.201833,35.432142],[137.201933,35.431967],[137.202021,35.431725],[137.202208,35.43125],[137.202246,35.431158],[137.202333,35.431025],[137.202371,35.431],[137.202433,35.430983],[137.202521,35.430958],[137.202571,35.430958],[137.202771,35.430925],[137.202908,35.430883],[137.203133,35.430833],[137.20337,35.43075],[137.203445,35.430658],[137.203508,35.430525],[137.203558,35.430367],[137.203645,35.429984],[137.20397,35.429709],[137.204095,35.429592],[137.204195,35.429442],[137.20422,35.429367],[137.204295,35.4291],[137.20432,35.428717],[137.204308,35.428367],[137.20442,35.428167],[137.204945,35.427767],[137.205033,35.427667],[137.205233,35.427451],[137.20557,35.427084],[137.205795,35.426759],[137.205945,35.426551],[137.206033,35.426334],[137.206058,35.426259],[137.206058,35.426176],[137.20607,35.426117],[137.206058,35.426034],[137.205983,35.425892],[137.20592,35.425751],[137.205908,35.425626],[137.205858,35.425451],[137.205833,35.425351],[137.205858,35.425034],[137.205845,35.424959],[137.205758,35.424851],[137.205445,35.424742],[137.205333,35.424717],[137.205221,35.424642],[137.204896,35.424251],[137.204621,35.424067],[137.204521,35.423942],[137.204383,35.423867],[137.204308,35.423851],[137.204133,35.423876],[137.204071,35.423851],[137.203958,35.423842],[137.203833,35.423801],[137.203746,35.423709],[137.203733,35.423534],[137.203746,35.423409],[137.203708,35.423226],[137.203621,35.423034],[137.203558,35.422934],[137.203496,35.422834],[137.203383,35.422743],[137.203258,35.422659],[137.203083,35.422576],[137.202896,35.422509],[137.202846,35.422484],[137.202533,35.422359],[137.202446,35.422276],[137.202358,35.422093],[137.202258,35.421901],[137.202121,35.421684],[137.201709,35.421159],[137.201484,35.421009],[137.201121,35.420793],[137.200984,35.420951],[137.200634,35.421434],[137.200496,35.421559],[137.200221,35.421626],[137.199859,35.421584],[137.199646,35.421559],[137.199409,35.421476],[137.199284,35.421434],[137.199134,35.421309],[137.198984,35.421109],[137.198946,35.420943],[137.198946,35.420709],[137.198971,35.420618],[137.198984,35.420534],[137.198946,35.420418],[137.198896,35.420326],[137.198846,35.420251],[137.198796,35.420226],[137.198496,35.420093],[137.198284,35.420076],[137.198059,35.420018],[137.197946,35.419993],[137.197834,35.419959],[137.197809,35.419943],[137.197684,35.419876],[137.197409,35.419709],[137.197184,35.419484],[137.197209,35.419209],[137.197297,35.418968],[137.197047,35.418584],[137.196684,35.418268],[137.196597,35.418043],[137.196634,35.417926],[137.196959,35.417659],[137.197009,35.417409],[137.196822,35.417026],[137.196809,35.416601],[137.197309,35.415493],[137.198647,35.413618],[137.198972,35.413093],[137.199322,35.412152],[137.198859,35.411968],[137.198522,35.41161],[137.198272,35.41141],[137.197997,35.411202],[137.197747,35.41091],[137.197059,35.410419],[137.196647,35.41026],[137.196035,35.410177],[137.195685,35.410218],[137.195272,35.41036],[137.19486,35.41056],[137.194497,35.410877],[137.193947,35.411152],[137.193297,35.411377],[137.192885,35.411468],[137.19241,35.411493],[137.19216,35.411293],[137.19136,35.410435],[137.191273,35.410302],[137.191385,35.41001],[137.192172,35.408718],[137.192535,35.408269],[137.19286,35.407977],[137.193347,35.407385],[137.193322,35.40691],[137.193372,35.406302],[137.19386,35.404386],[137.19411,35.403777],[137.193823,35.403686],[137.19251,35.403461],[137.191898,35.403402],[137.191573,35.403336],[137.191373,35.403261],[137.191298,35.403152],[137.19161,35.401569],[137.191535,35.400961],[137.191448,35.400669],[137.191423,35.400403],[137.191498,35.399994],[137.192048,35.399294],[137.192235,35.398703],[137.192123,35.39837],[137.191785,35.397761],[137.191398,35.39727],[137.190961,35.39682],[137.190436,35.396345],[137.189748,35.395895],[137.189386,35.395828],[137.188173,35.395878],[137.188011,35.395853],[137.186686,35.395861],[137.186411,35.39582],[137.185999,35.395795],[137.185674,35.395661],[137.185336,35.395278],[137.184899,35.395028],[137.184624,35.39492],[137.184149,35.394945],[137.183961,35.394853],[137.183761,35.39467],[137.183736,35.394445],[137.183761,35.394061],[137.183437,35.39382],[137.182224,35.39312],[137.181974,35.39292],[137.181612,35.392786],[137.181249,35.392786],[137.180974,35.392836],[137.180537,35.392695],[137.180287,35.392495],[137.180287,35.392403],[137.180212,35.392295],[137.180099,35.392253],[137.179824,35.39227],[137.179624,35.392228],[137.179325,35.392045],[137.1791,35.391961],[137.178862,35.391986],[137.1785,35.39212],[137.178312,35.392253],[137.177625,35.392503],[137.17735,35.392661],[137.177025,35.39307],[137.1768,35.393253],[137.176525,35.393411],[137.176062,35.393569],[137.17485,35.394386],[137.174637,35.394494],[137.174437,35.394544],[137.174275,35.394519],[137.173925,35.394594],[137.173313,35.394411],[137.172988,35.394461],[137.172438,35.394186],[137.172125,35.394144],[137.17175,35.394144],[137.1716,35.394078],[137.171138,35.393294],[137.170338,35.392478],[137.170113,35.392411],[137.169926,35.392503],[137.169401,35.392978],[137.168851,35.393369],[137.168501,35.393502],[137.167676,35.393594],[137.167588,35.393661],[137.167426,35.394427],[137.166901,35.394744],[137.166413,35.394977],[137.166113,35.395019],[137.165863,35.395244],[137.165776,35.395427],[137.165638,35.395519],[137.165263,35.395652],[137.165176,35.395744],[137.165126,35.396102],[137.164201,35.39726],[137.163751,35.397644],[137.163376,35.397844],[137.163126,35.397935],[137.162801,35.397985],[137.162414,35.397985],[137.162051,35.398035],[137.161564,35.39821],[137.160989,35.398685],[137.160815,35.3987],[137.160626,35.39871],[137.160593,35.398532],[137.160489,35.398168],[137.160151,35.397835],[137.160014,35.397543],[137.159964,35.397293],[137.159827,35.397093],[137.159377,35.396735],[137.159014,35.396327],[137.158777,35.396144],[137.158627,35.395944],[137.158552,35.395385],[137.158439,35.395269],[137.158214,35.39516],[137.157064,35.394777],[137.156814,35.394669],[137.156639,35.394552],[137.155852,35.39431],[137.155714,35.394285],[137.15554,35.394244],[137.154627,35.392844],[137.154577,35.392669],[137.154815,35.392236],[137.154927,35.391961],[137.154952,35.391786],[137.154815,35.391219],[137.154752,35.390586],[137.15459,35.390386],[137.154477,35.390119],[137.15429,35.389803],[137.154065,35.389686],[137.15359,35.389536],[137.153265,35.389244],[137.15324,35.388944],[137.153315,35.388636],[137.153615,35.387936],[137.15359,35.387478],[137.15334,35.386628],[137.152865,35.385836],[137.152803,35.385478],[137.152828,35.38462],[137.152803,35.38417],[137.152603,35.383603],[137.152415,35.38327],[137.15199,35.382862],[137.151165,35.381853],[137.150616,35.380612],[137.149778,35.379487],[137.149641,35.379379],[137.149366,35.379287],[137.148628,35.379353],[137.147741,35.379445],[137.147253,35.379378],[137.146316,35.379028],[137.145354,35.378845],[137.144966,35.378687],[137.144741,35.378487],[137.144554,35.378078],[137.144516,35.377995],[137.144929,35.37747],[137.145066,35.37722],[137.145066,35.376912],[137.144704,35.376462],[137.144479,35.376054],[137.144641,35.37562],[137.145004,35.375354],[137.146041,35.373704],[137.146316,35.373454],[137.146591,35.373321],[137.147004,35.373046],[137.147554,35.372596],[137.148129,35.372296],[137.148541,35.372138],[137.148803,35.371729],[137.148703,35.371621],[137.148279,35.371054],[137.147791,35.370538],[137.147454,35.370021],[137.147391,35.369596],[137.147529,35.369346],[137.147666,35.369305],[137.148254,35.369438],[137.148629,35.369613],[137.148966,35.369863],[137.149491,35.36988],[137.153403,35.365697],[137.151941,35.36543],[137.151578,35.365272],[137.151691,35.365139],[137.152128,35.365005],[137.152653,35.36498],[137.153203,35.364864],[137.153591,35.364614],[137.153753,35.364047],[137.153991,35.363505],[137.154291,35.363305],[137.154703,35.362789],[137.154903,35.362764],[137.155003,35.362714],[137.155166,35.362464],[137.155478,35.362131],[137.15629,35.361947],[137.156403,35.361656],[137.156409,35.361333],[137.156428,35.361064],[137.156478,35.360706],[137.156753,35.360298],[137.157115,35.359939],[137.157303,35.358964],[137.157128,35.358564],[137.156878,35.358115],[137.156991,35.357881],[137.157953,35.35754],[137.158553,35.356931],[137.158878,35.356056],[137.158578,35.355623],[137.157991,35.354948],[137.156916,35.353982],[137.156641,35.353373],[137.156503,35.352857],[137.155891,35.352407],[137.155803,35.352049],[137.155803,35.351665],[137.155641,35.351574],[137.154866,35.351465],[137.152504,35.350799],[137.151841,35.35064],[137.148591,35.350107],[137.147992,35.35009],[137.147367,35.350115],[137.146642,35.35009],[137.145567,35.34994],[137.145429,35.349715],[137.145404,35.349307],[137.145517,35.349124],[137.145767,35.349099],[137.145954,35.348924],[137.146142,35.348382],[137.146142,35.347924],[137.146079,35.347524],[137.146104,35.346957],[137.146304,35.346774],[137.147229,35.346666],[137.147667,35.346366],[137.147779,35.346049],[137.147729,35.345874],[137.147617,35.345691],[137.147804,35.345441],[137.148242,35.345191],[137.148629,35.344924],[137.148879,35.344383],[137.148954,35.344333],[137.149179,35.344291],[137.149666,35.344241],[137.149866,35.344108],[137.149916,35.343899],[137.149891,35.343816],[137.149779,35.343699],[137.149279,35.343566],[137.149116,35.343433],[137.149141,35.343274],[137.149366,35.342891],[137.149691,35.34255],[137.150641,35.341691],[137.151279,35.340767],[137.152254,35.339633],[137.152754,35.339092],[137.153054,35.338884],[137.154528,35.338025],[137.154803,35.337825],[137.155791,35.336826],[137.155841,35.336717],[137.155816,35.336551],[137.156028,35.336176],[137.156616,35.335801],[137.156953,35.335418],[137.157091,35.334809],[137.157203,35.334559],[137.157541,35.334109],[137.157691,35.333551],[137.158453,35.331885],[137.15904,35.331026],[137.159728,35.330718],[137.160165,35.33061],[137.16034,35.329635],[137.160328,35.328802],[137.160003,35.328235],[137.160315,35.32731],[137.159078,35.326752],[137.158403,35.326227],[137.157416,35.32586],[137.156028,35.324627],[137.155416,35.32426],[137.154928,35.324193],[137.154153,35.32421],[137.153629,35.324177],[137.153416,35.324018],[137.153529,35.323635],[137.153204,35.322885],[137.153604,35.322285],[137.153604,35.321719],[137.154153,35.321385],[137.154466,35.321094],[137.154078,35.320794],[137.153891,35.32041],[137.154691,35.320094],[137.156578,35.319527],[137.157628,35.319327],[137.158865,35.319002],[137.15994,35.318853],[137.160603,35.319061],[137.161228,35.319494],[137.161703,35.319586],[137.162527,35.319661],[137.163152,35.319919],[137.163402,35.319761],[137.163427,35.319394],[137.163965,35.319153],[137.164565,35.319253],[137.165065,35.319028],[137.165402,35.318711],[137.16519,35.317945],[137.164552,35.317511],[137.16349,35.317045],[137.163265,35.316686],[137.163227,35.31592],[137.162215,35.315095],[137.161128,35.314045],[137.16034,35.313111],[137.160178,35.312836],[137.160453,35.31257],[137.160078,35.311937],[137.159915,35.311345],[137.15989,35.310645],[137.159353,35.309787],[137.15874,35.309978],[137.158153,35.309412],[137.157353,35.309495],[137.156716,35.309695],[137.156516,35.31017],[137.156053,35.310028],[137.155528,35.310203],[137.154978,35.310111],[137.154341,35.309811],[137.153579,35.309536],[137.152866,35.309436],[137.151816,35.309611],[137.151091,35.30967],[137.150716,35.309286],[137.150716,35.308903],[137.150279,35.30842],[137.149567,35.30817],[137.148879,35.307978],[137.148342,35.307345],[137.148292,35.306961],[137.148567,35.30667],[137.148004,35.306011],[137.147392,35.305728],[137.147004,35.305911],[137.146317,35.306128],[137.145392,35.305736],[137.14443,35.305236],[137.143492,35.304861],[137.143055,35.304728],[137.142705,35.304703],[137.142542,35.304428],[137.14243,35.303745],[137.14253,35.302711],[137.142018,35.301278],[137.141643,35.300712],[137.141255,35.30082],[137.141143,35.301278],[137.14078,35.30172],[137.140593,35.301545],[137.14018,35.300637],[137.139993,35.30032],[137.139593,35.29997],[137.139131,35.299362],[137.138331,35.298878],[137.136856,35.298528],[137.136193,35.298228],[137.135731,35.298153],[137.135206,35.297878],[137.134431,35.297828],[137.133831,35.297487],[137.133619,35.297187],[137.133644,35.296895],[137.134044,35.296603],[137.133931,35.296153],[137.133856,35.295387],[137.133419,35.295045],[137.133269,35.294362],[137.132882,35.293979],[137.132419,35.293654],[137.132094,35.293679],[137.131707,35.293579],[137.131594,35.293604],[137.131457,35.293554],[137.130832,35.292762],[137.130444,35.29267],[137.130144,35.292887],[137.129807,35.293454],[137.129382,35.294237],[137.129082,35.294487],[137.128532,35.294595],[137.128145,35.294387],[137.127757,35.294137],[137.127432,35.294228],[137.12662,35.29492],[137.12632,35.295303],[137.125732,35.295453],[137.125082,35.295453],[137.124357,35.295486],[137.12392,35.29567],[137.123557,35.296095],[137.123308,35.29602],[137.122958,35.295753],[137.122508,35.29577],[137.122032,35.295914],[137.121967,35.295999],[137.121845,35.296045],[137.12162,35.296086],[137.121408,35.296286],[137.121233,35.296403],[137.120508,35.296528],[137.120208,35.296661],[137.120058,35.296778],[137.119908,35.297019],[137.119758,35.297219],[137.11932,35.297669],[137.119095,35.297828],[137.118845,35.297919],[137.11862,35.297936],[137.118495,35.297844],[137.11827,35.297619],[137.11807,35.297569],[137.117545,35.297594],[137.117245,35.297544],[137.116571,35.297453],[137.116346,35.297561],[137.116133,35.297736],[137.115783,35.298161],[137.115608,35.298527],[137.115458,35.298702],[137.115308,35.298794],[137.115158,35.298811],[137.114371,35.298761],[137.114171,35.298811],[137.113871,35.298961],[137.113546,35.299302],[137.113396,35.299344],[137.113071,35.299252],[137.112846,35.299111],[137.112546,35.298794],[137.112296,35.298727],[137.112121,35.298769],[137.111821,35.298969],[137.110683,35.299644],[137.109508,35.300127],[137.109383,35.300152],[137.108071,35.300119],[137.107521,35.300202],[137.106546,35.300268],[137.106021,35.300377],[137.105209,35.300593],[137.104084,35.300968],[137.103309,35.301327],[137.102671,35.301543],[137.102446,35.30161],[137.101471,35.301668],[137.101021,35.301626],[137.100971,35.301485],[137.101009,35.30061],[137.101084,35.299935],[137.101059,35.29966],[137.100984,35.29941],[137.100821,35.29921],[137.100496,35.29891],[137.099097,35.297977],[137.098872,35.297843],[137.098272,35.297593],[137.097997,35.297427],[137.097772,35.297202],[137.097609,35.296752],[137.097584,35.296252],[137.097784,35.295827],[137.098172,35.294819],[137.098459,35.294411],[137.098709,35.293802],[137.098922,35.293152],[137.098872,35.292477],[137.098622,35.291977],[137.098272,35.291752],[137.097897,35.291611],[137.097197,35.291519],[137.096597,35.291311],[137.09641,35.291127],[137.09626,35.290719],[137.09606,35.290669],[137.095485,35.290694],[137.095085,35.290752],[137.094497,35.290936],[137.093822,35.291244],[137.093547,35.291419],[137.09311,35.291827],[137.09271,35.292411],[137.09256,35.292519],[137.092185,35.292811],[137.091972,35.292877],[137.091297,35.292802],[137.090647,35.292644],[137.090222,35.292527],[137.088323,35.292419],[137.087923,35.292444],[137.086948,35.292552],[137.086723,35.292569],[137.086248,35.292502],[137.085773,35.292519],[137.085398,35.292519],[137.084585,35.292419],[137.084335,35.292352],[137.083885,35.292327],[137.082361,35.292135],[137.081911,35.292127],[137.081211,35.292169],[137.080886,35.292277],[137.080836,35.292435],[137.080873,35.292935],[137.080761,35.294285],[137.080786,35.294493],[137.080936,35.294852],[137.080836,35.29496],[137.080511,35.295143],[137.080336,35.295252],[137.079623,35.295993],[137.079573,35.296126],[137.079598,35.296285],[137.079698,35.296401],[137.080136,35.29676],[137.080361,35.29706],[137.080536,35.297785],[137.080636,35.297943],[137.081036,35.298301],[137.081173,35.298684],[137.081273,35.299751],[137.081236,35.299951],[137.081086,35.300218],[137.080436,35.300776],[137.080198,35.301142],[137.080273,35.301459],[137.080323,35.301751],[137.080236,35.302359],[137.080111,35.302559],[137.080061,35.302809],[137.080036,35.303076],[137.080186,35.303259],[137.080786,35.303759],[137.080898,35.303984],[137.080973,35.30405],[137.081148,35.304367],[137.081348,35.304617],[137.081698,35.304917],[137.081798,35.3051],[137.081798,35.305167],[137.081435,35.305475],[137.081136,35.305675],[137.080148,35.306483],[137.079773,35.306733],[137.079548,35.30675],[137.079298,35.3067],[137.079073,35.30675],[137.078798,35.306792],[137.078423,35.306942],[137.078148,35.306992],[137.077973,35.306983],[137.077748,35.306917],[137.077548,35.3068],[137.076974,35.306392],[137.076574,35.306233],[137.076324,35.306233],[137.075649,35.30625],[137.075024,35.306175],[137.073961,35.306467],[137.073112,35.306616],[137.072451,35.306619],[137.072012,35.306766],[137.071324,35.307666],[137.071024,35.307933],[137.070749,35.308041],[137.070262,35.308175],[137.069562,35.308416],[137.068487,35.308566],[137.067862,35.308516],[137.067225,35.308624],[137.066625,35.308849],[137.06635,35.308916],[137.066637,35.310041],[137.066612,35.310407],[137.066662,35.310857],[137.066887,35.311199],[137.06695,35.311491],[137.066875,35.311807],[137.06645,35.312182],[137.065937,35.312515],[137.065738,35.312807],[137.065275,35.314682],[137.064988,35.315148],[137.064663,35.315507],[137.064613,35.315665],[137.06455,35.316165],[137.064375,35.316523],[137.0642,35.316773],[137.063313,35.318048],[137.063238,35.318298],[137.063225,35.318548],[137.063838,35.320264],[137.064038,35.320448],[137.064787,35.320748],[137.065312,35.320998],[137.065837,35.321673],[137.066087,35.321906],[137.066312,35.322014],[137.066825,35.322539],[137.067225,35.322789],[137.067475,35.322998],[137.068099,35.323381],[137.068849,35.323798],[137.069299,35.324139],[137.069612,35.324589],[137.069787,35.324706],[137.070062,35.324798],[137.071912,35.325414],[137.072461,35.325673],[137.072661,35.325806],[137.072836,35.325989],[137.072936,35.326173],[137.072986,35.326373],[137.072886,35.326573],[137.072699,35.326756],[137.072574,35.326914],[137.072624,35.327247],[137.072599,35.327564],[137.072474,35.327789],[137.072037,35.328347],[137.071987,35.328731],[137.071699,35.329497],[137.071599,35.329947],[137.071624,35.330197],[137.071512,35.33058],[137.071162,35.330714],[137.070837,35.330689],[137.070337,35.330705],[137.070112,35.330822],[137.070037,35.330972],[137.069924,35.331514],[137.069799,35.332122],[137.069487,35.332638],[137.069187,35.333047],[137.068587,35.333605],[137.068524,35.333738],[137.068499,35.333988],[137.068312,35.335113],[137.068112,35.33568],[137.067987,35.33583],[137.067837,35.335855],[137.067337,35.335788],[137.066962,35.335805],[137.066599,35.336005],[137.066249,35.336163],[137.065974,35.336205],[137.065275,35.336088],[137.064725,35.336171],[137.064,35.336171],[137.063575,35.336121],[137.06355,35.336321],[137.063675,35.336546],[137.063625,35.337071],[137.063687,35.337521],[137.0636,35.337838],[137.063437,35.338104],[137.06325,35.338196],[137.062775,35.338271],[137.062262,35.338788],[137.061875,35.338854],[137.061487,35.339129],[137.060687,35.338888],[137.060475,35.338887],[137.06,35.338771],[137.0597,35.338596],[137.059062,35.338571],[137.058562,35.338621],[137.058125,35.338487],[137.05785,35.338487],[137.057488,35.338354],[137.057438,35.338304],[137.056775,35.338129],[137.056313,35.337954],[137.055975,35.337862],[137.055613,35.337837],[137.055513,35.337796],[137.0554,35.337662],[137.055225,35.337096],[137.055088,35.336779],[137.0549,35.336462],[137.054475,35.336104],[137.054275,35.336029],[137.0539,35.336054],[137.053288,35.336254],[137.053013,35.336429],[137.052913,35.336546],[137.052825,35.336696],[137.052613,35.336787],[137.052475,35.336771],[137.052338,35.336654],[137.0523,35.336546],[137.052213,35.336354],[137.051813,35.336012],[137.051363,35.335829],[137.050688,35.335621],[137.050563,35.335487],[137.050176,35.334654],[137.050026,35.334421],[137.049801,35.334354],[137.049626,35.334354],[137.049226,35.334462],[137.048826,35.334729],[137.048088,35.335221],[137.047738,35.335562],[137.047676,35.336029],[137.047576,35.336345],[137.047376,35.336545],[137.047351,35.336629],[137.047101,35.336962],[137.047276,35.337262],[137.047326,35.337487],[137.047269,35.33776],[137.047226,35.338112],[137.046976,35.338795],[137.046901,35.338903],[137.046701,35.339062],[137.046401,35.339695],[137.046276,35.340078],[137.046188,35.340737],[137.046276,35.341053],[137.046251,35.341437],[137.046176,35.341678],[137.046388,35.342112],[137.046313,35.342378],[137.046451,35.342695],[137.046513,35.343553],[137.046313,35.343736],[137.046188,35.344003],[137.046301,35.34432],[137.046488,35.344586],[137.046526,35.34497],[137.046601,35.345286],[137.046738,35.345603],[137.046576,35.346078],[137.046525,35.346395],[137.046725,35.346645],[137.046838,35.34687],[137.046613,35.347503],[137.046613,35.347886],[137.046725,35.348219],[137.046763,35.348603],[137.04665,35.348878],[137.045938,35.349194],[137.045825,35.349669],[137.045663,35.350003],[137.045475,35.350028],[137.045525,35.350119],[137.0454,35.350502],[137.045513,35.350769],[137.046113,35.351202],[137.046888,35.351669],[137.047275,35.351736],[137.047613,35.351894],[137.047863,35.352344],[137.047913,35.352994],[137.048088,35.353561],[137.048725,35.355069],[137.048837,35.355411],[137.048837,35.355994],[137.0489,35.356444],[137.048875,35.356602],[137.04905,35.357569],[137.049187,35.358002],[137.0496,35.358835],[137.049987,35.359285],[137.050075,35.35951],[137.049937,35.359935],[137.049902,35.360042],[137.049863,35.360172],[137.0498,35.360368],[137.049637,35.360777],[137.049312,35.361202],[137.049125,35.361585],[137.048937,35.362193],[137.048775,35.363052],[137.048525,35.363235],[137.048175,35.363418],[137.048087,35.363751],[137.048062,35.36421],[137.047962,35.364543],[137.047662,35.364993],[137.047187,35.36556],[137.047062,35.365926],[137.047087,35.366235],[137.047062,35.366376],[137.046475,35.366334],[137.046125,35.366401],[137.045987,35.366468],[137.045575,35.366876],[137.045325,35.367443],[137.045025,35.367684],[137.044562,35.367643],[137.044175,35.367643],[137.04365,35.367443],[137.042325,35.367309],[137.041913,35.367334],[137.041613,35.367201],[137.041113,35.367134],[137.0407,35.367117],[137.040288,35.367184],[137.0402,35.367226],[137.040013,35.367434],[137.039713,35.367634],[137.039325,35.367776],[137.0388,35.367842],[137.03845,35.367776],[137.038138,35.367667],[137.037473,35.367846],[137.036988,35.367934],[137.035775,35.367876],[137.035338,35.367917],[137.034976,35.368076],[137.034538,35.368059],[137.034038,35.368084],[137.033901,35.36815],[137.033988,35.369009],[137.033851,35.3691],[137.033388,35.368984],[137.032863,35.369009],[137.032563,35.369142],[137.032088,35.369509],[137.030113,35.370708],[137.029651,35.371117],[137.029376,35.371542],[137.029238,35.371975],[137.029251,35.372383],[137.029751,35.373616],[137.029776,35.373958],[137.029476,35.37425],[137.029113,35.374275],[137.029063,35.374616],[137.028963,35.374933],[137.028688,35.375091],[137.028376,35.375333],[137.028301,35.375633],[137.028363,35.375966],[137.028163,35.376191],[137.027838,35.376108],[137.027363,35.375833],[137.026838,35.375433],[137.026426,35.375183],[137.025926,35.375258],[137.025326,35.375391],[137.024851,35.375349],[137.024326,35.375216],[137.023089,35.375058],[137.022539,35.375199],[137.021776,35.375449],[137.021364,35.375699],[137.021276,35.375716],[137.020776,35.375649],[137.019976,35.375724],[137.019514,35.375991],[137.018826,35.376491],[137.018364,35.376607],[137.017952,35.376607],[137.017177,35.377241],[137.016664,35.377382],[137.016439,35.377466],[137.016114,35.377807],[137.015977,35.378624],[137.015977,35.37909],[137.015789,35.379549],[137.015427,35.379749],[137.015127,35.380382],[137.015327,35.380899],[137.015252,35.38124],[137.015027,35.381465],[137.014914,35.381532],[137.014477,35.38169],[137.013789,35.381807],[137.013289,35.381765],[137.012577,35.381648],[137.012252,35.381498],[137.012114,35.381515],[137.011615,35.381473],[137.01134,35.381632],[137.010902,35.381748],[137.010727,35.381698],[137.010515,35.381407],[137.010427,35.381365],[137.009602,35.381507],[137.00894,35.38144],[137.008415,35.381548],[137.00784,35.381573],[137.00734,35.38144],[137.006602,35.38174],[137.006077,35.381806],[137.00594,35.381781],[137.005415,35.381606],[137.004865,35.381265],[137.004453,35.381115],[137.00384,35.38114],[137.00329,35.38109],[137.002415,35.381273],[137.00214,35.381415],[137.002078,35.381656],[137.002203,35.382606],[137.002203,35.383106],[137.002065,35.383373],[137.001128,35.383781],[137.00074,35.384073],[137.00044,35.384414],[137.00009,35.384731],[136.999403,35.385389],[136.999178,35.385814],[136.998853,35.386272],[136.999028,35.386497],[136.999378,35.386739],[136.999578,35.387056],[136.999303,35.387331],[136.999215,35.387622],[136.999253,35.388022],[136.99884,35.388547],[136.999203,35.389714],[136.999203,35.39008],[136.998965,35.39048],[136.998665,35.390872],[136.998528,35.391138],[136.998303,35.39148],[136.998115,35.391455],[136.997703,35.391163],[136.99739,35.39103],[136.997039,35.390959],[136.99659,35.391238],[136.99629,35.391597],[136.996178,35.392072],[136.99604,35.39243],[136.995303,35.393146],[136.995103,35.393146],[136.994691,35.393221],[136.994203,35.393355],[136.994091,35.393463],[136.993703,35.393488],[136.992941,35.392905],[136.992603,35.392771],[136.992466,35.392771],[136.992053,35.392905],[136.991478,35.393288],[136.991203,35.394279],[136.990991,35.394529],[136.990191,35.394554],[136.990053,35.394796],[136.990141,35.395521],[136.989966,35.395746],[136.989866,35.395771],[136.989391,35.396021],[136.989316,35.396312],[136.989341,35.396696],[136.989503,35.397029],[136.989978,35.397612],[136.989916,35.398379],[136.989816,35.398854],[136.989516,35.399079],[136.989291,35.399354],[136.988928,35.39967],[136.988628,35.400004],[136.988578,35.400387],[136.988691,35.400637],[136.988878,35.400887],[136.988941,35.40102],[136.988853,35.401112],[136.987916,35.401378],[136.987291,35.401895],[136.986953,35.40197],[136.985916,35.401903],[136.985366,35.40192],[136.984891,35.401853],[136.983929,35.401453],[136.983516,35.40152],[136.983191,35.40152],[136.982691,35.401403],[136.981629,35.401495],[136.981266,35.401495],[136.981041,35.401545],[136.980829,35.401861],[136.980741,35.401903],[136.980529,35.402195],[136.980216,35.40272],[136.980029,35.402803],[136.979704,35.402736],[136.979429,35.40272],[136.979092,35.402894],[136.978904,35.402944],[136.978129,35.403036],[136.977992,35.403394],[136.978104,35.403819],[136.978176,35.404055],[136.978217,35.404186],[136.978242,35.404478],[136.978079,35.405153],[136.978192,35.405786],[136.978417,35.406252],[136.978629,35.406544],[136.978854,35.406752],[136.979354,35.407061],[136.979591,35.407286],[136.979904,35.407652],[136.980254,35.408369],[136.980566,35.408777],[136.981141,35.40936],[136.981604,35.409627],[136.982516,35.410035],[136.982704,35.410327],[136.983503,35.41096],[136.984028,35.411569],[136.984441,35.411927],[136.984666,35.412352],[136.984803,35.41301],[136.984691,35.413318],[136.984478,35.41366],[136.984503,35.413977],[136.984828,35.414293],[136.985328,35.414518],[136.985953,35.414852],[136.986291,35.415052],[136.986678,35.415235],[136.986953,35.415418],[136.986866,35.415618],[136.986616,35.415935],[136.986291,35.416268],[136.985903,35.416585],[136.985303,35.417018],[136.984753,35.417418],[136.984728,35.417535],[136.985603,35.417985],[136.985803,35.418235],[136.985778,35.418684],[136.985878,35.418884],[136.986153,35.419626],[136.986365,35.419868],[136.986915,35.420234],[136.987403,35.420459],[136.987653,35.420476],[136.987953,35.420434],[136.988365,35.420459],[136.988503,35.420543],[136.988778,35.420818],[136.98914,35.421376],[136.990128,35.422368],[136.990403,35.423068],[136.990977,35.423268],[136.991502,35.423334],[136.992327,35.423559],[136.992765,35.423743],[136.993077,35.424009],[136.993215,35.424234],[136.993352,35.424168],[136.994827,35.424101],[136.996677,35.423851],[136.996977,35.423876],[136.998814,35.423701],[136.999639,35.423726],[137.000926,35.423926],[137.003939,35.424451],[137.004814,35.424651],[137.005064,35.424676],[137.005614,35.42486],[137.005951,35.42506],[137.006089,35.425193],[137.006988,35.426393],[137.007188,35.426776],[137.007213,35.427093],[137.007163,35.427226],[137.007101,35.42766],[137.006938,35.42806],[137.006763,35.428651],[137.006738,35.429168],[137.006601,35.429618],[137.006601,35.429868],[137.006576,35.430184],[137.006713,35.431718],[137.006851,35.432326],[137.007176,35.432868],[137.007751,35.433592],[137.008313,35.434134],[137.008938,35.434609],[137.010451,35.435467],[137.011088,35.435709],[137.0117,35.435892],[137.0125,35.436034],[137.013488,35.436143],[137.015138,35.436259],[137.016362,35.436393],[137.020212,35.436468],[137.021674,35.436426],[137.022087,35.436468],[137.023524,35.436401],[137.024799,35.436376],[137.026112,35.436401],[137.028161,35.43636],[137.029786,35.43641],[137.030811,35.436543],[137.030886,35.436518],[137.032186,35.43666],[137.034561,35.437268],[137.036985,35.438035],[137.037285,35.438176],[137.040485,35.439326],[137.042135,35.439868],[137.043185,35.440318],[137.044835,35.441201],[137.045885,35.441726],[137.046872,35.442151],[137.047709,35.442585],[137.048784,35.443218],[137.049409,35.44346],[137.050184,35.443868],[137.050459,35.444051],[137.051347,35.44446],[137.052171,35.444751],[137.053134,35.445026],[137.053571,35.44511],[137.054659,35.445251],[137.055834,35.445293],[137.058433,35.445027],[137.060883,35.444718],[137.061933,35.444535],[137.063258,35.444202],[137.064058,35.44386],[137.064996,35.443252],[137.065571,35.442777],[137.066158,35.442194],[137.067395,35.441311],[137.06842,35.440752],[137.070158,35.440011],[137.071095,35.439694],[137.07192,35.439561],[137.072108,35.439511],[137.07297,35.439494],[137.074532,35.439719],[137.076195,35.440169],[137.07697,35.440469],[137.077632,35.440761],[137.078432,35.441169],[137.079144,35.441661],[137.080269,35.442361],[137.080819,35.442836],[137.081344,35.443536],[137.082044,35.444644],[137.082481,35.445794],[137.082894,35.446994],[137.083256,35.448619],[137.084956,35.448211],[137.085044,35.448169],[137.085156,35.447986],[137.087606,35.447352],[137.088056,35.447086],[137.088518,35.446678],[137.089731,35.445869],[137.089843,35.445844],[137.089956,35.446053],[137.089981,35.446953],[137.090318,35.448169],[137.090418,35.449119],[137.090556,35.449527],[137.090643,35.449927],[137.090593,35.450336],[137.09083,35.451077],[137.091193,35.451419],[137.09108,35.452027],[137.09133,35.452344],[137.091743,35.45271],[137.091943,35.453069],[137.09233,35.453044],[137.093018,35.452935],[137.093268,35.452844],[137.093755,35.452802],[137.094143,35.452819],[137.09418,35.453044],[137.094593,35.453069],[137.094755,35.452977],[137.09528,35.451919],[137.095667,35.451602],[137.09608,35.451444],[137.095855,35.450994],[137.095717,35.450502],[137.095693,35.450119],[137.09608,35.449369],[137.096217,35.449011],[137.096517,35.448853],[137.096992,35.448986],[137.097267,35.448853],[137.097155,35.448469],[137.09718,35.447953],[137.09723,35.447795],[137.097642,35.44757],[137.098117,35.447411],[137.098642,35.447545],[137.09908,35.447753],[137.099492,35.448136],[137.099967,35.44847],[137.100517,35.448611],[137.10063,35.449103],[137.101042,35.449353],[137.101479,35.449378],[137.101779,35.449561],[137.101479,35.449786],[137.101154,35.450186],[137.100842,35.450253],[137.10068,35.450253],[137.100517,35.450728],[137.100542,35.451019],[137.10063,35.451094],[137.100742,35.451386],[137.100679,35.451769],[137.100929,35.452444],[137.101179,35.452719],[137.101342,35.452669],[137.101317,35.451719],[137.101479,35.451069],[137.101892,35.450486],[137.102254,35.450145],[137.102479,35.450528],[137.102642,35.450936],[137.102617,35.451344],[137.103029,35.451411],[137.103467,35.451636],[137.103667,35.451953],[137.103667,35.452219],[137.103717,35.452269],[137.104079,35.452361],[137.104404,35.452628],[137.104954,35.453236],[137.105204,35.453603],[137.105204,35.453869],[137.105129,35.454003],[137.105129,35.454294],[137.104992,35.454611],[137.105129,35.454836],[137.106116,35.454911],[137.106666,35.455294],[137.106941,35.455769],[137.106891,35.456286],[137.106591,35.457544],[137.106779,35.457619],[137.107279,35.457502],[137.107879,35.457527],[137.108216,35.457302],[137.108716,35.457302],[137.109266,35.457344],[137.109729,35.457211],[137.110091,35.457552],[137.110391,35.457777],[137.110753,35.457711],[137.111078,35.457486],[137.111603,35.457869],[137.111941,35.457936],[137.112603,35.458294],[137.112716,35.458211],[137.112816,35.457777],[137.113266,35.456986],[137.113341,35.456653],[137.113616,35.456269],[137.115053,35.455053],[137.115116,35.454961],[137.115191,35.454536],[137.115353,35.454128],[137.115578,35.453928],[137.116078,35.453995],[137.116191,35.45397],[137.116841,35.453586],[137.116953,35.453478],[137.11734,35.453295],[137.117503,35.453295],[137.118065,35.453337],[137.118365,35.453295],[137.118778,35.45307],[137.11919,35.453003],[137.119328,35.452912],[137.119578,35.45262],[137.119828,35.452462],[137.119965,35.45242],[137.120378,35.452437],[137.120653,35.452528],[137.121503,35.453212],[137.121728,35.45332],[137.12189,35.45337],[137.122028,35.45329],[137.122115,35.453353],[137.12219,35.453395],[137.122278,35.453445],[137.122378,35.453503],[137.12259,35.45357],[137.122715,35.453603],[137.123003,35.453778],[137.123315,35.45387],[137.123552,35.453912],[137.123902,35.45387],[137.124127,35.45382],[137.12444,35.453712],[137.12459,35.453645],[137.124715,35.453595],[137.12504,35.453262],[137.12539,35.45317],[137.12554,35.453112],[137.126002,35.452779],[137.126052,35.452704],[137.12614,35.452704],[137.126202,35.452729],[137.126302,35.452804],[137.126402,35.452929],[137.126477,35.453012],[137.126627,35.453179],[137.12679,35.453329],[137.126977,35.45337],[137.12714,35.453329],[137.127202,35.453304],[137.12729,35.453212],[137.127327,35.453154],[137.127365,35.452862],[137.127365,35.452687],[137.127465,35.452562],[137.127515,35.452495],[137.127702,35.452354],[137.127815,35.452287],[137.128165,35.452237],[137.128377,35.452229],[137.12859,35.452237],[137.128777,35.452221],[137.128927,35.452204],[137.12904,35.452154],[137.12939,35.452112],[137.129627,35.452079],[137.129752,35.452071],[137.13014,35.452054],[137.130364,35.452112],[137.130652,35.452162],[137.130764,35.452162],[137.131239,35.452212],[137.131464,35.452229],[137.131827,35.452171],[137.132139,35.452054],[137.132477,35.451837],[137.132739,35.451729],[137.133139,35.451679],[137.133252,35.451612],[137.133439,35.451337],[137.133627,35.451213],[137.133789,35.451213],[137.133914,35.451296],[137.133952,35.451354],[137.134177,35.451654],[137.134227,35.451679],[137.134377,35.451679],[137.134477,35.451679],[137.134614,35.451654],[137.134727,35.451596],[137.134814,35.451538],[137.134889,35.451388],[137.134952,35.451121],[137.134977,35.450938],[137.135002,35.450779],[137.134964,35.450454],[137.134777,35.450163],[137.134927,35.450121],[137.135077,35.450121],[137.135252,35.450138],[137.135402,35.450171],[137.135602,35.450204],[137.135877,35.450329],[137.136102,35.450396],[137.136389,35.450479],[137.136702,35.450488],[137.136802,35.450513],[137.137251,35.450729],[137.137451,35.450671],[137.137951,35.450446],[137.138289,35.450571],[137.138376,35.450613],[137.138526,35.450671],[137.138739,35.450729],[137.138926,35.450779],[137.139101,35.450879],[137.139226,35.450963],[137.139264,35.451038],[137.139201,35.451179],[137.139164,35.451329],[137.139183,35.451426],[137.139239,35.451446],[137.139389,35.451454],[137.139476,35.451496],[137.139551,35.451596],[137.139601,35.451679],[137.139614,35.451871],[137.139639,35.452154],[137.139764,35.452313],[137.139976,35.452371],[137.140239,35.452363],[137.140364,35.452338],[137.140539,35.452263],[137.140614,35.452238],[137.140801,35.452179],[137.141051,35.452071],[137.141151,35.452046],[137.141426,35.452013],[137.141901,35.452129],[137.142126,35.452154],[137.142151,35.452154],[137.142326,35.452121],[137.142526,35.452096],[137.142676,35.452121],[137.142751,35.452138],[137.143163,35.452238],[137.143326,35.452304],[137.143426,35.452321],[137.143513,35.452388],[137.143651,35.452463],[137.143726,35.452529],[137.143776,35.452621],[137.143776,35.452729],[137.143726,35.452896],[137.143626,35.453163],[137.143626,35.453421],[137.143738,35.453704],[137.143776,35.453904],[137.143776,35.454213],[137.143701,35.454646],[137.143601,35.455013],[137.143576,35.455146],[137.143526,35.455354],[137.143551,35.455554],[137.143676,35.455696],[137.143876,35.455737],[137.144351,35.455646],[137.145688,35.455513],[137.145963,35.455471],[137.146151,35.455454],[137.146401,35.455438],[137.146526,35.455413],[137.146763,35.455438],[137.146913,35.455488],[137.147063,35.455529],[137.14755,35.455613],[137.147988,35.455571],[137.14805,35.455554],[137.148163,35.455563],[137.148325,35.455571],[137.148638,35.455696],[137.149038,35.455754],[137.149238,35.455771],[137.149463,35.455696],[137.149588,35.455613],[137.14995,35.455288],[137.15015,35.455296],[137.1503,35.455304],[137.150463,35.455321],[137.1506,35.455213],[137.15085,35.454904],[137.151038,35.454671],[137.151175,35.454538],[137.151325,35.454371],[137.151463,35.454263],[137.1515,35.454246],[137.151538,35.454221],[137.151738,35.454338],[137.151875,35.454413],[137.15205,35.454396],[137.152375,35.45438],[137.152637,35.454355],[137.152975,35.454296],[137.153175,35.454238],[137.1536,35.454155],[137.153912,35.454113],[137.154262,35.454055],[137.15485,35.453971],[137.15505,35.453946],[137.155112,35.453846],[137.154975,35.453688],[137.154875,35.453605],[137.154787,35.453346],[137.154812,35.453321],[137.155112,35.453338],[137.15515,35.453321],[137.1554,35.453338],[137.155612,35.453321],[137.156787,35.453271],[137.15715,35.453313],[137.157674,35.453455],[137.157849,35.453446],[137.158212,35.453305],[137.158337,35.453188],[137.158437,35.453096],[137.158674,35.452996],[137.158862,35.452938],[137.159062,35.452872],[137.159462,35.452847],[137.159899,35.45288],[137.160737,35.453197],[137.161224,35.453463],[137.161387,35.453571],[137.161574,35.453655],[137.161741,35.453683],[137.161912,35.453663],[137.162037,35.453688],[137.162236,35.453746],[137.162336,35.45383],[137.162436,35.453913],[137.162586,35.454053],[137.162811,35.454113],[137.163399,35.454038],[137.163486,35.454021],[137.163536,35.453955],[137.163649,35.453738],[137.163749,35.453663],[137.163874,35.453605],[137.163986,35.45348],[137.164186,35.453455],[137.164286,35.453472],[137.164349,35.453522],[137.164349,35.453605],[137.164149,35.453897],[137.164086,35.454022],[137.164111,35.454088],[137.164261,35.454371],[137.164311,35.45448],[137.164336,35.454505],[137.164374,35.454588],[137.164386,35.454646],[137.164361,35.454721],[137.164336,35.454771],[137.164286,35.454871],[137.164124,35.454955],[137.163936,35.455013],[137.163799,35.455105],[137.163724,35.45523],[137.163736,35.455413],[137.163899,35.455688],[137.164136,35.455846],[137.164211,35.455913],[137.164286,35.455963],[137.164361,35.456021],[137.164411,35.456088],[137.164424,35.45618],[137.164474,35.456413],[137.164486,35.456463],[137.164799,35.45703],[137.165024,35.457271],[137.165224,35.457471],[137.165424,35.457554],[137.165723,35.457688],[137.165761,35.457696],[137.165873,35.457729],[137.165973,35.457738],[137.166123,35.457796],[137.166336,35.457913],[137.166511,35.457996],[137.166673,35.458146],[137.166786,35.458263],[137.166836,35.458613],[137.166873,35.458788],[137.166861,35.459263],[137.166898,35.459646],[137.167311,35.461429],[137.167511,35.462362],[137.167636,35.463029],[137.167698,35.463212],[137.167873,35.463979],[137.16801,35.464654],[137.167985,35.465187],[137.167998,35.465295],[137.167985,35.465837],[137.16801,35.465937],[137.168085,35.465987],[137.168485,35.466095],[137.168648,35.466212],[137.168773,35.46637],[137.168835,35.466537],[137.168973,35.466854],[137.169173,35.467154],[137.16926,35.467312],[137.169373,35.46752],[137.169485,35.467678],[137.16971,35.467828],[137.16991,35.467937],[137.170635,35.46827],[137.171235,35.468503],[137.172422,35.468953],[137.172622,35.469037],[137.17291,35.469137],[137.173172,35.469228],[137.173472,35.469295],[137.173722,35.469353],[137.17401,35.46942],[137.174247,35.46947],[137.17446,35.469528],[137.174735,35.469612],[137.175097,35.469695],[137.175334,35.469745],[137.175784,35.469853],[137.176072,35.469953],[137.176259,35.470028],[137.176622,35.470137],[137.177859,35.470687],[137.179284,35.471328],[137.179434,35.471403],[137.179596,35.471462],[137.180071,35.471645],[137.180221,35.471703],[137.180446,35.471812],[137.181609,35.472195],[137.182134,35.472337],[137.182634,35.472437],[137.182946,35.472511],[137.183021,35.472536],[137.183958,35.472703],[137.184583,35.472836],[137.184746,35.472861],[137.186283,35.473095],[137.186546,35.473103],[137.188221,35.473378],[137.188795,35.473462],[137.18952,35.473528],[137.190945,35.473645],[137.192433,35.473712],[137.19402,35.473662],[137.194545,35.473595],[137.194782,35.473578],[137.195407,35.473412],[137.196707,35.472937],[137.197582,35.472487],[137.19817,35.472104],[137.198182,35.472054],[137.198357,35.471937],[137.199207,35.47142],[137.199844,35.471104],[137.200057,35.471012],[137.202707,35.469979],[137.202944,35.469879],[137.203157,35.469804],[137.203394,35.469754]]]},"properties":{"name":"可児","yomi":"かに","kuni_id":"K22","pref":"岐阜県","kuni_url":"/kg/resource/K22.html","id_url":"G22020.html","id":"G22020","kuni":"美濃"},"type":"Feature"}]}