{"type":"FeatureCollection","features":[{"properties":{"yomi":"にしちくま","name":"西筑摩","pref":"長野県","kuni_id":"K24","id_url":"G24001.html","kuni_url":"/kg/resource/K24.html","kuni":"信濃","id":"G24001"},"geometry":{"type":"Polygon","coordinates":[[[137.75001,36.094117],[137.750185,36.093942],[137.750623,36.093492],[137.750798,36.093201],[137.750798,36.092659],[137.751048,36.091259],[137.751298,36.090343],[137.75151,36.089959],[137.75186,36.089643],[137.752585,36.089268],[137.753447,36.088893],[137.753747,36.088685],[137.753972,36.088326],[137.754585,36.087093],[137.754847,36.086735],[137.755035,36.086477],[137.755197,36.08621],[137.756097,36.085985],[137.756747,36.085935],[137.757022,36.085893],[137.75756,36.08571],[137.758547,36.085485],[137.759084,36.085394],[137.759359,36.085277],[137.759597,36.085094],[137.760259,36.083744],[137.760584,36.083069],[137.760797,36.082836],[137.761834,36.082227],[137.762497,36.081936],[137.763209,36.081661],[137.764409,36.081278],[137.764946,36.081211],[137.766334,36.080644],[137.767284,36.080145],[137.767671,36.07987],[137.768421,36.07987],[137.769496,36.079803],[137.770183,36.079686],[137.770846,36.079461],[137.771658,36.079053],[137.772108,36.07862],[137.772371,36.078237],[137.772696,36.077995],[137.773358,36.077812],[137.773933,36.077653],[137.774133,36.077178],[137.774371,36.07677],[137.775208,36.075779],[137.775546,36.075479],[137.775871,36.075237],[137.776196,36.075054],[137.776646,36.075029],[137.777433,36.07512],[137.77832,36.075045],[137.779045,36.074887],[137.77997,36.07457],[137.780595,36.074237],[137.781258,36.073737],[137.781558,36.073462],[137.78207,36.073146],[137.782245,36.073304],[137.78282,36.074254],[137.783383,36.074771],[137.78372,36.075021],[137.78417,36.075262],[137.78467,36.075379],[137.785245,36.075262],[137.78587,36.075221],[137.786507,36.075279],[137.786657,36.075371],[137.787432,36.076137],[137.78782,36.076204],[137.788295,36.076387],[137.78857,36.076704],[137.788657,36.077129],[137.788632,36.077579],[137.78867,36.077987],[137.788995,36.078395],[137.789382,36.07857],[137.78992,36.078612],[137.790557,36.078504],[137.791182,36.078346],[137.79157,36.078271],[137.792619,36.078429],[137.793457,36.078312],[137.794082,36.078179],[137.794619,36.077954],[137.794982,36.077929],[137.795369,36.078062],[137.795944,36.078446],[137.796182,36.078471],[137.796507,36.078221],[137.796807,36.077879],[137.796869,36.077296],[137.796869,36.076729],[137.796569,36.075604],[137.796469,36.075104],[137.796444,36.073954],[137.796282,36.072854],[137.796819,36.07163],[137.796944,36.07048],[137.796994,36.07028],[137.797207,36.069871],[137.797482,36.069513],[137.797982,36.068563],[137.798219,36.068271],[137.798519,36.06818],[137.798857,36.067955],[137.799182,36.067663],[137.800232,36.067113],[137.800794,36.066872],[137.801157,36.066572],[137.801932,36.066188],[137.803369,36.065755],[137.803694,36.06558],[137.803844,36.065397],[137.804257,36.06463],[137.804444,36.064313],[137.804444,36.063814],[137.804319,36.062755],[137.804344,36.062347],[137.804469,36.062014],[137.804519,36.061605],[137.804407,36.060255],[137.804132,36.059647],[137.803769,36.059014],[137.803594,36.058606],[137.803382,36.058289],[137.802982,36.058022],[137.802694,36.057864],[137.802632,36.057731],[137.802682,36.057547],[137.803257,36.057189],[137.804032,36.056556],[137.804394,36.056422],[137.804994,36.056281],[137.805494,36.056031],[137.805919,36.055697],[137.806507,36.055014],[137.806757,36.054856],[137.807107,36.054831],[137.809144,36.055464],[137.809869,36.055556],[137.811119,36.055348],[137.811781,36.055281],[137.812144,36.055189],[137.812856,36.055073],[137.813906,36.055048],[137.814419,36.054914],[137.815306,36.054439],[137.815344,36.054506],[137.816356,36.055364],[137.816906,36.055631],[137.817381,36.055673],[137.817856,36.055673],[137.818819,36.056148],[137.819181,36.056281],[137.819569,36.056256],[137.820106,36.056123],[137.820681,36.056281],[137.821331,36.056656],[137.821868,36.056931],[137.822381,36.056973],[137.823068,36.056906],[137.823556,36.056789],[137.823643,36.056748],[137.823756,36.056298],[137.824568,36.055573],[137.824981,36.055298],[137.825043,36.05429],[137.825281,36.053898],[137.825456,36.05379],[137.825693,36.05379],[137.826056,36.053698],[137.826656,36.053448],[137.826743,36.053382],[137.826918,36.052948],[137.826943,36.052365],[137.826831,36.051373],[137.826881,36.050715],[137.827031,36.05029],[137.827356,36.049907],[137.827843,36.049499],[137.828231,36.049365],[137.828793,36.049365],[137.829631,36.049515],[137.830168,36.049582],[137.830655,36.04954],[137.831518,36.049199],[137.832243,36.049066],[137.83323,36.049082],[137.833968,36.049332],[137.834418,36.049399],[137.834968,36.049374],[137.835618,36.049241],[137.835943,36.048991],[137.83633,36.048557],[137.836605,36.048157],[137.836993,36.047816],[137.837318,36.047591],[137.83873,36.047341],[137.83918,36.047158],[137.839717,36.046658],[137.84028,36.045783],[137.840692,36.0454],[137.840905,36.044783],[137.841105,36.044316],[137.841442,36.043908],[137.842067,36.043725],[137.843142,36.043317],[137.843505,36.043275],[137.843655,36.043025],[137.84413,36.042433],[137.844242,36.042167],[137.84448,36.041892],[137.84538,36.041442],[137.845917,36.041125],[137.84628,36.04085],[137.846842,36.040625],[137.847467,36.0402],[137.848692,36.040125],[137.849292,36.040034],[137.849867,36.039742],[137.850554,36.039317],[137.851329,36.038701],[137.851567,36.038609],[137.851979,36.038592],[137.853029,36.038451],[137.853392,36.038651],[137.853929,36.039084],[137.854317,36.039309],[137.854854,36.039351],[137.856029,36.039142],[137.857254,36.038876],[137.857616,36.038917],[137.858179,36.039326],[137.858779,36.039617],[137.860154,36.040201],[137.861591,36.040667],[137.862141,36.040717],[137.862678,36.040692],[137.863453,36.040576],[137.863841,36.040601],[137.863991,36.040759],[137.864478,36.041567],[137.864866,36.042017],[137.866666,36.043326],[137.866991,36.043684],[137.867141,36.043975],[137.867715,36.044359],[137.868103,36.044692],[137.86834,36.045009],[137.86859,36.045484],[137.86889,36.045867],[137.869103,36.046209],[137.869315,36.046992],[137.869378,36.047042],[137.86979,36.046967],[137.870303,36.046742],[137.871228,36.046517],[137.87179,36.04645],[137.871937,36.046455],[137.87344,36.045934],[137.87459,36.045576],[137.875602,36.045326],[137.87604,36.045276],[137.877202,36.044934],[137.877752,36.044709],[137.87824,36.044434],[137.878764,36.044093],[137.880089,36.043659],[137.880552,36.043418],[137.881389,36.042393],[137.881889,36.042143],[137.883214,36.041801],[137.884239,36.041618],[137.884839,36.041418],[137.885301,36.041168],[137.885676,36.041051],[137.885976,36.041101],[137.886089,36.040893],[137.886314,36.040627],[137.886139,36.040218],[137.885764,36.03981],[137.885589,36.039743],[137.884976,36.039902],[137.884551,36.04011],[137.883764,36.040318],[137.883389,36.040318],[137.883152,36.04016],[137.882889,36.039593],[137.882827,36.039185],[137.882889,36.03876],[137.883002,36.038377],[137.883264,36.038177],[137.883752,36.03801],[137.884039,36.037877],[137.884851,36.037152],[137.885314,36.03681],[137.885601,36.036452],[137.885776,36.036135],[137.885651,36.035727],[137.885914,36.03546],[137.886289,36.035344],[137.887301,36.034844],[137.887564,36.034552],[137.887889,36.034344],[137.888289,36.034144],[137.888464,36.033577],[137.888889,36.033286],[137.889276,36.033077],[137.889739,36.032944],[137.889939,36.032628],[137.889939,36.032536],[137.890114,36.032244],[137.890339,36.032019],[137.891151,36.031494],[137.891551,36.031136],[137.891838,36.030753],[137.892188,36.029936],[137.892501,36.029503],[137.893313,36.028628],[137.893626,36.028195],[137.893801,36.027628],[137.894088,36.027178],[137.894438,36.026745],[137.894751,36.02627],[137.895388,36.02512],[137.895638,36.024829],[137.895963,36.02467],[137.896426,36.024604],[137.896651,36.024529],[137.89755,36.024529],[137.8981,36.024637],[137.898688,36.024687],[137.898975,36.024412],[137.899325,36.023962],[137.900163,36.023212],[137.900713,36.022962],[137.901025,36.022579],[137.901288,36.021946],[137.901538,36.021538],[137.9027,36.020113],[137.903363,36.019455],[137.903675,36.018938],[137.903988,36.018555],[137.904363,36.018238],[137.904488,36.018188],[137.903788,36.017655],[137.90335,36.017497],[137.902888,36.017272],[137.902538,36.016913],[137.902325,36.016413],[137.901688,36.015538],[137.90145,36.015089],[137.901338,36.014364],[137.9013,36.013939],[137.901125,36.013555],[137.901038,36.013664],[137.900525,36.013939],[137.900201,36.014005],[137.900026,36.013989],[137.899163,36.013472],[137.897563,36.013047],[137.897038,36.012797],[137.896538,36.012439],[137.896138,36.012014],[137.895814,36.01158],[137.895501,36.011272],[137.895026,36.01098],[137.894651,36.010572],[137.894539,36.010056],[137.893776,36.009872],[137.892851,36.009222],[137.892239,36.008756],[137.891864,36.008372],[137.891564,36.007989],[137.891364,36.007539],[137.891077,36.007181],[137.890252,36.006506],[137.889589,36.005648],[137.888889,36.004948],[137.888602,36.004773],[137.888252,36.004614],[137.887777,36.004189],[137.88749,36.003981],[137.887115,36.003781],[137.886415,36.003515],[137.885715,36.003198],[137.885302,36.003065],[137.885053,36.002865],[137.884815,36.002523],[137.88459,36.002348],[137.884165,36.00214],[137.883615,36.00214],[137.883215,36.00194],[137.882128,36.001781],[137.881115,36.001756],[137.880678,36.001715],[137.880378,36.001531],[137.879853,36.001081],[137.879353,36.00059],[137.879203,36.000298],[137.878953,35.999773],[137.878678,35.998873],[137.878253,35.998315],[137.878103,35.99784],[137.878128,35.99734],[137.878003,35.996982],[137.877728,35.996599],[137.877241,35.996124],[137.876803,35.995607],[137.876691,35.994815],[137.876403,35.994324],[137.875641,35.993216],[137.875391,35.993107],[137.874904,35.993041],[137.874379,35.992766],[137.874104,35.992591],[137.873391,35.992274],[137.872866,35.991916],[137.872629,35.991232],[137.872817,35.990066],[137.872779,35.989724],[137.872654,35.989499],[137.872079,35.988799],[137.871938,35.988554],[137.871654,35.987449],[137.871204,35.986458],[137.870629,35.98545],[137.870492,35.985066],[137.870492,35.984883],[137.870629,35.984366],[137.870792,35.983941],[137.870679,35.982725],[137.870592,35.982358],[137.870542,35.982292],[137.870155,35.982183],[137.869692,35.982],[137.868917,35.981458],[137.868392,35.981242],[137.867842,35.9811],[137.867155,35.981017],[137.866742,35.9809],[137.866667,35.9809],[137.866305,35.980608],[137.865367,35.980092],[137.86488,35.9796],[137.86418,35.978334],[137.86413,35.978092],[137.864205,35.977409],[137.864155,35.976826],[137.86363,35.975517],[137.863243,35.974576],[137.862555,35.973926],[137.86223,35.973518],[137.861781,35.972568],[137.861593,35.972343],[137.861506,35.972143],[137.861568,35.971759],[137.861843,35.971784],[137.862006,35.971576],[137.862056,35.971426],[137.862031,35.971376],[137.861431,35.971443],[137.860743,35.971626],[137.859618,35.971851],[137.858756,35.971809],[137.858381,35.971693],[137.858181,35.971559],[137.857631,35.971293],[137.856944,35.971226],[137.856256,35.971109],[137.855656,35.970843],[137.855431,35.970709],[137.855069,35.970168],[137.855044,35.970051],[137.854656,35.969559],[137.854144,35.968976],[137.854031,35.968793],[137.853731,35.968634],[137.853007,35.968501],[137.852082,35.968393],[137.851532,35.968143],[137.851307,35.967959],[137.851244,35.967535],[137.851307,35.967443],[137.850894,35.966768],[137.850919,35.96636],[137.851057,35.965868],[137.850694,35.965235],[137.850394,35.96456],[137.850282,35.963935],[137.850369,35.963302],[137.850194,35.963052],[137.849919,35.962493],[137.849707,35.961885],[137.849319,35.961477],[137.849094,35.96136],[137.848407,35.96071],[137.84802,35.96046],[137.84742,35.959969],[137.846732,35.959544],[137.846482,35.959002],[137.846207,35.958527],[137.845982,35.958369],[137.84527,35.958144],[137.844507,35.957827],[137.84417,35.957652],[137.843982,35.957494],[137.843457,35.957335],[137.84277,35.957202],[137.841945,35.956977],[137.841095,35.95691],[137.839695,35.957069],[137.839033,35.956935],[137.838433,35.956327],[137.83757,35.955652],[137.837021,35.954977],[137.836671,35.954594],[137.836996,35.953669],[137.836696,35.953086],[137.836558,35.952519],[137.836446,35.951736],[137.836171,35.951053],[137.835671,35.950603],[137.834846,35.950086],[137.834496,35.949911],[137.833771,35.949619],[137.833333,35.949303],[137.832459,35.948494],[137.832121,35.948269],[137.831459,35.947953],[137.831084,35.947611],[137.830671,35.947119],[137.830446,35.946936],[137.829896,35.946695],[137.829396,35.94597],[137.829809,35.944595],[137.829871,35.944186],[137.829809,35.944036],[137.829696,35.943245],[137.829484,35.942837],[137.829559,35.942162],[137.829509,35.941287],[137.829309,35.94047],[137.829209,35.93982],[137.828959,35.938895],[137.828897,35.938129],[137.829147,35.937745],[137.829609,35.937387],[137.831122,35.936396],[137.831647,35.935896],[137.832684,35.934121],[137.832709,35.933963],[137.832821,35.933754],[137.833121,35.933504],[137.833259,35.933329],[137.833621,35.932471],[137.833834,35.931771],[137.834271,35.92988],[137.834571,35.928797],[137.834709,35.92853],[137.834984,35.928188],[137.835646,35.927872],[137.837759,35.926972],[137.838746,35.926156],[137.838996,35.926022],[137.839846,35.925756],[137.840583,35.925389],[137.841433,35.924764],[137.842096,35.924423],[137.843058,35.924289],[137.843933,35.924264],[137.84482,35.924556],[137.845533,35.924873],[137.846383,35.925048],[137.84737,35.925073],[137.848533,35.925231],[137.849295,35.925073],[137.849795,35.924706],[137.849895,35.924598],[137.850482,35.924481],[137.851082,35.92419],[137.851745,35.923856],[137.851882,35.923423],[137.852395,35.923015],[137.852507,35.922865],[137.852557,35.922407],[137.852995,35.921665],[137.852995,35.92149],[137.853132,35.92079],[137.853195,35.920674],[137.853407,35.920449],[137.853707,35.919832],[137.85367,35.919715],[137.85367,35.919491],[137.853745,35.919249],[137.853857,35.919024],[137.853807,35.918707],[137.85392,35.918549],[137.853994,35.918482],[137.854494,35.918299],[137.856707,35.917291],[137.857782,35.916891],[137.857932,35.916774],[137.858069,35.916591],[137.858094,35.916391],[137.857982,35.915966],[137.858007,35.915241],[137.858144,35.914075],[137.858419,35.913133],[137.858482,35.912858],[137.858419,35.912142],[137.857732,35.911825],[137.857344,35.911692],[137.857094,35.91155],[137.856732,35.911192],[137.856519,35.910742],[137.856207,35.910383],[137.855882,35.910134],[137.855607,35.910017],[137.85507,35.909684],[137.854445,35.908534],[137.85427,35.908242],[137.854245,35.908017],[137.85427,35.907859],[137.854107,35.907725],[137.853695,35.907542],[137.852695,35.906909],[137.85167,35.906326],[137.851395,35.906101],[137.85137,35.905692],[137.851308,35.905492],[137.85117,35.905226],[137.851258,35.904909],[137.851233,35.904684],[137.851095,35.904326],[137.851033,35.903851],[137.85062,35.903243],[137.850283,35.902609],[137.850233,35.902409],[137.850508,35.902093],[137.85057,35.901893],[137.85057,35.900968],[137.850595,35.900876],[137.850508,35.900651],[137.850345,35.900401],[137.850283,35.900093],[137.850183,35.899776],[137.850095,35.898826],[137.850008,35.898426],[137.850033,35.897185],[137.849958,35.896627],[137.85007,35.896152],[137.850233,35.895702],[137.850345,35.894985],[137.850258,35.894844],[137.849621,35.894327],[137.849046,35.893677],[137.848458,35.893202],[137.847933,35.892927],[137.847721,35.892752],[137.847633,35.892569],[137.847608,35.891719],[137.847296,35.890411],[137.847271,35.890319],[137.848096,35.888653],[137.848458,35.888228],[137.848708,35.888028],[137.848958,35.887594],[137.849158,35.887036],[137.849296,35.886744],[137.849508,35.885553],[137.849733,35.885303],[137.850233,35.885053],[137.850946,35.884536],[137.851508,35.88407],[137.852058,35.883728],[137.852771,35.88362],[137.852771,35.883437],[137.852333,35.882403],[137.852246,35.882137],[137.852196,35.881679],[137.852221,35.88137],[137.852358,35.881079],[137.852771,35.880537],[137.853133,35.879837],[137.853721,35.879254],[137.853821,35.879004],[137.853933,35.878554],[137.854046,35.878421],[137.854658,35.878012],[137.855071,35.877879],[137.855296,35.877862],[137.855508,35.877721],[137.855646,35.877546],[137.855783,35.877454],[137.856321,35.877279],[137.856808,35.877188],[137.85712,35.877071],[137.85717,35.876988],[137.857233,35.876738],[137.857195,35.876446],[137.857445,35.875996],[137.856983,35.874305],[137.856783,35.873655],[137.856783,35.87338],[137.856896,35.873155],[137.856983,35.873063],[137.857058,35.872838],[137.857058,35.872596],[137.857008,35.872305],[137.856808,35.871938],[137.856283,35.871447],[137.856146,35.871263],[137.856008,35.870588],[137.855983,35.870322],[137.855758,35.869847],[137.855433,35.869238],[137.855783,35.868763],[137.856208,35.868114],[137.856283,35.86773],[137.856346,35.867347],[137.856308,35.867039],[137.856234,35.866789],[137.856034,35.86643],[137.855846,35.86618],[137.855809,35.865756],[137.855734,35.865372],[137.855009,35.863881],[137.855146,35.862806],[137.854984,35.862131],[137.854821,35.861523],[137.854321,35.860414],[137.854097,35.859715],[137.854122,35.859581],[137.853347,35.859698],[137.852747,35.859715],[137.852334,35.859581],[137.851384,35.859131],[137.851172,35.859065],[137.850809,35.859065],[137.850422,35.859106],[137.850122,35.859065],[137.84901,35.858681],[137.848485,35.85859],[137.848122,35.858498],[137.84746,35.858156],[137.84686,35.858048],[137.846297,35.856856],[137.846222,35.856715],[137.846272,35.85604],[137.846247,35.855548],[137.84636,35.855098],[137.84636,35.85494],[137.846135,35.854515],[137.845973,35.85429],[137.845885,35.854107],[137.845948,35.85334],[137.846135,35.851432],[137.846185,35.85114],[137.846473,35.850574],[137.846573,35.849924],[137.846548,35.849132],[137.846473,35.848774],[137.84616,35.848099],[137.84616,35.847849],[137.846223,35.847558],[137.84636,35.847174],[137.846523,35.846949],[137.84661,35.846708],[137.846385,35.845849],[137.846185,35.845333],[137.845973,35.844341],[137.846073,35.843508],[137.846111,35.842225],[137.846248,35.842042],[137.846936,35.841483],[137.847436,35.840833],[137.848811,35.839592],[137.849173,35.8393],[137.849335,35.839075],[137.849286,35.83885],[137.849148,35.838584],[137.848786,35.838226],[137.848236,35.837909],[137.847161,35.837542],[137.847073,35.837476],[137.846986,35.836934],[137.846886,35.836509],[137.847023,35.836359],[137.847248,35.835909],[137.847361,35.835318],[137.847436,35.835093],[137.847411,35.834959],[137.847436,35.834918],[137.847411,35.834851],[137.847273,35.834759],[137.846911,35.834626],[137.846061,35.834484],[137.844399,35.834368],[137.844349,35.834276],[137.844236,35.833784],[137.844099,35.833601],[137.843899,35.833218],[137.843436,35.832568],[137.843236,35.832226],[137.843074,35.832001],[137.842824,35.831776],[137.842349,35.831551],[137.842274,35.831526],[137.841936,35.830985],[137.841611,35.829835],[137.841474,35.829627],[137.841311,35.829518],[137.840924,35.829385],[137.840611,35.829243],[137.840061,35.82891],[137.839811,35.828793],[137.839174,35.828702],[137.838624,35.828727],[137.838424,35.828652],[137.838324,35.828269],[137.838037,35.827727],[137.837987,35.827502],[137.837874,35.827327],[137.837512,35.827235],[137.837437,35.826985],[137.837374,35.826644],[137.837412,35.826285],[137.837374,35.82611],[137.837412,35.825969],[137.837299,35.825502],[137.837212,35.824752],[137.837249,35.824511],[137.837137,35.824327],[137.837074,35.823311],[137.837024,35.823219],[137.836774,35.823202],[137.836449,35.823244],[137.836249,35.823177],[137.836112,35.823086],[137.835887,35.822636],[137.83575,35.822228],[137.835725,35.822028],[137.83575,35.821753],[137.835425,35.821394],[137.835125,35.820719],[137.834787,35.820178],[137.834287,35.819744],[137.834175,35.819611],[137.834175,35.819544],[137.834125,35.819544],[137.833712,35.819253],[137.83335,35.81882],[137.8331,35.818711],[137.832987,35.818711],[137.832687,35.818595],[137.8323,35.818278],[137.832025,35.81817],[137.831963,35.81817],[137.831775,35.817936],[137.8312,35.817553],[137.8307,35.817036],[137.830363,35.816678],[137.829338,35.815795],[137.82885,35.815295],[137.828738,35.815228],[137.828625,35.815095],[137.828536,35.815043],[137.828401,35.814962],[137.828101,35.814712],[137.827101,35.814237],[137.826776,35.814028],[137.826413,35.81387],[137.826363,35.813803],[137.826076,35.81367],[137.826051,35.813695],[137.825338,35.813603],[137.824363,35.813287],[137.824201,35.81324],[137.824151,35.813237],[137.824251,35.812828],[137.824313,35.812745],[137.824451,35.811687],[137.824564,35.811029],[137.824789,35.810695],[137.825501,35.81002],[137.825588,35.80997],[137.826038,35.809279],[137.826226,35.808921],[137.826451,35.808646],[137.826976,35.808221],[137.827138,35.808021],[137.827113,35.807729],[137.827138,35.807546],[137.827338,35.807363],[137.827501,35.807096],[137.827501,35.806871],[137.827726,35.806646],[137.827951,35.806529],[137.828301,35.806263],[137.828301,35.806154],[137.828276,35.805479],[137.828338,35.805321],[137.828338,35.804638],[137.828064,35.804371],[137.827589,35.803713],[137.826976,35.802971],[137.826789,35.802788],[137.826564,35.802705],[137.826451,35.802563],[137.826314,35.802205],[137.825689,35.802047],[137.825576,35.80193],[137.825514,35.801372],[137.825414,35.801055],[137.825264,35.80083],[137.825101,35.800697],[137.824889,35.80058],[137.824639,35.800513],[137.824277,35.800263],[137.823977,35.800105],[137.823827,35.80008],[137.823589,35.799922],[137.823252,35.799405],[137.822114,35.799039],[137.821477,35.798772],[137.821014,35.798722],[137.820289,35.798789],[137.820102,35.798772],[137.81974,35.79868],[137.81944,35.798655],[137.819215,35.798589],[137.818877,35.798564],[137.818602,35.798272],[137.818552,35.79818],[137.818302,35.797955],[137.818165,35.79773],[137.817915,35.797522],[137.81769,35.797297],[137.817502,35.797272],[137.817202,35.797114],[137.816927,35.797047],[137.815977,35.797047],[137.815815,35.797022],[137.81524,35.796622],[137.814815,35.79628],[137.814265,35.795914],[137.814128,35.79578],[137.81369,35.79553],[137.813378,35.795331],[137.812915,35.794722],[137.812803,35.794472],[137.812615,35.794139],[137.812253,35.793706],[137.812003,35.793072],[137.811778,35.792806],[137.811504,35.792439],[137.811253,35.792264],[137.811116,35.792214],[137.810378,35.791631],[137.810266,35.791581],[137.810066,35.791406],[137.809816,35.791248],[137.808766,35.790839],[137.807391,35.790339],[137.806641,35.790114],[137.806204,35.789931],[137.805616,35.789798],[137.804948,35.789594],[137.804679,35.789431],[137.804791,35.789206],[137.804904,35.789123],[137.805066,35.788873],[137.805291,35.788673],[137.805429,35.788514],[137.805541,35.788223],[137.805654,35.788039],[137.805841,35.787856],[137.805929,35.787706],[137.806454,35.78734],[137.806641,35.787165],[137.806754,35.78689],[137.807029,35.786598],[137.807141,35.786215],[137.807341,35.785973],[137.807504,35.785631],[137.807566,35.78534],[137.807529,35.784865],[137.807591,35.78469],[137.807891,35.784307],[137.807979,35.784032],[137.808116,35.783832],[137.808504,35.783432],[137.808529,35.78334],[137.809029,35.78289],[137.809141,35.782665],[137.809116,35.782307],[137.809066,35.782057],[137.809166,35.781582],[137.809141,35.781399],[137.809029,35.781265],[137.808954,35.780707],[137.808704,35.780324],[137.808679,35.780049],[137.808754,35.779849],[137.808654,35.779124],[137.808766,35.778991],[137.808766,35.778924],[137.808904,35.778699],[137.808954,35.778499],[137.809266,35.778116],[137.809454,35.777957],[137.809504,35.777866],[137.809541,35.777691],[137.809429,35.777349],[137.809317,35.777166],[137.809317,35.776832],[137.809379,35.776399],[137.809379,35.775841],[137.809317,35.775591],[137.809342,35.775391],[137.809817,35.774583],[137.809992,35.773924],[137.809742,35.773383],[137.809879,35.772283],[137.810042,35.7719],[137.810242,35.771783],[137.810354,35.771608],[137.810429,35.771266],[137.810467,35.7708],[137.810429,35.770325],[137.810467,35.769917],[137.810354,35.769333],[137.810404,35.768833],[137.810304,35.768158],[137.810379,35.767733],[137.810492,35.767467],[137.810554,35.766859],[137.810379,35.7662],[137.810167,35.765884],[137.810167,35.765709],[137.810217,35.7655],[137.810167,35.765259],[137.810304,35.765009],[137.810417,35.764509],[137.810392,35.764109],[137.810442,35.763884],[137.810417,35.763659],[137.810442,35.763451],[137.811029,35.762467],[137.811217,35.762417],[137.811442,35.762417],[137.811879,35.762193],[137.812104,35.761884],[137.812079,35.761634],[137.812167,35.761184],[137.811992,35.760893],[137.811892,35.760418],[137.811892,35.759784],[137.81183,35.759535],[137.811717,35.759335],[137.811805,35.758993],[137.812217,35.758843],[137.812355,35.758635],[137.812442,35.758435],[137.812392,35.75821],[137.812442,35.757851],[137.812417,35.757693],[137.812667,35.757193],[137.812692,35.75686],[137.81278,35.756543],[137.812967,35.756277],[137.813055,35.756068],[137.813005,35.755618],[137.813167,35.755443],[137.813217,35.755327],[137.81333,35.755218],[137.81333,35.755152],[137.813467,35.754968],[137.81333,35.754452],[137.813417,35.754094],[137.81333,35.75391],[137.813392,35.753794],[137.813642,35.753527],[137.813667,35.753394],[137.813617,35.753277],[137.813442,35.753185],[137.813467,35.753077],[137.81328,35.75256],[137.813117,35.752269],[137.813142,35.75206],[137.81328,35.751769],[137.813092,35.751519],[137.812917,35.751186],[137.812842,35.750936],[137.812755,35.750777],[137.81243,35.750511],[137.812117,35.750061],[137.81188,35.749877],[137.81118,35.749536],[137.810793,35.749152],[137.81083,35.748819],[137.81063,35.748344],[137.810493,35.748211],[137.80948,35.748052],[137.809118,35.747528],[137.809093,35.747286],[137.808893,35.747169],[137.808818,35.747169],[137.80878,35.747103],[137.808343,35.746828],[137.808068,35.746586],[137.807706,35.746136],[137.807106,35.745794],[137.806831,35.745678],[137.806718,35.745503],[137.806668,35.745319],[137.806556,35.745186],[137.806493,35.745053],[137.806443,35.744686],[137.806306,35.744486],[137.805093,35.743678],[137.804981,35.743495],[137.804706,35.743153],[137.804431,35.742636],[137.804268,35.742386],[137.803931,35.741645],[137.803881,35.741353],[137.803631,35.74077],[137.803419,35.740545],[137.803244,35.740428],[137.803281,35.740045],[137.803169,35.739554],[137.803169,35.73942],[137.803394,35.73917],[137.803556,35.73872],[137.804056,35.738045],[137.804244,35.737845],[137.804381,35.737412],[137.804694,35.736946],[137.804881,35.736046],[137.804919,35.735662],[137.804856,35.735321],[137.804306,35.733971],[137.804169,35.733721],[137.804144,35.733296],[137.804281,35.733029],[137.804394,35.732621],[137.804281,35.732213],[137.804231,35.732238],[137.804206,35.731496],[137.804481,35.731155],[137.804644,35.731071],[137.804819,35.730888],[137.804756,35.730596],[137.804819,35.730122],[137.804931,35.729963],[137.804981,35.729722],[137.804956,35.729497],[137.805069,35.72918],[137.805206,35.728505],[137.805181,35.727964],[137.805119,35.727689],[137.804981,35.72738],[137.805019,35.72663],[137.805069,35.72643],[137.805019,35.726255],[137.805044,35.726114],[137.805156,35.72598],[137.805381,35.725847],[137.805431,35.72578],[137.805519,35.72553],[137.805594,35.725489],[137.805769,35.725214],[137.805731,35.724947],[137.805819,35.724789],[137.806344,35.724614],[137.806619,35.724564],[137.806794,35.724497],[137.807006,35.724164],[137.807319,35.724031],[137.807456,35.723847],[137.807569,35.723506],[137.808006,35.723214],[137.808394,35.722989],[137.808644,35.722948],[137.808806,35.722948],[137.808781,35.722881],[137.808831,35.722881],[137.809331,35.722614],[137.809694,35.722481],[137.809831,35.722389],[137.810019,35.722339],[137.810244,35.722206],[137.810719,35.722098],[137.810881,35.721981],[137.811019,35.721939],[137.811818,35.722148],[137.812181,35.722073],[137.812343,35.721939],[137.812543,35.721698],[137.812656,35.721473],[137.812931,35.72134],[137.813043,35.721181],[137.813068,35.720931],[137.813206,35.720865],[137.813368,35.720665],[137.813568,35.720298],[137.814443,35.720165],[137.814868,35.720056],[137.815106,35.720081],[137.815306,35.720031],[137.815493,35.719948],[137.815581,35.71979],[137.815693,35.719673],[137.815943,35.719657],[137.816193,35.719582],[137.816656,35.719365],[137.816993,35.719065],[137.817181,35.718798],[137.817381,35.718465],[137.817406,35.718098],[137.817131,35.717765],[137.816831,35.716974],[137.816743,35.716865],[137.816643,35.716574],[137.816556,35.716457],[137.816581,35.715824],[137.816556,35.715715],[137.816643,35.715465],[137.816718,35.715399],[137.816968,35.715332],[137.816943,35.715265],[137.816968,35.715107],[137.816918,35.714841],[137.816806,35.714566],[137.816831,35.714232],[137.816943,35.713557],[137.816781,35.712832],[137.816781,35.712541],[137.816706,35.712024],[137.816731,35.711999],[137.816753,35.712023],[137.816756,35.711933],[137.816431,35.711591],[137.816368,35.711508],[137.816343,35.710674],[137.816568,35.710041],[137.816656,35.709841],[137.816618,35.709524],[137.816456,35.709008],[137.816318,35.708758],[137.816131,35.708191],[137.815931,35.7079],[137.815656,35.707608],[137.815419,35.707183],[137.815531,35.706508],[137.815494,35.706325],[137.815356,35.706191],[137.815169,35.706125],[137.814806,35.706125],[137.814556,35.706075],[137.814169,35.705808],[137.813956,35.705625],[137.813431,35.705058],[137.813094,35.704608],[137.812819,35.704133],[137.812719,35.703841],[137.812019,35.702783],[137.811744,35.702175],[137.811694,35.701925],[137.811582,35.70175],[137.811444,35.701633],[137.811094,35.701475],[137.810869,35.701433],[137.810782,35.701317],[137.810869,35.701158],[137.811057,35.700958],[137.811169,35.700892],[137.811307,35.700667],[137.811444,35.700333],[137.811732,35.700125],[137.811894,35.69995],[137.812032,35.69945],[137.812507,35.696684],[137.812594,35.696142],[137.812869,35.695176],[137.813232,35.694684],[137.813257,35.694393],[137.813344,35.694101],[137.813557,35.693759],[137.813694,35.693626],[137.813807,35.693334],[137.813644,35.692318],[137.813532,35.692026],[137.813394,35.691843],[137.812932,35.69151],[137.812407,35.691168],[137.812451,35.69115],[137.812157,35.690943],[137.811582,35.690693],[137.811382,35.690585],[137.810969,35.69011],[137.81012,35.689343],[137.808245,35.687468],[137.807745,35.687243],[137.807557,35.687085],[137.807357,35.68666],[137.806757,35.686118],[137.806532,35.685893],[137.80607,35.685085],[137.805458,35.684243],[137.80527,35.683752],[137.80502,35.683027],[137.804633,35.682644],[137.804308,35.682602],[137.804033,35.682352],[137.803583,35.68181],[137.80317,35.681335],[137.80312,35.681227],[137.803233,35.680685],[137.80332,35.680419],[137.803483,35.680144],[137.803483,35.680011],[137.803258,35.679536],[137.80332,35.679227],[137.80357,35.678886],[137.804233,35.677086],[137.804283,35.676861],[137.804508,35.676436],[137.80467,35.676303],[137.80487,35.675919],[137.804933,35.675486],[137.80512,35.674995],[137.80512,35.674795],[137.805283,35.674361],[137.805283,35.674253],[137.805095,35.673911],[137.805008,35.673395],[137.804521,35.672362],[137.804496,35.671928],[137.804296,35.670962],[137.804271,35.670562],[137.804308,35.670178],[137.804271,35.669862],[137.804233,35.669412],[137.804096,35.668829],[137.803533,35.667587],[137.802271,35.666287],[137.801671,35.665679],[137.801534,35.665221],[137.801634,35.664321],[137.801634,35.663871],[137.801584,35.663354],[137.801421,35.662746],[137.801334,35.662163],[137.801446,35.661713],[137.801934,35.660788],[137.802346,35.66013],[137.802546,35.65973],[137.802571,35.65923],[137.802271,35.658172],[137.802159,35.657363],[137.801996,35.656822],[137.801659,35.656097],[137.801584,35.655763],[137.801334,35.655472],[137.800834,35.655105],[137.799622,35.654364],[137.798447,35.653555],[137.797484,35.653039],[137.797372,35.65218],[137.797172,35.651639],[137.796872,35.651172],[137.796097,35.649589],[137.795797,35.649322],[137.79511,35.649006],[137.794447,35.648623],[137.793347,35.647723],[137.79266,35.647031],[137.792635,35.646914],[137.792835,35.646664],[137.79286,35.646348],[137.792635,35.645423],[137.792422,35.644956],[137.79206,35.64464],[137.791622,35.644506],[137.791097,35.644298],[137.790597,35.64399],[137.789698,35.643065],[137.788973,35.642098],[137.78846,35.641665],[137.78796,35.641198],[137.787798,35.640973],[137.78771,35.64059],[137.787685,35.64009],[137.787523,35.63984],[137.787048,35.639615],[137.78661,35.639307],[137.78606,35.638765],[137.78581,35.638582],[137.785298,35.638407],[137.784061,35.638115],[137.783511,35.637932],[137.782273,35.63744],[137.781823,35.637165],[137.781473,35.636832],[137.781273,35.635974],[137.780423,35.634716],[137.779548,35.633632],[137.778748,35.633049],[137.778311,35.632774],[137.777836,35.632349],[137.777561,35.631899],[137.777261,35.631491],[137.776911,35.631199],[137.776386,35.630866],[137.776161,35.630774],[137.775536,35.630641],[137.774786,35.630416],[137.773336,35.629758],[137.772924,35.629783],[137.771136,35.630307],[137.770561,35.630391],[137.769762,35.630349],[137.767949,35.630107],[137.767124,35.629924],[137.766375,35.629633],[137.765712,35.629316],[137.765037,35.628933],[137.764812,35.628774],[137.764125,35.628416],[137.763463,35.628166],[137.760713,35.627649],[137.760226,35.627516],[137.760026,35.627408],[137.759338,35.626866],[137.759176,35.626666],[137.758026,35.625716],[137.757589,35.625225],[137.756814,35.6241],[137.756651,35.623625],[137.756764,35.622925],[137.756764,35.62265],[137.756452,35.622275],[137.755664,35.621617],[137.755277,35.621367],[137.754889,35.621059],[137.754202,35.6202],[137.75404,35.620042],[137.753602,35.619775],[137.75299,35.619617],[137.751977,35.619484],[137.75154,35.619301],[137.751128,35.619009],[137.750353,35.618201],[137.749315,35.617634],[137.74849,35.617226],[137.748103,35.617092],[137.746967,35.617023],[137.746616,35.617051],[137.746291,35.616851],[137.745516,35.616151],[137.744279,35.616118],[137.742629,35.615776],[137.741966,35.615484],[137.741529,35.615101],[137.740979,35.614851],[137.740617,35.614734],[137.739829,35.614643],[137.739517,35.614301],[137.739304,35.613851],[137.738704,35.61351],[137.738042,35.613193],[137.737855,35.613035],[137.737267,35.612876],[137.737105,35.612876],[137.736355,35.613101],[137.735642,35.613251],[137.734655,35.613401],[137.734068,35.613376],[137.73333,35.613393],[137.732718,35.613459],[137.73173,35.613234],[137.731068,35.612984],[137.730743,35.612776],[137.730568,35.612843],[137.730105,35.613159],[137.72968,35.613376],[137.729605,35.613309],[137.729281,35.613126],[137.728618,35.612651],[137.728568,35.612276],[137.728706,35.611893],[137.728656,35.611485],[137.728431,35.61106],[137.728331,35.610518],[137.728218,35.610293],[137.727131,35.609393],[137.726794,35.60901],[137.726281,35.608693],[137.726056,35.608177],[137.725669,35.608085],[137.725181,35.60786],[137.724994,35.607052],[137.724694,35.606469],[137.724069,35.60561],[137.723507,35.606035],[137.722357,35.606502],[137.722182,35.606494],[137.721669,35.606202],[137.721419,35.60566],[137.721557,35.60526],[137.721757,35.604944],[137.721207,35.604452],[137.720957,35.604336],[137.720469,35.604361],[137.719807,35.603886],[137.719645,35.603702],[137.720007,35.603144],[137.72017,35.602986],[137.720395,35.602652],[137.720007,35.602294],[137.719632,35.601703],[137.71917,35.601369],[137.718532,35.601278],[137.717432,35.600344],[137.71692,35.600103],[137.716695,35.600094],[137.71637,35.599919],[137.715933,35.599353],[137.715383,35.599169],[137.715183,35.598836],[137.715358,35.598295],[137.715083,35.598003],[137.715258,35.596678],[137.715508,35.596237],[137.716233,35.595628],[137.716345,35.595428],[137.716733,35.595095],[137.717483,35.594962],[137.717833,35.594737],[137.71837,35.594137],[137.718208,35.59387],[137.718158,35.593129],[137.718958,35.592321],[137.718908,35.592121],[137.718933,35.591404],[137.719133,35.590846],[137.71917,35.590213],[137.719333,35.589696],[137.719808,35.589296],[137.720308,35.588738],[137.720395,35.588579],[137.720258,35.588154],[137.720295,35.58663],[137.72032,35.586538],[137.720408,35.586463],[137.720383,35.586446],[137.720483,35.586263],[137.720408,35.586171],[137.720133,35.586013],[137.719058,35.585755],[137.718658,35.585413],[137.718345,35.585055],[137.717996,35.585047],[137.717533,35.585296],[137.717058,35.585088],[137.716596,35.583822],[137.716521,35.583688],[137.715696,35.583522],[137.715121,35.58368],[137.714521,35.583805],[137.714121,35.583672],[137.713746,35.583422],[137.713646,35.583038],[137.713796,35.582655],[137.713634,35.58243],[137.711759,35.581513],[137.711409,35.581305],[137.711059,35.580922],[137.710884,35.580539],[137.710734,35.58038],[137.709984,35.580555],[137.709559,35.580597],[137.709134,35.580547],[137.708809,35.580297],[137.708334,35.579839],[137.707872,35.579255],[137.707872,35.57903],[137.707747,35.578555],[137.707422,35.578639],[137.706259,35.579197],[137.706084,35.579014],[137.705922,35.578655],[137.705572,35.578314],[137.705097,35.57808],[137.704322,35.577897],[137.703147,35.577772],[137.702222,35.577655],[137.701772,35.577522],[137.70121,35.577697],[137.70071,35.57778],[137.700235,35.577597],[137.699923,35.577214],[137.698973,35.576755],[137.698398,35.576347],[137.698223,35.576164],[137.698523,35.57553],[137.698385,35.575306],[137.69766,35.575056],[137.697386,35.574081],[137.696961,35.573806],[137.696486,35.573739],[137.696073,35.573372],[137.695973,35.572947],[137.695773,35.572514],[137.695098,35.572039],[137.694473,35.571922],[137.694198,35.571714],[137.693586,35.570989],[137.693211,35.570648],[137.692661,35.570306],[137.692361,35.569873],[137.692199,35.569356],[137.691949,35.569281],[137.691374,35.569323],[137.690861,35.569256],[137.690324,35.568731],[137.690224,35.568756],[137.689774,35.568839],[137.689449,35.568798],[137.689499,35.568564],[137.689424,35.568114],[137.689449,35.567731],[137.689537,35.567348],[137.689512,35.567148],[137.689237,35.566648],[137.690349,35.56609],[137.690874,35.565756],[137.691074,35.56549],[137.690961,35.56499],[137.690737,35.564723],[137.690362,35.56379],[137.690299,35.563273],[137.690449,35.562732],[137.690687,35.562082],[137.690962,35.562124],[137.691637,35.56209],[137.692161,35.56209],[137.692711,35.562274],[137.692836,35.562415],[137.693061,35.562232],[137.693286,35.561782],[137.693599,35.561399],[137.693924,35.561224],[137.694274,35.561182],[137.694524,35.560841],[137.694686,35.559941],[137.694861,35.559582],[137.694999,35.559107],[137.694774,35.558499],[137.694674,35.557958],[137.694661,35.557308],[137.694186,35.556533],[137.694161,35.556349],[137.693949,35.555991],[137.693674,35.555174],[137.693862,35.554791],[137.694137,35.5541],[137.694187,35.554075],[137.694087,35.553808],[137.694124,35.553191],[137.693974,35.55295],[137.693874,35.552875],[137.693449,35.552875],[137.692949,35.552958],[137.692399,35.552891],[137.691974,35.552641],[137.691474,35.552233],[137.690899,35.552341],[137.690012,35.552558],[137.689625,35.5524],[137.68945,35.551991],[137.6888,35.55135],[137.688625,35.55115],[137.688275,35.550991],[137.68805,35.550783],[137.687862,35.550308],[137.687812,35.549675],[137.687675,35.549],[137.6875,35.548458],[137.6871,35.548],[137.686813,35.547525],[137.686788,35.547392],[137.686838,35.546825],[137.686788,35.546334],[137.686575,35.546034],[137.6864,35.545767],[137.6866,35.545184],[137.686413,35.544551],[137.686613,35.544234],[137.687238,35.543851],[137.68735,35.543542],[137.68685,35.543042],[137.686725,35.542567],[137.686675,35.542476],[137.6865,35.542384],[137.685413,35.541676],[137.685263,35.541517],[137.685013,35.541018],[137.684913,35.540676],[137.684688,35.540359],[137.684476,35.539909],[137.684701,35.539659],[137.684851,35.539351],[137.684638,35.538718],[137.684538,35.538101],[137.684563,35.537876],[137.684401,35.536618],[137.684351,35.53641],[137.683851,35.53666],[137.683326,35.536743],[137.682851,35.536426],[137.682201,35.535901],[137.681501,35.535651],[137.680801,35.535551],[137.680626,35.535576],[137.680251,35.535818],[137.679701,35.535926],[137.679026,35.535876],[137.678801,35.535585],[137.678876,35.535468],[137.678776,35.535201],[137.678326,35.534743],[137.678326,35.534585],[137.677764,35.533685],[137.677389,35.533185],[137.676914,35.533002],[137.676239,35.532885],[137.675714,35.532693],[137.675302,35.532402],[137.674902,35.532035],[137.674452,35.531718],[137.674102,35.531602],[137.673902,35.531627],[137.673502,35.531843],[137.672902,35.531618],[137.672727,35.531635],[137.672702,35.531685],[137.671715,35.532327],[137.67124,35.532527],[137.67069,35.53246],[137.669965,35.532268],[137.668777,35.53251],[137.668577,35.53251],[137.667578,35.532076],[137.666853,35.532068],[137.665978,35.532243],[137.665153,35.53231],[137.664928,35.53246],[137.66454,35.532643],[137.664215,35.532751],[137.66329,35.532651],[137.66279,35.532826],[137.662165,35.53276],[137.661791,35.532576],[137.661291,35.532168],[137.660516,35.53171],[137.660028,35.531476],[137.659166,35.531385],[137.658741,35.531243],[137.658203,35.530901],[137.657853,35.530968],[137.657366,35.531235],[137.655891,35.53181],[137.655466,35.531785],[137.654816,35.531626],[137.654404,35.53176],[137.653904,35.532251],[137.653754,35.532268],[137.653279,35.532043],[137.652829,35.531926],[137.652604,35.531426],[137.652204,35.531151],[137.652004,35.531151],[137.650917,35.530626],[137.650129,35.530618],[137.649479,35.530685],[137.648829,35.530701],[137.648404,35.53056],[137.648279,35.530493],[137.648254,35.530226],[137.648542,35.530043],[137.648892,35.529685],[137.648679,35.528735],[137.648679,35.528377],[137.647729,35.52751],[137.647492,35.526877],[137.647642,35.526402],[137.647592,35.526043],[137.647279,35.525702],[137.64668,35.525494],[137.646505,35.525402],[137.646305,35.524994],[137.64638,35.52441],[137.646517,35.523985],[137.646842,35.52376],[137.646867,35.523627],[137.64653,35.522811],[137.646255,35.521902],[137.646017,35.521427],[137.645642,35.521227],[137.645342,35.521152],[137.644592,35.521169],[137.644093,35.521052],[137.644018,35.520944],[137.643943,35.520719],[137.643843,35.520536],[137.643518,35.520152],[137.643555,35.519719],[137.64363,35.519544],[137.64398,35.519186],[137.644105,35.518594],[137.643993,35.517336],[137.64413,35.516319],[137.644305,35.51612],[137.644343,35.515711],[137.644168,35.515303],[137.644318,35.51472],[137.64433,35.51447],[137.644155,35.513678],[137.644005,35.513478],[137.643718,35.513153],[137.643993,35.512145],[137.644068,35.511987],[137.64418,35.511603],[137.644155,35.511287],[137.643906,35.51097],[137.642856,35.510712],[137.642381,35.510753],[137.641956,35.510978],[137.641506,35.510837],[137.640981,35.510478],[137.640806,35.510428],[137.640006,35.510512],[137.638269,35.510903],[137.637694,35.510862],[137.636544,35.510695],[137.636144,35.510553],[137.635944,35.510195],[137.635182,35.50937],[137.634507,35.509028],[137.633707,35.508753],[137.633457,35.508728],[137.632457,35.508903],[137.631832,35.509053],[137.631707,35.508895],[137.631332,35.508512],[137.630732,35.508145],[137.630045,35.507553],[137.62932,35.507078],[137.629145,35.50667],[137.629707,35.505995],[137.629657,35.505495],[137.629308,35.505045],[137.62897,35.504679],[137.62832,35.504295],[137.628045,35.50402],[137.627945,35.503654],[137.627495,35.503212],[137.627645,35.502604],[137.62792,35.502221],[137.62807,35.502062],[137.628283,35.501704],[137.628233,35.501496],[137.627983,35.501412],[137.627545,35.501337],[137.625821,35.501229],[137.625146,35.501096],[137.624746,35.500937],[137.624533,35.500687],[137.624433,35.499788],[137.624433,35.499313],[137.624808,35.497755],[137.624908,35.497063],[137.624783,35.495913],[137.624783,35.495413],[137.624658,35.494897],[137.624446,35.494447],[137.624383,35.493838],[137.624483,35.493705],[137.624946,35.493522],[137.625496,35.493072],[137.625771,35.492755],[137.625808,35.492622],[137.625658,35.491314],[137.625558,35.491089],[137.625558,35.490531],[137.625658,35.490031],[137.625658,35.489289],[137.625446,35.488706],[137.625471,35.488547],[137.626183,35.487889],[137.626283,35.487823],[137.626308,35.487373],[137.626221,35.486989],[137.626408,35.486656],[137.627108,35.486048],[137.627171,35.485731],[137.627108,35.485456],[137.626933,35.485123],[137.626896,35.484765],[137.627146,35.48449],[137.627733,35.484398],[137.628596,35.484106],[137.628908,35.48404],[137.629271,35.483907],[137.629733,35.483632],[137.629708,35.48334],[137.629583,35.483048],[137.629371,35.48219],[137.629121,35.481582],[137.629283,35.481249],[137.629521,35.48109],[137.630271,35.480799],[137.630508,35.480482],[137.630571,35.480282],[137.630521,35.479224],[137.630458,35.478882],[137.630121,35.478541],[137.629783,35.477932],[137.629621,35.477466],[137.629658,35.477124],[137.629783,35.477016],[137.630546,35.476649],[137.630983,35.476266],[137.631446,35.475233],[137.631633,35.475008],[137.632121,35.474716],[137.632283,35.474216],[137.632058,35.473858],[137.631633,35.473383],[137.631571,35.473],[137.631758,35.472508],[137.631883,35.472283],[137.632008,35.471717],[137.631821,35.470617],[137.631546,35.469942],[137.631058,35.469734],[137.630746,35.469442],[137.630558,35.469125],[137.630071,35.468859],[137.629521,35.468659],[137.629208,35.468475],[137.628896,35.467825],[137.628683,35.467525],[137.628558,35.467442],[137.628096,35.467509],[137.627759,35.467734],[137.627109,35.467867],[137.626471,35.467959],[137.625821,35.467775],[137.624709,35.467709],[137.624184,35.467575],[137.623546,35.467259],[137.623046,35.466984],[137.622859,35.466967],[137.622309,35.467259],[137.622159,35.467775],[137.621934,35.4681],[137.621684,35.468325],[137.621634,35.468417],[137.621434,35.468575],[137.621334,35.468625],[137.621197,35.4686],[137.620384,35.467975],[137.619947,35.467842],[137.619447,35.467775],[137.618347,35.4678],[137.618134,35.467692],[137.617897,35.466658],[137.617509,35.466117],[137.617534,35.465867],[137.617484,35.465625],[137.617422,35.465575],[137.617309,35.465259],[137.617147,35.46495],[137.616597,35.464367],[137.615822,35.463692],[137.61521,35.463267],[137.614572,35.463109],[137.613222,35.462917],[137.61311,35.462625],[137.613085,35.462267],[137.61261,35.461792],[137.611885,35.461142],[137.61141,35.460451],[137.61081,35.460001],[137.610585,35.459642],[137.610448,35.459009],[137.610345,35.458872],[137.610297,35.458808],[137.608003,35.462333],[137.603591,35.466033],[137.599416,35.468316],[137.596343,35.47052],[137.593822,35.47296],[137.593034,35.47603],[137.593113,35.480596],[137.591695,35.485398],[137.589479,35.489304],[137.585776,35.496074],[137.581994,35.501584],[137.578685,35.504261],[137.575455,35.507724],[137.571673,35.510322],[137.56921,35.511073],[137.564719,35.511782],[137.561567,35.513435],[137.558364,35.515779],[137.557751,35.515259],[137.557576,35.515167],[137.557276,35.515076],[137.556701,35.515076],[137.556026,35.515026],[137.555726,35.514842],[137.554939,35.514118],[137.553889,35.513134],[137.553527,35.512726],[137.553477,35.512551],[137.553177,35.512159],[137.553002,35.512093],[137.552977,35.512051],[137.552727,35.511959],[137.551789,35.511667],[137.551677,35.511726],[137.551577,35.512376],[137.551439,35.512784],[137.551289,35.513026],[137.551239,35.513343],[137.551052,35.513884],[137.550902,35.514084],[137.550214,35.515051],[137.550139,35.515234],[137.549939,35.515451],[137.549527,35.516109],[137.549402,35.517117],[137.549314,35.517434],[137.548627,35.519008],[137.548477,35.519392],[137.548402,35.519725],[137.548314,35.519841],[137.547852,35.52135],[137.547652,35.522274],[137.547639,35.523174],[137.547652,35.523991],[137.547724,35.524052],[137.547802,35.524099],[137.548177,35.524349],[137.548427,35.524599],[137.549339,35.525782],[137.549564,35.526282],[137.549739,35.52684],[137.549702,35.527299],[137.549364,35.528782],[137.549027,35.52984],[137.548877,35.530582],[137.548589,35.531456],[137.548402,35.532273],[137.548252,35.532815],[137.548014,35.533598],[137.547864,35.533823],[137.547714,35.533865],[137.547214,35.533773],[137.546139,35.533631],[137.544815,35.533373],[137.544015,35.533273],[137.543665,35.533206],[137.54354,35.533206],[137.542215,35.533081],[137.54149,35.532964],[137.539602,35.532773],[137.537852,35.532673],[137.536528,35.532456],[137.536003,35.532298],[137.535403,35.532223],[137.534828,35.532131],[137.534653,35.532081],[137.534403,35.532081],[137.534353,35.532106],[137.534403,35.532281],[137.534665,35.533798],[137.534778,35.534156],[137.534878,35.534497],[137.535028,35.534881],[137.535078,35.534931],[137.535715,35.535947],[137.536515,35.536789],[137.53654,35.53688],[137.536715,35.53708],[137.536827,35.53738],[137.536877,35.537672],[137.536827,35.537922],[137.536577,35.538347],[137.536352,35.538497],[137.53589,35.538722],[137.535315,35.538855],[137.53489,35.538872],[137.534015,35.538872],[137.533565,35.538955],[137.533128,35.539197],[137.532903,35.539563],[137.532853,35.540013],[137.533015,35.540463],[137.53334,35.540897],[137.533965,35.541488],[137.534915,35.542121],[137.535527,35.54253],[137.535927,35.542696],[137.536252,35.542788],[137.536377,35.542855],[137.537002,35.542996],[137.538427,35.543296],[137.538877,35.543388],[137.539102,35.54348],[137.539452,35.54358],[137.539777,35.54378],[137.539977,35.543963],[137.540302,35.54433],[137.54074,35.545455],[137.540939,35.546071],[137.541227,35.546879],[137.541277,35.547196],[137.541589,35.548196],[137.541589,35.548354],[137.541489,35.548646],[137.540777,35.549696],[137.540239,35.550329],[137.539839,35.550929],[137.539814,35.551271],[137.539827,35.551521],[137.539927,35.551704],[137.540277,35.55202],[137.540527,35.552179],[137.540877,35.55247],[137.541077,35.55272],[137.541202,35.553037],[137.541439,35.55347],[137.541639,35.554287],[137.541614,35.55462],[137.541477,35.554829],[137.541252,35.55532],[137.540927,35.555703],[137.540639,35.55592],[137.540139,35.556437],[137.539789,35.556862],[137.539277,35.557378],[137.538514,35.557936],[137.537814,35.55827],[137.534852,35.559444],[137.534702,35.559469],[137.53434,35.559628],[137.533715,35.560003],[137.533415,35.560136],[137.532302,35.560803],[137.531802,35.561161],[137.531215,35.561769],[137.530702,35.562669],[137.530577,35.563002],[137.530265,35.56411],[137.530265,35.564352],[137.53039,35.564877],[137.530877,35.565535],[137.531177,35.565735],[137.531977,35.566485],[137.533114,35.567419],[137.533614,35.567877],[137.534814,35.568918],[137.534964,35.568993],[137.535702,35.569518],[137.536302,35.569902],[137.536676,35.570218],[137.537001,35.570427],[137.537601,35.570968],[137.537889,35.57136],[137.538464,35.57231],[137.538651,35.572735],[137.539001,35.574051],[137.538964,35.574701],[137.538939,35.577301],[137.538789,35.577701],[137.538514,35.577968],[137.537601,35.578576],[137.537039,35.579017],[137.536264,35.579534],[137.535851,35.580276],[137.534951,35.580542],[137.533951,35.580784],[137.533439,35.580934],[137.533114,35.581092],[137.532789,35.58145],[137.532639,35.581792],[137.532576,35.582309],[137.532651,35.5826],[137.532801,35.582825],[137.533026,35.583008],[137.533401,35.583192],[137.534076,35.583467],[137.534589,35.583717],[137.535213,35.583925],[137.535513,35.583975],[137.535888,35.584092],[137.536038,35.584183],[137.536638,35.584275],[137.537151,35.584275],[137.537435,35.584344],[137.537526,35.584375],[137.537676,35.584417],[137.537563,35.585142],[137.537488,35.585317],[137.537438,35.585658],[137.537151,35.586242],[137.536951,35.586533],[137.536501,35.586766],[137.536301,35.5869],[137.536113,35.586991],[137.535763,35.587083],[137.535413,35.587283],[137.535188,35.58735],[137.534488,35.587408],[137.533738,35.587716],[137.533563,35.587716],[137.533038,35.587558],[137.532963,35.587533],[137.532626,35.58755],[137.532226,35.5878],[137.532076,35.587841],[137.531701,35.587933],[137.531501,35.588041],[137.531326,35.588533],[137.531039,35.588758],[137.530814,35.588983],[137.530539,35.589566],[137.530551,35.589816],[137.530651,35.589908],[137.530726,35.590041],[137.531326,35.590474],[137.531701,35.590682],[137.532276,35.591024],[137.532451,35.591182],[137.532501,35.591299],[137.532288,35.591616],[137.532013,35.591899],[137.531888,35.592057],[137.531926,35.593032],[137.531776,35.593207],[137.531051,35.593499],[137.530901,35.59359],[137.530451,35.593607],[137.530151,35.593557],[137.529238,35.594207],[137.528676,35.594724],[137.528176,35.595123],[137.528226,35.59564],[137.528101,35.595757],[137.527238,35.595907],[137.526814,35.59604],[137.526667,35.596184],[137.526514,35.596373],[137.525964,35.596573],[137.525601,35.59684],[137.525301,35.59709],[137.524826,35.597381],[137.524676,35.59749],[137.524189,35.597756],[137.523964,35.597848],[137.523739,35.59789],[137.523464,35.59789],[137.523314,35.59784],[137.523139,35.597881],[137.522764,35.598106],[137.522539,35.598356],[137.522026,35.598939],[137.521651,35.599206],[137.521451,35.599523],[137.521326,35.599656],[137.521139,35.599739],[137.520114,35.600006],[137.519939,35.600073],[137.519764,35.600256],[137.519739,35.600406],[137.519639,35.600614],[137.519551,35.600973],[137.519526,35.601539],[137.519714,35.602306],[137.519764,35.602531],[137.519839,35.602806],[137.519739,35.602872],[137.519489,35.602889],[137.519014,35.602839],[137.518941,35.602826],[137.518789,35.602797],[137.518414,35.602772],[137.518189,35.602814],[137.518064,35.602881],[137.517876,35.603197],[137.517976,35.603672],[137.518151,35.604305],[137.518014,35.604522],[137.517889,35.604639],[137.517714,35.60468],[137.517114,35.605014],[137.516951,35.605489],[137.516701,35.60598],[137.516301,35.606338],[137.515789,35.60663],[137.515164,35.606872],[137.514639,35.607138],[137.514026,35.607588],[137.513801,35.607905],[137.513801,35.607972],[137.513726,35.608013],[137.513701,35.607988],[137.513651,35.608213],[137.513714,35.608713],[137.513914,35.609413],[137.514139,35.609846],[137.514164,35.610005],[137.514126,35.610296],[137.514251,35.610571],[137.514801,35.611405],[137.515239,35.612271],[137.515339,35.612696],[137.515326,35.613146],[137.515226,35.613346],[137.515176,35.613529],[137.515076,35.613621],[137.515001,35.613821],[137.515026,35.613846],[137.515001,35.613954],[137.515026,35.614096],[137.515189,35.614346],[137.515914,35.614729],[137.516214,35.615029],[137.516214,35.615729],[137.516326,35.616087],[137.516426,35.616496],[137.516388,35.617146],[137.516438,35.618004],[137.516763,35.618321],[137.517188,35.618529],[137.517613,35.618646],[137.517863,35.618762],[137.517901,35.618987],[137.518001,35.619054],[137.518426,35.619196],[137.518526,35.619196],[137.518951,35.619421],[137.519551,35.619654],[137.519876,35.619721],[137.520076,35.619704],[137.520638,35.619437],[137.520963,35.619412],[137.521388,35.619279],[137.521913,35.619196],[137.522213,35.619287],[137.522538,35.619512],[137.522875,35.620171],[137.52315,35.620921],[137.523213,35.621754],[137.523013,35.622229],[137.522675,35.622695],[137.522725,35.623129],[137.52295,35.62367],[137.522963,35.624212],[137.523138,35.624412],[137.523163,35.624395],[137.523463,35.624754],[137.523563,35.625029],[137.523538,35.625187],[137.523675,35.625928],[137.52395,35.62627],[137.524325,35.626637],[137.524475,35.62682],[137.524587,35.627337],[137.524687,35.62752],[137.524937,35.627678],[137.525837,35.627978],[137.526287,35.628045],[137.526612,35.628137],[137.526962,35.628278],[137.527487,35.628595],[137.527612,35.628712],[137.527637,35.628962],[137.5276,35.629137],[137.527624,35.629595],[137.527749,35.629703],[137.527924,35.630045],[137.527849,35.630203],[137.527462,35.63067],[137.527062,35.631011],[137.526687,35.631278],[137.526437,35.631453],[137.526275,35.631678],[137.526225,35.631836],[137.5262,35.631811],[137.526125,35.63202],[137.52635,35.632403],[137.526375,35.632561],[137.526262,35.633078],[137.526287,35.633578],[137.526399,35.634136],[137.526524,35.634319],[137.527149,35.634961],[137.527249,35.635228],[137.527674,35.635686],[137.528112,35.635961],[137.528612,35.636119],[137.529062,35.636144],[137.529574,35.635969],[137.529899,35.635928],[137.530249,35.635994],[137.530449,35.636153],[137.530574,35.636494],[137.530511,35.636536],[137.530586,35.636678],[137.530936,35.637061],[137.531286,35.637261],[137.531786,35.637586],[137.532361,35.637836],[137.533136,35.637978],[137.533561,35.638003],[137.533811,35.637894],[137.534311,35.637761],[137.534586,35.637761],[137.534811,35.637853],[137.534836,35.637903],[137.535036,35.638011],[137.535211,35.638036],[137.535998,35.637819],[137.536398,35.637844],[137.536648,35.637936],[137.537061,35.638161],[137.537111,35.638228],[137.537311,35.638303],[137.537673,35.638278],[137.538073,35.638328],[137.538298,35.638419],[137.538461,35.638578],[137.538886,35.639236],[137.539086,35.639594],[137.539436,35.640094],[137.539798,35.640394],[137.540073,35.640577],[137.540273,35.640827],[137.540298,35.640961],[137.540811,35.641819],[137.540961,35.642227],[137.540911,35.642427],[137.540761,35.642677],[137.540486,35.64286],[137.539848,35.643277],[137.539323,35.64386],[137.539273,35.644018],[137.539336,35.64456],[137.539261,35.644877],[137.539261,35.645127],[137.539573,35.646801],[137.539735,35.647001],[137.539935,35.647118],[137.539935,35.647093],[137.539985,35.647093],[137.540635,35.64721],[137.540835,35.647326],[137.54106,35.64746],[137.541685,35.647943],[137.54276,35.648759],[137.543185,35.648876],[137.543535,35.648851],[137.543785,35.648901],[137.54391,35.648968],[137.54436,35.649043],[137.54491,35.649201],[137.54501,35.649318],[137.54506,35.649343],[137.545023,35.649726],[137.545148,35.649951],[137.545447,35.650401],[137.545497,35.650692],[137.545385,35.651301],[137.54526,35.651509],[137.544685,35.651976],[137.543673,35.6531],[137.54271,35.653884],[137.542348,35.65435],[137.542198,35.654617],[137.541898,35.655067],[137.541698,35.6555],[137.541185,35.655858],[137.540223,35.656708],[137.539773,35.657108],[137.53976,35.6572],[137.53966,35.657366],[137.539598,35.6575],[137.53951,35.657741],[137.539448,35.657925],[137.539248,35.6582],[137.539023,35.658424],[137.538735,35.658633],[137.538485,35.658874],[137.538398,35.659108],[137.538223,35.659299],[137.537898,35.659449],[137.537748,35.659558],[137.53756,35.659683],[137.537335,35.659849],[137.53706,35.660016],[137.536848,35.660149],[137.536635,35.660316],[137.536473,35.660516],[137.53631,35.660757],[137.536173,35.660941],[137.536048,35.661132],[137.535673,35.661682],[137.535585,35.66204],[137.535485,35.663082],[137.535273,35.66364],[137.535123,35.663799],[137.535073,35.663998],[137.534973,35.664182],[137.534998,35.66434],[137.535085,35.664515],[137.535235,35.664765],[137.535385,35.665173],[137.53551,35.665607],[137.535435,35.665782],[137.535048,35.666057],[137.534073,35.666498],[137.533485,35.666723],[137.533235,35.666831],[137.53301,35.66699],[137.532835,35.667215],[137.53261,35.66764],[137.532348,35.667815],[137.529986,35.669064],[137.529273,35.669581],[137.528823,35.669856],[137.528711,35.669964],[137.528348,35.670389],[137.527661,35.670864],[137.527273,35.670997],[137.525036,35.671305],[137.524674,35.67148],[137.523649,35.672488],[137.523236,35.673047],[137.522624,35.673697],[137.522099,35.67448],[137.521849,35.675088],[137.521436,35.675779],[137.521074,35.676254],[137.520299,35.676904],[137.519836,35.677212],[137.519336,35.677412],[137.518649,35.677462],[137.518012,35.677346],[137.517599,35.677162],[137.517049,35.677146],[137.516487,35.677387],[137.515612,35.677612],[137.515112,35.677496],[137.514674,35.677296],[137.514449,35.677629],[137.514062,35.678037],[137.513374,35.678279],[137.512674,35.678479],[137.51235,35.678637],[137.512187,35.679087],[137.512075,35.67967],[137.5119,35.680137],[137.511537,35.680695],[137.51115,35.681012],[137.510762,35.68117],[137.510462,35.68137],[137.510075,35.681753],[137.509412,35.682336],[137.509275,35.682486],[137.508912,35.682511],[137.50875,35.682486],[137.507762,35.682153],[137.507425,35.68222],[137.506787,35.682445],[137.5058,35.682844],[137.505375,35.683069],[137.505025,35.683403],[137.504713,35.683853],[137.504463,35.684294],[137.504388,35.684386],[137.50405,35.684519],[137.5035,35.684519],[137.502313,35.684744],[137.50195,35.684944],[137.501313,35.685794],[137.501238,35.686219],[137.500488,35.68671],[137.500213,35.687052],[137.499825,35.687252],[137.499413,35.68736],[137.498851,35.687252],[137.498363,35.687227],[137.498026,35.687677],[137.497551,35.688102],[137.497226,35.688568],[137.497276,35.68906],[137.497438,35.690001],[137.497826,35.691059],[137.498125,35.692784],[137.497988,35.693301],[137.497675,35.693792],[137.497625,35.694017],[137.4977,35.694259],[137.4979,35.694576],[137.498363,35.69565],[137.498638,35.696084],[137.498663,35.6963],[137.498613,35.696375],[137.498313,35.696525],[137.498113,35.696575],[137.497975,35.69675],[137.497888,35.697334],[137.497725,35.698008],[137.497563,35.6983],[137.497363,35.69845],[137.497175,35.698525],[137.496984,35.698537],[137.496869,35.698532],[137.496663,35.6985],[137.495426,35.698592],[137.495226,35.698642],[137.494851,35.698817],[137.493663,35.69925],[137.493176,35.699516],[137.491963,35.700333],[137.491738,35.700625],[137.491688,35.700824],[137.491801,35.701799],[137.491751,35.702249],[137.491588,35.702741],[137.491138,35.703257],[137.490838,35.703707],[137.490901,35.703932],[137.490876,35.704091],[137.490701,35.704232],[137.490426,35.704299],[137.489876,35.704341],[137.489463,35.704432],[137.488451,35.704865],[137.488039,35.704999],[137.487739,35.70504],[137.486801,35.70529],[137.486314,35.705382],[137.485951,35.705565],[137.485764,35.705923],[137.485764,35.706823],[137.485514,35.707932],[137.485571,35.708353],[137.485626,35.708673],[137.485789,35.709056],[137.485876,35.709548],[137.485826,35.710065],[137.485851,35.710223],[137.485964,35.710431],[137.486676,35.711348],[137.487001,35.711939],[137.487201,35.712564],[137.487451,35.715631],[137.487588,35.716264],[137.487588,35.716489],[137.487513,35.716647],[137.487038,35.717614],[137.486713,35.718222],[137.486626,35.718514],[137.486776,35.719189],[137.486638,35.720005],[137.486438,35.720522],[137.486526,35.721372],[137.486476,35.72158],[137.485838,35.722522],[137.485701,35.72298],[137.485726,35.723247],[137.485626,35.723472],[137.485351,35.724371],[137.485285,35.724541],[137.485238,35.724688],[137.485076,35.724871],[137.484776,35.725005],[137.483951,35.725121],[137.483201,35.725363],[137.482351,35.725663],[137.482213,35.725746],[137.480813,35.726271],[137.480701,35.726271],[137.480013,35.726405],[137.479113,35.726521],[137.478813,35.727013],[137.478313,35.728388],[137.478313,35.729021],[137.478376,35.729563],[137.478238,35.730329],[137.478151,35.730487],[137.477901,35.730646],[137.477326,35.730846],[137.476676,35.731229],[137.476176,35.731679],[137.475763,35.731929],[137.475213,35.732204],[137.474476,35.732629],[137.472913,35.733912],[137.472713,35.73452],[137.472638,35.73497],[137.472388,35.73527],[137.471776,35.735628],[137.471313,35.735737],[137.470876,35.735762],[137.470826,35.736012],[137.470851,35.736353],[137.470576,35.736845],[137.470026,35.737811],[137.469863,35.738261],[137.469801,35.738786],[137.469701,35.739011],[137.469638,35.739011],[137.469151,35.739278],[137.468813,35.739553],[137.468463,35.74007],[137.468301,35.740203],[137.466889,35.740836],[137.466651,35.741019],[137.466489,35.741603],[137.466626,35.742169],[137.466539,35.742436],[137.466351,35.742553],[137.465639,35.743519],[137.465551,35.743861],[137.465851,35.744261],[137.466326,35.744711],[137.466538,35.745052],[137.467201,35.745794],[137.467451,35.746177],[137.468026,35.746985],[137.468026,35.747185],[137.467926,35.747527],[137.467513,35.74811],[137.467313,35.748227],[137.466901,35.748319],[137.466351,35.748585],[137.465826,35.749035],[137.465613,35.749335],[137.465451,35.75001],[137.465338,35.751402],[137.465201,35.751835],[137.464851,35.752376],[137.464738,35.752735],[137.464751,35.753176],[137.464525,35.753985],[137.464438,35.754543],[137.4647,35.755318],[137.464775,35.755818],[137.464775,35.756184],[137.464575,35.756501],[137.4642,35.756684],[137.463688,35.757001],[137.4633,35.757467],[137.462713,35.757876],[137.462076,35.758184],[137.461813,35.758384],[137.461613,35.758909],[137.460926,35.759709],[137.460588,35.76025],[137.459901,35.7609],[137.459738,35.761233],[137.459513,35.761342],[137.459076,35.761275],[137.458126,35.761067],[137.457488,35.761025],[137.457113,35.761108],[137.456326,35.761508],[137.455701,35.761742],[137.454726,35.761833],[137.454463,35.761925],[137.454401,35.761975],[137.453201,35.762283],[137.452901,35.762541],[137.452763,35.762866],[137.452638,35.763333],[137.452526,35.763425],[137.451901,35.762416],[137.451526,35.761966],[137.451114,35.761691],[137.450239,35.761408],[137.450101,35.761283],[137.450389,35.760833],[137.450514,35.76045],[137.450351,35.759775],[137.450126,35.75945],[137.449814,35.759242],[137.449051,35.759225],[137.448414,35.759025],[137.447264,35.758567],[137.446239,35.758367],[137.444264,35.758525],[137.442277,35.758558],[137.441427,35.758492],[137.440389,35.758483],[137.440289,35.7585],[137.440014,35.758642],[137.439727,35.759017],[137.439627,35.759233],[137.438989,35.7598],[137.438264,35.760333],[137.437889,35.760708],[137.437764,35.761141],[137.437677,35.762599],[137.437577,35.763058],[137.437052,35.764083],[137.436802,35.764458],[137.435377,35.765407],[137.434839,35.765857],[137.434364,35.766365],[137.434064,35.766757],[137.433689,35.76769],[137.433714,35.768032],[137.434027,35.769198],[137.434314,35.770565],[137.434414,35.770848],[137.434327,35.771082],[137.434089,35.771148],[137.433602,35.771165],[137.432877,35.771132],[137.431989,35.771215],[137.430452,35.771415],[137.429739,35.771432],[137.429077,35.771157],[137.428489,35.771107],[137.427852,35.771198],[137.426577,35.771673],[137.426064,35.771948],[137.425664,35.772373],[137.425414,35.772865],[137.425077,35.773331],[137.424802,35.77364],[137.424114,35.774256],[137.423827,35.774614],[137.423677,35.774973],[137.423514,35.775189],[137.423439,35.775231],[137.423339,35.775173],[137.42319,35.774789],[137.423002,35.77454],[137.422665,35.77429],[137.422202,35.774073],[137.421627,35.773906],[137.420277,35.773648],[137.419027,35.773565],[137.418552,35.773723],[137.418102,35.774023],[137.417727,35.774323],[137.417477,35.774656],[137.417377,35.775348],[137.417252,35.775656],[137.41689,35.776048],[137.416427,35.776231],[137.415327,35.776297],[137.413815,35.776681],[137.41234,35.776931],[137.411653,35.777089],[137.410865,35.777222],[137.41009,35.777139],[137.409478,35.776906],[137.409028,35.776906],[137.408403,35.777006],[137.407678,35.776922],[137.404016,35.776164],[137.403354,35.775922],[137.403016,35.77573],[137.402891,35.775614],[137.402404,35.775455],[137.401816,35.775464],[137.401291,35.775514],[137.400379,35.775522],[137.399917,35.775447],[137.399442,35.775497],[137.398542,35.775747],[137.397867,35.776047],[137.397179,35.776213],[137.396692,35.776288],[137.395892,35.776463],[137.395504,35.776763],[137.395155,35.777105],[137.394705,35.777438],[137.393555,35.777613],[137.393142,35.777805],[137.392167,35.778646],[137.391805,35.779063],[137.391142,35.780063],[137.39103,35.780529],[137.391105,35.780688],[137.391342,35.780871],[137.39198,35.781179],[137.393192,35.781612],[137.39383,35.781912],[137.394167,35.782254],[137.39438,35.782712],[137.394504,35.783246],[137.394742,35.783787],[137.394917,35.78402],[137.395617,35.78462],[137.396654,35.78537],[137.396642,35.785487],[137.396229,35.785862],[137.396054,35.786345],[137.395967,35.786862],[137.395879,35.788645],[137.395754,35.789195],[137.395367,35.789603],[137.395329,35.789928],[137.395604,35.790211],[137.396042,35.790486],[137.396254,35.790736],[137.396254,35.790986],[137.395454,35.792361],[137.395179,35.793178],[137.394879,35.793711],[137.394191,35.794686],[137.393916,35.795144],[137.393804,35.795436],[137.393829,35.795903],[137.394179,35.797027],[137.394179,35.797269],[137.394079,35.797419],[137.393566,35.797777],[137.392016,35.798486],[137.391341,35.798719],[137.390066,35.798952],[137.388966,35.799011],[137.387891,35.798936],[137.386579,35.798802],[137.386179,35.798811],[137.385654,35.798886],[137.384404,35.799536],[137.384117,35.799769],[137.383779,35.800127],[137.383454,35.800336],[137.382867,35.800602],[137.381054,35.801319],[137.380867,35.801352],[137.379817,35.801002],[137.379001,35.800831],[137.383131,35.808003],[137.388898,35.821862],[137.393885,35.831828],[137.399671,35.841263],[137.407152,35.84905],[137.411828,35.853254],[137.420711,35.857614],[137.429439,35.860884],[137.437699,35.863687],[137.445024,35.866179],[137.449388,35.870695],[137.456869,35.876612],[137.465014,35.885398],[137.471093,35.887734],[137.47627,35.893976],[137.476301,35.894073],[137.47617,35.894993],[137.47622,35.895334],[137.476445,35.895784],[137.476558,35.895918],[137.476795,35.896118],[137.477158,35.896184],[137.477795,35.896526],[137.47837,35.896593],[137.478858,35.896568],[137.47922,35.896593],[137.479545,35.896818],[137.479907,35.897284],[137.480045,35.897559],[137.479995,35.898101],[137.480182,35.898209],[137.480545,35.898184],[137.48082,35.898367],[137.481782,35.900192],[137.481895,35.900667],[137.481707,35.901833],[137.481545,35.903233],[137.481132,35.905016],[137.481069,35.905691],[137.481182,35.906091],[137.481432,35.906341],[137.482807,35.907083],[137.483219,35.907374],[137.483494,35.907733],[137.484132,35.908407],[137.484269,35.908882],[137.484157,35.909291],[137.484044,35.909357],[137.483944,35.909399],[137.483832,35.909557],[137.483669,35.910624],[137.483394,35.911657],[137.483206,35.912082],[137.483144,35.912557],[137.483031,35.912965],[137.483044,35.913573],[137.483119,35.91389],[137.483481,35.914498],[137.483731,35.915056],[137.484006,35.915798],[137.484281,35.916273],[137.484719,35.916523],[137.485381,35.916814],[137.486593,35.917356],[137.487031,35.917648],[137.487768,35.918206],[137.488468,35.918906],[137.488655,35.919173],[137.489255,35.919781],[137.489668,35.920531],[137.489993,35.921006],[137.490705,35.921806],[137.490955,35.922164],[137.491467,35.922981],[137.491667,35.923456],[137.492055,35.924722],[137.49223,35.925064],[137.492505,35.92538],[137.49348,35.925972],[137.494129,35.926247],[137.494517,35.926547],[137.495242,35.92693],[137.496317,35.927664],[137.496977,35.92816],[137.497042,35.928239],[137.497317,35.928439],[137.497654,35.928839],[137.498291,35.930055],[137.498616,35.931297],[137.500028,35.933946],[137.500228,35.934221],[137.500828,35.935346],[137.501103,35.936038],[137.501216,35.936246],[137.501328,35.936671],[137.501466,35.937146],[137.501778,35.937663],[137.501853,35.937729],[137.502053,35.938063],[137.502216,35.938246],[137.50299,35.939188],[137.503103,35.939413],[137.503378,35.939779],[137.503715,35.940071],[137.504153,35.940338],[137.504678,35.940471],[137.50559,35.940563],[137.506752,35.940513],[137.50864,35.940513],[137.50939,35.940605],[137.510352,35.941013],[137.510715,35.94108],[137.510964,35.941055],[137.511677,35.940946],[137.512427,35.940855],[137.513264,35.940896],[137.514177,35.940805],[137.514289,35.940763],[137.515089,35.940605],[137.516114,35.940355],[137.517751,35.939947],[137.518101,35.939772],[137.518439,35.939655],[137.518689,35.939614],[137.518776,35.939639],[137.518851,35.939722],[137.518913,35.940105],[137.519188,35.94038],[137.519713,35.940647],[137.519826,35.940672],[137.520926,35.94123],[137.522201,35.941747],[137.52245,35.941797],[137.524063,35.942222],[137.524388,35.942355],[137.524395,35.942395],[137.524388,35.942422],[137.524388,35.942514],[137.5242,35.943522],[137.524113,35.94438],[137.524275,35.945305],[137.52445,35.945547],[137.525,35.946671],[137.525162,35.94728],[137.525912,35.948455],[137.5265,35.949421],[137.5268,35.950229],[137.526987,35.950996],[137.52705,35.951421],[137.5273,35.951938],[137.527687,35.952321],[137.528537,35.953021],[137.529012,35.953487],[137.529237,35.953871],[137.529262,35.954146],[137.529237,35.954371],[137.529262,35.954862],[137.529649,35.955646],[137.530124,35.956079],[137.530374,35.956396],[137.530924,35.957179],[137.531061,35.957604],[137.531224,35.958012],[137.531399,35.958237],[137.531811,35.959004],[137.531949,35.959179],[137.532086,35.959562],[137.532136,35.959904],[137.532174,35.96037],[137.532361,35.961253],[137.532524,35.96172],[137.532699,35.961878],[137.533136,35.962153],[137.534136,35.96262],[137.534361,35.962803],[137.534548,35.963028],[137.534661,35.963095],[137.534823,35.963295],[137.535161,35.963612],[137.535323,35.963703],[137.535548,35.963745],[137.535711,35.963837],[137.535798,35.96397],[137.535886,35.964328],[137.535936,35.964445],[137.536048,35.964487],[137.536548,35.964353],[137.536873,35.964395],[137.537048,35.964512],[137.537235,35.964912],[137.537623,35.965137],[137.537873,35.965203],[137.53871,35.96552],[137.539098,35.965612],[137.539585,35.96557],[137.53981,35.965637],[137.539923,35.965745],[137.540172,35.96622],[137.540335,35.966395],[137.540585,35.966578],[137.540672,35.966603],[137.540922,35.966603],[137.541535,35.966312],[137.541635,35.966328],[137.541885,35.966603],[137.54206,35.967453],[137.542022,35.967611],[137.541922,35.967861],[137.541535,35.968261],[137.54131,35.968536],[137.541285,35.969211],[137.541472,35.969686],[137.54161,35.970136],[137.541835,35.970578],[137.54211,35.970919],[137.54261,35.971236],[137.542772,35.971461],[137.543084,35.971703],[137.543659,35.971911],[137.543737,35.97197],[137.543972,35.972111],[137.544109,35.972269],[137.544297,35.972652],[137.544322,35.972852],[137.544159,35.973327],[137.544209,35.973527],[137.544459,35.973977],[137.544522,35.974177],[137.544597,35.974902],[137.544547,35.975127],[137.544547,35.975369],[137.544684,35.97641],[137.544934,35.977127],[137.545022,35.977735],[137.544959,35.978068],[137.544747,35.978452],[137.544272,35.979018],[137.543197,35.980051],[137.542909,35.980393],[137.542884,35.980635],[137.542972,35.980751],[137.543222,35.980926],[137.543297,35.981743],[137.543272,35.98176],[137.543247,35.982459],[137.543297,35.982684],[137.543522,35.983018],[137.543859,35.983268],[137.544072,35.983384],[137.544634,35.984076],[137.544796,35.984143],[137.545296,35.984059],[137.545596,35.984143],[137.546684,35.984909],[137.546709,35.984976],[137.546896,35.985134],[137.547209,35.985384],[137.547571,35.985401],[137.548421,35.985268],[137.548758,35.985268],[137.549033,35.985334],[137.549421,35.985784],[137.549533,35.986009],[137.549783,35.986392],[137.550033,35.986776],[137.550221,35.986976],[137.550471,35.987134],[137.550696,35.987159],[137.550921,35.987109],[137.551533,35.987134],[137.552408,35.987334],[137.55272,35.987359],[137.553333,35.987492],[137.553795,35.987676],[137.554108,35.987742],[137.554745,35.988051],[137.554795,35.988117],[137.555045,35.988367],[137.555245,35.988434],[137.555483,35.988434],[137.556457,35.988617],[137.556682,35.988709],[137.556982,35.988951],[137.55732,35.989017],[137.557982,35.989267],[137.558395,35.989309],[137.558782,35.989267],[137.559582,35.989284],[137.560469,35.989401],[137.561307,35.989692],[137.562269,35.990167],[137.562694,35.990434],[137.562944,35.990726],[137.563132,35.991176],[137.563269,35.991334],[137.563631,35.991426],[137.564044,35.991801],[137.564431,35.992101],[137.564569,35.992301],[137.564819,35.992617],[137.565131,35.992701],[137.565456,35.992726],[137.565844,35.992951],[137.566369,35.993534],[137.566544,35.993667],[137.566756,35.993784],[137.567156,35.993959],[137.568531,35.994434],[137.568706,35.994542],[137.568843,35.99475],[137.569006,35.995134],[137.568956,35.995359],[137.569006,35.995517],[137.569118,35.995667],[137.569343,35.995759],[137.569506,35.995759],[137.57008,35.99565],[137.570555,35.995625],[137.570868,35.995692],[137.571143,35.995825],[137.571393,35.99585],[137.572105,35.995642],[137.572468,35.995625],[137.572718,35.995692],[137.57308,35.995709],[137.574355,35.995734],[137.574718,35.995692],[137.575405,35.995467],[137.575705,35.995442],[137.57568,35.995551],[137.575742,35.99645],[137.575842,35.997059],[137.576067,35.997242],[137.576292,35.997267],[137.577205,35.99785],[137.577342,35.997984],[137.578005,35.998525],[137.578392,35.998675],[137.57868,35.998817],[137.578817,35.99895],[137.578817,35.999125],[137.57893,35.999575],[137.57903,35.999717],[137.579392,36.000025],[137.579754,36.000408],[137.579779,36.000475],[137.580592,36.001308],[137.581004,36.0014],[137.581417,36.001575],[137.581779,36.001866],[137.582492,36.002366],[137.582742,36.002458],[137.582829,36.002525],[137.583354,36.002766],[137.583467,36.002791],[137.583742,36.002925],[137.584079,36.003041],[137.584154,36.003041],[137.584366,36.00315],[137.584604,36.003241],[137.584716,36.00335],[137.584891,36.003641],[137.585291,36.004125],[137.585516,36.004308],[137.586166,36.004691],[137.587404,36.005358],[137.587929,36.005474],[137.588229,36.005516],[137.588528,36.005608],[137.588678,36.005724],[137.588703,36.005816],[137.588978,36.006158],[137.589203,36.006224],[137.589903,36.006341],[137.590178,36.006433],[137.590353,36.006524],[137.590478,36.006666],[137.590653,36.007049],[137.590778,36.007249],[137.590978,36.007408],[137.591241,36.007799],[137.591291,36.007974],[137.591291,36.008674],[137.591341,36.008924],[137.591453,36.009149],[137.592053,36.009832],[137.592153,36.010082],[137.592403,36.010424],[137.592578,36.010532],[137.592765,36.010741],[137.593815,36.011649],[137.59384,36.01174],[137.594165,36.012032],[137.59419,36.012099],[137.594465,36.012399],[137.594678,36.01274],[137.594753,36.013074],[137.594728,36.013324],[137.594653,36.013365],[137.594603,36.013507],[137.594528,36.01359],[137.594015,36.013907],[137.59389,36.014265],[137.594015,36.014648],[137.59429,36.015098],[137.594778,36.01569],[137.594978,36.015873],[137.595353,36.016348],[137.595678,36.016648],[137.595953,36.017031],[137.596015,36.017415],[137.595815,36.018065],[137.595753,36.018973],[137.595803,36.019198],[137.595928,36.019373],[137.596727,36.019948],[137.59714,36.020331],[137.59734,36.020648],[137.59754,36.021256],[137.597765,36.021647],[137.598077,36.021964],[137.598327,36.022397],[137.598377,36.022639],[137.59844,36.023631],[137.598815,36.024339],[137.599077,36.024972],[137.599302,36.02538],[137.599477,36.02583],[137.599327,36.026164],[137.599165,36.026297],[137.59904,36.026639],[137.599065,36.026822],[137.599215,36.027155],[137.59944,36.027522],[137.599977,36.028155],[137.600277,36.028563],[137.600227,36.029222],[137.599989,36.029871],[137.599577,36.03093],[137.599352,36.031738],[137.599177,36.033446],[137.598852,36.034596],[137.598664,36.035637],[137.598614,36.035771],[137.598502,36.036379],[137.598377,36.036871],[137.598339,36.037687],[137.598414,36.038654],[137.598327,36.039737],[137.598377,36.039937],[137.598314,36.040503],[137.598089,36.040862],[137.597939,36.041245],[137.597776,36.042053],[137.597826,36.042303],[137.598076,36.042828],[137.598439,36.043303],[137.599114,36.04387],[137.599364,36.044186],[137.599689,36.044595],[137.600401,36.045161],[137.600476,36.04537],[137.600526,36.045595],[137.600751,36.046178],[137.601338,36.046819],[137.601563,36.046911],[137.602351,36.046844],[137.602563,36.046911],[137.603238,36.047369],[137.603713,36.047761],[137.604388,36.048278],[137.604563,36.048353],[137.605063,36.048403],[137.605363,36.048511],[137.605588,36.048853],[137.605613,36.049011],[137.605575,36.049303],[137.6053,36.050044],[137.605238,36.050769],[137.605188,36.051019],[137.605238,36.051219],[137.605213,36.051336],[137.6053,36.052077],[137.6054,36.052211],[137.60585,36.052619],[137.60665,36.053369],[137.606913,36.053869],[137.606913,36.054069],[137.606738,36.054569],[137.606788,36.054702],[137.606625,36.055443],[137.606675,36.055743],[137.606725,36.055918],[137.6068,36.05601],[137.60735,36.056152],[137.607575,36.056152],[137.6078,36.056202],[137.60835,36.056477],[137.608525,36.056635],[137.6092,36.057018],[137.609475,36.057243],[137.610812,36.05796],[137.610962,36.058093],[137.611137,36.058185],[137.611362,36.058385],[137.611837,36.05866],[137.612087,36.058777],[137.612762,36.05921],[137.613312,36.059485],[137.613362,36.059485],[137.613612,36.059601],[137.613587,36.059643],[137.613599,36.060301],[137.613699,36.060885],[137.613924,36.061318],[137.614337,36.061701],[137.614611,36.061976],[137.614711,36.062268],[137.614599,36.062993],[137.614474,36.063193],[137.614049,36.063484],[137.612962,36.064259],[137.612812,36.064417],[137.612562,36.064551],[137.612462,36.064667],[137.612337,36.065092],[137.611899,36.065792],[137.611824,36.065992],[137.611587,36.066442],[137.611412,36.066575],[137.610962,36.067092],[137.610862,36.067317],[137.610949,36.0677],[137.611424,36.068492],[137.611399,36.068808],[137.611012,36.069841],[137.611037,36.070091],[137.611087,36.070291],[137.611124,36.070633],[137.611224,36.071241],[137.611399,36.071625],[137.611374,36.07165],[137.611399,36.071875],[137.611212,36.072483],[137.611187,36.072708],[137.611262,36.073274],[137.611374,36.073449],[137.611649,36.073616],[137.612249,36.073749],[137.612599,36.073958],[137.612749,36.074274],[137.612774,36.074883],[137.612749,36.074908],[137.612874,36.075174],[137.613436,36.075541],[137.613711,36.076066],[137.613811,36.076149],[137.613886,36.076133],[137.614161,36.076158],[137.614336,36.076133],[137.614886,36.076208],[137.615586,36.076499],[137.616061,36.076575],[137.616586,36.076716],[137.617061,36.076966],[137.617111,36.076966],[137.617586,36.076766],[137.617836,36.076766],[137.617911,36.076816],[137.618285,36.077266],[137.61876,36.077741],[137.61951,36.07795],[137.619585,36.078016],[137.619985,36.07845],[137.620285,36.078608],[137.620935,36.0788],[137.62116,36.078933],[137.621235,36.079091],[137.621522,36.079366],[137.621772,36.079525],[137.621822,36.079591],[137.62195,36.079784],[137.622347,36.080066],[137.623597,36.081324],[137.623622,36.081641],[137.62341,36.082024],[137.623347,36.082541],[137.623547,36.082783],[137.623885,36.083049],[137.624047,36.083499],[137.623997,36.084066],[137.624097,36.084582],[137.624497,36.084982],[137.625522,36.085682],[137.625772,36.08604],[137.625772,36.086307],[137.62566,36.086474],[137.625697,36.087199],[137.62596,36.087923],[137.62621,36.088257],[137.62646,36.088465],[137.62686,36.088648],[137.62811,36.088773],[137.629109,36.089048],[137.629697,36.089548],[137.630072,36.089982],[137.630297,36.090182],[137.630447,36.090498],[137.63088,36.090952],[137.631059,36.09114],[137.631584,36.091365],[137.631834,36.091481],[137.632409,36.091981],[137.632634,36.092206],[137.633109,36.092573],[137.633284,36.09264],[137.633559,36.09269],[137.633709,36.092673],[137.634559,36.092815],[137.634984,36.092948],[137.635509,36.093131],[137.636059,36.093315],[137.636559,36.09339],[137.637209,36.093415],[137.637859,36.093356],[137.638234,36.093423],[137.638459,36.093515],[137.638659,36.093673],[137.638909,36.093815],[137.639246,36.094156],[137.639396,36.09429],[137.639771,36.09479],[137.640046,36.095131],[137.640671,36.095565],[137.640971,36.095723],[137.641446,36.095906],[137.641683,36.096023],[137.642158,36.096431],[137.642533,36.096864],[137.642733,36.097248],[137.642858,36.097473],[137.643021,36.098064],[137.643171,36.098381],[137.643246,36.098622],[137.643333,36.099464],[137.643408,36.099597],[137.643533,36.099664],[137.643908,36.099647],[137.644058,36.099606],[137.644483,36.099739],[137.644608,36.099856],[137.644683,36.099881],[137.644833,36.099989],[137.645183,36.100064],[137.645833,36.099864],[137.646008,36.099864],[137.646458,36.099939],[137.646858,36.100206],[137.646933,36.100347],[137.646933,36.100414],[137.647083,36.100572],[137.647133,36.100597],[137.647208,36.100731],[137.647383,36.100889],[137.647483,36.100914],[137.647633,36.101072],[137.647758,36.101139],[137.64782,36.101656],[137.647945,36.101822],[137.64832,36.102655],[137.648483,36.103172],[137.648833,36.104014],[137.648933,36.104147],[137.649745,36.104472],[137.65022,36.104763],[137.650595,36.10518],[137.65082,36.105355],[137.650995,36.105563],[137.65177,36.106155],[137.652457,36.106472],[137.65357,36.106463],[137.654269,36.10658],[137.654494,36.106605],[137.654694,36.106697],[137.654882,36.106947],[137.654932,36.10708],[137.655107,36.107263],[137.655332,36.107422],[137.655632,36.107538],[137.655682,36.10758],[137.656132,36.107722],[137.656882,36.108088],[137.657357,36.108272],[137.657932,36.108497],[137.658057,36.108522],[137.658556,36.108755],[137.659206,36.109255],[137.659219,36.109346],[137.659319,36.109438],[137.659444,36.110046],[137.659594,36.110246],[137.659769,36.110588],[137.659831,36.110905],[137.659831,36.111063],[137.659706,36.111263],[137.659306,36.111513],[137.659356,36.111554],[137.659319,36.111988],[137.659444,36.112371],[137.659594,36.112479],[137.659844,36.112554],[137.660544,36.112621],[137.660894,36.112713],[137.661194,36.112854],[137.661344,36.112971],[137.661693,36.113129],[137.661718,36.113171],[137.661968,36.113221],[137.662168,36.113221],[137.662443,36.113154],[137.663106,36.112846],[137.663306,36.112804],[137.663581,36.112804],[137.663606,36.112829],[137.663856,36.112779],[137.664206,36.112738],[137.664556,36.112654],[137.665081,36.112679],[137.66583,36.113113],[137.666305,36.113271],[137.66648,36.113413],[137.66658,36.113438],[137.66723,36.113413],[137.66738,36.113438],[137.667505,36.113504],[137.66768,36.113846],[137.667768,36.114054],[137.668018,36.114213],[137.668768,36.114304],[137.668918,36.114421],[137.668968,36.114554],[137.668943,36.114763],[137.668843,36.115004],[137.668843,36.115071],[137.668718,36.115296],[137.66863,36.115796],[137.668855,36.116071],[137.669255,36.116321],[137.669655,36.116454],[137.67058,36.116871],[137.670955,36.117071],[137.671155,36.117237],[137.671505,36.117346],[137.672005,36.117354],[137.672255,36.117354],[137.67268,36.117471],[137.672855,36.117587],[137.673379,36.117746],[137.673554,36.117746],[137.673829,36.117904],[137.674467,36.118612],[137.674917,36.118954],[137.675267,36.119112],[137.675492,36.119179],[137.675717,36.119187],[137.676092,36.119054],[137.676392,36.11887],[137.676492,36.118762],[137.676904,36.118512],[137.677154,36.118446],[137.677404,36.118471],[137.677754,36.118654],[137.678079,36.118796],[137.678354,36.118862],[137.678629,36.118846],[137.678879,36.118871],[137.679104,36.118979],[137.679354,36.119295],[137.679691,36.119637],[137.679991,36.11982],[137.680291,36.119845],[137.681303,36.119654],[137.681803,36.119404],[137.682403,36.119321],[137.682803,36.119321],[137.683128,36.119262],[137.683666,36.118904],[137.683991,36.118629],[137.684216,36.118546],[137.685166,36.118396],[137.68544,36.118396],[137.685865,36.118554],[137.68599,36.118696],[137.685903,36.119729],[137.685853,36.119954],[137.685828,36.120271],[137.686053,36.120545],[137.686553,36.120795],[137.687028,36.120929],[137.687553,36.121137],[137.687803,36.121345],[137.687828,36.121504],[137.68759,36.121837],[137.68734,36.122645],[137.687328,36.122962],[137.687253,36.123487],[137.687128,36.123728],[137.68699,36.12452],[137.68689,36.124836],[137.68654,36.125236],[137.686328,36.125578],[137.686203,36.125778],[137.68579,36.126611],[137.68564,36.127394],[137.68579,36.127644],[137.686015,36.127803],[137.686353,36.128194],[137.686553,36.128711],[137.686652,36.128844],[137.686902,36.129027],[137.687777,36.129602],[137.687927,36.129736],[137.68804,36.129894],[137.688115,36.130169],[137.68864,36.130052],[137.689352,36.129811],[137.689627,36.129611],[137.689952,36.129228],[137.690152,36.129078],[137.69054,36.128944],[137.69144,36.128811],[137.691965,36.128794],[137.692164,36.128819],[137.692789,36.129186],[137.693139,36.129278],[137.693389,36.129278],[137.693589,36.129169],[137.693864,36.128944],[137.694039,36.128853],[137.694289,36.128786],[137.694752,36.128744],[137.695052,36.128744],[137.697077,36.128986],[137.697501,36.128995],[137.697751,36.128945],[137.698326,36.129111],[137.698401,36.129111],[137.698676,36.129245],[137.699026,36.12932],[137.700151,36.129345],[137.700426,36.129261],[137.701451,36.12922],[137.701839,36.129161],[137.702089,36.129045],[137.702214,36.128936],[137.702738,36.128736],[137.703088,36.128711],[137.703638,36.128761],[137.704513,36.128795],[137.704788,36.128753],[137.705038,36.128662],[137.705401,36.128412],[137.705651,36.128145],[137.706126,36.128062],[137.706776,36.128153],[137.707476,36.12852],[137.708,36.12882],[137.70855,36.129003],[137.70895,36.129053],[137.70945,36.129078],[137.7097,36.129103],[137.71065,36.129445],[137.7107,36.129487],[137.7122,36.129978],[137.71275,36.130203],[137.71395,36.13082],[137.714975,36.131078],[137.715637,36.131378],[137.716212,36.13167],[137.716987,36.132128],[137.717962,36.132611],[137.719062,36.13302],[137.719362,36.133136],[137.720587,36.133328],[137.720787,36.13337],[137.721237,36.13367],[137.721237,36.133695],[137.722236,36.134011],[137.722886,36.134136],[137.722986,36.134045],[137.723161,36.13382],[137.723674,36.132737],[137.723774,36.132428],[137.723999,36.132245],[137.724011,36.131928],[137.723986,36.131678],[137.724036,36.131228],[137.724111,36.130937],[137.724524,36.130129],[137.724524,36.12997],[137.724374,36.12947],[137.724611,36.128979],[137.724661,36.128687],[137.724736,36.128487],[137.724861,36.128395],[137.725161,36.128237],[137.725574,36.128087],[137.726099,36.127771],[137.726724,36.127262],[137.727086,36.127012],[137.727886,36.126521],[137.728599,36.126054],[137.728849,36.125696],[137.729049,36.125288],[137.729299,36.125046],[137.729561,36.124304],[137.729561,36.124213],[137.728861,36.123779],[137.728561,36.123621],[137.728336,36.123596],[137.728111,36.123613],[137.727336,36.123404],[137.727136,36.123404],[137.726911,36.123496],[137.726586,36.123896],[137.726436,36.123963],[137.726236,36.123938],[137.725987,36.123846],[137.725737,36.123596],[137.725562,36.123346],[137.725362,36.122804],[137.725199,36.122421],[137.725299,36.121946],[137.725149,36.121588],[137.725149,36.12138],[137.725349,36.121246],[137.726087,36.121071],[137.726437,36.120855],[137.726637,36.120646],[137.726737,36.120405],[137.726587,36.12018],[137.726249,36.119946],[137.726049,36.119563],[137.726149,36.119313],[137.726599,36.11898],[137.726849,36.118847],[137.727412,36.118713],[137.727812,36.118513],[137.728087,36.118247],[137.728187,36.117913],[137.728162,36.117705],[137.727974,36.117438],[137.727624,36.11718],[137.727324,36.116689],[137.727224,36.116347],[137.727249,36.116055],[137.727412,36.115764],[137.727737,36.115605],[137.728087,36.115314],[137.728162,36.115022],[137.728124,36.114822],[137.727749,36.114097],[137.727674,36.113797],[137.727824,36.113372],[137.728062,36.112947],[137.728012,36.112922],[137.728187,36.112564],[137.728062,36.112156],[137.727849,36.111481],[137.727774,36.111231],[137.727774,36.110731],[137.727887,36.110123],[137.727562,36.109648],[137.727462,36.109581],[137.726762,36.108831],[137.72595,36.108148],[137.725825,36.107898],[137.72575,36.107356],[137.725362,36.106498],[137.725337,36.106273],[137.725087,36.105773],[137.72515,36.105082],[137.7251,36.104898],[137.72475,36.104373],[137.724687,36.104015],[137.724387,36.103565],[137.724087,36.103357],[137.723937,36.103148],[137.723762,36.102765],[137.723662,36.102607],[137.72355,36.102157],[137.72335,36.101724],[137.723325,36.101565],[137.723475,36.101165],[137.723963,36.100307],[137.724488,36.100182],[137.725225,36.099824],[137.72555,36.099532],[137.725675,36.099399],[137.72575,36.099082],[137.725725,36.099016],[137.726212,36.098724],[137.726662,36.098482],[137.727162,36.098124],[137.727512,36.097766],[137.72765,36.097516],[137.72825,36.097024],[137.728737,36.096424],[137.729087,36.096149],[137.7301,36.095166],[137.73075,36.094425],[137.730925,36.094291],[137.731362,36.094117],[137.732037,36.094033],[137.732987,36.094108],[137.733512,36.094092],[137.734462,36.093958],[137.735312,36.093942],[137.736236,36.094108],[137.737374,36.094317],[137.737961,36.094525],[137.738761,36.094942],[137.739211,36.095283],[137.739561,36.095692],[137.739886,36.09585],[137.740261,36.095917],[137.740586,36.095875],[137.740661,36.0959],[137.740861,36.095875],[137.741461,36.095908],[137.741886,36.095817],[137.742923,36.095467],[137.743198,36.095417],[137.744173,36.095025],[137.744573,36.0948],[137.744798,36.094734],[137.745936,36.094542],[137.746511,36.094384],[137.746948,36.094296],[137.747135,36.094259],[137.74811,36.09415],[137.74886,36.094092],[137.74996,36.0941],[137.75001,36.094117]]]},"type":"Feature"}]}