{"type":"FeatureCollection","features":[{"geometry":{"coordinates":[[[137.953181,36.485006],[137.951969,36.485231],[137.951332,36.485297],[137.950657,36.485297],[137.950407,36.485272],[137.949882,36.485097],[137.949719,36.485006],[137.949519,36.484597],[137.949357,36.482572],[137.949544,36.482097],[137.950069,36.481398],[137.950432,36.480631],[137.950869,36.479956],[137.951332,36.479439],[137.951994,36.478965],[137.952644,36.478398],[137.953969,36.477748],[137.954844,36.477248],[137.955694,36.476482],[137.956281,36.47574],[137.956606,36.475198],[137.956794,36.47459],[137.956931,36.473849],[137.957094,36.473282],[137.957344,36.47274],[137.957481,36.472557],[137.957869,36.472224],[137.958669,36.471682],[137.959044,36.471207],[137.959106,36.470757],[137.959069,36.470349],[137.958856,36.469316],[137.958856,36.469049],[137.958994,36.468508],[137.959268,36.467983],[137.959681,36.467666],[137.960443,36.467283],[137.960856,36.466991],[137.961243,36.466633],[137.961431,36.466541],[137.962693,36.467033],[137.963443,36.467558],[137.963718,36.4676],[137.964106,36.467708],[137.96448,36.467891],[137.96468,36.467916],[137.964755,36.467758],[137.964868,36.467033],[137.964843,36.46625],[137.96478,36.466175],[137.964543,36.465525],[137.963793,36.464017],[137.963606,36.463475],[137.964343,36.463384],[137.965005,36.46325],[137.965693,36.462976],[137.966318,36.462551],[137.968243,36.461426],[137.96893,36.461284],[137.97033,36.461259],[137.971017,36.461243],[137.971592,36.461326],[137.971792,36.461468],[137.971767,36.461868],[137.971817,36.462051],[137.97193,36.462076],[137.972967,36.462001],[137.973492,36.462001],[137.973967,36.461843],[137.974017,36.461801],[137.973955,36.461601],[137.974042,36.461376],[137.974292,36.461301],[137.974917,36.461326],[137.975304,36.461368],[137.975967,36.461285],[137.976379,36.461077],[137.976492,36.460985],[137.976979,36.46076],[137.977117,36.460743],[137.977392,36.461102],[137.978304,36.461843],[137.978492,36.461952],[137.979216,36.462243],[137.979866,36.462468],[137.980041,36.462585],[137.980091,36.462585],[137.980141,36.462652],[137.980154,36.463618],[137.980366,36.464068],[137.980616,36.464276],[137.981216,36.464426],[137.981529,36.46461],[137.981554,36.464676],[137.981941,36.465035],[137.982541,36.46531],[137.983254,36.465735],[137.983804,36.46621],[137.984279,36.466676],[137.984491,36.466818],[137.985516,36.466951],[137.986366,36.467193],[137.986916,36.467493],[137.987416,36.467943],[137.987578,36.468143],[137.987766,36.468251],[137.988403,36.468526],[137.989228,36.468793],[137.989991,36.469085],[137.990578,36.469401],[137.990965,36.469693],[137.99124,36.469943],[137.99134,36.470143],[137.991478,36.470593],[137.991703,36.470843],[137.99184,36.47091],[137.99234,36.471335],[137.992778,36.47161],[137.993353,36.471835],[137.993715,36.472076],[137.993903,36.472368],[137.994178,36.472393],[137.99489,36.472276],[137.99539,36.472168],[137.99569,36.472976],[137.996053,36.473135],[137.996128,36.473251],[137.996403,36.473451],[137.996877,36.473718],[137.997677,36.474018],[137.998102,36.474201],[137.998602,36.474809],[137.998815,36.475201],[137.999265,36.475518],[137.999565,36.475634],[137.99994,36.476268],[138.000277,36.476768],[138.001202,36.477626],[138.001452,36.477809],[138.002327,36.478334],[138.003514,36.479001],[138.003889,36.479276],[138.004664,36.479684],[138.004889,36.479868],[138.005039,36.480051],[138.005489,36.480093],[138.005639,36.479851],[138.006001,36.479426],[138.006401,36.479293],[138.007151,36.479201],[138.009276,36.479176],[138.010651,36.47941],[138.011451,36.479643],[138.013225,36.479993],[138.014275,36.480335],[138.014625,36.480568],[138.0147,36.480635],[138.014875,36.480701],[138.015375,36.481001],[138.017325,36.481485],[138.0174,36.481551],[138.0177,36.482301],[138.018,36.482485],[138.018524,36.482601],[138.018687,36.482718],[138.018812,36.482893],[138.019462,36.48301],[138.019762,36.483035],[138.020087,36.48311],[138.020112,36.483176],[138.020237,36.483268],[138.021461,36.484201],[138.022536,36.483985],[138.023111,36.484101],[138.023586,36.484235],[138.024211,36.484243],[138.024361,36.484201],[138.024724,36.484152],[138.024936,36.484401],[138.025386,36.484885],[138.025711,36.484976],[138.026536,36.485118],[138.027961,36.485235],[138.028823,36.485201],[138.029648,36.485093],[138.030373,36.48471],[138.030723,36.484627],[138.031336,36.484585],[138.032286,36.484685],[138.033185,36.48496],[138.034135,36.485285],[138.03496,36.48551],[138.03586,36.48586],[138.036548,36.486201],[138.037348,36.486701],[138.038423,36.48741],[138.039122,36.487801],[138.039735,36.488368],[138.040135,36.488818],[138.04066,36.489343],[138.041522,36.490634],[138.042497,36.491184],[138.043072,36.491618],[138.04341,36.492109],[138.043335,36.492609],[138.04361,36.492951],[138.04426,36.493359],[138.04471,36.493542],[138.045122,36.493842],[138.045447,36.494251],[138.045797,36.494767],[138.046097,36.494926],[138.046722,36.494909],[138.046822,36.494892],[138.046859,36.494834],[138.047247,36.494576],[138.047672,36.494559],[138.048109,36.494109],[138.048484,36.493934],[138.049184,36.493551],[138.049647,36.493534],[138.050297,36.493676],[138.050647,36.493542],[138.050872,36.493226],[138.051534,36.492551],[138.051534,36.492484],[138.051859,36.492218],[138.052684,36.492018],[138.052884,36.492226],[138.053359,36.492584],[138.053934,36.492726],[138.054534,36.492418],[138.055071,36.492059],[138.055846,36.491768],[138.056521,36.491751],[138.057308,36.491601],[138.057583,36.491335],[138.058133,36.491068],[138.058933,36.490935],[138.059696,36.49076],[138.059771,36.490718],[138.060221,36.49076],[138.060396,36.490901],[138.060671,36.491018],[138.060796,36.491018],[138.061346,36.490885],[138.062571,36.49076],[138.064233,36.49036],[138.065083,36.490143],[138.066245,36.489952],[138.06692,36.489952],[138.067395,36.490002],[138.06877,36.490485],[138.06887,36.490552],[138.06917,36.490418],[138.070095,36.489885],[138.07062,36.48991],[138.071295,36.490077],[138.071607,36.490077],[138.072057,36.490035],[138.072732,36.490085],[138.072932,36.490127],[138.073257,36.490068],[138.073582,36.48986],[138.073982,36.489435],[138.074295,36.48926],[138.07462,36.489127],[138.074769,36.488994],[138.074869,36.488794],[138.074657,36.487527],[138.074307,36.486935],[138.07412,36.486594],[138.073395,36.485802],[138.07322,36.485527],[138.07317,36.485211],[138.073357,36.483886],[138.07357,36.482894],[138.07377,36.482469],[138.074232,36.482111],[138.074657,36.481819],[138.076019,36.48052],[138.076444,36.480411],[138.076907,36.480436],[138.077332,36.480553],[138.077832,36.48062],[138.078782,36.480586],[138.078932,36.480111],[138.080294,36.479895],[138.080994,36.479811],[138.081694,36.479928],[138.081844,36.479886],[138.082369,36.479411],[138.082831,36.478945],[138.083081,36.478603],[138.083606,36.47832],[138.084206,36.47832],[138.084694,36.478262],[138.085069,36.47817],[138.086394,36.477978],[138.086869,36.47787],[138.087069,36.477778],[138.086281,36.477028],[138.086031,36.476579],[138.085931,36.476195],[138.085744,36.475895],[138.085644,36.47587],[138.084919,36.475012],[138.084569,36.474629],[138.084681,36.474104],[138.084856,36.473862],[138.085231,36.473529],[138.085431,36.473387],[138.085831,36.473371],[138.086231,36.473529],[138.086656,36.473737],[138.087181,36.473746],[138.087356,36.473654],[138.087718,36.473612],[138.088368,36.473437],[138.088743,36.473237],[138.089068,36.473012],[138.089318,36.472896],[138.089818,36.473154],[138.089993,36.473129],[138.090568,36.473112],[138.091218,36.473679],[138.091443,36.473837],[138.091868,36.473821],[138.092393,36.473662],[138.092508,36.473636],[138.093131,36.473512],[138.09343,36.473337],[138.093655,36.473087],[138.094155,36.472937],[138.09443,36.472729],[138.094468,36.472621],[138.094618,36.472396],[138.094793,36.472329],[138.095193,36.472063],[138.095343,36.471863],[138.095668,36.471729],[138.09608,36.471638],[138.096605,36.471504],[138.09698,36.471146],[138.097493,36.470588],[138.097768,36.470479],[138.097943,36.470504],[138.098243,36.470438],[138.098493,36.470096],[138.098818,36.469829],[138.09968,36.469338],[138.10003,36.469071],[138.100255,36.468805],[138.100567,36.468605],[138.101067,36.468405],[138.101467,36.468313],[138.101917,36.468163],[138.102117,36.468121],[138.102317,36.468096],[138.102767,36.468188],[138.103192,36.46833],[138.104267,36.468563],[138.105292,36.46873],[138.105817,36.468755],[138.105867,36.46873],[138.105979,36.46848],[138.105979,36.467805],[138.105954,36.467513],[138.106117,36.466588],[138.106192,36.466572],[138.106217,36.46648],[138.106192,36.466363],[138.106242,36.466188],[138.106242,36.466047],[138.106479,36.465672],[138.106629,36.465305],[138.106704,36.464947],[138.106742,36.464139],[138.106542,36.463864],[138.105942,36.463072],[138.105829,36.462705],[138.105854,36.462147],[138.105967,36.461356],[138.106192,36.461089],[138.106242,36.460997],[138.106192,36.460414],[138.106042,36.460256],[138.106079,36.460164],[138.105979,36.459281],[138.106129,36.459106],[138.106429,36.458989],[138.106742,36.458723],[138.107267,36.458048],[138.107517,36.457939],[138.107967,36.457989],[138.108354,36.457923],[138.108654,36.457814],[138.109454,36.45719],[138.109804,36.457073],[138.110254,36.457056],[138.110616,36.457081],[138.111091,36.457015],[138.111416,36.456881],[138.111491,36.456773],[138.111616,36.45639],[138.111704,36.455848],[138.112004,36.455173],[138.112303,36.454948],[138.113191,36.45444],[138.113541,36.454332],[138.113866,36.453923],[138.114053,36.453499],[138.114503,36.452849],[138.114841,36.452265],[138.115416,36.451432],[138.115603,36.450982],[138.115728,36.450082],[138.115865,36.449907],[138.11599,36.449816],[138.117765,36.449199],[138.117878,36.448949],[138.117853,36.448183],[138.117728,36.447591],[138.118265,36.446541],[138.118403,36.446108],[138.118441,36.446019],[138.118453,36.445975],[138.118478,36.44595],[138.118703,36.445391],[138.118728,36.444966],[138.118665,36.444758],[138.11839,36.444416],[138.11824,36.444283],[138.118015,36.443966],[138.118103,36.443267],[138.118553,36.44275],[138.119228,36.442533],[138.119578,36.442333],[138.11989,36.441925],[138.11989,36.441858],[138.120565,36.441342],[138.121252,36.440742],[138.121477,36.440425],[138.121702,36.440184],[138.121902,36.440063],[138.122115,36.439825],[138.12259,36.43955],[138.122865,36.439342],[138.123315,36.438525],[138.12399,36.437526],[138.124177,36.437092],[138.12379,36.437034],[138.123452,36.436901],[138.123227,36.436767],[138.122702,36.436592],[138.122365,36.436534],[138.12209,36.436584],[138.121927,36.436626],[138.121615,36.436709],[138.121515,36.436684],[138.121215,36.436409],[138.12074,36.436134],[138.120415,36.435951],[138.11969,36.435342],[138.11954,36.435251],[138.119203,36.434909],[138.118828,36.434343],[138.118428,36.434068],[138.117653,36.433909],[138.117153,36.433809],[138.116678,36.433834],[138.116078,36.433918],[138.115553,36.433893],[138.114953,36.433951],[138.114516,36.434059],[138.114341,36.434059],[138.114191,36.433926],[138.114029,36.433568],[138.114004,36.433159],[138.114054,36.432751],[138.114204,36.432393],[138.114766,36.431651],[138.114504,36.430451],[138.114429,36.43021],[138.114591,36.429552],[138.114566,36.429152],[138.114791,36.428627],[138.114841,36.42856],[138.114954,36.428177],[138.114904,36.427435],[138.114929,36.427235],[138.115054,36.427052],[138.115666,36.426627],[138.115816,36.426269],[138.116016,36.425977],[138.116191,36.425935],[138.116504,36.42571],[138.116554,36.425619],[138.116454,36.424986],[138.116229,36.424444],[138.116429,36.422169],[138.116529,36.421919],[138.117166,36.421386],[138.117266,36.421228],[138.117217,36.420911],[138.117017,36.420261],[138.116804,36.419803],[138.116804,36.419778],[138.116667,36.419536],[138.116279,36.418278],[138.116129,36.417987],[138.115892,36.417762],[138.115717,36.417512],[138.115492,36.416812],[138.115129,36.41607],[138.114642,36.415412],[138.114317,36.415079],[138.11358,36.414037],[138.113317,36.413745],[138.113405,36.413387],[138.113805,36.412529],[138.113917,36.412146],[138.113892,36.411762],[138.11363,36.411237],[138.113592,36.410904],[138.113767,36.410021],[138.11368,36.409771],[138.113505,36.409521],[138.11333,36.409138],[138.113242,36.408779],[138.11323,36.407896],[138.113467,36.40738],[138.114092,36.406588],[138.11508,36.405188],[138.115242,36.40478],[138.115392,36.404122],[138.11533,36.403788],[138.11518,36.403197],[138.115117,36.403155],[138.114617,36.402164],[138.114593,36.40203],[138.11468,36.40128],[138.114618,36.401105],[138.114418,36.400789],[138.11398,36.400472],[138.113305,36.400131],[138.112868,36.399864],[138.112493,36.399481],[138.112466,36.399392],[138.112405,36.399322],[138.112118,36.399664],[138.111655,36.400097],[138.111218,36.400272],[138.110405,36.400455],[138.109856,36.40053],[138.109306,36.400639],[138.108818,36.400847],[138.108381,36.40123],[138.108118,36.401772],[138.107893,36.402138],[138.107231,36.402655],[138.106943,36.402838],[138.106568,36.40293],[138.106131,36.402797],[138.105543,36.402547],[138.105406,36.402505],[138.104906,36.402455],[138.104069,36.402638],[138.103831,36.402797],[138.103756,36.40303],[138.103456,36.403346],[138.103206,36.40373],[138.102769,36.40418],[138.102681,36.404496],[138.102306,36.404588],[138.101869,36.404563],[138.101119,36.404655],[138.100594,36.404796],[138.099869,36.405088],[138.099232,36.405296],[138.098457,36.405863],[138.097882,36.406363],[138.097857,36.406496],[138.097707,36.406763],[138.097444,36.407038],[138.096957,36.407171],[138.094657,36.406637],[138.093095,36.406054],[138.092707,36.405813],[138.092507,36.405338],[138.09222,36.405088],[138.09167,36.404863],[138.091295,36.405296],[138.091082,36.405546],[138.090682,36.405787],[138.09002,36.405929],[138.089807,36.405954],[138.089382,36.406087],[138.088745,36.406137],[138.08827,36.406087],[138.087432,36.405954],[138.08717,36.405887],[138.086445,36.405371],[138.085633,36.405354],[138.085395,36.405287],[138.084933,36.405512],[138.083545,36.406779],[138.08352,36.406829],[138.083383,36.406829],[138.083108,36.406396],[138.08277,36.406104],[138.082508,36.405812],[138.081683,36.405162],[138.081395,36.404821],[138.080958,36.404504],[138.08072,36.404462],[138.079908,36.404487],[138.078108,36.404196],[138.077271,36.404154],[138.076221,36.404046],[138.075096,36.404029],[138.074283,36.40412],[138.073183,36.404329],[138.071821,36.40467],[138.071709,36.40467],[138.071671,36.404687],[138.071184,36.404304],[138.070771,36.404104],[138.070334,36.403787],[138.069759,36.403137],[138.069259,36.402937],[138.068709,36.402754],[138.068334,36.402529],[138.067746,36.40242],[138.066734,36.40247],[138.066097,36.402429],[138.065659,36.402204],[138.065297,36.400512],[138.064897,36.399854],[138.064509,36.399629],[138.064022,36.399271],[138.063872,36.399204],[138.063559,36.398887],[138.063522,36.398571],[138.063697,36.398237],[138.063834,36.398079],[138.064184,36.397396],[138.064709,36.397054],[138.065172,36.396629],[138.065397,36.396154],[138.065459,36.395904],[138.065484,36.395455],[138.065797,36.394955],[138.066172,36.394455],[138.066284,36.394096],[138.066434,36.393846],[138.066484,36.393671],[138.066947,36.392963],[138.067009,36.392805],[138.067434,36.39218],[138.067609,36.391705],[138.067572,36.391247],[138.067659,36.390914],[138.067897,36.390664],[138.068009,36.390305],[138.067922,36.389847],[138.068034,36.389239],[138.068284,36.388747],[138.068697,36.388314],[138.068834,36.387706],[138.069584,36.387089],[138.069846,36.386756],[138.070309,36.386439],[138.071121,36.385648],[138.071459,36.385489],[138.071896,36.385464],[138.072246,36.385373],[138.072359,36.385215],[138.072159,36.384156],[138.072209,36.38384],[138.072184,36.383273],[138.071909,36.382282],[138.071796,36.381515],[138.071959,36.380832],[138.072821,36.379774],[138.073059,36.379407],[138.072934,36.378574],[138.073484,36.377491],[138.073796,36.377132],[138.074209,36.376741],[138.074634,36.376407],[138.075296,36.375999],[138.076434,36.374908],[138.076946,36.374574],[138.077384,36.374208],[138.078159,36.373441],[138.078709,36.372783],[138.079021,36.372308],[138.079084,36.37215],[138.079134,36.372058],[138.079834,36.371292],[138.079971,36.37095],[138.079746,36.370617],[138.078809,36.369917],[138.078484,36.3696],[138.077909,36.369267],[138.077646,36.369042],[138.077121,36.368384],[138.076971,36.368275],[138.076447,36.367709],[138.076159,36.367034],[138.076097,36.366542],[138.076147,36.365976],[138.076122,36.365884],[138.076234,36.365051],[138.076347,36.364684],[138.077159,36.363759],[138.077497,36.363259],[138.077647,36.362834],[138.077609,36.362226],[138.077634,36.361884],[138.077784,36.361526],[138.077947,36.361051],[138.077897,36.360735],[138.077772,36.360535],[138.077222,36.359926],[138.076784,36.359543],[138.076259,36.359185],[138.075535,36.358776],[138.075185,36.358443],[138.075072,36.358101],[138.074247,36.357043],[138.073697,36.356568],[138.07326,36.356077],[138.073022,36.355693],[138.07291,36.355402],[138.072385,36.355043],[138.07201,36.354727],[138.071598,36.354052],[138.071398,36.353668],[138.071273,36.353235],[138.071423,36.352693],[138.071323,36.352219],[138.071035,36.351594],[138.070423,36.350919],[138.069873,36.350535],[138.069635,36.35026],[138.069523,36.349902],[138.069523,36.349769],[138.06966,36.349136],[138.069973,36.348161],[138.070085,36.347219],[138.069911,36.346852],[138.069711,36.346677],[138.069236,36.346427],[138.068861,36.346269],[138.067961,36.346052],[138.067736,36.345961],[138.067323,36.345711],[138.066773,36.345286],[138.066623,36.345194],[138.066561,36.345011],[138.066536,36.344611],[138.066323,36.343844],[138.066186,36.343411],[138.066123,36.342778],[138.065948,36.342378],[138.065761,36.341611],[138.065799,36.34127],[138.065999,36.340928],[138.066286,36.340595],[138.066374,36.340211],[138.066399,36.33987],[138.067023,36.338762],[138.067286,36.338062],[138.067486,36.337787],[138.067711,36.337295],[138.067861,36.336862],[138.067823,36.336612],[138.067649,36.336454],[138.067374,36.336179],[138.067199,36.33607],[138.066786,36.335912],[138.066499,36.335754],[138.066261,36.335195],[138.066061,36.334854],[138.065761,36.33447],[138.065274,36.33402],[138.064549,36.333529],[138.064511,36.333254],[138.065874,36.332504],[138.066399,36.332254],[138.067086,36.331829],[138.067461,36.331512],[138.067549,36.331288],[138.067986,36.330921],[138.068124,36.330896],[138.068361,36.330763],[138.068799,36.330288],[138.069199,36.330013],[138.069511,36.329088],[138.069886,36.328388],[138.069974,36.327738],[138.070686,36.326288],[138.071411,36.32518],[138.071611,36.324547],[138.071574,36.323939],[138.071461,36.323514],[138.071599,36.32308],[138.071999,36.32238],[138.072149,36.321906],[138.071999,36.321031],[138.071561,36.320147],[138.071299,36.319764],[138.071236,36.319514],[138.071286,36.319131],[138.071461,36.318523],[138.071511,36.318073],[138.071486,36.317531],[138.071249,36.317031],[138.071074,36.316723],[138.071099,36.316515],[138.071162,36.316448],[138.071861,36.316198],[138.072724,36.31599],[138.072724,36.315948],[138.074149,36.315407],[138.074749,36.315082],[138.075849,36.314357],[138.076086,36.314248],[138.077211,36.313524],[138.078023,36.31309],[138.078248,36.312932],[138.078823,36.312707],[138.079811,36.312565],[138.080648,36.31234],[138.080886,36.31234],[138.081061,36.31229],[138.081036,36.312224],[138.081061,36.311957],[138.081311,36.311299],[138.081598,36.310982],[138.081948,36.310707],[138.082698,36.310257],[138.083073,36.309891],[138.083223,36.309508],[138.083248,36.309191],[138.082948,36.308116],[138.082748,36.307816],[138.082636,36.307733],[138.082286,36.307574],[138.081848,36.307483],[138.081411,36.307324],[138.081036,36.307058],[138.080098,36.306741],[138.079761,36.306633],[138.079461,36.30645],[138.078973,36.306025],[138.078314,36.305349],[138.078299,36.3053],[138.078236,36.304991],[138.078461,36.303817],[138.078486,36.302908],[138.078424,36.302642],[138.078136,36.302258],[138.077086,36.301609],[138.076774,36.301242],[138.076711,36.301134],[138.076649,36.300725],[138.076586,36.299284],[138.076524,36.299034],[138.076436,36.298876],[138.076236,36.298717],[138.075799,36.298559],[138.074349,36.298342],[138.073474,36.298076],[138.072924,36.297826],[138.072899,36.297734],[138.073562,36.297217],[138.074162,36.296851],[138.074512,36.296467],[138.074999,36.295743],[138.075062,36.295426],[138.074974,36.295068],[138.074887,36.294951],[138.074562,36.293718],[138.074412,36.293335],[138.074312,36.292251],[138.074137,36.291751],[138.073787,36.29146],[138.073187,36.291235],[138.073062,36.290985],[138.073175,36.290535],[138.07315,36.290201],[138.073062,36.290085],[138.072962,36.289202],[138.072825,36.288935],[138.07265,36.28891],[138.072325,36.288777],[138.072237,36.288685],[138.0721,36.288368],[138.071975,36.287877],[138.071625,36.287377],[138.071562,36.286752],[138.07125,36.286569],[138.070862,36.28646],[138.070687,36.286277],[138.07055,36.285694],[138.070275,36.28531],[138.069988,36.285177],[138.0695,36.28506],[138.0692,36.284952],[138.069063,36.28486],[138.070213,36.284111],[138.071312,36.283186],[138.0718,36.282819],[138.072437,36.282144],[138.07255,36.281736],[138.072525,36.281603],[138.072575,36.281194],[138.073012,36.280203],[138.0735,36.27957],[138.074337,36.278595],[138.0748,36.277445],[138.07485,36.27722],[138.074787,36.27652],[138.074725,36.276062],[138.074762,36.27577],[138.074662,36.275503],[138.073912,36.274553],[138.073825,36.274395],[138.07365,36.273879],[138.073325,36.273404],[138.073038,36.273095],[138.072913,36.272712],[138.072888,36.272345],[138.072975,36.27212],[138.073025,36.272095],[138.07305,36.272012],[138.073288,36.271829],[138.073375,36.271829],[138.074187,36.271462],[138.074762,36.270921],[138.075375,36.270779],[138.075712,36.270579],[138.076037,36.270262],[138.076525,36.269537],[138.077212,36.268813],[138.0786,36.267613],[138.07955,36.266796],[138.079725,36.266505],[138.079812,36.266146],[138.079837,36.265763],[138.080062,36.264921],[138.08035,36.264671],[138.080562,36.264563],[138.080787,36.264313],[138.081137,36.263613],[138.081337,36.26343],[138.081825,36.263113],[138.082312,36.262572],[138.082599,36.262047],[138.082712,36.26173],[138.082662,36.261647],[138.082362,36.261397],[138.0819,36.261105],[138.08115,36.260539],[138.080387,36.260022],[138.079775,36.259105],[138.079275,36.25858],[138.079012,36.258114],[138.078688,36.257189],[138.0784,36.256556],[138.078338,36.256289],[138.078338,36.256056],[138.078513,36.255697],[138.078713,36.255406],[138.07935,36.254723],[138.079813,36.254298],[138.080013,36.253956],[138.0801,36.253756],[138.080038,36.253506],[138.079775,36.253389],[138.079538,36.253323],[138.079338,36.253131],[138.079425,36.253089],[138.079425,36.252973],[138.079688,36.252489],[138.079938,36.25209],[138.0799,36.25199],[138.079475,36.251631],[138.07925,36.251231],[138.079313,36.250906],[138.079775,36.250573],[138.080713,36.249973],[138.0817,36.24909],[138.081813,36.24904],[138.082438,36.248482],[138.083925,36.24759],[138.0847,36.247265],[138.085087,36.247165],[138.08515,36.247115],[138.08485,36.246707],[138.08435,36.246249],[138.084212,36.24599],[138.084187,36.245799],[138.084862,36.243924],[138.084975,36.243766],[138.08525,36.243716],[138.086125,36.243749],[138.086425,36.243716],[138.086862,36.243607],[138.087087,36.243591],[138.087675,36.243741],[138.08795,36.243774],[138.088425,36.243682],[138.089275,36.243649],[138.089737,36.243657],[138.090362,36.243557],[138.09075,36.243307],[138.090775,36.243332],[138.09115,36.242791],[138.091575,36.241899],[138.091787,36.241666],[138.092474,36.241258],[138.092487,36.240599],[138.092487,36.239633],[138.092537,36.238925],[138.092437,36.238375],[138.092437,36.237625],[138.092412,36.237033],[138.09355,36.2371],[138.094037,36.237025],[138.094637,36.236992],[138.095849,36.236858],[138.096774,36.236667],[138.097387,36.236492],[138.097974,36.236383],[138.098712,36.236292],[138.099274,36.236283],[138.100187,36.236433],[138.100599,36.23655],[138.101449,36.236633],[138.101937,36.236525],[138.102499,36.236475],[138.102999,36.236025],[138.103286,36.235884],[138.104024,36.235384],[138.104424,36.234992],[138.104849,36.234692],[138.105161,36.234376],[138.105549,36.233859],[138.105624,36.233576],[138.105661,36.233076],[138.105449,36.232317],[138.105024,36.231492],[138.104699,36.230884],[138.104662,36.230551],[138.104824,36.229293],[138.105287,36.228426],[138.106412,36.226818],[138.107037,36.226068],[138.107424,36.225876],[138.108349,36.225843],[138.109324,36.225852],[138.109887,36.225752],[138.110724,36.225635],[138.111587,36.225377],[138.112086,36.225185],[138.112961,36.224643],[138.113374,36.224277],[138.113736,36.223827],[138.114349,36.223227],[138.114999,36.222969],[138.115799,36.22281],[138.116111,36.222694],[138.116161,36.222644],[138.116086,36.222194],[138.115799,36.22171],[138.115461,36.220844],[138.115486,36.220736],[138.115774,36.220394],[138.116136,36.220227],[138.116436,36.219844],[138.116599,36.219194],[138.116711,36.219119],[138.116936,36.219027],[138.117736,36.219186],[138.118649,36.218944],[138.119536,36.218836],[138.119786,36.218811],[138.119874,36.218761],[138.120061,36.218569],[138.121909,36.217082],[138.121999,36.217036],[138.122149,36.216878],[138.122524,36.216561],[138.122924,36.216336],[138.123336,36.216203],[138.123999,36.215861],[138.124436,36.215561],[138.125586,36.214953],[138.125911,36.214728],[138.127961,36.212987],[138.128398,36.212528],[138.129261,36.21172],[138.129436,36.211329],[138.129486,36.21102],[138.129461,36.210587],[138.129374,36.210179],[138.129224,36.209795],[138.129049,36.209529],[138.128961,36.209212],[138.129249,36.20847],[138.129361,36.207837],[138.129361,36.207546],[138.129074,36.207229],[138.128661,36.206912],[138.128249,36.206529],[138.128049,36.206104],[138.127961,36.205812],[138.127699,36.205629],[138.127436,36.205379],[138.127324,36.205229],[138.126799,36.204212],[138.126649,36.203804],[138.126524,36.203129],[138.126262,36.202321],[138.126062,36.201954],[138.125799,36.201329],[138.125737,36.201013],[138.125824,36.200721],[138.126399,36.19963],[138.127037,36.19918],[138.127212,36.198913],[138.127112,36.19823],[138.127312,36.197713],[138.127637,36.197239],[138.127662,36.19683],[138.127512,36.195889],[138.127512,36.195639],[138.127687,36.195164],[138.127799,36.194197],[138.127674,36.193922],[138.127587,36.193831],[138.127524,36.193356],[138.127562,36.192956],[138.127837,36.191731],[138.127687,36.189956],[138.127549,36.189798],[138.127312,36.189348],[138.12725,36.188848],[138.126875,36.187723],[138.126512,36.187023],[138.126512,36.186798],[138.126575,36.186573],[138.126512,36.186257],[138.1261,36.184974],[138.126162,36.184682],[138.126037,36.183982],[138.126212,36.183574],[138.126587,36.183032],[138.126725,36.182241],[138.127912,36.180791],[138.127937,36.180616],[138.128087,36.180233],[138.1284,36.179958],[138.129762,36.179274],[138.130075,36.178825],[138.130162,36.178533],[138.130162,36.177766],[138.130337,36.177541],[138.130712,36.177383],[138.131,36.177175],[138.131137,36.177016],[138.131112,36.176458],[138.130937,36.176075],[138.130675,36.175867],[138.1303,36.175308],[138.130087,36.174558],[138.12995,36.174383],[138.129512,36.174225],[138.129475,36.174183],[138.128637,36.173933],[138.128287,36.173775],[138.127538,36.173242],[138.127188,36.172834],[138.126975,36.172342],[138.127038,36.171775],[138.126863,36.171192],[138.126975,36.170959],[138.1272,36.170825],[138.127488,36.17035],[138.1276,36.169834],[138.12755,36.169809],[138.127238,36.169617],[138.127163,36.169209],[138.127213,36.168942],[138.127375,36.168559],[138.1273,36.168309],[138.127325,36.168109],[138.12755,36.167584],[138.127813,36.167251],[138.128038,36.166984],[138.128113,36.166759],[138.127838,36.166526],[138.127788,36.166418],[138.1272,36.166076],[138.126275,36.165343],[138.125751,36.164734],[138.124951,36.164251],[138.124313,36.163709],[138.124113,36.163568],[138.123838,36.163501],[138.123363,36.163268],[138.122913,36.163268],[138.122688,36.163335],[138.122313,36.163376],[138.122013,36.163326],[138.121904,36.16331],[138.121801,36.163309],[138.121326,36.162926],[138.121026,36.162743],[138.120526,36.162851],[138.120076,36.163026],[138.119401,36.163609],[138.118901,36.163743],[138.118351,36.164101],[138.117701,36.164051],[138.117126,36.163959],[138.116951,36.163984],[138.116376,36.163976],[138.115926,36.164018],[138.115764,36.163976],[138.115264,36.163501],[138.115202,36.163409],[138.114902,36.163268],[138.113152,36.162834],[138.112264,36.162868],[138.111602,36.162801],[138.109815,36.162493],[138.108677,36.162351],[138.108127,36.162393],[138.107427,36.162684],[138.106477,36.163226],[138.106027,36.163376],[138.105665,36.163334],[138.104777,36.163101],[138.104365,36.163184],[138.104302,36.163234],[138.104077,36.163817],[138.103965,36.163926],[138.10349,36.163859],[138.102853,36.163634],[138.101465,36.163326],[138.099753,36.163051],[138.098803,36.162709],[138.098528,36.162684],[138.09844,36.162634],[138.098228,36.162317],[138.098003,36.161576],[138.097703,36.161276],[138.097141,36.161159],[138.096703,36.160909],[138.096341,36.160776],[138.096066,36.160792],[138.095703,36.161201],[138.095166,36.161334],[138.094841,36.161284],[138.094116,36.160876],[138.093591,36.160759],[138.092504,36.160617],[138.092229,36.160342],[138.091954,36.159867],[138.091679,36.159642],[138.091316,36.159576],[138.090879,36.159342],[138.090429,36.159051],[138.089766,36.158684],[138.089379,36.158434],[138.088904,36.158067],[138.088267,36.157659],[138.087829,36.157817],[138.087217,36.158059],[138.086742,36.158126],[138.085567,36.158117],[138.085379,36.158051],[138.08493,36.157801],[138.084542,36.157684],[138.083567,36.157767],[138.082955,36.157559],[138.08243,36.157492],[138.08193,36.157284],[138.081355,36.157101],[138.080655,36.157101],[138.08013,36.157051],[138.079567,36.157067],[138.079042,36.157134],[138.077955,36.157017],[138.077343,36.157034],[138.076505,36.157209],[138.07618,36.157434],[138.075918,36.157726],[138.075618,36.157976],[138.07523,36.158217],[138.074493,36.158775],[138.074155,36.159209],[138.073518,36.159675],[138.073355,36.1597],[138.073155,36.159875],[138.07298,36.160217],[138.072843,36.160642],[138.072843,36.161],[138.072668,36.161358],[138.072143,36.162017],[138.071893,36.16215],[138.071718,36.162167],[138.071555,36.162142],[138.071143,36.161983],[138.070605,36.161825],[138.069968,36.161683],[138.069693,36.161683],[138.069218,36.161725],[138.068743,36.161725],[138.067418,36.161492],[138.066943,36.161508],[138.066668,36.1616],[138.066105,36.162225],[138.065905,36.162341],[138.064731,36.162516],[138.063906,36.162708],[138.063231,36.163066],[138.062118,36.163516],[138.061668,36.163733],[138.060631,36.164116],[138.060168,36.164249],[138.059943,36.164383],[138.059793,36.164541],[138.059793,36.164766],[138.059456,36.165824],[138.059031,36.167332],[138.058993,36.167665],[138.058806,36.16789],[138.058468,36.167957],[138.058018,36.167957],[138.057106,36.167749],[138.056019,36.16799],[138.055094,36.168415],[138.054519,36.168482],[138.054094,36.168432],[138.053594,36.168248],[138.052469,36.167607],[138.051969,36.166748],[138.051719,36.166548],[138.051194,36.16634],[138.050469,36.165948],[138.049482,36.164415],[138.049157,36.16409],[138.048232,36.16364],[138.047845,36.163324],[138.047295,36.163049],[138.046495,36.162457],[138.046058,36.162049],[138.04547,36.16139],[138.045283,36.16089],[138.04567,36.160307],[138.04567,36.160124],[138.045345,36.159699],[138.045183,36.159382],[138.045208,36.159107],[138.045383,36.158841],[138.045458,36.158816],[138.045558,36.157416],[138.045533,36.156991],[138.04542,36.156266],[138.045408,36.155841],[138.045458,36.155433],[138.045608,36.15505],[138.04577,36.154375],[138.04572,36.1541],[138.045558,36.15365],[138.045258,36.153266],[138.044733,36.152966],[138.044396,36.152675],[138.044371,36.152383],[138.044596,36.151908],[138.044596,36.151642],[138.044383,36.151408],[138.043633,36.1512],[138.043158,36.151017],[138.042796,36.1507],[138.042059,36.14975],[138.041896,36.149392],[138.042084,36.1488],[138.042171,36.148692],[138.042259,36.148375],[138.042259,36.148242],[138.042321,36.14815],[138.042346,36.147992],[138.041909,36.146592],[138.042059,36.145892],[138.042221,36.145601],[138.043346,36.145042],[138.043459,36.144792],[138.043371,36.144184],[138.043184,36.143443],[138.042934,36.142851],[138.042159,36.142243],[138.041734,36.141151],[138.041784,36.14061],[138.041684,36.13971],[138.041597,36.139618],[138.03471,36.126787],[138.034698,36.125503],[138.034523,36.123654],[138.034135,36.122679],[138.033673,36.12182],[138.033423,36.121071],[138.033461,36.120129],[138.033823,36.119312],[138.034161,36.118729],[138.034273,36.118371],[138.033161,36.118429],[138.032586,36.118362],[138.031836,36.118087],[138.031536,36.117771],[138.031449,36.117071],[138.031149,36.116613],[138.030649,36.116029],[138.030636,36.115304],[138.030136,36.114238],[138.030561,36.113705],[138.030536,36.113246],[138.030286,36.112705],[138.030636,36.111513],[138.030362,36.110563],[138.030199,36.109755],[138.029987,36.109072],[138.030024,36.10788],[138.030074,36.107355],[138.030499,36.106955],[138.030262,36.105172],[138.029987,36.104697],[138.029462,36.104264],[138.029024,36.103764],[138.02855,36.103131],[138.028337,36.102248],[138.028287,36.101573],[138.028375,36.101031],[138.028962,36.100656],[138.029462,36.100448],[138.029599,36.100298],[138.029325,36.099998],[138.02855,36.09939],[138.028225,36.098732],[138.0281,36.09774],[138.02785,36.096723],[138.027912,36.096474],[138.028325,36.095999],[138.028587,36.09539],[138.02895,36.094674],[138.0292,36.094357],[138.0292,36.094291],[138.029487,36.093657],[138.029487,36.093366],[138.029325,36.093207],[138.028437,36.092682],[138.028025,36.092391],[138.027937,36.091958],[138.028175,36.091149],[138.028512,36.090499],[138.029187,36.088741],[138.029112,36.088541],[138.028637,36.0882],[138.028475,36.087883],[138.0287,36.087433],[138.028875,36.086867],[138.02885,36.086483],[138.028725,36.085683],[138.028612,36.085525],[138.02855,36.085183],[138.028213,36.08465],[138.027938,36.0844],[138.026563,36.083734],[138.026263,36.083575],[138.02615,36.083484],[138.026013,36.083217],[138.02565,36.083042],[138.025338,36.082834],[138.024638,36.082459],[138.023501,36.081634],[138.023388,36.081409],[138.023351,36.081134],[138.023126,36.080576],[138.022851,36.080009],[138.022763,36.079609],[138.022588,36.079084],[138.022526,36.078726],[138.022563,36.078459],[138.022663,36.078184],[138.022601,36.077376],[138.022738,36.076784],[138.022901,36.076518],[138.022901,36.076451],[138.023038,36.07616],[138.023013,36.075935],[138.023038,36.075885],[138.021488,36.076593],[138.020238,36.077226],[138.020076,36.077276],[138.018026,36.078326],[138.017114,36.078684],[138.016101,36.076709],[138.015426,36.075268],[138.014014,36.072668],[138.013539,36.071493],[138.012952,36.07046],[138.012664,36.069902],[138.012802,36.069902],[138.013227,36.069985],[138.013239,36.069402],[138.013327,36.068902],[138.013377,36.068835],[138.013352,36.068385],[138.013677,36.067302],[138.014114,36.067052],[138.014277,36.066827],[138.014827,36.065494],[138.014877,36.065085],[138.014764,36.064727],[138.014839,36.064144],[138.015002,36.063802],[138.015452,36.063369],[138.015939,36.062961],[138.015827,36.062311],[138.015439,36.061728],[138.015127,36.061161],[138.014627,36.060536],[138.014314,36.060219],[138.013752,36.059978],[138.013089,36.059936],[138.012702,36.059828],[138.011339,36.059111],[138.010977,36.058886],[138.010527,36.058728],[138.01044,36.058661],[138.010527,36.058011],[138.01044,36.057669],[138.010302,36.057469],[138.009852,36.057045],[138.009765,36.056545],[138.00949,36.056395],[138.009127,36.056278],[138.008977,36.056078],[138.00884,36.055378],[138.00839,36.054953],[138.008165,36.05442],[138.00789,36.054278],[138.007465,36.05417],[138.007277,36.05397],[138.007127,36.053678],[138.006765,36.053228],[138.005852,36.053636],[138.00489,36.054028],[138.004228,36.05432],[138.003865,36.05442],[138.003003,36.054461],[138.002253,36.054428],[138.002115,36.05447],[138.001703,36.054428],[138.001315,36.054428],[138.000953,36.05452],[138.000815,36.054478],[138.000553,36.05412],[137.999728,36.053853],[137.999391,36.053653],[137.998803,36.053403],[137.997966,36.053161],[137.997691,36.053003],[137.997353,36.052736],[137.997241,36.052695],[137.997103,36.052578],[137.997053,36.052578],[137.996866,36.052528],[137.995791,36.051895],[137.995529,36.051695],[137.995179,36.051353],[137.995004,36.051087],[137.994716,36.050795],[137.994329,36.050478],[137.993191,36.049762],[137.992766,36.049603],[137.992466,36.049445],[137.992266,36.049128],[137.991979,36.048928],[137.991479,36.048745],[137.990729,36.048595],[137.990429,36.048387],[137.990204,36.048095],[137.989817,36.047895],[137.988954,36.047629],[137.988429,36.047537],[137.987992,36.047404],[137.987817,36.047312],[137.987492,36.046862],[137.987092,36.046704],[137.986392,36.046754],[137.985867,36.046662],[137.984192,36.046062],[137.983805,36.04597],[137.983517,36.045787],[137.981917,36.045029],[137.981593,36.044804],[137.981105,36.044579],[137.97988,36.044354],[137.97933,36.044379],[137.978668,36.04447],[137.978093,36.04452],[137.977568,36.044679],[137.976555,36.045062],[137.975918,36.045228],[137.975306,36.04532],[137.974693,36.04527],[137.974143,36.045362],[137.973718,36.045595],[137.972968,36.046228],[137.972443,36.04677],[137.971981,36.047361],[137.971893,36.047653],[137.971718,36.047628],[137.971468,36.047536],[137.971231,36.047611],[137.971118,36.047836],[137.971031,36.048286],[137.970918,36.048628],[137.970631,36.048853],[137.970131,36.049053],[137.969269,36.049303],[137.968869,36.049353],[137.967819,36.049128],[137.966081,36.049178],[137.965556,36.049361],[137.964781,36.049703],[137.964219,36.049886],[137.963932,36.049927],[137.963357,36.049952],[137.962694,36.050294],[137.962257,36.050661],[137.961744,36.051269],[137.961307,36.051902],[137.960994,36.052244],[137.960619,36.05256],[137.960269,36.052985],[137.960182,36.053352],[137.960182,36.053752],[137.960094,36.053869],[137.959782,36.054002],[137.959319,36.054093],[137.958819,36.054077],[137.95757,36.053627],[137.95682,36.053468],[137.95632,36.053293],[137.955857,36.053002],[137.955507,36.052869],[137.955045,36.052885],[137.954007,36.053277],[137.953083,36.053727],[137.952008,36.054052],[137.951058,36.05441],[137.950583,36.054476],[137.950333,36.05471],[137.950008,36.055501],[137.949758,36.055793],[137.949558,36.056126],[137.94932,36.056759],[137.949295,36.057168],[137.949645,36.057684],[137.949908,36.058226],[137.950408,36.059084],[137.950533,36.059467],[137.950558,36.059851],[137.950508,36.060209],[137.95027,36.060576],[137.95007,36.061142],[137.949845,36.061459],[137.949758,36.061525],[137.949758,36.061725],[137.949908,36.062017],[137.950308,36.06315],[137.950345,36.063442],[137.950145,36.063692],[137.949595,36.063825],[137.949045,36.06385],[137.948258,36.063808],[137.947683,36.063808],[137.947008,36.064017],[137.946695,36.063967],[137.946221,36.063742],[137.945883,36.063742],[137.944858,36.063633],[137.944346,36.063708],[137.943871,36.063708],[137.942971,36.063575],[137.942396,36.063417],[137.941034,36.062858],[137.940221,36.062267],[137.938796,36.0616],[137.938621,36.061375],[137.938609,36.061234],[137.938759,36.060767],[137.938934,36.0604],[137.939509,36.059542],[137.939559,36.059276],[137.939446,36.058976],[137.939359,36.058867],[137.938596,36.058367],[137.938109,36.057851],[137.937934,36.057542],[137.937896,36.056909],[137.937946,36.055234],[137.938009,36.054784],[137.938167,36.05413],[137.938196,36.053976],[137.938234,36.053451],[137.937822,36.053001],[137.937297,36.052868],[137.936634,36.052801],[137.935647,36.052785],[137.935359,36.05256],[137.935084,36.052218],[137.934884,36.051793],[137.934597,36.051368],[137.934184,36.051093],[137.933722,36.05096],[137.933109,36.050852],[137.931572,36.050468],[137.931085,36.050268],[137.930472,36.049843],[137.92991,36.049618],[137.92936,36.049643],[137.928897,36.049577],[137.928285,36.049443],[137.92771,36.049352],[137.927448,36.049218],[137.927335,36.04886],[137.927298,36.04836],[137.927435,36.047552],[137.927435,36.047094],[137.927523,36.04651],[137.927723,36.045677],[137.92766,36.045152],[137.927485,36.044769],[137.92751,36.044436],[137.927685,36.043961],[137.927648,36.043577],[137.92756,36.043286],[137.927423,36.042786],[137.927248,36.042519],[137.926948,36.042294],[137.926548,36.042203],[137.926135,36.042253],[137.92571,36.042253],[137.92536,36.042028],[137.92471,36.041353],[137.92416,36.041128],[137.923935,36.041061],[137.923873,36.041011],[137.923523,36.040269],[137.922736,36.039344],[137.922673,36.039186],[137.922386,36.038761],[137.921473,36.037995],[137.920898,36.037728],[137.920348,36.03762],[137.919736,36.037728],[137.918923,36.03807],[137.918611,36.03807],[137.918324,36.037961],[137.917911,36.037711],[137.917411,36.037486],[137.917161,36.037261],[137.917011,36.036903],[137.916924,36.036453],[137.916749,36.035936],[137.916574,36.035595],[137.916099,36.035395],[137.915549,36.03497],[137.915174,36.034745],[137.914711,36.034653],[137.913574,36.034636],[137.912412,36.034503],[137.911812,36.034345],[137.911637,36.034078],[137.911074,36.03392],[137.910674,36.034053],[137.909887,36.034236],[137.908762,36.034403],[137.9081,36.034403],[137.907512,36.034453],[137.906737,36.034611],[137.906187,36.034586],[137.9056,36.034519],[137.905162,36.034344],[137.905025,36.034145],[137.90505,36.033845],[137.9051,36.033803],[137.904987,36.033511],[137.904175,36.032611],[137.9038,36.032295],[137.9024,36.031286],[137.901263,36.030562],[137.9008,36.030178],[137.900388,36.029778],[137.900188,36.02937],[137.9001,36.028603],[137.899975,36.028378],[137.8996,36.02802],[137.898925,36.027145],[137.8977,36.02602],[137.897038,36.025095],[137.896738,36.024737],[137.896651,36.024529],[137.896426,36.024604],[137.895963,36.02467],[137.895638,36.024829],[137.895388,36.02512],[137.894751,36.02627],[137.894438,36.026745],[137.894088,36.027178],[137.893801,36.027628],[137.893626,36.028195],[137.893313,36.028628],[137.892501,36.029503],[137.892188,36.029936],[137.891838,36.030753],[137.891551,36.031136],[137.891151,36.031494],[137.890339,36.032019],[137.890114,36.032244],[137.889939,36.032536],[137.889939,36.032628],[137.889739,36.032944],[137.889276,36.033077],[137.888889,36.033286],[137.888464,36.033577],[137.888289,36.034144],[137.887889,36.034344],[137.887564,36.034552],[137.887301,36.034844],[137.886289,36.035344],[137.885914,36.03546],[137.885651,36.035727],[137.885776,36.036135],[137.885601,36.036452],[137.885314,36.03681],[137.884851,36.037152],[137.884039,36.037877],[137.883752,36.03801],[137.883264,36.038177],[137.883002,36.038377],[137.882889,36.03876],[137.882827,36.039185],[137.882889,36.039593],[137.883152,36.04016],[137.883389,36.040318],[137.883764,36.040318],[137.884551,36.04011],[137.884976,36.039902],[137.885589,36.039743],[137.885764,36.03981],[137.886139,36.040218],[137.886314,36.040627],[137.886089,36.040893],[137.885976,36.041101],[137.885676,36.041051],[137.885301,36.041168],[137.884839,36.041418],[137.884239,36.041618],[137.883214,36.041801],[137.881889,36.042143],[137.881389,36.042393],[137.880552,36.043418],[137.880089,36.043659],[137.878764,36.044093],[137.87824,36.044434],[137.877752,36.044709],[137.877202,36.044934],[137.87604,36.045276],[137.875602,36.045326],[137.87459,36.045576],[137.87344,36.045934],[137.871937,36.046455],[137.87179,36.04645],[137.871228,36.046517],[137.870303,36.046742],[137.86979,36.046967],[137.869378,36.047042],[137.869315,36.046992],[137.869103,36.046209],[137.86889,36.045867],[137.86859,36.045484],[137.86834,36.045009],[137.868103,36.044692],[137.867715,36.044359],[137.867141,36.043975],[137.866991,36.043684],[137.866666,36.043326],[137.864866,36.042017],[137.864478,36.041567],[137.863991,36.040759],[137.863841,36.040601],[137.863453,36.040576],[137.862678,36.040692],[137.862141,36.040717],[137.861591,36.040667],[137.860154,36.040201],[137.858779,36.039617],[137.858179,36.039326],[137.857616,36.038917],[137.857254,36.038876],[137.856029,36.039142],[137.854854,36.039351],[137.854317,36.039309],[137.853929,36.039084],[137.853392,36.038651],[137.853029,36.038451],[137.851979,36.038592],[137.851567,36.038609],[137.851329,36.038701],[137.850554,36.039317],[137.849867,36.039742],[137.849292,36.040034],[137.848692,36.040125],[137.847467,36.0402],[137.846842,36.040625],[137.84628,36.04085],[137.845917,36.041125],[137.84538,36.041442],[137.84448,36.041892],[137.844242,36.042167],[137.84413,36.042433],[137.843655,36.043025],[137.843505,36.043275],[137.843142,36.043317],[137.842067,36.043725],[137.841442,36.043908],[137.841105,36.044316],[137.840905,36.044783],[137.840692,36.0454],[137.84028,36.045783],[137.839717,36.046658],[137.83918,36.047158],[137.83873,36.047341],[137.837318,36.047591],[137.836993,36.047816],[137.836605,36.048157],[137.83633,36.048557],[137.835943,36.048991],[137.835618,36.049241],[137.834968,36.049374],[137.834418,36.049399],[137.833968,36.049332],[137.83323,36.049082],[137.832243,36.049066],[137.831518,36.049199],[137.830655,36.04954],[137.830168,36.049582],[137.829631,36.049515],[137.828793,36.049365],[137.828231,36.049365],[137.827843,36.049499],[137.827356,36.049907],[137.827031,36.05029],[137.826881,36.050715],[137.826831,36.051373],[137.826943,36.052365],[137.826918,36.052948],[137.826743,36.053382],[137.826656,36.053448],[137.826056,36.053698],[137.825693,36.05379],[137.825456,36.05379],[137.825281,36.053898],[137.825043,36.05429],[137.824981,36.055298],[137.824568,36.055573],[137.823756,36.056298],[137.823643,36.056748],[137.823556,36.056789],[137.823068,36.056906],[137.822381,36.056973],[137.821868,36.056931],[137.821331,36.056656],[137.820681,36.056281],[137.820106,36.056123],[137.819569,36.056256],[137.819181,36.056281],[137.818819,36.056148],[137.817856,36.055673],[137.817381,36.055673],[137.816906,36.055631],[137.816356,36.055364],[137.815344,36.054506],[137.815306,36.054439],[137.814419,36.054914],[137.813906,36.055048],[137.812856,36.055073],[137.812144,36.055189],[137.811781,36.055281],[137.811119,36.055348],[137.809869,36.055556],[137.809144,36.055464],[137.807107,36.054831],[137.806757,36.054856],[137.806507,36.055014],[137.805919,36.055697],[137.805494,36.056031],[137.804994,36.056281],[137.804394,36.056422],[137.804032,36.056556],[137.803257,36.057189],[137.802682,36.057547],[137.802632,36.057731],[137.802694,36.057864],[137.802982,36.058022],[137.803382,36.058289],[137.803594,36.058606],[137.803769,36.059014],[137.804132,36.059647],[137.804407,36.060255],[137.804519,36.061605],[137.804469,36.062014],[137.804344,36.062347],[137.804319,36.062755],[137.804444,36.063814],[137.804444,36.064313],[137.804257,36.06463],[137.803844,36.065397],[137.803694,36.06558],[137.803369,36.065755],[137.801932,36.066188],[137.801157,36.066572],[137.800794,36.066872],[137.800232,36.067113],[137.799182,36.067663],[137.798857,36.067955],[137.798519,36.06818],[137.798219,36.068271],[137.797982,36.068563],[137.797482,36.069513],[137.797207,36.069871],[137.796994,36.07028],[137.796944,36.07048],[137.796819,36.07163],[137.796282,36.072854],[137.796444,36.073954],[137.796469,36.075104],[137.796569,36.075604],[137.796869,36.076729],[137.796869,36.077296],[137.796807,36.077879],[137.796507,36.078221],[137.796182,36.078471],[137.795944,36.078446],[137.795369,36.078062],[137.794982,36.077929],[137.794619,36.077954],[137.794082,36.078179],[137.793457,36.078312],[137.792619,36.078429],[137.79157,36.078271],[137.791182,36.078346],[137.790557,36.078504],[137.78992,36.078612],[137.789382,36.07857],[137.788995,36.078395],[137.78867,36.077987],[137.788632,36.077579],[137.788657,36.077129],[137.78857,36.076704],[137.788295,36.076387],[137.78782,36.076204],[137.787432,36.076137],[137.786657,36.075371],[137.786507,36.075279],[137.78587,36.075221],[137.785245,36.075262],[137.78467,36.075379],[137.78417,36.075262],[137.78372,36.075021],[137.783383,36.074771],[137.78282,36.074254],[137.782245,36.073304],[137.78207,36.073146],[137.781558,36.073462],[137.781258,36.073737],[137.780595,36.074237],[137.77997,36.07457],[137.779045,36.074887],[137.77832,36.075045],[137.777433,36.07512],[137.776646,36.075029],[137.776196,36.075054],[137.775871,36.075237],[137.775546,36.075479],[137.775208,36.075779],[137.774371,36.07677],[137.774133,36.077178],[137.773933,36.077653],[137.773358,36.077812],[137.772696,36.077995],[137.772371,36.078237],[137.772108,36.07862],[137.771658,36.079053],[137.770846,36.079461],[137.770183,36.079686],[137.769496,36.079803],[137.768421,36.07987],[137.767671,36.07987],[137.767284,36.080145],[137.766334,36.080644],[137.764946,36.081211],[137.764409,36.081278],[137.763209,36.081661],[137.762497,36.081936],[137.761834,36.082227],[137.760797,36.082836],[137.760584,36.083069],[137.760259,36.083744],[137.759597,36.085094],[137.759359,36.085277],[137.759084,36.085394],[137.758547,36.085485],[137.75756,36.08571],[137.757022,36.085893],[137.756747,36.085935],[137.756097,36.085985],[137.755197,36.08621],[137.755035,36.086477],[137.754847,36.086735],[137.754585,36.087093],[137.753972,36.088326],[137.753747,36.088685],[137.753447,36.088893],[137.752585,36.089268],[137.75186,36.089643],[137.75151,36.089959],[137.751298,36.090343],[137.751048,36.091259],[137.750798,36.092659],[137.750798,36.093201],[137.750623,36.093492],[137.750185,36.093942],[137.75001,36.094117],[137.749885,36.094167],[137.748823,36.095309],[137.74816,36.09645],[137.748048,36.0974],[137.748073,36.098441],[137.748135,36.099],[137.748385,36.099483],[137.748448,36.1],[137.748448,36.100541],[137.748648,36.10095],[137.748773,36.101133],[137.749135,36.101449],[137.749835,36.102333],[137.750235,36.102624],[137.750585,36.102808],[137.750797,36.103133],[137.750822,36.103674],[137.750997,36.104149],[137.751535,36.104716],[137.751885,36.104916],[137.752085,36.105282],[137.752247,36.106074],[137.752272,36.106641],[137.752485,36.108215],[137.752972,36.109099],[137.753222,36.109399],[137.753997,36.10974],[137.754272,36.109898],[137.754497,36.110107],[137.754709,36.110898],[137.754934,36.111215],[137.755209,36.11144],[137.755534,36.111873],[137.755547,36.112098],[137.755522,36.112665],[137.755334,36.113698],[137.755309,36.11424],[137.755122,36.114715],[137.755022,36.115206],[137.755222,36.115414],[137.754897,36.115681],[137.754684,36.115923],[137.754322,36.116914],[137.753822,36.117656],[137.753734,36.118106],[137.753684,36.118764],[137.753547,36.11973],[137.753572,36.120139],[137.752847,36.120247],[137.752534,36.120422],[137.752234,36.120805],[137.751934,36.121122],[137.751759,36.121455],[137.751697,36.122313],[137.751747,36.12263],[137.751909,36.122972],[137.751909,36.123372],[137.752009,36.12378],[137.752072,36.124372],[137.751784,36.125538],[137.751834,36.125813],[137.752134,36.126171],[137.752584,36.12683],[137.752746,36.127263],[137.752746,36.127671],[137.752596,36.128188],[137.752646,36.128254],[137.752959,36.128479],[137.753934,36.129213],[137.754209,36.129554],[137.754571,36.130121],[137.755683,36.132629],[137.755771,36.133104],[137.756021,36.133329],[137.756771,36.133854],[137.757096,36.13417],[137.757371,36.134579],[137.757583,36.135012],[137.758208,36.135737],[137.758433,36.136053],[137.758545,36.136487],[137.758595,36.136895],[137.759383,36.13787],[137.759758,36.138028],[137.760083,36.138278],[137.760408,36.139095],[137.76077,36.139503],[137.761595,36.139978],[137.761795,36.140295],[137.761945,36.140728],[137.762357,36.141586],[137.762632,36.141953],[137.763182,36.142453],[137.76327,36.142836],[137.76332,36.143261],[137.76347,36.143694],[137.763845,36.144127],[137.764307,36.144536],[137.764732,36.144852],[137.765382,36.145127],[137.765657,36.145536],[137.765907,36.145986],[137.766169,36.146219],[137.766544,36.146419],[137.766819,36.146744],[137.767182,36.148252],[137.767431,36.148594],[137.767581,36.14866],[137.768169,36.149302],[137.769044,36.150527],[137.769331,36.151068],[137.769681,36.15136],[137.770006,36.151702],[137.770344,36.15256],[137.770369,36.153551],[137.770156,36.153843],[137.769981,36.15391],[137.769556,36.154185],[137.769281,36.154543],[137.769244,36.154943],[137.769294,36.155218],[137.769619,36.155584],[137.770118,36.155968],[137.770693,36.156334],[137.771831,36.157243],[137.772131,36.157651],[137.772506,36.157942],[137.773106,36.158359],[137.773368,36.158742],[137.773843,36.159809],[137.774143,36.160101],[137.77453,36.160242],[137.775068,36.160334],[137.776093,36.160384],[137.777018,36.160659],[137.777492,36.160734],[137.777917,36.160917],[137.778292,36.161192],[137.778655,36.161642],[137.779905,36.162667],[137.78038,36.162917],[137.781267,36.163509],[137.782317,36.164059],[137.783317,36.164992],[137.783979,36.165767],[137.784904,36.166383],[137.785904,36.16675],[137.786329,36.166867],[137.786479,36.16695],[137.786554,36.167317],[137.786516,36.167791],[137.786341,36.168191],[137.785954,36.169233],[137.786029,36.169408],[137.786229,36.169525],[137.786479,36.169616],[137.786729,36.1698],[137.787341,36.170691],[137.787391,36.171008],[137.787391,36.171324],[137.787504,36.171658],[137.787479,36.172041],[137.787391,36.172382],[137.787641,36.172924],[137.787778,36.173482],[137.787941,36.173866],[137.788028,36.174657],[137.788078,36.17479],[137.788028,36.17529],[137.787891,36.175357],[137.787691,36.175624],[137.787478,36.176124],[137.787316,36.176349],[137.787091,36.177207],[137.786841,36.177632],[137.786678,36.178107],[137.786428,36.178648],[137.786191,36.17914],[137.785916,36.179273],[137.785191,36.179506],[137.785116,36.179706],[137.784678,36.18054],[137.784953,36.181415],[137.785478,36.181889],[137.786216,36.182389],[137.787091,36.183106],[137.787566,36.183448],[137.788416,36.183781],[137.789403,36.183914],[137.789765,36.183873],[137.79009,36.183664],[137.790415,36.183239],[137.790753,36.182514],[137.790828,36.182448],[137.791028,36.182381],[137.791028,36.182356],[137.792803,36.182406],[137.793603,36.182289],[137.794452,36.182106],[137.795202,36.181839],[137.796327,36.181323],[137.796515,36.181206],[137.796815,36.180956],[137.797177,36.18089],[137.79764,36.180956],[137.798527,36.181406],[137.799589,36.181881],[137.800314,36.182373],[137.801189,36.183073],[137.801827,36.183523],[137.802402,36.183681],[137.802864,36.183681],[137.803302,36.183564],[137.803664,36.183389],[137.803802,36.183248],[137.804102,36.183098],[137.804539,36.183114],[137.805589,36.183498],[137.805914,36.183748],[137.806139,36.184131],[137.806214,36.184422],[137.806139,36.184714],[137.806189,36.184806],[137.806326,36.185231],[137.806576,36.185681],[137.806901,36.185956],[137.807426,36.186764],[137.807901,36.187239],[137.808363,36.187397],[137.809138,36.18748],[137.810126,36.18753],[137.810838,36.187639],[137.811026,36.187639],[137.811601,36.187772],[137.812151,36.187889],[137.812813,36.18793],[137.813113,36.188022],[137.813726,36.188272],[137.814463,36.188514],[137.8152,36.188897],[137.816363,36.189638],[137.817375,36.19018],[137.819,36.190855],[137.820012,36.191305],[137.821662,36.192005],[137.825375,36.193847],[137.828049,36.19493],[137.828949,36.19538],[137.830212,36.196163],[137.830687,36.196346],[137.832062,36.197021],[137.832912,36.197488],[137.834749,36.198638],[137.837774,36.198863],[137.838224,36.200213],[137.841661,36.202488],[137.842723,36.203021],[137.843273,36.203246],[137.844786,36.203679],[137.854085,36.207454],[137.855073,36.207745],[137.855373,36.207879],[137.855548,36.20792],[137.856097,36.208237],[137.856397,36.208512],[137.856722,36.208737],[137.857272,36.208979],[137.857747,36.209229],[137.859672,36.210487],[137.861022,36.211412],[137.861647,36.211795],[137.862397,36.212353],[137.863359,36.213187],[137.863747,36.213503],[137.864597,36.213978],[137.865447,36.214361],[137.865946,36.214653],[137.866934,36.215036],[137.867671,36.21537],[137.869159,36.216161],[137.870258,36.216653],[137.870758,36.21692],[137.871723,36.217418],[137.871931,36.217525],[137.872908,36.217686],[137.873996,36.217728],[137.874083,36.217703],[137.875845,36.21777],[137.877733,36.217903],[137.87857,36.217895],[137.879233,36.217987],[137.88052,36.218028],[137.881082,36.218095],[137.881657,36.218295],[137.882045,36.21852],[137.88402,36.219737],[137.884382,36.220012],[137.887557,36.222261],[137.887882,36.222211],[137.891656,36.22162],[137.892494,36.221912],[137.893481,36.222362],[137.894106,36.222695],[137.895606,36.223328],[137.897618,36.224253],[137.898156,36.224562],[137.898606,36.224745],[137.899331,36.22517],[137.899806,36.225512],[137.902206,36.22742],[137.902918,36.228078],[137.903793,36.22902],[137.904843,36.229944],[137.905318,36.230436],[137.907542,36.232778],[137.907692,36.233028],[137.908592,36.234111],[137.908742,36.234219],[137.90953,36.235302],[137.91028,36.236094],[137.911117,36.237169],[137.913454,36.240418],[137.916104,36.243976],[137.916404,36.244293],[137.918204,36.246426],[137.918779,36.247084],[137.918929,36.247309],[137.920904,36.249676],[137.921266,36.250168],[137.921691,36.250526],[137.921716,36.250668],[137.921841,36.250734],[137.923466,36.252509],[137.923616,36.252626],[137.924091,36.253117],[137.924353,36.253334],[137.92559,36.254709],[137.926753,36.256075],[137.927578,36.256959],[137.92864,36.2582],[137.92944,36.2593],[137.92994,36.260175],[137.930765,36.261775],[137.931702,36.263875],[137.932464,36.26495],[137.935764,36.270041],[137.936176,36.271258],[137.936514,36.271616],[137.936764,36.272183],[137.936589,36.272274],[137.936126,36.272407],[137.936151,36.272499],[137.937289,36.273741],[137.937839,36.274166],[137.938689,36.274682],[137.940138,36.275716],[137.940801,36.276282],[137.941326,36.276841],[137.941826,36.277449],[137.942376,36.278015],[137.943025,36.278782],[137.943825,36.280132],[137.944125,36.280965],[137.944413,36.282023],[137.944488,36.282673],[137.944438,36.283282],[137.944075,36.285248],[137.94395,36.286915],[137.944025,36.287589],[137.944187,36.287723],[137.944987,36.288081],[137.945862,36.288249],[137.945818,36.288406],[137.94373,36.2941],[137.941163,36.299312],[137.937934,36.304937],[137.936103,36.312307],[137.933968,36.323117],[137.932872,36.328961],[137.931827,36.335693],[137.930521,36.340963],[137.928607,36.34474],[137.929792,36.345179],[137.931735,36.346614],[137.932917,36.347922],[137.933298,36.349779],[137.93334,36.351847],[137.931302,36.355211],[137.928894,36.358757],[137.927289,36.361669],[137.926824,36.363864],[137.92712,36.366462],[137.927078,36.368572],[137.926656,36.37064],[137.924628,36.37427],[137.922047,36.379528],[137.920653,36.382271],[137.92023,36.384424],[137.92023,36.386449],[137.920104,36.388053],[137.919386,36.389446],[137.919259,36.390501],[137.919514,36.392426],[137.919598,36.39538],[137.919134,36.398504],[137.918662,36.400815],[137.917434,36.404151],[137.917782,36.406185],[137.918907,36.408263],[137.921369,36.410529],[137.924673,36.411574],[137.924811,36.411799],[137.924948,36.412182],[137.924923,36.41239],[137.924536,36.412974],[137.924186,36.413265],[137.923274,36.413923],[137.922649,36.41424],[137.922036,36.414623],[137.920774,36.415615],[137.920199,36.415931],[137.919599,36.416406],[137.918937,36.417039],[137.918499,36.417373],[137.917562,36.417981],[137.917499,36.418056],[137.917287,36.418189],[137.917087,36.418439],[137.916987,36.418772],[137.916987,36.418889],[137.916737,36.419772],[137.916499,36.420122],[137.915199,36.421247],[137.914925,36.421314],[137.914762,36.421314],[137.9141,36.421522],[137.9138,36.421814],[137.913612,36.422172],[137.913362,36.422822],[137.913337,36.423072],[137.91375,36.423205],[137.915787,36.423947],[137.917324,36.42438],[137.918499,36.424872],[137.918999,36.425055],[137.919308,36.425204],[137.919299,36.425213],[137.917874,36.426605],[137.917049,36.427355],[137.916662,36.427913],[137.916587,36.428096],[137.916549,36.428571],[137.916449,36.428954],[137.916387,36.429021],[137.916037,36.429154],[137.914599,36.429271],[137.914499,36.429588],[137.914437,36.429971],[137.914087,36.430288],[137.913912,36.430354],[137.913474,36.430446],[137.913062,36.430446],[137.912787,36.430579],[137.912487,36.430804],[137.912162,36.431121],[137.911937,36.431187],[137.911525,36.431254],[137.911175,36.431454],[137.910925,36.431546],[137.910875,36.431529],[137.9107,36.431704],[137.910425,36.431821],[137.909962,36.431846],[137.909825,36.432379],[137.9095,36.43317],[137.909387,36.433329],[137.908587,36.43407],[137.907163,36.43507],[137.90675,36.435537],[137.906638,36.435787],[137.90645,36.436961],[137.906288,36.437345],[137.905625,36.438403],[137.905463,36.438786],[137.905375,36.439278],[137.905513,36.439461],[137.906563,36.439728],[137.906838,36.439869],[137.906975,36.440111],[137.907225,36.440878],[137.907462,36.441536],[137.907525,36.441536],[137.908312,36.440878],[137.908537,36.440744],[137.909,36.440628],[137.909225,36.440628],[137.91005,36.440428],[137.910375,36.440428],[137.910762,36.440494],[137.911774,36.440853],[137.912137,36.440811],[137.912824,36.441103],[137.913424,36.441053],[137.913974,36.441278],[137.914524,36.441711],[137.914936,36.442136],[137.915574,36.442469],[137.916586,36.442811],[137.917061,36.442903],[137.917474,36.443061],[137.917611,36.443144],[137.919448,36.444861],[137.920223,36.445327],[137.920573,36.445469],[137.920936,36.445469],[137.921186,36.445552],[137.921373,36.445894],[137.921561,36.446702],[137.922123,36.449768],[137.922198,36.449927],[137.92236,36.450018],[137.922473,36.449993],[137.92291,36.449993],[137.92366,36.45006],[137.924348,36.449877],[137.924897,36.44986],[137.925247,36.449719],[137.925685,36.449702],[137.926372,36.449852],[137.92706,36.449877],[137.927447,36.449969],[137.92786,36.450102],[137.92836,36.450102],[137.928709,36.450168],[137.929047,36.450527],[137.929259,36.450868],[137.929647,36.451677],[137.929947,36.452601],[137.929947,36.45301],[137.929847,36.453368],[137.929647,36.454335],[137.929709,36.454518],[137.931359,36.456251],[137.932071,36.456834],[137.932596,36.457084],[137.933084,36.457401],[137.933584,36.457801],[137.933609,36.458076],[137.933284,36.458842],[137.933146,36.459767],[137.932896,36.4606],[137.932959,36.460709],[137.933146,36.460775],[137.933559,36.4608],[137.933671,36.460842],[137.933746,36.461092],[137.933834,36.461517],[137.934296,36.462175],[137.934821,36.46265],[137.935021,36.462942],[137.935071,36.463233],[137.935046,36.463325],[137.934846,36.463591],[137.934771,36.463775],[137.934796,36.464041],[137.935158,36.464291],[137.935596,36.464491],[137.936146,36.464625],[137.936771,36.465141],[137.936996,36.465441],[137.937083,36.465774],[137.937058,36.466499],[137.936946,36.467016],[137.936508,36.467083],[137.936233,36.467058],[137.936096,36.466949],[137.935871,36.466858],[137.935571,36.466791],[137.935208,36.466908],[137.934796,36.467174],[137.934358,36.467558],[137.933921,36.467783],[137.933284,36.467874],[137.933071,36.467874],[137.931971,36.467699],[137.931421,36.467541],[137.930921,36.467316],[137.930646,36.467066],[137.930371,36.466958],[137.930259,36.466958],[137.929772,36.467116],[137.928809,36.467582],[137.928234,36.467966],[137.927209,36.468741],[137.927022,36.468966],[137.926659,36.469882],[137.926497,36.47079],[137.926334,36.471149],[137.926472,36.471174],[137.926834,36.471149],[137.927159,36.471174],[137.928184,36.471823],[137.928896,36.472948],[137.929034,36.473082],[137.929496,36.473332],[137.930021,36.473715],[137.930459,36.473915],[137.930846,36.474165],[137.931559,36.47504],[137.931809,36.475131],[137.932059,36.474973],[137.932446,36.474498],[137.932721,36.47459],[137.932908,36.474773],[137.932958,36.47504],[137.932958,36.475423],[137.933096,36.47549],[137.933158,36.47549],[137.933921,36.475648],[137.934583,36.475756],[137.934858,36.475848],[137.934971,36.476256],[137.934883,36.476573],[137.934483,36.477023],[137.934421,36.477131],[137.936545,36.477739],[137.93687,36.477898],[137.93712,36.478506],[137.937233,36.479114],[137.937195,36.479181],[137.937258,36.479472],[137.937558,36.479722],[137.938383,36.480239],[137.938933,36.480664],[137.939158,36.480981],[137.939183,36.481297],[137.938995,36.482514],[137.93877,36.482855],[137.938383,36.48333],[137.938308,36.483664],[137.938308,36.484205],[137.938033,36.484455],[137.93737,36.48578],[137.937233,36.485938],[137.93702,36.486388],[137.937208,36.486638],[137.938308,36.487538],[137.938833,36.48788],[137.939383,36.488055],[137.939795,36.48808],[137.94042,36.488013],[137.941882,36.487897],[137.942757,36.488005],[137.943445,36.488413],[137.943857,36.488597],[137.944382,36.488772],[137.944857,36.489155],[137.945407,36.489272],[137.946057,36.489355],[137.946582,36.48938],[137.947244,36.489355],[137.947907,36.489222],[137.949744,36.488655],[137.950594,36.488314],[137.951206,36.48793],[137.951781,36.487439],[137.952269,36.486689],[137.952769,36.485614],[137.953181,36.485006]]],"type":"Polygon"},"properties":{"name":"東筑摩","yomi":"ひがしちくま","kuni_id":"K24","pref":"長野県","kuni_url":"/kg/resource/K24.html","id_url":"G24002.html","kuni":"信濃","id":"G24002"},"type":"Feature"}]}