{"features":[{"type":"Feature","geometry":{"coordinates":[[[138.318829,36.563677],[138.340056,36.564756],[138.353431,36.574408],[138.364576,36.582203],[138.378693,36.588143],[138.404142,36.594208],[138.42897,36.597991],[138.42872,36.597791],[138.42832,36.597224],[138.428207,36.596999],[138.427807,36.596549],[138.427445,36.596058],[138.426957,36.595249],[138.426595,36.594441],[138.426445,36.593883],[138.426382,36.593358],[138.426457,36.591241],[138.42697,36.589033],[138.42707,36.588425],[138.42702,36.588067],[138.426958,36.58755],[138.426758,36.5869],[138.426695,36.586825],[138.426558,36.586434],[138.426233,36.585967],[138.425795,36.585209],[138.425345,36.584526],[138.425258,36.584101],[138.425233,36.583692],[138.424958,36.582767],[138.42467,36.582251],[138.42437,36.581801],[138.423895,36.581309],[138.422421,36.580184],[138.421208,36.579193],[138.420896,36.578759],[138.420396,36.577751],[138.420308,36.576935],[138.420271,36.574052],[138.420308,36.573777],[138.420408,36.573577],[138.420658,36.57346],[138.421021,36.573368],[138.422183,36.57321],[138.423096,36.572893],[138.423433,36.572627],[138.423408,36.572577],[138.423846,36.572077],[138.424371,36.571627],[138.425533,36.571177],[138.426171,36.570743],[138.427058,36.570227],[138.427446,36.569885],[138.427996,36.569277],[138.428246,36.56876],[138.428633,36.567827],[138.428771,36.567085],[138.428658,36.566385],[138.428796,36.565144],[138.428883,36.564719],[138.428933,36.563819],[138.428796,36.563411],[138.428571,36.563003],[138.428008,36.562194],[138.427183,36.561386],[138.426433,36.560711],[138.426321,36.560528],[138.426284,36.560236],[138.426421,36.559944],[138.426696,36.559553],[138.427009,36.559286],[138.428196,36.558536],[138.428471,36.558311],[138.428696,36.557836],[138.428908,36.557228],[138.429021,36.556462],[138.428834,36.55597],[138.428584,36.555512],[138.427359,36.55412],[138.426909,36.553762],[138.426571,36.553354],[138.426209,36.552479],[138.426184,36.55232],[138.426246,36.551912],[138.426209,36.551437],[138.426071,36.551254],[138.425347,36.550854],[138.424909,36.550562],[138.424297,36.549729],[138.424159,36.549362],[138.423909,36.548987],[138.423547,36.548804],[138.423159,36.548696],[138.422547,36.548354],[138.422097,36.547996],[138.421097,36.546871],[138.420797,36.546421],[138.420047,36.545604],[138.419572,36.545337],[138.41896,36.545071],[138.418797,36.544846],[138.41866,36.544371],[138.418548,36.543788],[138.418435,36.543538],[138.418185,36.543329],[138.418123,36.543246],[138.41776,36.543088],[138.417398,36.543021],[138.416573,36.542954],[138.416485,36.542888],[138.41471,36.542704],[138.414098,36.542413],[138.412748,36.541654],[138.412411,36.541379],[138.412136,36.541113],[138.411773,36.540413],[138.411573,36.539763],[138.411523,36.539196],[138.411598,36.538788],[138.411798,36.53843],[138.412461,36.537905],[138.412511,36.53768],[138.412511,36.536938],[138.412261,36.53613],[138.412261,36.535947],[138.412398,36.535272],[138.412611,36.534955],[138.413173,36.534455],[138.413561,36.534047],[138.413748,36.53373],[138.413836,36.533347],[138.413861,36.532697],[138.413836,36.532247],[138.413523,36.531297],[138.413136,36.530264],[138.412799,36.529181],[138.412524,36.528522],[138.412236,36.528097],[138.411936,36.527464],[138.411761,36.527239],[138.410799,36.526547],[138.410161,36.526098],[138.408799,36.525039],[138.408237,36.524698],[138.406937,36.524256],[138.406024,36.523806],[138.405299,36.523264],[138.405187,36.523106],[138.404749,36.522698],[138.404162,36.521848],[138.403987,36.521215],[138.403962,36.520806],[138.404012,36.519406],[138.403762,36.518282],[138.403712,36.517873],[138.402987,36.516165],[138.40295,36.515915],[138.403062,36.515623],[138.403762,36.514857],[138.40395,36.514315],[138.403975,36.513949],[138.403925,36.513165],[138.404162,36.512665],[138.404412,36.511466],[138.404575,36.510924],[138.405025,36.510049],[138.40535,36.509299],[138.405375,36.509324],[138.405825,36.508691],[138.4059,36.508491],[138.406037,36.507383],[138.406012,36.507133],[138.405175,36.505741],[138.404175,36.5043],[138.403988,36.503891],[138.403288,36.503108],[138.403113,36.503066],[138.402563,36.502566],[138.402075,36.501933],[138.4017,36.5013],[138.400988,36.499783],[138.400938,36.499758],[138.400301,36.498242],[138.399638,36.496884],[138.398689,36.494534],[138.398176,36.493084],[138.398076,36.492634],[138.397976,36.491842],[138.397839,36.491259],[138.397364,36.490826],[138.397089,36.490534],[138.397064,36.490259],[138.396951,36.490009],[138.396751,36.489809],[138.396751,36.489509],[138.397076,36.489043],[138.397289,36.488659],[138.397664,36.488143],[138.397901,36.487718],[138.397976,36.487443],[138.398051,36.48731],[138.398101,36.487018],[138.398014,36.48641],[138.397739,36.485343],[138.397427,36.484643],[138.397227,36.484235],[138.397227,36.48406],[138.397864,36.483743],[138.398514,36.483277],[138.399976,36.482135],[138.400026,36.482135],[138.400464,36.481685],[138.400739,36.481235],[138.400764,36.481127],[138.400739,36.480694],[138.400551,36.480244],[138.400101,36.479452],[138.400051,36.479202],[138.400289,36.478727],[138.400389,36.478303],[138.400951,36.477469],[138.400976,36.477203],[138.400514,36.476186],[138.400239,36.475395],[138.399702,36.47422],[138.399489,36.473586],[138.399514,36.473153],[138.399589,36.47277],[138.399977,36.472053],[138.400527,36.471695],[138.400877,36.47152],[138.401114,36.471228],[138.401239,36.470778],[138.401239,36.470187],[138.400927,36.469195],[138.401027,36.468762],[138.401789,36.468545],[138.402039,36.468387],[138.402239,36.468187],[138.402777,36.467446],[138.402827,36.467354],[138.403202,36.467021],[138.403252,36.466929],[138.403239,36.466371],[138.403002,36.465121],[138.402852,36.464738],[138.402527,36.464421],[138.401677,36.464054],[138.400902,36.463646],[138.400627,36.463346],[138.400514,36.463079],[138.400364,36.462313],[138.400264,36.461996],[138.400139,36.461788],[138.400052,36.461338],[138.400152,36.461155],[138.400452,36.460821],[138.40069,36.459871],[138.400952,36.458455],[138.40104,36.457213],[138.401102,36.456655],[138.400902,36.45593],[138.400702,36.45568],[138.39979,36.454972],[138.39929,36.454497],[138.39874,36.453472],[138.398602,36.453247],[138.398527,36.452914],[138.398752,36.452622],[138.399127,36.452305],[138.39939,36.452214],[138.399715,36.452239],[138.40009,36.452381],[138.400815,36.452547],[138.40169,36.452572],[138.402915,36.452464],[138.403365,36.452289],[138.403415,36.452222],[138.40344,36.452064],[138.403352,36.451231],[138.403127,36.450756],[138.402915,36.450373],[138.401502,36.447631],[138.40089,36.44609],[138.400928,36.445773],[138.401028,36.445506],[138.401028,36.445148],[138.40084,36.443698],[138.40069,36.441532],[138.40059,36.441123],[138.400853,36.440365],[138.401153,36.43969],[138.401315,36.43899],[138.40119,36.438357],[138.401103,36.437607],[138.400828,36.436816],[138.400816,36.436482],[138.400816,36.436191],[138.400728,36.435266],[138.400828,36.435016],[138.400953,36.434766],[138.400953,36.434632],[138.401053,36.434274],[138.401366,36.433999],[138.403141,36.433566],[138.404153,36.433391],[138.404903,36.433333],[138.405728,36.433358],[138.407078,36.433116],[138.41004,36.432533],[138.41044,36.432466],[138.41094,36.432425],[138.412527,36.432142],[138.414377,36.431775],[138.41484,36.431708],[138.41529,36.431575],[138.41569,36.431425],[138.416565,36.430908],[138.417277,36.430534],[138.420427,36.428659],[138.420577,36.428592],[138.420752,36.428592],[138.422152,36.428084],[138.422864,36.427884],[138.428689,36.425968],[138.429339,36.425743],[138.430726,36.425326],[138.432301,36.424952],[138.432663,36.424818],[138.433113,36.424735],[138.433313,36.424668],[138.433613,36.424627],[138.439563,36.423111],[138.440487,36.422894],[138.4415,36.422627],[138.4421,36.422361],[138.443612,36.421403],[138.445499,36.42002],[138.445599,36.419886],[138.445724,36.41982],[138.445899,36.419645],[138.446599,36.419345],[138.446912,36.419253],[138.447262,36.41937],[138.448024,36.419745],[138.448611,36.419928],[138.449111,36.419978],[138.449511,36.42007],[138.449761,36.420186],[138.450924,36.42092],[138.451274,36.421053],[138.451649,36.421128],[138.452199,36.421086],[138.452536,36.42102],[138.453311,36.421003],[138.453661,36.420961],[138.454511,36.42072],[138.455386,36.420478],[138.456274,36.420478],[138.456524,36.420436],[138.456824,36.420328],[138.457074,36.42017],[138.457149,36.419945],[138.457199,36.419786],[138.457249,36.419653],[138.457249,36.419428],[138.457299,36.419253],[138.457299,36.419095],[138.457474,36.418711],[138.457674,36.418503],[138.457849,36.418253],[138.457937,36.417895],[138.457937,36.41767],[138.458024,36.417395],[138.458049,36.416995],[138.457724,36.416203],[138.457574,36.415953],[138.457574,36.415753],[138.457812,36.415162],[138.457837,36.414937],[138.457749,36.414328],[138.457662,36.414103],[138.457624,36.413878],[138.457337,36.413428],[138.456925,36.412862],[138.456862,36.412529],[138.457037,36.412279],[138.457525,36.411687],[138.457637,36.411595],[138.457587,36.411554],[138.457125,36.41142],[138.455837,36.41072],[138.454913,36.41007],[138.453075,36.408404],[138.452113,36.407212],[138.451813,36.406737],[138.451763,36.406712],[138.451726,36.406312],[138.451463,36.405996],[138.451351,36.405704],[138.451313,36.405429],[138.451051,36.405071],[138.450764,36.404887],[138.450414,36.404554],[138.450301,36.404354],[138.450289,36.403946],[138.450151,36.403671],[138.449914,36.403379],[138.449739,36.403221],[138.449414,36.403046],[138.449214,36.402754],[138.449189,36.402638],[138.449239,36.401963],[138.449089,36.401304],[138.448802,36.401063],[138.448302,36.400921],[138.447839,36.400879],[138.447527,36.400879],[138.447264,36.400588],[138.447264,36.400546],[138.447002,36.400363],[138.446714,36.400388],[138.446189,36.400004],[138.445777,36.399688],[138.445489,36.399329],[138.445252,36.398971],[138.44514,36.398855],[138.444815,36.398696],[138.44444,36.398563],[138.443977,36.39823],[138.443677,36.39773],[138.443352,36.39638],[138.443153,36.395955],[138.442978,36.395455],[138.442353,36.394438],[138.441978,36.394013],[138.441778,36.393697],[138.441453,36.393088],[138.441453,36.39298],[138.441365,36.392705],[138.441128,36.392347],[138.440953,36.391914],[138.440553,36.39178],[138.440378,36.391605],[138.440341,36.391397],[138.440191,36.391089],[138.439878,36.39088],[138.439553,36.390864],[138.439266,36.390705],[138.439116,36.390572],[138.438891,36.390547],[138.438428,36.39068],[138.438191,36.390547],[138.438016,36.390347],[138.437953,36.389939],[138.438016,36.389914],[138.437654,36.388272],[138.437591,36.387439],[138.437504,36.387347],[138.437829,36.386714],[138.437941,36.386356],[138.438029,36.386264],[138.438116,36.385989],[138.437991,36.385673],[138.438016,36.385406],[138.437991,36.38509],[138.437929,36.384956],[138.437929,36.38464],[138.437816,36.384256],[138.437641,36.38394],[138.437316,36.383648],[138.436879,36.383398],[138.436616,36.383106],[138.436204,36.382382],[138.435654,36.38164],[138.435592,36.381507],[138.435192,36.381798],[138.435129,36.381957],[138.434967,36.382165],[138.434704,36.38239],[138.434292,36.382457],[138.433767,36.382282],[138.432929,36.381765],[138.432604,36.381515],[138.432029,36.381182],[138.431704,36.381157],[138.431354,36.38129],[138.430892,36.380957],[138.430692,36.38084],[138.430367,36.380773],[138.429929,36.380482],[138.429817,36.380373],[138.429792,36.380057],[138.429867,36.378815],[138.429805,36.378524],[138.429717,36.378315],[138.42923,36.377865],[138.42868,36.377465],[138.428555,36.377424],[138.428155,36.377374],[138.427605,36.377082],[138.426955,36.376907],[138.426692,36.376749],[138.42623,36.376324],[138.425967,36.376165],[138.425917,36.376099],[138.425655,36.37594],[138.425355,36.375849],[138.424955,36.375399],[138.424805,36.375332],[138.42458,36.375674],[138.424143,36.376507],[138.423918,36.376599],[138.422605,36.376624],[138.421793,36.376399],[138.421418,36.376399],[138.420805,36.376474],[138.420293,36.376407],[138.419768,36.375999],[138.419443,36.376065],[138.419218,36.376157],[138.41893,36.37634],[138.418755,36.37654],[138.418393,36.375574],[138.418106,36.375574],[138.417705,36.376548],[138.417593,36.376682],[138.417393,36.376707],[138.417093,36.376615],[138.416693,36.37644],[138.416081,36.376098],[138.414656,36.375424],[138.413993,36.374865],[138.413231,36.373807],[138.412843,36.373157],[138.412581,36.372366],[138.412381,36.372007],[138.412169,36.371532],[138.411856,36.371032],[138.411306,36.370583],[138.411181,36.370607],[138.411044,36.370766],[138.410931,36.370991],[138.410581,36.371266],[138.410469,36.371307],[138.410144,36.371174],[138.409769,36.370882],[138.409469,36.370791],[138.408894,36.370749],[138.408569,36.370616],[138.407407,36.369558],[138.407232,36.369491],[138.407144,36.369491],[138.407057,36.369541],[138.407119,36.369783],[138.407381,36.370282],[138.407619,36.370866],[138.407619,36.371091],[138.407481,36.371541],[138.407219,36.371724],[138.407019,36.371791],[138.406431,36.371682],[138.406206,36.371682],[138.406119,36.371749],[138.406169,36.371957],[138.406406,36.372199],[138.406581,36.37234],[138.406819,36.372424],[138.407044,36.372474],[138.407281,36.372607],[138.407631,36.373007],[138.407894,36.373257],[138.408269,36.373707],[138.408656,36.374449],[138.409469,36.375732],[138.409556,36.376032],[138.409231,36.375873],[138.408894,36.375623],[138.407931,36.374882],[138.407206,36.374432],[138.406906,36.374299],[138.406156,36.373874],[138.404844,36.372999],[138.403394,36.372207],[138.403044,36.371965],[138.402894,36.371899],[138.402669,36.371716],[138.402169,36.371291],[138.401757,36.371016],[138.401532,36.371066],[138.401069,36.371266],[138.400432,36.371449],[138.400319,36.371524],[138.399882,36.371632],[138.398519,36.372065],[138.398457,36.372115],[138.39817,36.372199],[138.397882,36.372049],[138.39742,36.371482],[138.397295,36.371216],[138.397057,36.370266],[138.396832,36.369882],[138.396507,36.369616],[138.395957,36.369407],[138.39537,36.369166],[138.395107,36.369124],[138.394857,36.369124],[138.394307,36.369257],[138.394095,36.369416],[138.394132,36.369824],[138.394107,36.369957],[138.393982,36.370141],[138.39402,36.370366],[138.394507,36.371224],[138.394782,36.371849],[138.394745,36.37194],[138.394895,36.372707],[138.39537,36.373657],[138.39542,36.37404],[138.395282,36.374132],[138.39502,36.374223],[138.394845,36.374173],[138.394782,36.374015],[138.393795,36.37224],[138.393595,36.372032],[138.39327,36.371515],[138.392945,36.370799],[138.392533,36.370232],[138.392508,36.370007],[138.392358,36.369782],[138.391833,36.369491],[138.391458,36.369174],[138.390883,36.368408],[138.390908,36.368274],[138.391133,36.368316],[138.391308,36.368249],[138.391308,36.368158],[138.39122,36.368024],[138.391083,36.367933],[138.390345,36.367624],[138.390208,36.367466],[138.390058,36.367108],[138.390083,36.366833],[138.389995,36.366725],[138.389508,36.366516],[138.389358,36.366275],[138.389271,36.366],[138.389033,36.365683],[138.388833,36.364741],[138.388946,36.364425],[138.388883,36.364175],[138.388708,36.36395],[138.388396,36.363658],[138.387696,36.363233],[138.387458,36.363033],[138.387283,36.362825],[138.386933,36.361517],[138.386671,36.361275],[138.386321,36.361025],[138.385996,36.360734],[138.385796,36.360642],[138.385271,36.360084],[138.385159,36.35945],[138.385034,36.358076],[138.385171,36.357551],[138.385146,36.357309],[138.384971,36.356834],[138.384996,36.356001],[138.384934,36.355884],[138.384846,36.355843],[138.384621,36.355818],[138.384384,36.355409],[138.384259,36.354784],[138.383946,36.354509],[138.383484,36.353926],[138.383134,36.353593],[138.382372,36.353093],[138.382172,36.352851],[138.381909,36.352326],[138.381734,36.352176],[138.381559,36.35211],[138.381359,36.351968],[138.381297,36.351726],[138.381347,36.351451],[138.381472,36.351185],[138.381634,36.350935],[138.381872,36.350935],[138.382109,36.351018],[138.382284,36.351201],[138.382459,36.35161],[138.382772,36.35206],[138.382859,36.352126],[138.383147,36.352235],[138.383672,36.352193],[138.383959,36.352235],[138.384196,36.352301],[138.384434,36.352235],[138.385121,36.352251],[138.385559,36.352226],[138.385759,36.352318],[138.386021,36.352568],[138.386109,36.35261],[138.386484,36.35261],[138.386659,36.352518],[138.386859,36.352335],[138.386921,36.352226],[138.386896,36.35216],[138.386684,36.351976],[138.386459,36.351868],[138.385959,36.351485],[138.385846,36.351326],[138.385559,36.351235],[138.385296,36.35101],[138.385084,36.350743],[138.384797,36.350468],[138.383697,36.350068],[138.383522,36.349752],[138.383347,36.34921],[138.383309,36.348877],[138.383222,36.348585],[138.383172,36.34851],[138.382934,36.348402],[138.382434,36.348243],[138.382234,36.34811],[138.382147,36.348085],[138.382034,36.348002],[138.382084,36.347077],[138.382059,36.346919],[138.381822,36.346694],[138.381497,36.346019],[138.381209,36.34581],[138.381184,36.345702],[138.381234,36.345427],[138.381184,36.345335],[138.380884,36.345227],[138.380747,36.344936],[138.380197,36.344752],[138.37996,36.344602],[138.379872,36.344444],[138.379722,36.344036],[138.37981,36.343919],[138.380822,36.343786],[138.381084,36.343694],[138.381347,36.343561],[138.381522,36.343402],[138.381522,36.343261],[138.381222,36.342836],[138.38076,36.342344],[138.380672,36.342161],[138.380472,36.342003],[138.380185,36.341894],[138.38001,36.341686],[138.379535,36.341394],[138.379485,36.341286],[138.37951,36.341194],[138.379622,36.341103],[138.380322,36.341128],[138.380585,36.341036],[138.380785,36.340894],[138.380897,36.340644],[138.380922,36.340419],[138.380897,36.340086],[138.380697,36.339745],[138.380785,36.339545],[138.381185,36.339336],[138.382397,36.338903],[138.38306,36.338636],[138.383672,36.338178],[138.384197,36.337928],[138.384509,36.337728],[138.384947,36.337387],[138.385522,36.336978],[138.385834,36.336712],[138.385972,36.33642],[138.385997,36.336103],[138.386197,36.33577],[138.386384,36.33552],[138.386522,36.33527],[138.386722,36.335045],[138.386772,36.33487],[138.386609,36.334187],[138.386409,36.334104],[138.385635,36.334504],[138.384497,36.335137],[138.384022,36.335479],[138.383685,36.33582],[138.383385,36.336062],[138.382822,36.336445],[138.382785,36.33647],[138.382597,36.33667],[138.382535,36.33667],[138.381922,36.337062],[138.381147,36.33742],[138.380622,36.337628],[138.379472,36.33792],[138.378772,36.337945],[138.377435,36.337903],[138.376885,36.337861],[138.376073,36.337753],[138.37581,36.337753],[138.375348,36.337845],[138.374598,36.337936],[138.373873,36.338011],[138.37341,36.338103],[138.372923,36.338236],[138.372135,36.338328],[138.371883,36.338414],[138.371585,36.338469],[138.370723,36.338669],[138.370085,36.338853],[138.369185,36.339111],[138.367448,36.339244],[138.366611,36.339361],[138.365598,36.339452],[138.364411,36.339686],[138.363948,36.339711],[138.363336,36.339802],[138.362898,36.339802],[138.361798,36.339919],[138.361311,36.339877],[138.360836,36.339877],[138.359648,36.33981],[138.359136,36.339835],[138.358348,36.339977],[138.358124,36.340085],[138.357911,36.340269],[138.357399,36.340877],[138.357249,36.34111],[138.356961,36.341427],[138.356274,36.34201],[138.356099,36.341993],[138.354236,36.341227],[138.353636,36.341143],[138.353024,36.341093],[138.352561,36.341027],[138.351974,36.34081],[138.350961,36.34036],[138.350374,36.340018],[138.349624,36.339552],[138.348599,36.339127],[138.347387,36.338943],[138.346687,36.338927],[138.345737,36.339268],[138.345012,36.339585],[138.343424,36.340493],[138.3427,36.340993],[138.342212,36.341401],[138.34155,36.342418],[138.34135,36.342851],[138.34075,36.344426],[138.340637,36.344951],[138.34035,36.345717],[138.340212,36.346376],[138.339687,36.347884],[138.338975,36.3492],[138.338425,36.349808],[138.338137,36.350075],[138.337737,36.35035],[138.337237,36.350575],[138.336725,36.350742],[138.33605,36.350875],[138.335325,36.350942],[138.334225,36.35095],[138.333537,36.350908],[138.33275,36.350591],[138.33185,36.350208],[138.331413,36.349983],[138.3304,36.349625],[138.329088,36.349358],[138.328188,36.349316],[138.327638,36.349616],[138.326688,36.3505],[138.326288,36.350908],[138.325738,36.351333],[138.325563,36.351516],[138.325276,36.351924],[138.324963,36.352691],[138.324901,36.353458],[138.324888,36.354724],[138.324825,36.355082],[138.324688,36.355332],[138.324451,36.355449],[138.323813,36.355516],[138.323213,36.355699],[138.322863,36.355966],[138.322776,36.356082],[138.322488,36.356307],[138.322426,36.356241],[138.321526,36.355657],[138.320913,36.355116],[138.320476,36.354782],[138.319801,36.354057],[138.319289,36.353566],[138.318876,36.353366],[138.318264,36.353274],[138.317914,36.353207],[138.317776,36.352716],[138.317739,36.352441],[138.317914,36.352216],[138.317939,36.352083],[138.318089,36.352033],[138.318464,36.351991],[138.319014,36.352033],[138.319189,36.352008],[138.319301,36.351758],[138.319351,36.350924],[138.319589,36.350066],[138.319726,36.349791],[138.320164,36.349458],[138.320564,36.349208],[138.320914,36.349066],[138.321226,36.349],[138.321776,36.348616],[138.322013,36.348275],[138.322526,36.347691],[138.323026,36.347366],[138.323338,36.347075],[138.323226,36.346667],[138.322839,36.346217],[138.322264,36.345608],[138.322164,36.345208],[138.322601,36.34455],[138.322801,36.344142],[138.322801,36.344033],[138.322714,36.343759],[138.322539,36.343509],[138.322214,36.343242],[138.321726,36.343],[138.321376,36.342975],[138.321089,36.343],[138.320659,36.343092],[138.320626,36.343092],[138.320414,36.342459],[138.320264,36.341492],[138.320089,36.340792],[138.320089,36.340609],[138.319764,36.339167],[138.319639,36.338851],[138.319377,36.337476],[138.319177,36.336751],[138.319139,36.336459],[138.319064,36.335684],[138.319052,36.334651],[138.318789,36.333951],[138.317702,36.332301],[138.316802,36.330752],[138.316277,36.330052],[138.315752,36.329468],[138.315277,36.328877],[138.314702,36.328227],[138.314115,36.327777],[138.313303,36.32726],[138.313215,36.327235],[138.311815,36.32636],[138.311553,36.326202],[138.31094,36.325552],[138.310153,36.324519],[138.309341,36.323569],[138.309078,36.323211],[138.308641,36.322986],[138.308028,36.322944],[138.307103,36.322719],[138.305853,36.322477],[138.304929,36.322252],[138.304279,36.322227],[138.303416,36.322144],[138.303179,36.322144],[138.302604,36.322027],[138.302366,36.321919],[138.301666,36.321444],[138.301354,36.321311],[138.299142,36.319736],[138.298792,36.319219],[138.298642,36.319286],[138.298092,36.319244],[138.297592,36.319086],[138.297167,36.318753],[138.296642,36.318436],[138.296055,36.318394],[138.29553,36.318511],[138.294992,36.318777],[138.294492,36.318986],[138.294292,36.318986],[138.293792,36.319077],[138.293305,36.319302],[138.293217,36.319369],[138.293042,36.319644],[138.292842,36.320202],[138.292767,36.320769],[138.292505,36.321452],[138.292242,36.321919],[138.29173,36.322669],[138.291292,36.323144],[138.291067,36.323302],[138.290942,36.323343],[138.290742,36.323118],[138.290592,36.322402],[138.290592,36.321927],[138.290642,36.321227],[138.290617,36.320935],[138.290317,36.320485],[138.289767,36.32001],[138.289505,36.319469],[138.28948,36.319244],[138.289268,36.318994],[138.289068,36.318611],[138.28898,36.317961],[138.28868,36.317619],[138.28863,36.317486],[138.288043,36.316969],[138.287643,36.316544],[138.287318,36.315253],[138.287193,36.314961],[138.286868,36.313569],[138.286756,36.313411],[138.286518,36.312778],[138.285818,36.312303],[138.285206,36.311245],[138.285006,36.311086],[138.284881,36.310636],[138.284994,36.309603],[138.284794,36.309061],[138.284231,36.308295],[138.283856,36.30757],[138.283419,36.306895],[138.283419,36.306537],[138.283994,36.305178],[138.284506,36.304387],[138.284794,36.303845],[138.285157,36.301837],[138.285282,36.301429],[138.285332,36.300954],[138.285332,36.300554],[138.285382,36.300329],[138.285357,36.299646],[138.285119,36.298838],[138.285032,36.298113],[138.284794,36.297663],[138.284682,36.297571],[138.284357,36.297121],[138.284332,36.296988],[138.284357,36.296605],[138.284319,36.296288],[138.284269,36.296196],[138.284182,36.295588],[138.285207,36.293622],[138.285319,36.293063],[138.285319,36.29218],[138.285432,36.291914],[138.285369,36.29103],[138.285569,36.29058],[138.285657,36.289947],[138.285482,36.289656],[138.285395,36.289656],[138.284907,36.289472],[138.284557,36.289047],[138.284257,36.288981],[138.283682,36.288981],[138.283507,36.288847],[138.28342,36.288664],[138.283157,36.287581],[138.283182,36.287422],[138.283232,36.286881],[138.282945,36.286298],[138.282445,36.285714],[138.282332,36.284831],[138.281983,36.284523],[138.281833,36.28389],[138.28212,36.283681],[138.282183,36.283165],[138.281833,36.282898],[138.28142,36.282715],[138.281095,36.282398],[138.281008,36.281773],[138.28107,36.281232],[138.28132,36.280257],[138.281695,36.279915],[138.28237,36.279598],[138.283145,36.279374],[138.28352,36.278807],[138.283958,36.278757],[138.284483,36.278624],[138.284908,36.278174],[138.28502,36.277924],[138.28497,36.277474],[138.284758,36.276907],[138.284733,36.276524],[138.284695,36.276499],[138.285308,36.275416],[138.28527,36.274899],[138.285295,36.274424],[138.285408,36.273774],[138.285295,36.273366],[138.285145,36.273024],[138.28512,36.272549],[138.284858,36.271874],[138.284471,36.27125],[138.284383,36.270908],[138.284958,36.2703],[138.284958,36.27025],[138.285708,36.269591],[138.286608,36.268467],[138.287208,36.267967],[138.288258,36.267217],[138.288333,36.266858],[138.288108,36.2665],[138.287933,36.266067],[138.287958,36.265575],[138.288096,36.2651],[138.288121,36.264875],[138.288008,36.264509],[138.287633,36.264059],[138.287421,36.263675],[138.287396,36.263134],[138.287596,36.262417],[138.287621,36.261601],[138.287533,36.261442],[138.287408,36.260967],[138.287433,36.260251],[138.287321,36.259684],[138.286821,36.259209],[138.286384,36.258968],[138.286296,36.258784],[138.286271,36.258468],[138.286584,36.258376],[138.286884,36.258443],[138.287196,36.258334],[138.287546,36.257951],[138.287746,36.257651],[138.288009,36.257559],[138.288059,36.257584],[138.288696,36.257559],[138.289196,36.257426],[138.289833,36.257309],[138.290496,36.257101],[138.290783,36.255926],[138.291208,36.255701],[138.291846,36.255426],[138.292771,36.254501],[138.293896,36.253868],[138.293983,36.253843],[138.294508,36.25326],[138.294646,36.253143],[138.294871,36.25291],[138.295396,36.252802],[138.295746,36.252777],[138.295858,36.252735],[138.296133,36.252218],[138.296196,36.251635],[138.296108,36.251235],[138.296146,36.250794],[138.296758,36.249402],[138.297009,36.24871],[138.297421,36.248186],[138.298121,36.247802],[138.298796,36.246927],[138.299121,36.246461],[138.299246,36.246144],[138.299283,36.245877],[138.299209,36.245053],[138.298384,36.243628],[138.298346,36.243136],[138.298234,36.242795],[138.298109,36.24272],[138.297971,36.242453],[138.298046,36.241903],[138.297596,36.241695],[138.297534,36.241053],[138.297396,36.240753],[138.296472,36.240012],[138.296059,36.239895],[138.295709,36.239953],[138.295447,36.239862],[138.295272,36.23977],[138.294884,36.239662],[138.294234,36.239712],[138.293772,36.239803],[138.293722,36.23977],[138.293597,36.238687],[138.293372,36.23832],[138.292872,36.237412],[138.292597,36.23707],[138.292234,36.237004],[138.291885,36.236854],[138.291247,36.235937],[138.291047,36.235496],[138.290547,36.234812],[138.290435,36.234596],[138.290122,36.234229],[138.28991,36.234212],[138.289472,36.234062],[138.289347,36.233821],[138.28936,36.233396],[138.28926,36.232996],[138.288485,36.231688],[138.287723,36.230738],[138.28746,36.230255],[138.28746,36.230121],[138.28766,36.229371],[138.28771,36.228763],[138.287735,36.228238],[138.287685,36.228055],[138.287348,36.22778],[138.286886,36.22753],[138.286736,36.227147],[138.286823,36.22673],[138.286811,36.226205],[138.286748,36.22563],[138.286436,36.225239],[138.285923,36.224855],[138.285473,36.224639],[138.284948,36.224339],[138.284511,36.223972],[138.284298,36.223447],[138.284048,36.222547],[138.283898,36.222247],[138.283498,36.221714],[138.283086,36.220922],[138.282873,36.220422],[138.282948,36.219806],[138.283111,36.219314],[138.283236,36.219106],[138.283248,36.218998],[138.283186,36.218631],[138.283186,36.218239],[138.283386,36.217239],[138.283411,36.216923],[138.283311,36.216598],[138.283423,36.215981],[138.283323,36.215556],[138.282998,36.214873],[138.282799,36.213965],[138.282799,36.213073],[138.282899,36.212707],[138.282961,36.212073],[138.282724,36.210848],[138.283011,36.210149],[138.283249,36.209432],[138.283699,36.206957],[138.283736,36.206241],[138.284149,36.205816],[138.284286,36.205524],[138.284086,36.204683],[138.284011,36.203883],[138.284011,36.203124],[138.283786,36.202599],[138.283774,36.202125],[138.283899,36.201608],[138.283861,36.201183],[138.283899,36.200983],[138.283836,36.200466],[138.283649,36.199883],[138.283461,36.198342],[138.283411,36.197717],[138.283611,36.19705],[138.283874,36.196425],[138.284186,36.195225],[138.284336,36.193617],[138.284249,36.192967],[138.284099,36.192351],[138.283836,36.191543],[138.283774,36.191484],[138.283086,36.190184],[138.283074,36.189351],[138.282749,36.188476],[138.282849,36.187576],[138.282861,36.187043],[138.282811,36.186627],[138.283224,36.184827],[138.283136,36.183827],[138.282749,36.181611],[138.282336,36.180419],[138.282099,36.179886],[138.281611,36.179028],[138.280874,36.177553],[138.280586,36.176711],[138.280287,36.175161],[138.280137,36.17417],[138.279924,36.17317],[138.278849,36.169812],[138.278849,36.169595],[138.278599,36.169079],[138.278462,36.16867],[138.278449,36.168537],[138.278312,36.168154],[138.278149,36.167871],[138.2775,36.166437],[138.2771,36.165287],[138.276812,36.164596],[138.2767,36.163838],[138.276775,36.162596],[138.276712,36.162221],[138.2764,36.161005],[138.2765,36.160605],[138.276562,36.160246],[138.276462,36.159147],[138.276512,36.157239],[138.27635,36.155622],[138.276125,36.154431],[138.276088,36.154006],[138.275713,36.152189],[138.275463,36.151181],[138.275063,36.150581],[138.27495,36.150331],[138.274725,36.150023],[138.274613,36.149931],[138.273688,36.148764],[138.273388,36.148323],[138.272713,36.147473],[138.271426,36.146131],[138.270751,36.145573],[138.270438,36.14519],[138.269326,36.143623],[138.268726,36.142682],[138.267801,36.141457],[138.266851,36.140315],[138.265952,36.139107],[138.265252,36.138191],[138.264689,36.137457],[138.263714,36.136199],[138.26299,36.135191],[138.262502,36.134324],[138.262427,36.134258],[138.262165,36.133783],[138.261577,36.132866],[138.261015,36.131725],[138.260748,36.131296],[138.260527,36.130986],[138.259803,36.130091],[138.25964,36.129958],[138.257653,36.128017],[138.257065,36.127567],[138.256815,36.1273],[138.256403,36.127009],[138.25514,36.125517],[138.254378,36.124825],[138.253691,36.124309],[138.251928,36.122834],[138.251116,36.122259],[138.250441,36.121676],[138.250116,36.121476],[138.249804,36.121234],[138.248966,36.120718],[138.247129,36.119693],[138.246902,36.119622],[138.246404,36.119384],[138.246279,36.119334],[138.246204,36.119334],[138.245579,36.119084],[138.245079,36.118768],[138.244904,36.118584],[138.244804,36.118443],[138.244229,36.117926],[138.244104,36.117784],[138.244017,36.117401],[138.243767,36.117134],[138.243592,36.117059],[138.243092,36.116518],[138.241942,36.11601],[138.240692,36.115393],[138.239105,36.11466],[138.23878,36.114435],[138.238655,36.114276],[138.23868,36.113776],[138.238605,36.113326],[138.238492,36.11301],[138.238067,36.11251],[138.237742,36.112327],[138.236792,36.11201],[138.236218,36.111593],[138.235793,36.111252],[138.235105,36.110868],[138.234655,36.110477],[138.23453,36.110368],[138.234105,36.110318],[138.233555,36.110318],[138.232768,36.110402],[138.232605,36.110285],[138.232305,36.109877],[138.232155,36.109693],[138.231831,36.10956],[138.230731,36.109327],[138.230306,36.109277],[138.229831,36.109318],[138.229656,36.109268],[138.229456,36.10916],[138.228856,36.10886],[138.228206,36.108385],[138.227981,36.108268],[138.227456,36.108243],[138.227131,36.108285],[138.226956,36.10826],[138.225431,36.10841],[138.224594,36.108443],[138.224344,36.108352],[138.223831,36.108077],[138.222856,36.107443],[138.222381,36.107168],[138.221382,36.10671],[138.221007,36.106485],[138.219807,36.105977],[138.218732,36.105769],[138.217482,36.105618],[138.217257,36.105527],[138.216882,36.105302],[138.216807,36.105369],[138.216657,36.105635],[138.21542,36.107052],[138.21517,36.107293],[138.215007,36.107518],[138.214882,36.107585],[138.214182,36.107651],[138.213457,36.107643],[138.212007,36.107635],[138.210658,36.107535],[138.209908,36.10751],[138.209483,36.10746],[138.209408,36.10726],[138.209133,36.107051],[138.208658,36.106843],[138.208008,36.106751],[138.207358,36.106701],[138.205846,36.106668],[138.205246,36.10666],[138.204896,36.106685],[138.204271,36.106793],[138.203946,36.106701],[138.203621,36.106651],[138.203171,36.106651],[138.202771,36.106693],[138.201496,36.106926],[138.200783,36.107193],[138.199659,36.107818],[138.199634,36.107818],[138.199446,36.108151],[138.199421,36.108359],[138.199471,36.108809],[138.199783,36.109626],[138.200183,36.110076],[138.200208,36.110167],[138.200108,36.110351],[138.199783,36.110567],[138.199246,36.110834],[138.198246,36.110942],[138.197496,36.110959],[138.196296,36.111067],[138.195921,36.111125],[138.194659,36.111259],[138.194484,36.1113],[138.194439,36.111285],[138.194359,36.1113],[138.193909,36.111675],[138.193709,36.11195],[138.193546,36.112217],[138.193271,36.112467],[138.191984,36.113783],[138.191859,36.113875],[138.190697,36.11495],[138.190359,36.11535],[138.189759,36.116141],[138.189622,36.116591],[138.189547,36.1172],[138.189509,36.118958],[138.189671,36.119566],[138.189946,36.120108],[138.190459,36.121282],[138.191146,36.122482],[138.191046,36.122549],[138.190646,36.122774],[138.189971,36.123132],[138.189571,36.123307],[138.188809,36.12369],[138.188634,36.12384],[138.188334,36.123974],[138.187884,36.123457],[138.187609,36.123274],[138.186984,36.123132],[138.185859,36.123174],[138.184659,36.123299],[138.182947,36.123399],[138.181647,36.12359],[138.180647,36.123857],[138.180522,36.123674],[138.180097,36.122699],[138.180072,36.122382],[138.17996,36.121999],[138.179735,36.121724],[138.17946,36.121549],[138.178935,36.12134],[138.17811,36.121424],[138.177735,36.121424],[138.177385,36.121349],[138.176535,36.121032],[138.176135,36.120982],[138.17516,36.120932],[138.174935,36.120949],[138.174498,36.121307],[138.173248,36.121907],[138.171785,36.122507],[138.170748,36.122973],[138.169523,36.123573],[138.169273,36.123665],[138.168111,36.123657],[138.167586,36.123623],[138.166811,36.123373],[138.166073,36.122757],[138.166023,36.12269],[138.165748,36.122465],[138.165648,36.122415],[138.165498,36.122307],[138.164623,36.12194],[138.162924,36.121357],[138.162249,36.121223],[138.161574,36.121257],[138.161024,36.121523],[138.160924,36.121615],[138.160908,36.121692],[138.160786,36.122048],[138.160374,36.123015],[138.160124,36.12344],[138.159724,36.123798],[138.158511,36.124531],[138.158336,36.124823],[138.158024,36.125231],[138.157261,36.126239],[138.156961,36.126781],[138.157061,36.127006],[138.157511,36.127389],[138.157611,36.127439],[138.157811,36.127664],[138.157824,36.127864],[138.157136,36.128897],[138.156936,36.129331],[138.156861,36.129372],[138.155911,36.129639],[138.155611,36.129681],[138.155336,36.129672],[138.155187,36.129631],[138.154849,36.129672],[138.154324,36.129989],[138.154224,36.130122],[138.154099,36.130664],[138.154137,36.131405],[138.154111,36.131814],[138.153699,36.132572],[138.153461,36.133522],[138.153286,36.133855],[138.153261,36.134013],[138.152899,36.134805],[138.152874,36.135188],[138.153049,36.135663],[138.153161,36.136563],[138.153124,36.137396],[138.153024,36.137688],[138.152374,36.138096],[138.151536,36.13863],[138.151111,36.13908],[138.150874,36.139371],[138.149987,36.141279],[138.149787,36.141571],[138.149099,36.142246],[138.148649,36.142487],[138.148287,36.142646],[138.147987,36.142821],[138.147812,36.143004],[138.147687,36.143296],[138.147612,36.143387],[138.147462,36.143679],[138.147149,36.143946],[138.146849,36.144121],[138.145724,36.144587],[138.144712,36.145054],[138.144187,36.14512],[138.141987,36.144379],[138.141512,36.144262],[138.141187,36.144154],[138.140512,36.143829],[138.140112,36.143712],[138.140012,36.143737],[138.139687,36.144054],[138.139387,36.144254],[138.13905,36.144562],[138.13875,36.14472],[138.138375,36.145012],[138.136963,36.145995],[138.136938,36.146037],[138.136963,36.146245],[138.1371,36.146853],[138.1371,36.147328],[138.136925,36.147503],[138.136013,36.147903],[138.135188,36.148145],[138.134738,36.14817],[138.134563,36.148211],[138.134325,36.149086],[138.133988,36.150328],[138.134013,36.150394],[138.134463,36.150711],[138.134538,36.150853],[138.134563,36.150986],[138.1344,36.151369],[138.13425,36.151978],[138.134375,36.152244],[138.134563,36.152561],[138.134713,36.152953],[138.134963,36.153652],[138.135,36.153969],[138.1351,36.154219],[138.135275,36.154469],[138.1353,36.155011],[138.135437,36.155552],[138.135637,36.155819],[138.135537,36.155911],[138.135112,36.155952],[138.134688,36.156086],[138.134625,36.156377],[138.135,36.15751],[138.135062,36.15816],[138.134837,36.15866],[138.13445,36.15956],[138.133987,36.160477],[138.133762,36.161018],[138.133975,36.16156],[138.134125,36.161835],[138.134225,36.162218],[138.13415,36.162535],[138.133887,36.163051],[138.133512,36.16341],[138.133087,36.163651],[138.1328,36.163968],[138.13255,36.164076],[138.1323,36.164101],[138.131525,36.164093],[138.131325,36.16421],[138.130663,36.164768],[138.130238,36.164876],[138.129963,36.165009],[138.129688,36.165259],[138.1293,36.165701],[138.1287,36.166193],[138.128625,36.166218],[138.127963,36.166443],[138.127838,36.166526],[138.128113,36.166759],[138.128038,36.166984],[138.127813,36.167251],[138.12755,36.167584],[138.127325,36.168109],[138.1273,36.168309],[138.127375,36.168559],[138.127213,36.168942],[138.127163,36.169209],[138.127238,36.169617],[138.12755,36.169809],[138.1276,36.169834],[138.127488,36.17035],[138.1272,36.170825],[138.126975,36.170959],[138.126863,36.171192],[138.127038,36.171775],[138.126975,36.172342],[138.127188,36.172834],[138.127538,36.173242],[138.128287,36.173775],[138.128637,36.173933],[138.129475,36.174183],[138.129512,36.174225],[138.12995,36.174383],[138.130087,36.174558],[138.1303,36.175308],[138.130675,36.175867],[138.130937,36.176075],[138.131112,36.176458],[138.131137,36.177016],[138.131,36.177175],[138.130712,36.177383],[138.130337,36.177541],[138.130162,36.177766],[138.130162,36.178533],[138.130075,36.178825],[138.129762,36.179274],[138.1284,36.179958],[138.128087,36.180233],[138.127937,36.180616],[138.127912,36.180791],[138.126725,36.182241],[138.126587,36.183032],[138.126212,36.183574],[138.126037,36.183982],[138.126162,36.184682],[138.1261,36.184974],[138.126512,36.186257],[138.126575,36.186573],[138.126512,36.186798],[138.126512,36.187023],[138.126875,36.187723],[138.12725,36.188848],[138.127312,36.189348],[138.127549,36.189798],[138.127687,36.189956],[138.127837,36.191731],[138.127562,36.192956],[138.127524,36.193356],[138.127587,36.193831],[138.127674,36.193922],[138.127799,36.194197],[138.127687,36.195164],[138.127512,36.195639],[138.127512,36.195889],[138.127662,36.19683],[138.127637,36.197239],[138.127312,36.197713],[138.127112,36.19823],[138.127212,36.198913],[138.127037,36.19918],[138.126399,36.19963],[138.125824,36.200721],[138.125737,36.201013],[138.125799,36.201329],[138.126062,36.201954],[138.126262,36.202321],[138.126524,36.203129],[138.126649,36.203804],[138.126799,36.204212],[138.127324,36.205229],[138.127436,36.205379],[138.127699,36.205629],[138.127961,36.205812],[138.128049,36.206104],[138.128249,36.206529],[138.128661,36.206912],[138.129074,36.207229],[138.129361,36.207546],[138.129361,36.207837],[138.129249,36.20847],[138.128961,36.209212],[138.129049,36.209529],[138.129224,36.209795],[138.129374,36.210179],[138.129461,36.210587],[138.129486,36.21102],[138.129436,36.211329],[138.129261,36.21172],[138.128398,36.212528],[138.127961,36.212987],[138.125911,36.214728],[138.125586,36.214953],[138.124436,36.215561],[138.123999,36.215861],[138.123336,36.216203],[138.122924,36.216336],[138.122524,36.216561],[138.122149,36.216878],[138.121999,36.217036],[138.121909,36.217082],[138.120061,36.218569],[138.119874,36.218761],[138.119786,36.218811],[138.119536,36.218836],[138.118649,36.218944],[138.117736,36.219186],[138.116936,36.219027],[138.116711,36.219119],[138.116599,36.219194],[138.116436,36.219844],[138.116136,36.220227],[138.115774,36.220394],[138.115486,36.220736],[138.115461,36.220844],[138.115799,36.22171],[138.116086,36.222194],[138.116161,36.222644],[138.116111,36.222694],[138.115799,36.22281],[138.114999,36.222969],[138.114349,36.223227],[138.113736,36.223827],[138.113374,36.224277],[138.112961,36.224643],[138.112086,36.225185],[138.111587,36.225377],[138.110724,36.225635],[138.109887,36.225752],[138.109324,36.225852],[138.108349,36.225843],[138.107424,36.225876],[138.107037,36.226068],[138.106412,36.226818],[138.105287,36.228426],[138.104824,36.229293],[138.104662,36.230551],[138.104699,36.230884],[138.105024,36.231492],[138.105449,36.232317],[138.105661,36.233076],[138.105624,36.233576],[138.105549,36.233859],[138.105161,36.234376],[138.104849,36.234692],[138.104424,36.234992],[138.104024,36.235384],[138.103286,36.235884],[138.102999,36.236025],[138.102499,36.236475],[138.101937,36.236525],[138.101449,36.236633],[138.100599,36.23655],[138.100187,36.236433],[138.099274,36.236283],[138.098712,36.236292],[138.097974,36.236383],[138.097387,36.236492],[138.096774,36.236667],[138.095849,36.236858],[138.094637,36.236992],[138.094037,36.237025],[138.09355,36.2371],[138.092412,36.237033],[138.092437,36.237625],[138.092437,36.238375],[138.092537,36.238925],[138.092487,36.239633],[138.092487,36.240599],[138.092474,36.241258],[138.091787,36.241666],[138.091575,36.241899],[138.09115,36.242791],[138.090775,36.243332],[138.09075,36.243307],[138.090362,36.243557],[138.089737,36.243657],[138.089275,36.243649],[138.088425,36.243682],[138.08795,36.243774],[138.087675,36.243741],[138.087087,36.243591],[138.086862,36.243607],[138.086425,36.243716],[138.086125,36.243749],[138.08525,36.243716],[138.084975,36.243766],[138.084862,36.243924],[138.084187,36.245799],[138.084212,36.24599],[138.08435,36.246249],[138.08485,36.246707],[138.08515,36.247115],[138.085087,36.247165],[138.0847,36.247265],[138.083925,36.24759],[138.082438,36.248482],[138.081813,36.24904],[138.0817,36.24909],[138.080713,36.249973],[138.079775,36.250573],[138.079313,36.250906],[138.07925,36.251231],[138.079475,36.251631],[138.0799,36.25199],[138.079938,36.25209],[138.079688,36.252489],[138.079425,36.252973],[138.079425,36.253089],[138.079338,36.253131],[138.079538,36.253323],[138.079775,36.253389],[138.080038,36.253506],[138.0801,36.253756],[138.080013,36.253956],[138.079813,36.254298],[138.07935,36.254723],[138.078713,36.255406],[138.078513,36.255697],[138.078338,36.256056],[138.078338,36.256289],[138.0784,36.256556],[138.078688,36.257189],[138.079012,36.258114],[138.079275,36.25858],[138.079775,36.259105],[138.080387,36.260022],[138.08115,36.260539],[138.0819,36.261105],[138.082362,36.261397],[138.082662,36.261647],[138.082712,36.26173],[138.082599,36.262047],[138.082312,36.262572],[138.081825,36.263113],[138.081337,36.26343],[138.081137,36.263613],[138.080787,36.264313],[138.080562,36.264563],[138.08035,36.264671],[138.080062,36.264921],[138.079837,36.265763],[138.079812,36.266146],[138.079725,36.266505],[138.07955,36.266796],[138.0786,36.267613],[138.077212,36.268813],[138.076525,36.269537],[138.076037,36.270262],[138.075712,36.270579],[138.075375,36.270779],[138.074762,36.270921],[138.074187,36.271462],[138.073375,36.271829],[138.073288,36.271829],[138.07305,36.272012],[138.073025,36.272095],[138.072975,36.27212],[138.072888,36.272345],[138.072913,36.272712],[138.073038,36.273095],[138.073325,36.273404],[138.07365,36.273879],[138.073825,36.274395],[138.073912,36.274553],[138.074662,36.275503],[138.074762,36.27577],[138.074725,36.276062],[138.074787,36.27652],[138.07485,36.27722],[138.0748,36.277445],[138.074337,36.278595],[138.0735,36.27957],[138.073012,36.280203],[138.072575,36.281194],[138.072525,36.281603],[138.07255,36.281736],[138.072437,36.282144],[138.0718,36.282819],[138.071312,36.283186],[138.070213,36.284111],[138.069063,36.28486],[138.0692,36.284952],[138.0695,36.28506],[138.069988,36.285177],[138.070275,36.28531],[138.07055,36.285694],[138.070687,36.286277],[138.070862,36.28646],[138.07125,36.286569],[138.071562,36.286752],[138.071625,36.287377],[138.071975,36.287877],[138.0721,36.288368],[138.072237,36.288685],[138.072325,36.288777],[138.07265,36.28891],[138.072825,36.288935],[138.072962,36.289202],[138.073062,36.290085],[138.07315,36.290201],[138.073175,36.290535],[138.073062,36.290985],[138.073187,36.291235],[138.073787,36.29146],[138.074137,36.291751],[138.074312,36.292251],[138.074412,36.293335],[138.074562,36.293718],[138.074887,36.294951],[138.074974,36.295068],[138.075062,36.295426],[138.074999,36.295743],[138.074512,36.296467],[138.074162,36.296851],[138.073562,36.297217],[138.072899,36.297734],[138.072924,36.297826],[138.073474,36.298076],[138.074349,36.298342],[138.075799,36.298559],[138.076236,36.298717],[138.076436,36.298876],[138.076524,36.299034],[138.076586,36.299284],[138.076649,36.300725],[138.076711,36.301134],[138.076774,36.301242],[138.077086,36.301609],[138.078136,36.302258],[138.078424,36.302642],[138.078486,36.302908],[138.078461,36.303817],[138.078236,36.304991],[138.078299,36.3053],[138.078314,36.305349],[138.078973,36.306025],[138.079461,36.30645],[138.079761,36.306633],[138.080098,36.306741],[138.081036,36.307058],[138.081411,36.307324],[138.081848,36.307483],[138.082286,36.307574],[138.082636,36.307733],[138.082748,36.307816],[138.082948,36.308116],[138.083248,36.309191],[138.083223,36.309508],[138.083073,36.309891],[138.082698,36.310257],[138.081948,36.310707],[138.081598,36.310982],[138.081311,36.311299],[138.081061,36.311957],[138.081036,36.312224],[138.081061,36.31229],[138.080886,36.31234],[138.080648,36.31234],[138.079811,36.312565],[138.078823,36.312707],[138.078248,36.312932],[138.078023,36.31309],[138.077211,36.313524],[138.076086,36.314248],[138.075849,36.314357],[138.074749,36.315082],[138.074149,36.315407],[138.072724,36.315948],[138.072724,36.31599],[138.071861,36.316198],[138.071162,36.316448],[138.071099,36.316515],[138.071074,36.316723],[138.071249,36.317031],[138.071486,36.317531],[138.071511,36.318073],[138.071461,36.318523],[138.071286,36.319131],[138.071236,36.319514],[138.071299,36.319764],[138.071561,36.320147],[138.071999,36.321031],[138.072149,36.321906],[138.071999,36.32238],[138.071599,36.32308],[138.071461,36.323514],[138.071574,36.323939],[138.071611,36.324547],[138.071411,36.32518],[138.070686,36.326288],[138.069974,36.327738],[138.069886,36.328388],[138.069511,36.329088],[138.069199,36.330013],[138.068799,36.330288],[138.068361,36.330763],[138.068124,36.330896],[138.067986,36.330921],[138.067549,36.331288],[138.067461,36.331512],[138.067086,36.331829],[138.066399,36.332254],[138.065874,36.332504],[138.064511,36.333254],[138.064549,36.333529],[138.065274,36.33402],[138.065761,36.33447],[138.066061,36.334854],[138.066261,36.335195],[138.066499,36.335754],[138.066786,36.335912],[138.067199,36.33607],[138.067374,36.336179],[138.067649,36.336454],[138.067823,36.336612],[138.067861,36.336862],[138.067711,36.337295],[138.067486,36.337787],[138.067286,36.338062],[138.067023,36.338762],[138.066399,36.33987],[138.066374,36.340211],[138.066286,36.340595],[138.065999,36.340928],[138.065799,36.34127],[138.065761,36.341611],[138.065948,36.342378],[138.066123,36.342778],[138.066186,36.343411],[138.066323,36.343844],[138.066536,36.344611],[138.066561,36.345011],[138.066623,36.345194],[138.066773,36.345286],[138.067323,36.345711],[138.067736,36.345961],[138.067961,36.346052],[138.068861,36.346269],[138.069236,36.346427],[138.069711,36.346677],[138.069911,36.346852],[138.070085,36.347219],[138.069973,36.348161],[138.06966,36.349136],[138.069523,36.349769],[138.069523,36.349902],[138.069635,36.35026],[138.069873,36.350535],[138.070423,36.350919],[138.071035,36.351594],[138.071323,36.352219],[138.071423,36.352693],[138.071273,36.353235],[138.071398,36.353668],[138.071598,36.354052],[138.07201,36.354727],[138.072385,36.355043],[138.07291,36.355402],[138.073022,36.355693],[138.07326,36.356077],[138.073697,36.356568],[138.074247,36.357043],[138.075072,36.358101],[138.075185,36.358443],[138.075535,36.358776],[138.076259,36.359185],[138.076784,36.359543],[138.077222,36.359926],[138.077772,36.360535],[138.077897,36.360735],[138.077947,36.361051],[138.077784,36.361526],[138.077634,36.361884],[138.077609,36.362226],[138.077647,36.362834],[138.077497,36.363259],[138.077159,36.363759],[138.076347,36.364684],[138.076234,36.365051],[138.076122,36.365884],[138.076147,36.365976],[138.076097,36.366542],[138.076159,36.367034],[138.076447,36.367709],[138.076971,36.368275],[138.077121,36.368384],[138.077646,36.369042],[138.077909,36.369267],[138.078484,36.3696],[138.078809,36.369917],[138.079746,36.370617],[138.079971,36.37095],[138.079834,36.371292],[138.079134,36.372058],[138.079084,36.37215],[138.079021,36.372308],[138.078709,36.372783],[138.078159,36.373441],[138.077384,36.374208],[138.076946,36.374574],[138.076434,36.374908],[138.075296,36.375999],[138.074634,36.376407],[138.074209,36.376741],[138.073796,36.377132],[138.073484,36.377491],[138.072934,36.378574],[138.073059,36.379407],[138.072821,36.379774],[138.071959,36.380832],[138.071796,36.381515],[138.071909,36.382282],[138.072184,36.383273],[138.072209,36.38384],[138.072159,36.384156],[138.072359,36.385215],[138.072246,36.385373],[138.071896,36.385464],[138.071459,36.385489],[138.071121,36.385648],[138.070309,36.386439],[138.069846,36.386756],[138.069584,36.387089],[138.068834,36.387706],[138.068697,36.388314],[138.068284,36.388747],[138.068034,36.389239],[138.067922,36.389847],[138.068009,36.390305],[138.067897,36.390664],[138.067659,36.390914],[138.067572,36.391247],[138.067609,36.391705],[138.067434,36.39218],[138.067009,36.392805],[138.066947,36.392963],[138.066484,36.393671],[138.066434,36.393846],[138.066284,36.394096],[138.066172,36.394455],[138.065797,36.394955],[138.065484,36.395455],[138.065459,36.395904],[138.065397,36.396154],[138.065172,36.396629],[138.064709,36.397054],[138.064184,36.397396],[138.063834,36.398079],[138.063697,36.398237],[138.063522,36.398571],[138.063559,36.398887],[138.063872,36.399204],[138.064022,36.399271],[138.064509,36.399629],[138.064897,36.399854],[138.065297,36.400512],[138.065659,36.402204],[138.066097,36.402429],[138.066734,36.40247],[138.067746,36.40242],[138.068334,36.402529],[138.068709,36.402754],[138.069259,36.402937],[138.069759,36.403137],[138.070334,36.403787],[138.070771,36.404104],[138.071184,36.404304],[138.071671,36.404687],[138.071709,36.40467],[138.071821,36.40467],[138.073183,36.404329],[138.074283,36.40412],[138.075096,36.404029],[138.076221,36.404046],[138.077271,36.404154],[138.078108,36.404196],[138.079908,36.404487],[138.08072,36.404462],[138.080958,36.404504],[138.081395,36.404821],[138.081683,36.405162],[138.082508,36.405812],[138.08277,36.406104],[138.083108,36.406396],[138.083383,36.406829],[138.08352,36.406829],[138.083545,36.406779],[138.084933,36.405512],[138.085395,36.405287],[138.085633,36.405354],[138.086445,36.405371],[138.08717,36.405887],[138.087432,36.405954],[138.08827,36.406087],[138.088745,36.406137],[138.089382,36.406087],[138.089807,36.405954],[138.09002,36.405929],[138.090682,36.405787],[138.091082,36.405546],[138.091295,36.405296],[138.09167,36.404863],[138.09222,36.405088],[138.092507,36.405338],[138.092707,36.405813],[138.093095,36.406054],[138.094657,36.406637],[138.096957,36.407171],[138.097444,36.407038],[138.097707,36.406763],[138.097857,36.406496],[138.097882,36.406363],[138.098457,36.405863],[138.099232,36.405296],[138.099869,36.405088],[138.100594,36.404796],[138.101119,36.404655],[138.101869,36.404563],[138.102306,36.404588],[138.102681,36.404496],[138.102769,36.40418],[138.103206,36.40373],[138.103456,36.403346],[138.103756,36.40303],[138.103831,36.402797],[138.104069,36.402638],[138.104906,36.402455],[138.105406,36.402505],[138.105543,36.402547],[138.106131,36.402797],[138.106568,36.40293],[138.106943,36.402838],[138.107231,36.402655],[138.107893,36.402138],[138.108118,36.401772],[138.108381,36.40123],[138.108818,36.400847],[138.109306,36.400639],[138.109856,36.40053],[138.110405,36.400455],[138.111218,36.400272],[138.111655,36.400097],[138.112118,36.399664],[138.112405,36.399322],[138.112466,36.399392],[138.112493,36.399481],[138.112868,36.399864],[138.113305,36.400131],[138.11398,36.400472],[138.114418,36.400789],[138.114618,36.401105],[138.11468,36.40128],[138.114593,36.40203],[138.114617,36.402164],[138.115117,36.403155],[138.11518,36.403197],[138.11533,36.403788],[138.115392,36.404122],[138.115242,36.40478],[138.11508,36.405188],[138.114092,36.406588],[138.113467,36.40738],[138.11323,36.407896],[138.113242,36.408779],[138.11333,36.409138],[138.113505,36.409521],[138.11368,36.409771],[138.113767,36.410021],[138.113592,36.410904],[138.11363,36.411237],[138.113892,36.411762],[138.113917,36.412146],[138.113805,36.412529],[138.113405,36.413387],[138.113317,36.413745],[138.11358,36.414037],[138.114317,36.415079],[138.114642,36.415412],[138.115129,36.41607],[138.115492,36.416812],[138.115717,36.417512],[138.115892,36.417762],[138.116129,36.417987],[138.116279,36.418278],[138.116667,36.419536],[138.116804,36.419778],[138.116804,36.419803],[138.117017,36.420261],[138.117217,36.420911],[138.117266,36.421228],[138.117166,36.421386],[138.116529,36.421919],[138.116429,36.422169],[138.116229,36.424444],[138.116454,36.424986],[138.116554,36.425619],[138.116504,36.42571],[138.116191,36.425935],[138.116016,36.425977],[138.115816,36.426269],[138.115666,36.426627],[138.115054,36.427052],[138.114929,36.427235],[138.114904,36.427435],[138.114954,36.428177],[138.114841,36.42856],[138.114791,36.428627],[138.114566,36.429152],[138.114591,36.429552],[138.114429,36.43021],[138.114504,36.430451],[138.114766,36.431651],[138.114204,36.432393],[138.114054,36.432751],[138.114004,36.433159],[138.114029,36.433568],[138.114191,36.433926],[138.114341,36.434059],[138.114516,36.434059],[138.114953,36.433951],[138.115553,36.433893],[138.116078,36.433918],[138.116678,36.433834],[138.117153,36.433809],[138.117653,36.433909],[138.118428,36.434068],[138.118828,36.434343],[138.119203,36.434909],[138.11954,36.435251],[138.11969,36.435342],[138.120415,36.435951],[138.12074,36.436134],[138.121215,36.436409],[138.121515,36.436684],[138.121615,36.436709],[138.121927,36.436626],[138.12209,36.436584],[138.122365,36.436534],[138.122702,36.436592],[138.123227,36.436767],[138.123452,36.436901],[138.12379,36.437034],[138.124177,36.437092],[138.12424,36.437142],[138.124677,36.437226],[138.125539,36.437259],[138.126502,36.437226],[138.126989,36.437467],[138.128052,36.438176],[138.128577,36.438284],[138.128902,36.438184],[138.129489,36.437884],[138.129977,36.437476],[138.130664,36.437084],[138.131064,36.436401],[138.131889,36.435743],[138.132264,36.435285],[138.133314,36.434776],[138.134301,36.434402],[138.134901,36.434285],[138.136214,36.434452],[138.136601,36.434327],[138.137651,36.434252],[138.139313,36.43421],[138.139838,36.433977],[138.140163,36.433544],[138.141051,36.432177],[138.141538,36.431611],[138.141913,36.430636],[138.142613,36.430044],[138.142938,36.429611],[138.143301,36.429336],[138.144101,36.429286],[138.144626,36.429228],[138.144788,36.429119],[138.145726,36.428786],[138.145913,36.428678],[138.146301,36.428353],[138.14765,36.427661],[138.1483,36.427245],[138.149313,36.42667],[138.149813,36.426528],[138.15045,36.426587],[138.151063,36.426495],[138.151563,36.426328],[138.152025,36.426278],[138.152875,36.425953],[138.153488,36.425537],[138.153975,36.425037],[138.154263,36.424537],[138.1549,36.42417],[138.1552,36.42412],[138.156025,36.423912],[138.1563,36.423612],[138.15685,36.423179],[138.157087,36.422704],[138.1575,36.422179],[138.158975,36.421279],[138.159162,36.421012],[138.159212,36.420579],[138.159175,36.420129],[138.159112,36.419879],[138.15925,36.419854],[138.159562,36.419879],[138.1604,36.420163],[138.160837,36.420129],[138.161137,36.419971],[138.161525,36.419879],[138.16175,36.419871],[138.1625,36.420138],[138.162887,36.420129],[138.163324,36.419946],[138.163412,36.419779],[138.163774,36.418879],[138.163937,36.418671],[138.164112,36.418571],[138.164799,36.418363],[138.164912,36.418196],[138.165187,36.417813],[138.165674,36.416946],[138.166137,36.416413],[138.166462,36.416163],[138.167199,36.415755],[138.167349,36.415622],[138.167424,36.415472],[138.167874,36.41538],[138.168924,36.415305],[138.169487,36.415938],[138.169462,36.416963],[138.169549,36.417088],[138.170361,36.417605],[138.170549,36.417821],[138.170699,36.41818],[138.170874,36.418463],[138.171124,36.418621],[138.171586,36.418821],[138.172061,36.419396],[138.172161,36.41943],[138.174798,36.41963],[138.176448,36.419663],[138.177411,36.419721],[138.177536,36.41978],[138.178436,36.420163],[138.178623,36.420296],[138.179135,36.420538],[138.180048,36.420913],[138.180748,36.421105],[138.181023,36.421121],[138.182523,36.421171],[138.183772,36.421297],[138.18451,36.421238],[138.18516,36.42128],[138.186547,36.421463],[138.18746,36.421538],[138.187872,36.421605],[138.188534,36.421597],[138.188784,36.421638],[138.188822,36.42173],[138.189347,36.421788],[138.192922,36.422222],[138.194396,36.422422],[138.195371,36.42248],[138.196059,36.422605],[138.196596,36.422897],[138.198296,36.42353],[138.198571,36.423572],[138.199321,36.423763],[138.200296,36.424113],[138.200423,36.424168],[138.201508,36.424638],[138.202308,36.424805],[138.202583,36.424805],[138.202921,36.425005],[138.204071,36.425488],[138.204571,36.425638],[138.20512,36.425696],[138.205645,36.425671],[138.206483,36.425547],[138.206783,36.425722],[138.207283,36.425896],[138.207533,36.425871],[138.209058,36.42583],[138.209533,36.425872],[138.210733,36.426105],[138.21117,36.42623],[138.211507,36.426521],[138.21207,36.427146],[138.212632,36.427546],[138.214907,36.428713],[138.215657,36.429171],[138.216157,36.429413],[138.216769,36.429271],[138.217294,36.429338],[138.217957,36.429488],[138.218719,36.429746],[138.219419,36.430054],[138.220607,36.430221],[138.221219,36.430146],[138.221544,36.430029],[138.221769,36.429913],[138.222644,36.429604],[138.223306,36.429513],[138.223944,36.429588],[138.224481,36.429696],[138.225169,36.429888],[138.225731,36.429929],[138.226306,36.430013],[138.226843,36.430254],[138.229018,36.431379],[138.229693,36.431663],[138.230105,36.431654],[138.232293,36.431746],[138.234455,36.431604],[138.235342,36.431729],[138.236642,36.431713],[138.23693,36.431779],[138.237392,36.431813],[138.23793,36.431896],[138.238642,36.431846],[138.23903,36.431888],[138.239954,36.432254],[138.240504,36.432338],[138.240892,36.432313],[138.241529,36.432371],[138.242042,36.432529],[138.242654,36.432763],[138.243516,36.432979],[138.244266,36.433087],[138.245591,36.432912],[138.246029,36.432929],[138.246529,36.433037],[138.24689,36.433167],[138.247316,36.433196],[138.247366,36.433171],[138.247591,36.433237],[138.247953,36.433304],[138.248316,36.433304],[138.248541,36.433262],[138.248678,36.433279],[138.248541,36.433621],[138.248291,36.434187],[138.248228,36.434612],[138.248316,36.43542],[138.248566,36.436637],[138.248603,36.437562],[138.248878,36.43847],[138.249241,36.43912],[138.249653,36.439595],[138.249766,36.44022],[138.249878,36.440536],[138.250053,36.440811],[138.250465,36.44117],[138.250303,36.441328],[138.25019,36.441778],[138.250215,36.442728],[138.250103,36.443178],[138.249803,36.443561],[138.249753,36.444061],[138.24969,36.444061],[138.248666,36.444669],[138.248591,36.444936],[138.248478,36.445636],[138.248341,36.446136],[138.248041,36.446586],[138.247791,36.446744],[138.247228,36.446902],[138.247203,36.446969],[138.246978,36.447219],[138.24689,36.447282],[138.246803,36.447477],[138.246316,36.448161],[138.245953,36.448477],[138.245441,36.448869],[138.245253,36.449094],[138.245216,36.450269],[138.245166,36.450469],[138.245078,36.450519],[138.244641,36.450635],[138.243666,36.450735],[138.242541,36.450794],[138.242041,36.450919],[138.241854,36.45121],[138.242004,36.451685],[138.242079,36.451794],[138.242366,36.452469],[138.241929,36.454118],[138.241341,36.454893],[138.241204,36.455235],[138.241129,36.455685],[138.241104,36.45611],[138.241366,36.456827],[138.241179,36.457168],[138.240166,36.457676],[138.239866,36.457951],[138.239816,36.45811],[138.239879,36.458376],[138.240079,36.458785],[138.239966,36.458943],[138.239916,36.458943],[138.239554,36.458876],[138.239416,36.458818],[138.238991,36.45826],[138.238766,36.458168],[138.238591,36.458151],[138.238191,36.458493],[138.237754,36.458768],[138.237116,36.459201],[138.236629,36.459635],[138.236391,36.460026],[138.236004,36.460435],[138.235591,36.460751],[138.234692,36.461259],[138.234042,36.462151],[138.233379,36.462518],[138.233167,36.462584],[138.232779,36.462659],[138.231004,36.462926],[138.230054,36.463793],[138.229529,36.463776],[138.229167,36.463809],[138.228929,36.464151],[138.228792,36.464668],[138.228804,36.465209],[138.228967,36.466267],[138.228917,36.468676],[138.229004,36.4698],[138.228867,36.470259],[138.228867,36.470434],[138.229154,36.470975],[138.229192,36.4714],[138.229342,36.4721],[138.229404,36.472642],[138.229354,36.472842],[138.228954,36.473525],[138.228829,36.474],[138.229004,36.474692],[138.229604,36.475608],[138.229666,36.476016],[138.229554,36.477233],[138.229554,36.477866],[138.229816,36.478249],[138.230579,36.478841],[138.230829,36.479199],[138.230841,36.479449],[138.230479,36.479724],[138.230179,36.480066],[138.229716,36.480499],[138.228929,36.481007],[138.228291,36.481282],[138.226829,36.481682],[138.226554,36.481799],[138.225954,36.482149],[138.225792,36.482282],[138.224954,36.482516],[138.224679,36.482524],[138.223767,36.482666],[138.223142,36.482815],[138.222642,36.48284],[138.221479,36.483149],[138.221479,36.483415],[138.221579,36.484049],[138.221554,36.484274],[138.221754,36.48594],[138.221617,36.486073],[138.220679,36.487623],[138.220479,36.487848],[138.219667,36.488423],[138.219079,36.488565],[138.218667,36.48879],[138.218729,36.489156],[138.219017,36.489623],[138.219329,36.490048],[138.219529,36.490473],[138.219404,36.490698],[138.218904,36.491064],[138.218354,36.491323],[138.217992,36.491148],[138.217642,36.491372],[138.217392,36.491672],[138.217142,36.491872],[138.216317,36.492114],[138.215904,36.492339],[138.215142,36.493255],[138.214454,36.493505],[138.213155,36.49368],[138.21283,36.494113],[138.21278,36.494313],[138.21238,36.49473],[138.210917,36.495513],[138.210255,36.495746],[138.20968,36.496113],[138.20938,36.496496],[138.209092,36.496796],[138.20818,36.497346],[138.207692,36.497579],[138.207217,36.497854],[138.20658,36.497971],[138.205255,36.498287],[138.20443,36.498562],[138.20413,36.498812],[138.204005,36.499204],[138.203955,36.499629],[138.203767,36.500153],[138.203417,36.50042],[138.201792,36.500936],[138.201842,36.501028],[138.201855,36.501636],[138.201692,36.503061],[138.201617,36.503103],[138.20153,36.503261],[138.20148,36.503669],[138.201567,36.504261],[138.201455,36.504778],[138.200317,36.506269],[138.19993,36.506627],[138.199492,36.506836],[138.199467,36.506811],[138.198905,36.507219],[138.198793,36.507402],[138.198693,36.507719],[138.198605,36.508144],[138.198718,36.508552],[138.19903,36.509002],[138.199443,36.509836],[138.199555,36.510377],[138.19983,36.511144],[138.19978,36.511236],[138.20008,36.511661],[138.200368,36.511819],[138.20083,36.511794],[138.201105,36.511727],[138.201468,36.511569],[138.20208,36.511611],[138.202518,36.511719],[138.202918,36.511744],[138.203468,36.511653],[138.20363,36.511694],[138.20443,36.511469],[138.20488,36.511244],[138.20518,36.510969],[138.206017,36.51002],[138.206292,36.509978],[138.20818,36.510361],[138.208667,36.510428],[138.20923,36.510286],[138.209892,36.509628],[138.210305,36.508862],[138.211355,36.508345],[138.212379,36.508162],[138.212604,36.508095],[138.213317,36.507979],[138.213467,36.507979],[138.214542,36.50782],[138.215367,36.507504],[138.216042,36.507321],[138.216342,36.507321],[138.216929,36.507546],[138.217454,36.507679],[138.217817,36.507696],[138.218254,36.507671],[138.218454,36.507629],[138.218729,36.507404],[138.219167,36.507337],[138.219642,36.507804],[138.219842,36.507804],[138.220441,36.507471],[138.220854,36.507329],[138.220891,36.507221],[138.220941,36.507379],[138.220941,36.507896],[138.221054,36.508796],[138.221166,36.509138],[138.221254,36.509246],[138.221504,36.509338],[138.222054,36.509471],[138.222979,36.509854],[138.223479,36.510188],[138.224116,36.511004],[138.224916,36.511538],[138.225554,36.511921],[138.226441,36.512913],[138.227753,36.513521],[138.228216,36.513588],[138.228641,36.513771],[138.229391,36.514221],[138.230003,36.514288],[138.230666,36.514238],[138.230803,36.514188],[138.231716,36.513696],[138.231828,36.513538],[138.23229,36.513446],[138.232878,36.513488],[138.233103,36.51353],[138.23379,36.51353],[138.234153,36.513421],[138.234765,36.51308],[138.23534,36.512805],[138.23554,36.512763],[138.23604,36.51258],[138.23664,36.511788],[138.237053,36.511497],[138.237665,36.51118],[138.23789,36.51093],[138.237965,36.51068],[138.238215,36.510272],[138.238415,36.509888],[138.238827,36.509638],[138.239265,36.509547],[138.239602,36.509638],[138.24004,36.509838],[138.240465,36.50993],[138.240877,36.509955],[138.24129,36.510022],[138.241927,36.510239],[138.242352,36.510289],[138.243377,36.509905],[138.243814,36.509764],[138.244402,36.50983],[138.244727,36.509922],[138.245427,36.509964],[138.246477,36.509914],[138.246664,36.51003],[138.246776,36.510439],[138.246891,36.510675],[138.247051,36.510905],[138.247139,36.511622],[138.247326,36.511922],[138.247526,36.512005],[138.247826,36.512097],[138.248114,36.512255],[138.248526,36.512797],[138.249026,36.513155],[138.249164,36.51338],[138.249114,36.51358],[138.248526,36.514172],[138.248339,36.514422],[138.248339,36.514913],[138.248364,36.514913],[138.248564,36.515047],[138.248801,36.515163],[138.249501,36.515588],[138.250051,36.515705],[138.250413,36.515655],[138.250663,36.515472],[138.250963,36.515363],[138.251826,36.515155],[138.252238,36.51513],[138.253163,36.515338],[138.254438,36.51578],[138.254875,36.515713],[138.255213,36.515555],[138.25585,36.515122],[138.257375,36.514489],[138.258088,36.514172],[138.25845,36.514064],[138.258812,36.514264],[138.25925,36.514397],[138.259862,36.514439],[138.26025,36.514347],[138.260587,36.514372],[138.26075,36.514597],[138.261,36.514822],[138.261387,36.515072],[138.261612,36.515114],[138.2617,36.515089],[138.262475,36.514664],[138.262825,36.514505],[138.263112,36.514347],[138.263524,36.514005],[138.263687,36.513955],[138.264099,36.514005],[138.264874,36.513955],[138.265687,36.513772],[138.266012,36.513572],[138.266324,36.51328],[138.266649,36.513614],[138.267149,36.514447],[138.267299,36.514855],[138.267849,36.515822],[138.268099,36.516022],[138.268161,36.516322],[138.267961,36.516788],[138.267986,36.517038],[138.268161,36.517038],[138.268299,36.517172],[138.268761,36.517488],[138.269961,36.518547],[138.270349,36.51873],[138.270549,36.518772],[138.270849,36.518997],[138.270911,36.519288],[138.270849,36.519647],[138.270824,36.520347],[138.270911,36.52078],[138.271299,36.521338],[138.271411,36.521813],[138.271324,36.52213],[138.271111,36.522421],[138.270886,36.52283],[138.270661,36.523055],[138.270411,36.523396],[138.270249,36.523463],[138.271473,36.524138],[138.271911,36.524521],[138.271998,36.52468],[138.272548,36.525238],[138.273161,36.525555],[138.273448,36.525896],[138.273473,36.526521],[138.273423,36.527221],[138.273698,36.527671],[138.274061,36.527921],[138.274248,36.527988],[138.274698,36.528238],[138.274973,36.528463],[138.275248,36.528888],[138.275336,36.529113],[138.275423,36.529563],[138.275398,36.530063],[138.275198,36.531346],[138.27526,36.532112],[138.27531,36.532337],[138.275535,36.532746],[138.27631,36.533687],[138.276848,36.534204],[138.277123,36.534546],[138.277423,36.535112],[138.277648,36.535721],[138.278348,36.535854],[138.279098,36.53592],[138.280148,36.536137],[138.281085,36.53657],[138.28126,36.536679],[138.281922,36.536945],[138.28211,36.536862],[138.282535,36.53652],[138.283085,36.536295],[138.284022,36.536179],[138.284547,36.536062],[138.284772,36.535887],[138.284972,36.535612],[138.28546,36.535045],[138.285935,36.534637],[138.28621,36.534504],[138.287047,36.534612],[138.287622,36.534546],[138.288397,36.534387],[138.289672,36.534046],[138.291009,36.533454],[138.291534,36.532962],[138.291746,36.532529],[138.292034,36.532304],[138.292471,36.532412],[138.292946,36.532462],[138.293334,36.532412],[138.293859,36.532304],[138.294134,36.532771],[138.294409,36.533071],[138.295246,36.533812],[138.295608,36.534054],[138.297333,36.535046],[138.297746,36.535387],[138.298358,36.536079],[138.29872,36.536595],[138.299058,36.537004],[138.299058,36.537187],[138.299108,36.537279],[138.29922,36.53732],[138.299808,36.537704],[138.30027,36.538245],[138.300495,36.539104],[138.302282,36.541779],[138.302582,36.54212],[138.303395,36.542029],[138.303857,36.542045],[138.304332,36.542179],[138.304469,36.542387],[138.304532,36.54272],[138.304444,36.543037],[138.304444,36.543328],[138.304669,36.543803],[138.305007,36.544212],[138.305394,36.544478],[138.305832,36.544703],[138.306257,36.54482],[138.306832,36.544637],[138.307194,36.544637],[138.307694,36.544903],[138.308419,36.545353],[138.308806,36.545737],[138.309106,36.546253],[138.310106,36.547586],[138.310418,36.548528],[138.310418,36.548936],[138.310481,36.54957],[138.310531,36.549728],[138.310806,36.550128],[138.311093,36.55027],[138.311418,36.550353],[138.311256,36.550695],[138.310293,36.551303],[138.309793,36.551736],[138.309368,36.552144],[138.308843,36.552794],[138.308456,36.553044],[138.308181,36.553319],[138.308081,36.553653],[138.308081,36.553861],[138.308156,36.554578],[138.308356,36.555186],[138.308718,36.555711],[138.309056,36.556003],[138.310106,36.556652],[138.310718,36.556944],[138.31083,36.557144],[138.31063,36.557394],[138.310468,36.557802],[138.310468,36.557894],[138.311055,36.559044],[138.311143,36.559361],[138.311218,36.559444],[138.312005,36.559736],[138.313143,36.560027],[138.313805,36.560144],[138.314305,36.560052],[138.314742,36.560027],[138.315405,36.560227],[138.315742,36.56041],[138.316155,36.560519],[138.316267,36.560502],[138.31663,36.56061],[138.316942,36.560769],[138.317192,36.560969],[138.317292,36.561102],[138.317555,36.56171],[138.318017,36.56241],[138.318305,36.562594],[138.318605,36.56286],[138.318804,36.563402],[138.318829,36.563677]]],"type":"Polygon"},"properties":{"kuni":"信濃","id":"G24014","id_url":"G24014.html","kuni_url":"/kg/resource/K24.html","pref":"長野県","kuni_id":"K24","yomi":"ちいさがた","name":"小県"}}],"type":"FeatureCollection"}