{"type":"FeatureCollection","features":[{"type":"Feature","properties":{"kuni_id":"K24","pref":"長野県","name":"北佐久","yomi":"きたさく","kuni":"信濃","id":"G24016","kuni_url":"/kg/resource/K24.html","id_url":"G24016.html"},"geometry":{"coordinates":[[[138.644307,36.411458],[138.645032,36.411008],[138.645307,36.4109],[138.645682,36.410792],[138.646132,36.410858],[138.646307,36.410933],[138.646582,36.410817],[138.646895,36.41035],[138.646995,36.410192],[138.647444,36.409833],[138.647757,36.409567],[138.647807,36.4088],[138.648169,36.408167],[138.648344,36.407467],[138.648082,36.406384],[138.648119,36.405734],[138.648194,36.405192],[138.648194,36.404809],[138.647957,36.403809],[138.648007,36.403518],[138.648319,36.402934],[138.648394,36.402443],[138.648432,36.400751],[138.648444,36.400451],[138.64837,36.40016],[138.648395,36.399843],[138.648932,36.398927],[138.649307,36.398343],[138.649769,36.398002],[138.649894,36.39801],[138.650194,36.397893],[138.650544,36.397535],[138.650957,36.396702],[138.651232,36.396435],[138.651757,36.396302],[138.651919,36.396194],[138.652094,36.395877],[138.652119,36.39556],[138.651994,36.395111],[138.651994,36.394977],[138.651732,36.394361],[138.651657,36.393844],[138.651619,36.393236],[138.651694,36.392536],[138.651907,36.391978],[138.651932,36.391703],[138.652007,36.391436],[138.652094,36.390761],[138.652094,36.390061],[138.651969,36.389603],[138.651882,36.388836],[138.651694,36.387778],[138.651769,36.387212],[138.651807,36.38667],[138.652057,36.386062],[138.652107,36.38577],[138.652044,36.385279],[138.651819,36.38482],[138.651557,36.383937],[138.651407,36.383287],[138.651207,36.38297],[138.650495,36.382087],[138.65017,36.381562],[138.650032,36.380821],[138.649932,36.380546],[138.649632,36.380071],[138.649545,36.379396],[138.649745,36.378538],[138.650132,36.377821],[138.650407,36.377413],[138.65067,36.37703],[138.650845,36.376788],[138.650945,36.376405],[138.650982,36.37588],[138.651057,36.375255],[138.651307,36.373313],[138.651332,36.373222],[138.651507,36.372997],[138.651757,36.372772],[138.652732,36.372555],[138.653295,36.37238],[138.65362,36.372205],[138.65397,36.371822],[138.654607,36.370897],[138.654907,36.370589],[138.656119,36.369714],[138.656857,36.369181],[138.657057,36.368914],[138.657107,36.368639],[138.656695,36.367781],[138.656495,36.367506],[138.65607,36.367281],[138.655945,36.367139],[138.65582,36.366739],[138.655695,36.366556],[138.654532,36.365664],[138.654007,36.365056],[138.653645,36.364506],[138.653195,36.363715],[138.652595,36.363123],[138.652283,36.362698],[138.652108,36.36224],[138.65197,36.36089],[138.652008,36.360073],[138.651983,36.359715],[138.652033,36.35924],[138.652108,36.359015],[138.652845,36.358524],[138.65367,36.358107],[138.653933,36.357965],[138.653958,36.357857],[138.653883,36.35729],[138.653783,36.356999],[138.653708,36.356974],[138.652246,36.355924],[138.651121,36.354991],[138.650971,36.354816],[138.650708,36.354182],[138.650583,36.354024],[138.650246,36.352916],[138.649971,36.352391],[138.649921,36.351874],[138.650084,36.351199],[138.650434,36.350775],[138.650821,36.350341],[138.651071,36.350008],[138.651134,36.349358],[138.650584,36.348358],[138.650509,36.348042],[138.650121,36.347025],[138.649959,36.3461],[138.650034,36.345492],[138.650272,36.345217],[138.650597,36.344592],[138.650722,36.344075],[138.650784,36.344009],[138.650834,36.343784],[138.650784,36.3436],[138.650409,36.343209],[138.650372,36.342559],[138.649747,36.341834],[138.649622,36.341517],[138.649659,36.341042],[138.649534,36.340634],[138.649747,36.339692],[138.649747,36.339351],[138.64961,36.338426],[138.649785,36.337884],[138.65006,36.337409],[138.650372,36.336468],[138.650335,36.336285],[138.650497,36.335785],[138.650497,36.335718],[138.65061,36.335518],[138.65111,36.335335],[138.651172,36.335285],[138.65111,36.335151],[138.65086,36.334901],[138.650585,36.334435],[138.65041,36.333827],[138.650385,36.333127],[138.65041,36.332335],[138.650497,36.331993],[138.65066,36.33186],[138.651047,36.33166],[138.651297,36.331452],[138.651435,36.331252],[138.65141,36.330685],[138.651522,36.33051],[138.651972,36.330444],[138.652722,36.330419],[138.653022,36.330169],[138.65311,36.329877],[138.653085,36.329535],[138.652635,36.328835],[138.652572,36.328527],[138.65241,36.328186],[138.651797,36.327644],[138.651485,36.327286],[138.651485,36.327219],[138.651572,36.327102],[138.65266,36.326452],[138.652847,36.326227],[138.652985,36.325886],[138.65291,36.325144],[138.65301,36.324853],[138.653185,36.324644],[138.65321,36.324378],[138.653185,36.324169],[138.652622,36.323428],[138.652535,36.323136],[138.652197,36.322661],[138.651985,36.322436],[138.651872,36.321878],[138.651835,36.321403],[138.65161,36.320836],[138.651335,36.320345],[138.650973,36.320095],[138.65061,36.32007],[138.650248,36.319936],[138.650135,36.319845],[138.649835,36.319711],[138.649573,36.319378],[138.64921,36.318678],[138.64896,36.318003],[138.648735,36.317553],[138.648348,36.316987],[138.648123,36.316537],[138.647986,36.316087],[138.647898,36.31557],[138.647898,36.315112],[138.647848,36.314887],[138.647986,36.314395],[138.648173,36.314054],[138.648423,36.313854],[138.648736,36.31347],[138.649098,36.312879],[138.649348,36.31257],[138.649761,36.312362],[138.650123,36.312229],[138.65026,36.312046],[138.650398,36.311621],[138.650623,36.310021],[138.650786,36.309546],[138.651173,36.308754],[138.651261,36.308238],[138.651286,36.307921],[138.652535,36.307804],[138.652848,36.307896],[138.653123,36.307938],[138.653323,36.307896],[138.653623,36.307421],[138.65376,36.307105],[138.65371,36.306771],[138.65326,36.306255],[138.65321,36.306005],[138.653323,36.305688],[138.65326,36.305238],[138.653098,36.304763],[138.653398,36.303905],[138.653536,36.30303],[138.653373,36.302847],[138.652861,36.302663],[138.652036,36.302488],[138.651636,36.302355],[138.651311,36.30208],[138.650386,36.301588],[138.650161,36.301363],[138.650023,36.301005],[138.650073,36.300822],[138.650211,36.300597],[138.650961,36.299697],[138.651211,36.299264],[138.651248,36.299039],[138.651136,36.29888],[138.650599,36.298655],[138.650211,36.298522],[138.649486,36.298455],[138.648574,36.298522],[138.648261,36.298522],[138.647986,36.298455],[138.647599,36.298164],[138.647199,36.297755],[138.646899,36.297622],[138.646474,36.297555],[138.646287,36.297464],[138.646199,36.296972],[138.645637,36.296114],[138.645587,36.295756],[138.645612,36.295414],[138.645474,36.295122],[138.645024,36.294489],[138.644999,36.294106],[138.645024,36.293773],[138.644712,36.293348],[138.644237,36.293256],[138.643962,36.293323],[138.643412,36.293639],[138.6431,36.293639],[138.642712,36.293597],[138.642575,36.293547],[138.6424,36.293281],[138.642175,36.293031],[138.64185,36.292848],[138.641287,36.292739],[138.640875,36.292739],[138.640425,36.292831],[138.640175,36.293097],[138.640062,36.293347],[138.6399,36.293531],[138.639562,36.293597],[138.638675,36.293531],[138.638313,36.293239],[138.638,36.293347],[138.637813,36.293464],[138.63755,36.293506],[138.637475,36.293489],[138.637225,36.293306],[138.636975,36.292989],[138.636525,36.292697],[138.636138,36.292564],[138.635938,36.292381],[138.635713,36.291956],[138.635488,36.291981],[138.634713,36.291864],[138.634238,36.291731],[138.633901,36.291489],[138.633876,36.291397],[138.633513,36.291172],[138.633201,36.291056],[138.632876,36.290831],[138.632813,36.290564],[138.631751,36.289164],[138.631426,36.289056],[138.631001,36.288714],[138.630664,36.288539],[138.630526,36.288489],[138.629864,36.288514],[138.629364,36.288406],[138.628801,36.288406],[138.628276,36.288473],[138.628026,36.288514],[138.626964,36.288831],[138.626801,36.288856],[138.626464,36.288589],[138.626126,36.288248],[138.625652,36.288073],[138.625539,36.288073],[138.624702,36.288206],[138.624377,36.288139],[138.624177,36.287981],[138.623789,36.287781],[138.623564,36.287573],[138.623114,36.287348],[138.622702,36.287331],[138.622089,36.287173],[138.621863,36.286944],[138.621552,36.286873],[138.621252,36.286739],[138.620977,36.286664],[138.620527,36.286573],[138.620277,36.286639],[138.619977,36.286798],[138.619602,36.286856],[138.619527,36.286814],[138.619427,36.286748],[138.619127,36.286656],[138.618027,36.286439],[138.616727,36.286256],[138.616402,36.286089],[138.616227,36.285956],[138.615977,36.285906],[138.615677,36.286064],[138.615415,36.286106],[138.61514,36.286014],[138.614603,36.285606],[138.614303,36.285581],[138.614228,36.285623],[138.61374,36.285689],[138.613265,36.285639],[138.61289,36.285731],[138.61254,36.285706],[138.61234,36.285631],[138.61224,36.285431],[138.612253,36.285181],[138.612378,36.284756],[138.612378,36.284414],[138.612328,36.284056],[138.612228,36.283898],[138.611865,36.283531],[138.611715,36.28349],[138.61139,36.283306],[138.611091,36.282106],[138.610928,36.28204],[138.610303,36.281873],[138.609453,36.281465],[138.609203,36.281281],[138.608878,36.28094],[138.608353,36.280581],[138.607828,36.280373],[138.607603,36.280215],[138.607253,36.279782],[138.607041,36.279598],[138.606916,36.279548],[138.606554,36.279573],[138.606429,36.279523],[138.605879,36.279457],[138.605504,36.279365],[138.605029,36.279182],[138.604554,36.27904],[138.603254,36.278823],[138.602629,36.278782],[138.602079,36.27864],[138.601454,36.27854],[138.600979,36.27854],[138.600729,36.27849],[138.600454,36.278398],[138.600429,36.27824],[138.600479,36.278107],[138.601292,36.27699],[138.602004,36.276315],[138.602354,36.276049],[138.602917,36.27549],[138.603566,36.274932],[138.603616,36.274632],[138.603604,36.274365],[138.603529,36.274115],[138.603179,36.27344],[138.603129,36.27314],[138.603292,36.272757],[138.603542,36.272466],[138.603892,36.272224],[138.604467,36.271999],[138.604554,36.271866],[138.604529,36.271691],[138.604329,36.271349],[138.604104,36.271007],[138.603929,36.270691],[138.603767,36.269832],[138.603867,36.269449],[138.604017,36.269183],[138.604354,36.268841],[138.605117,36.267741],[138.605817,36.266983],[138.605892,36.266641],[138.605804,36.266333],[138.605154,36.265625],[138.604417,36.264491],[138.604142,36.26395],[138.60383,36.263066],[138.603805,36.262616],[138.60403,36.261942],[138.604292,36.261625],[138.604367,36.261425],[138.604255,36.26],[138.60438,36.259775],[138.604855,36.259283],[138.604992,36.259058],[138.604992,36.258858],[138.604705,36.2575],[138.604905,36.256825],[138.604905,36.256584],[138.604592,36.255992],[138.604567,36.255609],[138.604755,36.254842],[138.604755,36.254459],[138.604705,36.254167],[138.60398,36.253459],[138.603868,36.253142],[138.603755,36.253042],[138.60338,36.252317],[138.603143,36.251659],[138.603168,36.251251],[138.603243,36.251009],[138.60313,36.250692],[138.602755,36.250326],[138.60243,36.249851],[138.60223,36.249401],[138.602243,36.248943],[138.602393,36.248451],[138.602718,36.248068],[138.603155,36.247801],[138.605093,36.247068],[138.606917,36.246476],[138.60723,36.246318],[138.60733,36.246143],[138.607455,36.24506],[138.607592,36.244877],[138.608367,36.244635],[138.609142,36.24446],[138.61003,36.244177],[138.610455,36.243885],[138.610705,36.243543],[138.611217,36.24301],[138.611417,36.242652],[138.611342,36.242127],[138.61168,36.241685],[138.61213,36.24126],[138.61258,36.24081],[138.612655,36.240419],[138.61263,36.240044],[138.612542,36.239686],[138.612542,36.239619],[138.612442,36.239302],[138.612367,36.239027],[138.612342,36.238827],[138.61228,36.238652],[138.612267,36.238411],[138.612217,36.238261],[138.612155,36.237794],[138.612142,36.237552],[138.612155,36.237403],[138.612117,36.237261],[138.612142,36.236794],[138.612167,36.236611],[138.612155,36.235953],[138.612167,36.235769],[138.612155,36.235636],[138.612205,36.234695],[138.61218,36.234136],[138.612205,36.233886],[138.61218,36.233795],[138.61218,36.233645],[138.612217,36.233461],[138.61218,36.233336],[138.61218,36.23317],[138.612205,36.233003],[138.61218,36.232803],[138.61218,36.232528],[138.612243,36.23197],[138.612193,36.231353],[138.612043,36.230653],[138.61178,36.229637],[138.61203,36.22937],[138.612593,36.229079],[138.613168,36.228795],[138.613767,36.228462],[138.614355,36.228237],[138.614605,36.228037],[138.61468,36.22772],[138.614792,36.226596],[138.614892,36.226171],[138.61508,36.225737],[138.61483,36.225062],[138.61473,36.224679],[138.614805,36.224388],[138.615292,36.223621],[138.615817,36.223154],[138.61663,36.222638],[138.617105,36.222213],[138.617742,36.221588],[138.61773,36.220371],[138.617905,36.219871],[138.618067,36.219355],[138.618317,36.219113],[138.618592,36.21898],[138.618767,36.218638],[138.619017,36.218372],[138.61953,36.21813],[138.61978,36.217838],[138.61998,36.217455],[138.620317,36.217114],[138.620617,36.216914],[138.620992,36.21678],[138.621042,36.216647],[138.621067,36.216314],[138.62118,36.215905],[138.621755,36.215122],[138.621912,36.214936],[138.62208,36.214814],[138.622317,36.214656],[138.622742,36.214497],[138.623605,36.214489],[138.62438,36.214714],[138.624917,36.214931],[138.625642,36.21533],[138.626279,36.215755],[138.626904,36.215955],[138.627529,36.216089],[138.627942,36.215905],[138.628517,36.215839],[138.629779,36.21648],[138.631454,36.217272],[138.631616,36.217222],[138.631691,36.217139],[138.632404,36.216755],[138.632904,36.21638],[138.633141,36.216072],[138.633279,36.215764],[138.633429,36.215306],[138.633679,36.214406],[138.633654,36.214297],[138.634516,36.213839],[138.634541,36.212798],[138.634891,36.212148],[138.634854,36.211539],[138.634691,36.210481],[138.634429,36.208765],[138.634542,36.208356],[138.634754,36.207998],[138.635667,36.207223],[138.635904,36.206973],[138.636017,36.206723],[138.635979,36.206565],[138.635992,36.206407],[138.636092,36.205707],[138.636142,36.205582],[138.636379,36.20534],[138.636754,36.204815],[138.636879,36.204615],[138.636942,36.20454],[138.636979,36.204374],[138.636892,36.204299],[138.636717,36.204274],[138.636629,36.204382],[138.635667,36.205032],[138.635404,36.205165],[138.635292,36.205248],[138.634992,36.205398],[138.634917,36.205423],[138.634717,36.205565],[138.633779,36.204849],[138.633367,36.204624],[138.632942,36.204149],[138.632367,36.203799],[138.631592,36.20389],[138.630992,36.203599],[138.630367,36.203399],[138.629705,36.202957],[138.62928,36.202549],[138.629067,36.202016],[138.628367,36.201316],[138.627355,36.201124],[138.626755,36.200857],[138.626005,36.200132],[138.625368,36.199666],[138.624818,36.198991],[138.624155,36.198391],[138.62373,36.197824],[138.623493,36.197358],[138.62313,36.196999],[138.622893,36.196958],[138.622593,36.196866],[138.622255,36.196841],[138.62193,36.196783],[138.621866,36.196887],[138.621668,36.196899],[138.621493,36.196849],[138.621168,36.196824],[138.620743,36.196941],[138.620543,36.196891],[138.620443,36.196841],[138.620293,36.196599],[138.620068,36.195783],[138.619756,36.195491],[138.619481,36.195391],[138.619156,36.195124],[138.618981,36.195141],[138.618706,36.195099],[138.618431,36.194983],[138.618256,36.194958],[138.617606,36.194841],[138.616968,36.194899],[138.616668,36.194924],[138.616318,36.194858],[138.616068,36.194966],[138.615769,36.194874],[138.615194,36.194549],[138.614969,36.194708],[138.614694,36.194816],[138.614219,36.194749],[138.613869,36.194749],[138.613444,36.194808],[138.613119,36.194899],[138.612481,36.195141],[138.612181,36.195116],[138.611731,36.195024],[138.611206,36.194949],[138.610631,36.195058],[138.610181,36.195083],[138.609681,36.195166],[138.609181,36.195657],[138.608494,36.195832],[138.607844,36.196057],[138.607544,36.196099],[138.607094,36.196257],[138.606632,36.196566],[138.606382,36.196674],[138.606369,36.196407],[138.606144,36.195799],[138.605894,36.195432],[138.605532,36.194757],[138.605382,36.194641],[138.604832,36.193958],[138.604332,36.193549],[138.603907,36.193299],[138.603332,36.193091],[138.602257,36.193016],[138.602057,36.193041],[138.601582,36.193283],[138.601432,36.193233],[138.601232,36.193033],[138.601032,36.193008],[138.600732,36.193116],[138.600245,36.193724],[138.60007,36.193857],[138.59977,36.193899],[138.59957,36.193874],[138.599195,36.193766],[138.59837,36.193849],[138.59812,36.193982],[138.59772,36.194291],[138.597333,36.194699],[138.597083,36.194849],[138.596158,36.194957],[138.595933,36.194907],[138.595708,36.194799],[138.595558,36.194657],[138.595333,36.194657],[138.594733,36.19474],[138.594408,36.194699],[138.593983,36.194582],[138.593358,36.194532],[138.593083,36.19439],[138.592758,36.194299],[138.592583,36.194299],[138.591921,36.194432],[138.591646,36.194565],[138.591271,36.195032],[138.590796,36.195074],[138.590171,36.195182],[138.589508,36.195449],[138.589183,36.195515],[138.589083,36.195607],[138.588908,36.195898],[138.588846,36.196507],[138.588696,36.19689],[138.588321,36.197248],[138.587671,36.197382],[138.586883,36.197307],[138.586421,36.197098],[138.585933,36.197073],[138.585708,36.19709],[138.585234,36.197248],[138.584734,36.197357],[138.584659,36.197357],[138.584359,36.197173],[138.584084,36.197123],[138.583259,36.196715],[138.582609,36.196707],[138.582259,36.196732],[138.581734,36.19704],[138.581584,36.19709],[138.580346,36.19724],[138.580021,36.197098],[138.579659,36.196848],[138.579359,36.19644],[138.578959,36.196098],[138.577647,36.196656],[138.577147,36.196781],[138.576847,36.19674],[138.576372,36.196306],[138.575697,36.196506],[138.575222,36.19659],[138.574947,36.19654],[138.574372,36.196406],[138.574072,36.196398],[138.573922,36.196515],[138.573697,36.196781],[138.57336,36.196956],[138.573185,36.19694],[138.572935,36.196848],[138.57156,36.196748],[138.571135,36.19679],[138.570235,36.19719],[138.569935,36.19714],[138.56961,36.196931],[138.568323,36.197423],[138.567298,36.197523],[138.566548,36.197631],[138.565898,36.197648],[138.565185,36.197598],[138.56496,36.197556],[138.564435,36.197373],[138.563948,36.197098],[138.563523,36.197073],[138.562836,36.197114],[138.562111,36.197223],[138.561486,36.197256],[138.560836,36.197456],[138.560248,36.197748],[138.559698,36.197739],[138.559523,36.197698],[138.559148,36.197714],[138.557798,36.198114],[138.557274,36.198197],[138.556699,36.197831],[138.556049,36.197856],[138.555461,36.197939],[138.553536,36.198289],[138.552861,36.198256],[138.552386,36.198364],[138.551899,36.198564],[138.551124,36.198722],[138.550724,36.198964],[138.549974,36.199139],[138.549574,36.199114],[138.549099,36.198905],[138.548774,36.198839],[138.548287,36.198947],[138.547437,36.19923],[138.547287,36.199214],[138.546562,36.199389],[138.545987,36.199605],[138.544749,36.20003],[138.543625,36.200222],[138.543425,36.200313],[138.543012,36.200397],[138.542687,36.200422],[138.542612,36.200397],[138.542287,36.20048],[138.542012,36.200388],[138.541562,36.200097],[138.540937,36.199913],[138.540687,36.199955],[138.540112,36.200155],[138.539887,36.200238],[138.5399,36.201163],[138.53985,36.201347],[138.5397,36.201372],[138.53845,36.201738],[138.537638,36.202055],[138.537513,36.201913],[138.537475,36.201463],[138.5375,36.200763],[138.53745,36.200605],[138.536925,36.200263],[138.53655,36.200172],[138.5364,36.200213],[138.535063,36.201421],[138.535063,36.202438],[138.534875,36.202713],[138.533675,36.202971],[138.53305,36.203238],[138.532863,36.203438],[138.532463,36.203638],[138.532213,36.203754],[138.532088,36.203838],[138.532138,36.204313],[138.532425,36.204946],[138.53265,36.205488],[138.532738,36.205946],[138.533138,36.206846],[138.533225,36.208179],[138.5332,36.208679],[138.533138,36.208829],[138.533113,36.208812],[138.532663,36.209012],[138.532063,36.209137],[138.531338,36.209429],[138.5301,36.209604],[138.528101,36.209945],[138.527601,36.210012],[138.527226,36.20992],[138.526813,36.20992],[138.526313,36.210045],[138.525613,36.210403],[138.525263,36.210537],[138.524913,36.210537],[138.524176,36.210728],[138.523701,36.21077],[138.522776,36.211012],[138.521976,36.211103],[138.521189,36.211453],[138.520889,36.211428],[138.520589,36.211228],[138.520339,36.211137],[138.519989,36.210837],[138.519526,36.210545],[138.519376,36.210295],[138.519401,36.210045],[138.519276,36.209795],[138.519001,36.209745],[138.518826,36.209812],[138.518151,36.210195],[138.517726,36.210053],[138.517477,36.209937],[138.517477,36.209737],[138.517352,36.209395],[138.517352,36.209237],[138.517002,36.209012],[138.516852,36.209053],[138.515452,36.209637],[138.514964,36.209762],[138.514289,36.209828],[138.513639,36.210028],[138.512939,36.210111],[138.512152,36.210378],[138.510827,36.210753],[138.509665,36.211144],[138.509465,36.211444],[138.508977,36.212519],[138.508777,36.212861],[138.508627,36.212994],[138.507415,36.213411],[138.506715,36.213094],[138.506465,36.213069],[138.50504,36.213052],[138.504565,36.213119],[138.50424,36.213002],[138.503728,36.212782],[138.50364,36.212794],[138.503315,36.213086],[138.50289,36.213111],[138.50249,36.213086],[138.501578,36.212986],[138.500803,36.212977],[138.500478,36.213027],[138.500353,36.213111],[138.500203,36.213719],[138.500365,36.214286],[138.50024,36.214802],[138.499615,36.214819],[138.499315,36.214752],[138.49924,36.214344],[138.499115,36.214185],[138.49894,36.214119],[138.498591,36.214052],[138.497391,36.214085],[138.497091,36.214127],[138.496966,36.21431],[138.496903,36.214669],[138.496903,36.215344],[138.497241,36.216319],[138.497241,36.216635],[138.497066,36.216793],[138.496916,36.21686],[138.496877,36.216924],[138.496666,36.217227],[138.496841,36.217902],[138.496503,36.217868],[138.496491,36.217943],[138.496528,36.218018],[138.496591,36.21816],[138.496628,36.218277],[138.496678,36.218393],[138.496678,36.218577],[138.496691,36.218785],[138.496691,36.218868],[138.494853,36.218885],[138.494778,36.21876],[138.494728,36.218693],[138.494653,36.218627],[138.494578,36.21851],[138.494528,36.218343],[138.494503,36.218185],[138.494541,36.218035],[138.494553,36.217735],[138.494541,36.217402],[138.494578,36.21716],[138.494616,36.216985],[138.494641,36.216827],[138.494653,36.21666],[138.494641,36.216577],[138.494653,36.21651],[138.492216,36.216593],[138.492066,36.216843],[138.491429,36.21716],[138.490954,36.217027],[138.490254,36.21676],[138.489204,36.216602],[138.488754,36.216577],[138.488616,36.216602],[138.488116,36.216602],[138.487616,36.216652],[138.487166,36.216652],[138.486054,36.216585],[138.483604,36.219789],[138.47671,36.222563],[138.472559,36.223287],[138.468803,36.224933],[138.466629,36.226776],[138.46228,36.231517],[138.45971,36.233492],[138.456746,36.233558],[138.451803,36.23336],[138.449365,36.233821],[138.447389,36.235467],[138.446071,36.238035],[138.444555,36.240602],[138.443106,36.242709],[138.441063,36.244355],[138.438041,36.24511],[138.43277,36.247809],[138.430332,36.249653],[138.427762,36.250706],[138.425061,36.251694],[138.421635,36.253932],[138.41934,36.255885],[138.419211,36.255917],[138.418109,36.256222],[138.418072,36.256338],[138.418022,36.256488],[138.417984,36.256605],[138.417922,36.256722],[138.417797,36.257013],[138.417709,36.257222],[138.417647,36.25743],[138.417509,36.257671],[138.417422,36.257788],[138.417184,36.25783],[138.416072,36.257555],[138.416034,36.257671],[138.416284,36.257871],[138.416622,36.258321],[138.416509,36.258388],[138.416297,36.258463],[138.415847,36.258463],[138.414147,36.258238],[138.413697,36.258213],[138.413585,36.258371],[138.413372,36.25853],[138.412947,36.258438],[138.411747,36.258371],[138.411272,36.258221],[138.411085,36.258105],[138.410522,36.25763],[138.410497,36.257496],[138.410585,36.25723],[138.410635,36.257163],[138.41061,36.256705],[138.410497,36.256371],[138.41061,36.255805],[138.410572,36.255605],[138.410322,36.255472],[138.410135,36.255405],[138.409997,36.255038],[138.40996,36.255063],[138.409798,36.254863],[138.409485,36.25468],[138.409435,36.254613],[138.409373,36.253963],[138.409185,36.253663],[138.409098,36.253647],[138.408798,36.253805],[138.408123,36.254072],[138.407573,36.254213],[138.407373,36.254188],[138.406985,36.25378],[138.406423,36.25333],[138.40631,36.253138],[138.406185,36.252538],[138.405898,36.251797],[138.405673,36.25103],[138.405673,36.249747],[138.405848,36.24943],[138.405448,36.249072],[138.405373,36.248797],[138.405473,36.248664],[138.405761,36.248614],[138.405811,36.248572],[138.405511,36.248389],[138.405311,36.248214],[138.405423,36.247872],[138.405361,36.247672],[138.405148,36.247422],[138.404786,36.247156],[138.403548,36.245806],[138.402798,36.245197],[138.401824,36.244156],[138.401574,36.243706],[138.401236,36.243456],[138.400699,36.243148],[138.399974,36.242648],[138.399449,36.242473],[138.398474,36.242339],[138.397749,36.242264],[138.397324,36.241956],[138.397074,36.241839],[138.395962,36.241098],[138.395512,36.240756],[138.395437,36.240581],[138.395324,36.239973],[138.394787,36.239073],[138.394674,36.23869],[138.394874,36.238256],[138.395012,36.237581],[138.394812,36.237356],[138.394512,36.237265],[138.394225,36.237331],[138.393925,36.237515],[138.393725,36.237448],[138.393537,36.237315],[138.393425,36.237315],[138.393275,36.237406],[138.393175,36.237565],[138.393112,36.237765],[138.392975,36.237881],[138.392887,36.237898],[138.392662,36.237856],[138.3925,36.237898],[138.392275,36.23804],[138.392225,36.238215],[138.392337,36.238423],[138.393062,36.239181],[138.393225,36.239614],[138.3936,36.241148],[138.39345,36.241281],[138.393487,36.241548],[138.393287,36.242048],[138.393237,36.242364],[138.393062,36.242747],[138.39295,36.243131],[138.3931,36.243539],[138.393349,36.243964],[138.393374,36.244297],[138.393462,36.244664],[138.393687,36.245089],[138.393799,36.245431],[138.393762,36.24583],[138.393662,36.24588],[138.393549,36.245764],[138.393512,36.245364],[138.393437,36.244981],[138.393262,36.244614],[138.392987,36.243764],[138.392787,36.243064],[138.392812,36.242681],[138.39295,36.242314],[138.393287,36.241239],[138.393287,36.240856],[138.393062,36.240448],[138.3929,36.239564],[138.392637,36.239165],[138.392137,36.238531],[138.39195,36.23824],[138.391975,36.238081],[138.39205,36.237948],[138.392387,36.237606],[138.393,36.237131],[138.393312,36.236798],[138.39375,36.236415],[138.3942,36.236257],[138.394537,36.236048],[138.394587,36.23569],[138.394475,36.235373],[138.394425,36.23499],[138.394675,36.234673],[138.394862,36.234315],[138.394725,36.233032],[138.39475,36.23204],[138.394912,36.231516],[138.395225,36.231199],[138.3957,36.231132],[138.396025,36.231132],[138.396637,36.230641],[138.397037,36.230482],[138.397337,36.230299],[138.397499,36.229982],[138.397587,36.229649],[138.397474,36.229308],[138.397162,36.228633],[138.397049,36.228041],[138.397162,36.227391],[138.397499,36.226966],[138.397949,36.22665],[138.398274,36.22635],[138.398412,36.225858],[138.398549,36.224958],[138.398949,36.223875],[138.399362,36.223625],[138.399612,36.223333],[138.399837,36.222859],[138.399999,36.221434],[138.400024,36.221367],[138.399937,36.221075],[138.400162,36.220084],[138.400074,36.219317],[138.400099,36.218934],[138.400162,36.218801],[138.400237,36.217676],[138.400412,36.217218],[138.400349,36.216951],[138.400162,36.216593],[138.399874,36.216343],[138.399937,36.21571],[138.399987,36.215535],[138.400124,36.21531],[138.400149,36.214851],[138.400599,36.21436],[138.400649,36.214243],[138.400737,36.213818],[138.400624,36.212918],[138.400712,36.212102],[138.40065,36.211477],[138.400512,36.211227],[138.400562,36.210752],[138.400537,36.210369],[138.400625,36.209985],[138.401062,36.209261],[138.401175,36.208452],[138.400812,36.207727],[138.4007,36.206761],[138.400637,36.206578],[138.400225,36.205836],[138.400112,36.205744],[138.399275,36.205386],[138.398887,36.204961],[138.3986,36.203545],[138.398625,36.202778],[138.3986,36.202478],[138.398737,36.202211],[138.3988,36.201828],[138.398625,36.201037],[138.398488,36.199328],[138.3987,36.198804],[138.398738,36.197254],[138.398788,36.196737],[138.398925,36.196487],[138.399563,36.196237],[138.399738,36.195896],[138.399838,36.195404],[138.399875,36.194796],[138.399788,36.194204],[138.399538,36.193754],[138.398838,36.193213],[138.39775,36.191821],[138.397275,36.191396],[138.39705,36.191279],[138.39685,36.190988],[138.3966,36.190421],[138.39615,36.189705],[138.3961,36.18948],[138.395738,36.188896],[138.395238,36.188371],[138.394488,36.188038],[138.394288,36.187996],[138.393976,36.188013],[138.394288,36.187496],[138.394376,36.187205],[138.394176,36.186688],[138.394176,36.186596],[138.394088,36.186463],[138.393788,36.18648],[138.393538,36.186438],[138.393388,36.186213],[138.393226,36.185788],[138.393063,36.185738],[138.392226,36.185988],[138.391801,36.185988],[138.391589,36.185763],[138.391051,36.184822],[138.390601,36.184322],[138.390051,36.183872],[138.389714,36.183447],[138.389151,36.183063],[138.388739,36.182722],[138.387764,36.181464],[138.387739,36.181422],[138.387589,36.181397],[138.387089,36.181197],[138.386789,36.18088],[138.386652,36.180589],[138.385727,36.180272],[138.385614,36.180089],[138.385477,36.179705],[138.385302,36.179464],[138.384939,36.179347],[138.384027,36.178655],[138.384002,36.17858],[138.383414,36.178672],[138.382915,36.178897],[138.382915,36.179014],[138.381415,36.179264],[138.380852,36.179397],[138.38049,36.17958],[138.38004,36.18008],[138.379465,36.180372],[138.379177,36.180463],[138.378627,36.180572],[138.377928,36.180555],[138.377378,36.180622],[138.377178,36.180597],[138.376765,36.180463],[138.37654,36.180438],[138.37604,36.180238],[138.37564,36.179972],[138.37434,36.178714],[138.373866,36.178172],[138.373441,36.177814],[138.372916,36.177447],[138.372328,36.176839],[138.371903,36.175989],[138.371889,36.175959],[138.371866,36.175997],[138.371491,36.175539],[138.371041,36.175156],[138.370828,36.175064],[138.370229,36.174689],[138.369429,36.174506],[138.368916,36.174181],[138.368454,36.173689],[138.367679,36.173256],[138.367141,36.172789],[138.366979,36.172531],[138.366304,36.171864],[138.366104,36.171589],[138.365867,36.171389],[138.365479,36.171223],[138.365317,36.171073],[138.364767,36.170823],[138.364392,36.170723],[138.363879,36.170473],[138.363679,36.170323],[138.363342,36.170164],[138.363017,36.170081],[138.362655,36.169814],[138.36273,36.169739],[138.362142,36.169406],[138.360842,36.168714],[138.359942,36.168139],[138.359805,36.167956],[138.359655,36.16744],[138.359517,36.167173],[138.359242,36.166948],[138.358068,36.166281],[138.35658,36.165031],[138.355043,36.16349],[138.354593,36.162957],[138.354143,36.162265],[138.353918,36.161748],[138.353806,36.16134],[138.352981,36.159599],[138.352668,36.158815],[138.352606,36.158474],[138.352656,36.158024],[138.352843,36.157174],[138.352868,36.156991],[138.352818,36.156724],[138.352031,36.155157],[138.351581,36.154549],[138.351044,36.154057],[138.350619,36.153774],[138.350481,36.153524],[138.350194,36.152516],[138.350106,36.152041],[138.350106,36.151599],[138.350156,36.151099],[138.350044,36.150741],[138.349444,36.1496],[138.349194,36.149108],[138.348719,36.148483],[138.348044,36.147808],[138.347519,36.147475],[138.347232,36.147191],[138.346757,36.146491],[138.346444,36.1458],[138.346332,36.145242],[138.346407,36.144592],[138.346457,36.14425],[138.346007,36.143108],[138.345669,36.142483],[138.345219,36.141475],[138.344794,36.140775],[138.344457,36.140059],[138.344195,36.1391],[138.34427,36.138625],[138.344632,36.138042],[138.344745,36.137926],[138.345045,36.137409],[138.345095,36.137101],[138.344682,36.134942],[138.34382,36.131018],[138.343682,36.130485],[138.343507,36.130326],[138.343095,36.130151],[138.34262,36.129993],[138.341895,36.12966],[138.34142,36.12926],[138.34117,36.128876],[138.34062,36.127218],[138.340483,36.126685],[138.340195,36.126102],[138.340083,36.125202],[138.340033,36.123227],[138.33997,36.122752],[138.339945,36.122194],[138.33982,36.121702],[138.339658,36.121294],[138.339208,36.12056],[138.339058,36.120269],[138.338608,36.119511],[138.337946,36.118769],[138.336996,36.118169],[138.336633,36.117994],[138.335958,36.117519],[138.335283,36.116961],[138.334921,36.116744],[138.334596,36.116478],[138.334346,36.116361],[138.333759,36.116386],[138.333034,36.116328],[138.332146,36.116328],[138.331809,36.116261],[138.331009,36.115819],[138.330421,36.115461],[138.328934,36.114211],[138.328497,36.113969],[138.326684,36.113636],[138.325372,36.11317],[138.324847,36.113061],[138.324622,36.112978],[138.324047,36.112845],[138.323347,36.112645],[138.322985,36.112486],[138.32181,36.112203],[138.321097,36.111911],[138.321097,36.111895],[138.320735,36.111761],[138.320585,36.111786],[138.320285,36.111961],[138.31996,36.112103],[138.31926,36.112328],[138.31871,36.112553],[138.318135,36.112761],[138.317823,36.112628],[138.317073,36.112161],[138.31651,36.112028],[138.316398,36.112053],[138.315573,36.111895],[138.315235,36.111761],[138.314698,36.111361],[138.314423,36.111361],[138.31421,36.111411],[138.313535,36.111728],[138.312873,36.111978],[138.31266,36.111936],[138.312573,36.111886],[138.311348,36.110995],[138.310611,36.110345],[138.310311,36.109995],[138.309723,36.10957],[138.309336,36.109503],[138.308948,36.109528],[138.308636,36.109503],[138.307948,36.109803],[138.307473,36.109895],[138.307036,36.109895],[138.306536,36.110078],[138.305811,36.110553],[138.305573,36.110803],[138.305286,36.111003],[138.304736,36.111211],[138.304461,36.111386],[138.304136,36.111544],[138.303711,36.111553],[138.303386,36.111486],[138.302961,36.111353],[138.302161,36.111153],[138.301911,36.110995],[138.301461,36.11057],[138.300624,36.109653],[138.299661,36.108695],[138.299161,36.108045],[138.298792,36.107694],[138.298574,36.107487],[138.298049,36.107112],[138.297374,36.106528],[138.295862,36.105329],[138.295537,36.105012],[138.295337,36.104629],[138.295187,36.104045],[138.294962,36.103604],[138.294175,36.102637],[138.29395,36.102237],[138.2935,36.101612],[138.29325,36.101387],[138.292862,36.100804],[138.292462,36.099821],[138.292075,36.099263],[138.2919,36.098921],[138.2917,36.098388],[138.291138,36.09763],[138.29075,36.097246],[138.29025,36.096663],[138.290213,36.096105],[138.290325,36.09563],[138.290675,36.094647],[138.290725,36.093813],[138.29055,36.09348],[138.29025,36.093097],[138.289551,36.092405],[138.289051,36.09198],[138.288151,36.091314],[138.287763,36.09098],[138.287476,36.090572],[138.286838,36.089881],[138.286476,36.089706],[138.283464,36.088572],[138.282439,36.088331],[138.279577,36.087872],[138.279302,36.087881],[138.278302,36.087722],[138.277852,36.087572],[138.27744,36.087372],[138.276515,36.086814],[138.276302,36.086631],[138.276015,36.086489],[138.27549,36.086314],[138.275077,36.086489],[138.274852,36.086772],[138.27419,36.087364],[138.273615,36.087772],[138.27309,36.088022],[138.27234,36.088289],[138.272015,36.088447],[138.271678,36.088564],[138.271103,36.08868],[138.27074,36.088839],[138.270165,36.089422],[138.269278,36.089813],[138.268778,36.090238],[138.268065,36.090672],[138.267778,36.090897],[138.267115,36.091213],[138.266816,36.091305],[138.266378,36.091346],[138.265128,36.09133],[138.264316,36.091271],[138.263678,36.091113],[138.263153,36.091005],[138.262766,36.090988],[138.262316,36.090896],[138.261741,36.090855],[138.261491,36.090788],[138.260904,36.09093],[138.259166,36.091563],[138.258166,36.091838],[138.256642,36.092004],[138.255504,36.092163],[138.254804,36.092304],[138.254342,36.092371],[138.253892,36.092354],[138.253504,36.092379],[138.253067,36.092446],[138.252229,36.092696],[138.251842,36.092854],[138.250467,36.093512],[138.25008,36.093629],[138.249267,36.093987],[138.248467,36.09422],[138.24758,36.094562],[138.246903,36.094808],[138.246617,36.095003],[138.246705,36.095345],[138.24683,36.09647],[138.246903,36.096699],[138.246967,36.097345],[138.247055,36.098328],[138.247117,36.099136],[138.247267,36.09977],[138.24743,36.100645],[138.247405,36.100953],[138.247242,36.101161],[138.246903,36.101649],[138.24678,36.101836],[138.24668,36.102111],[138.246242,36.102494],[138.246192,36.102578],[138.245292,36.103294],[138.24473,36.103919],[138.243967,36.105044],[138.243842,36.105336],[138.243492,36.105719],[138.242805,36.105936],[138.24128,36.106286],[138.241055,36.106377],[138.238918,36.106835],[138.237518,36.107185],[138.237055,36.107277],[138.235455,36.107735],[138.234143,36.108044],[138.233843,36.108177],[138.233893,36.10851],[138.23448,36.109893],[138.234555,36.110235],[138.23453,36.110368],[138.234655,36.110477],[138.235105,36.110868],[138.235793,36.111252],[138.236218,36.111593],[138.236792,36.11201],[138.237742,36.112327],[138.238067,36.11251],[138.238492,36.11301],[138.238605,36.113326],[138.23868,36.113776],[138.238655,36.114276],[138.23878,36.114435],[138.239105,36.11466],[138.240692,36.115393],[138.241942,36.11601],[138.243092,36.116518],[138.243592,36.117059],[138.243767,36.117134],[138.244017,36.117401],[138.244104,36.117784],[138.244229,36.117926],[138.244804,36.118443],[138.244904,36.118584],[138.245079,36.118768],[138.245579,36.119084],[138.246204,36.119334],[138.246279,36.119334],[138.246404,36.119384],[138.246902,36.119622],[138.247129,36.119693],[138.248966,36.120718],[138.249804,36.121234],[138.250116,36.121476],[138.250441,36.121676],[138.251116,36.122259],[138.251928,36.122834],[138.253691,36.124309],[138.254378,36.124825],[138.25514,36.125517],[138.256403,36.127009],[138.256815,36.1273],[138.257065,36.127567],[138.257653,36.128017],[138.25964,36.129958],[138.259803,36.130091],[138.260527,36.130986],[138.260748,36.131296],[138.261015,36.131725],[138.261577,36.132866],[138.262165,36.133783],[138.262427,36.134258],[138.262502,36.134324],[138.26299,36.135191],[138.263714,36.136199],[138.264689,36.137457],[138.265252,36.138191],[138.265952,36.139107],[138.266851,36.140315],[138.267801,36.141457],[138.268726,36.142682],[138.269326,36.143623],[138.270438,36.14519],[138.270751,36.145573],[138.271426,36.146131],[138.272713,36.147473],[138.273388,36.148323],[138.273688,36.148764],[138.274613,36.149931],[138.274725,36.150023],[138.27495,36.150331],[138.275063,36.150581],[138.275463,36.151181],[138.275713,36.152189],[138.276088,36.154006],[138.276125,36.154431],[138.27635,36.155622],[138.276512,36.157239],[138.276462,36.159147],[138.276562,36.160246],[138.2765,36.160605],[138.2764,36.161005],[138.276712,36.162221],[138.276775,36.162596],[138.2767,36.163838],[138.276812,36.164596],[138.2771,36.165287],[138.2775,36.166437],[138.278149,36.167871],[138.278312,36.168154],[138.278449,36.168537],[138.278462,36.16867],[138.278599,36.169079],[138.278849,36.169595],[138.278849,36.169812],[138.279924,36.17317],[138.280137,36.17417],[138.280287,36.175161],[138.280586,36.176711],[138.280874,36.177553],[138.281611,36.179028],[138.282099,36.179886],[138.282336,36.180419],[138.282749,36.181611],[138.283136,36.183827],[138.283224,36.184827],[138.282811,36.186627],[138.282861,36.187043],[138.282849,36.187576],[138.282749,36.188476],[138.283074,36.189351],[138.283086,36.190184],[138.283774,36.191484],[138.283836,36.191543],[138.284099,36.192351],[138.284249,36.192967],[138.284336,36.193617],[138.284186,36.195225],[138.283874,36.196425],[138.283611,36.19705],[138.283411,36.197717],[138.283461,36.198342],[138.283649,36.199883],[138.283836,36.200466],[138.283899,36.200983],[138.283861,36.201183],[138.283899,36.201608],[138.283774,36.202125],[138.283786,36.202599],[138.284011,36.203124],[138.284011,36.203883],[138.284086,36.204683],[138.284286,36.205524],[138.284149,36.205816],[138.283736,36.206241],[138.283699,36.206957],[138.283249,36.209432],[138.283011,36.210149],[138.282724,36.210848],[138.282961,36.212073],[138.282899,36.212707],[138.282799,36.213073],[138.282799,36.213965],[138.282998,36.214873],[138.283323,36.215556],[138.283423,36.215981],[138.283311,36.216598],[138.283411,36.216923],[138.283386,36.217239],[138.283186,36.218239],[138.283186,36.218631],[138.283248,36.218998],[138.283236,36.219106],[138.283111,36.219314],[138.282948,36.219806],[138.282873,36.220422],[138.283086,36.220922],[138.283498,36.221714],[138.283898,36.222247],[138.284048,36.222547],[138.284298,36.223447],[138.284511,36.223972],[138.284948,36.224339],[138.285473,36.224639],[138.285923,36.224855],[138.286436,36.225239],[138.286748,36.22563],[138.286811,36.226205],[138.286823,36.22673],[138.286736,36.227147],[138.286886,36.22753],[138.287348,36.22778],[138.287685,36.228055],[138.287735,36.228238],[138.28771,36.228763],[138.28766,36.229371],[138.28746,36.230121],[138.28746,36.230255],[138.287723,36.230738],[138.288485,36.231688],[138.28926,36.232996],[138.28936,36.233396],[138.289347,36.233821],[138.289472,36.234062],[138.28991,36.234212],[138.290122,36.234229],[138.290435,36.234596],[138.290547,36.234812],[138.291047,36.235496],[138.291247,36.235937],[138.291885,36.236854],[138.292234,36.237004],[138.292597,36.23707],[138.292872,36.237412],[138.293372,36.23832],[138.293597,36.238687],[138.293722,36.23977],[138.293772,36.239803],[138.294234,36.239712],[138.294884,36.239662],[138.295272,36.23977],[138.295447,36.239862],[138.295709,36.239953],[138.296059,36.239895],[138.296472,36.240012],[138.297396,36.240753],[138.297534,36.241053],[138.297596,36.241695],[138.298046,36.241903],[138.297971,36.242453],[138.298109,36.24272],[138.298234,36.242795],[138.298346,36.243136],[138.298384,36.243628],[138.299209,36.245053],[138.299283,36.245877],[138.299246,36.246144],[138.299121,36.246461],[138.298796,36.246927],[138.298121,36.247802],[138.297421,36.248186],[138.297009,36.24871],[138.296758,36.249402],[138.296146,36.250794],[138.296108,36.251235],[138.296196,36.251635],[138.296133,36.252218],[138.295858,36.252735],[138.295746,36.252777],[138.295396,36.252802],[138.294871,36.25291],[138.294646,36.253143],[138.294508,36.25326],[138.293983,36.253843],[138.293896,36.253868],[138.292771,36.254501],[138.291846,36.255426],[138.291208,36.255701],[138.290783,36.255926],[138.290496,36.257101],[138.289833,36.257309],[138.289196,36.257426],[138.288696,36.257559],[138.288059,36.257584],[138.288009,36.257559],[138.287746,36.257651],[138.287546,36.257951],[138.287196,36.258334],[138.286884,36.258443],[138.286584,36.258376],[138.286271,36.258468],[138.286296,36.258784],[138.286384,36.258968],[138.286821,36.259209],[138.287321,36.259684],[138.287433,36.260251],[138.287408,36.260967],[138.287533,36.261442],[138.287621,36.261601],[138.287596,36.262417],[138.287396,36.263134],[138.287421,36.263675],[138.287633,36.264059],[138.288008,36.264509],[138.288121,36.264875],[138.288096,36.2651],[138.287958,36.265575],[138.287933,36.266067],[138.288108,36.2665],[138.288333,36.266858],[138.288258,36.267217],[138.287208,36.267967],[138.286608,36.268467],[138.285708,36.269591],[138.284958,36.27025],[138.284958,36.2703],[138.284383,36.270908],[138.284471,36.27125],[138.284858,36.271874],[138.28512,36.272549],[138.285145,36.273024],[138.285295,36.273366],[138.285408,36.273774],[138.285295,36.274424],[138.28527,36.274899],[138.285308,36.275416],[138.284695,36.276499],[138.284733,36.276524],[138.284758,36.276907],[138.28497,36.277474],[138.28502,36.277924],[138.284908,36.278174],[138.284483,36.278624],[138.283958,36.278757],[138.28352,36.278807],[138.283145,36.279374],[138.28237,36.279598],[138.281695,36.279915],[138.28132,36.280257],[138.28107,36.281232],[138.281008,36.281773],[138.281095,36.282398],[138.28142,36.282715],[138.281833,36.282898],[138.282183,36.283165],[138.28212,36.283681],[138.281833,36.28389],[138.281983,36.284523],[138.282332,36.284831],[138.282445,36.285714],[138.282945,36.286298],[138.283232,36.286881],[138.283182,36.287422],[138.283157,36.287581],[138.28342,36.288664],[138.283507,36.288847],[138.283682,36.288981],[138.284257,36.288981],[138.284557,36.289047],[138.284907,36.289472],[138.285395,36.289656],[138.285482,36.289656],[138.285657,36.289947],[138.285569,36.29058],[138.285369,36.29103],[138.285432,36.291914],[138.285319,36.29218],[138.285319,36.293063],[138.285207,36.293622],[138.284182,36.295588],[138.284269,36.296196],[138.284319,36.296288],[138.284357,36.296605],[138.284332,36.296988],[138.284357,36.297121],[138.284682,36.297571],[138.284794,36.297663],[138.285032,36.298113],[138.285119,36.298838],[138.285357,36.299646],[138.285382,36.300329],[138.285332,36.300554],[138.285332,36.300954],[138.285282,36.301429],[138.285157,36.301837],[138.284794,36.303845],[138.284506,36.304387],[138.283994,36.305178],[138.283419,36.306537],[138.283419,36.306895],[138.283856,36.30757],[138.284231,36.308295],[138.284794,36.309061],[138.284994,36.309603],[138.284881,36.310636],[138.285006,36.311086],[138.285206,36.311245],[138.285818,36.312303],[138.286518,36.312778],[138.286756,36.313411],[138.286868,36.313569],[138.287193,36.314961],[138.287318,36.315253],[138.287643,36.316544],[138.288043,36.316969],[138.28863,36.317486],[138.28868,36.317619],[138.28898,36.317961],[138.289068,36.318611],[138.289268,36.318994],[138.28948,36.319244],[138.289505,36.319469],[138.289767,36.32001],[138.290317,36.320485],[138.290617,36.320935],[138.290642,36.321227],[138.290592,36.321927],[138.290592,36.322402],[138.290742,36.323118],[138.290942,36.323343],[138.291067,36.323302],[138.291292,36.323144],[138.29173,36.322669],[138.292242,36.321919],[138.292505,36.321452],[138.292767,36.320769],[138.292842,36.320202],[138.293042,36.319644],[138.293217,36.319369],[138.293305,36.319302],[138.293792,36.319077],[138.294292,36.318986],[138.294492,36.318986],[138.294992,36.318777],[138.29553,36.318511],[138.296055,36.318394],[138.296642,36.318436],[138.297167,36.318753],[138.297592,36.319086],[138.298092,36.319244],[138.298642,36.319286],[138.298792,36.319219],[138.299142,36.319736],[138.301354,36.321311],[138.301666,36.321444],[138.302366,36.321919],[138.302604,36.322027],[138.303179,36.322144],[138.303416,36.322144],[138.304279,36.322227],[138.304929,36.322252],[138.305853,36.322477],[138.307103,36.322719],[138.308028,36.322944],[138.308641,36.322986],[138.309078,36.323211],[138.309341,36.323569],[138.310153,36.324519],[138.31094,36.325552],[138.311553,36.326202],[138.311815,36.32636],[138.313215,36.327235],[138.313303,36.32726],[138.314115,36.327777],[138.314702,36.328227],[138.315277,36.328877],[138.315752,36.329468],[138.316277,36.330052],[138.316802,36.330752],[138.317702,36.332301],[138.318789,36.333951],[138.319052,36.334651],[138.319064,36.335684],[138.319139,36.336459],[138.319177,36.336751],[138.319377,36.337476],[138.319639,36.338851],[138.319764,36.339167],[138.320089,36.340609],[138.320089,36.340792],[138.320264,36.341492],[138.320414,36.342459],[138.320626,36.343092],[138.320659,36.343092],[138.321089,36.343],[138.321376,36.342975],[138.321726,36.343],[138.322214,36.343242],[138.322539,36.343509],[138.322714,36.343759],[138.322801,36.344033],[138.322801,36.344142],[138.322601,36.34455],[138.322164,36.345208],[138.322264,36.345608],[138.322839,36.346217],[138.323226,36.346667],[138.323338,36.347075],[138.323026,36.347366],[138.322526,36.347691],[138.322013,36.348275],[138.321776,36.348616],[138.321226,36.349],[138.320914,36.349066],[138.320564,36.349208],[138.320164,36.349458],[138.319726,36.349791],[138.319589,36.350066],[138.319351,36.350924],[138.319301,36.351758],[138.319189,36.352008],[138.319014,36.352033],[138.318464,36.351991],[138.318089,36.352033],[138.317939,36.352083],[138.317914,36.352216],[138.317739,36.352441],[138.317776,36.352716],[138.317914,36.353207],[138.318264,36.353274],[138.318876,36.353366],[138.319289,36.353566],[138.319801,36.354057],[138.320476,36.354782],[138.320913,36.355116],[138.321526,36.355657],[138.322426,36.356241],[138.322488,36.356307],[138.322776,36.356082],[138.322863,36.355966],[138.323213,36.355699],[138.323813,36.355516],[138.324451,36.355449],[138.324688,36.355332],[138.324825,36.355082],[138.324888,36.354724],[138.324901,36.353458],[138.324963,36.352691],[138.325276,36.351924],[138.325563,36.351516],[138.325738,36.351333],[138.326288,36.350908],[138.326688,36.3505],[138.327638,36.349616],[138.328188,36.349316],[138.329088,36.349358],[138.3304,36.349625],[138.331413,36.349983],[138.33185,36.350208],[138.33275,36.350591],[138.333537,36.350908],[138.334225,36.35095],[138.335325,36.350942],[138.33605,36.350875],[138.336725,36.350742],[138.337237,36.350575],[138.337737,36.35035],[138.338137,36.350075],[138.338425,36.349808],[138.338975,36.3492],[138.339687,36.347884],[138.340212,36.346376],[138.34035,36.345717],[138.340637,36.344951],[138.34075,36.344426],[138.34135,36.342851],[138.34155,36.342418],[138.342212,36.341401],[138.3427,36.340993],[138.343424,36.340493],[138.345012,36.339585],[138.345737,36.339268],[138.346687,36.338927],[138.347387,36.338943],[138.348599,36.339127],[138.349624,36.339552],[138.350374,36.340018],[138.350961,36.34036],[138.351974,36.34081],[138.352561,36.341027],[138.353024,36.341093],[138.353636,36.341143],[138.354236,36.341227],[138.356099,36.341993],[138.356274,36.34201],[138.356961,36.341427],[138.357249,36.34111],[138.357399,36.340877],[138.357911,36.340269],[138.358124,36.340085],[138.358348,36.339977],[138.359136,36.339835],[138.359648,36.33981],[138.360836,36.339877],[138.361311,36.339877],[138.361798,36.339919],[138.362898,36.339802],[138.363336,36.339802],[138.363948,36.339711],[138.364411,36.339686],[138.365598,36.339452],[138.366611,36.339361],[138.367448,36.339244],[138.369185,36.339111],[138.370085,36.338853],[138.370723,36.338669],[138.371585,36.338469],[138.371883,36.338414],[138.372135,36.338328],[138.372923,36.338236],[138.37341,36.338103],[138.373873,36.338011],[138.374598,36.337936],[138.375348,36.337845],[138.37581,36.337753],[138.376073,36.337753],[138.376885,36.337861],[138.377435,36.337903],[138.378772,36.337945],[138.379472,36.33792],[138.380622,36.337628],[138.381147,36.33742],[138.381922,36.337062],[138.382535,36.33667],[138.382597,36.33667],[138.382785,36.33647],[138.382822,36.336445],[138.383385,36.336062],[138.383685,36.33582],[138.384022,36.335479],[138.384497,36.335137],[138.385635,36.334504],[138.386409,36.334104],[138.386609,36.334187],[138.386772,36.33487],[138.386722,36.335045],[138.386522,36.33527],[138.386384,36.33552],[138.386197,36.33577],[138.385997,36.336103],[138.385972,36.33642],[138.385834,36.336712],[138.385522,36.336978],[138.384947,36.337387],[138.384509,36.337728],[138.384197,36.337928],[138.383672,36.338178],[138.38306,36.338636],[138.382397,36.338903],[138.381185,36.339336],[138.380785,36.339545],[138.380697,36.339745],[138.380897,36.340086],[138.380922,36.340419],[138.380897,36.340644],[138.380785,36.340894],[138.380585,36.341036],[138.380322,36.341128],[138.379622,36.341103],[138.37951,36.341194],[138.379485,36.341286],[138.379535,36.341394],[138.38001,36.341686],[138.380185,36.341894],[138.380472,36.342003],[138.380672,36.342161],[138.38076,36.342344],[138.381222,36.342836],[138.381522,36.343261],[138.381522,36.343402],[138.381347,36.343561],[138.381084,36.343694],[138.380822,36.343786],[138.37981,36.343919],[138.379722,36.344036],[138.379872,36.344444],[138.37996,36.344602],[138.380197,36.344752],[138.380747,36.344936],[138.380884,36.345227],[138.381184,36.345335],[138.381234,36.345427],[138.381184,36.345702],[138.381209,36.34581],[138.381497,36.346019],[138.381822,36.346694],[138.382059,36.346919],[138.382084,36.347077],[138.382034,36.348002],[138.382147,36.348085],[138.382234,36.34811],[138.382434,36.348243],[138.382934,36.348402],[138.383172,36.34851],[138.383222,36.348585],[138.383309,36.348877],[138.383347,36.34921],[138.383522,36.349752],[138.383697,36.350068],[138.384797,36.350468],[138.385084,36.350743],[138.385296,36.35101],[138.385559,36.351235],[138.385846,36.351326],[138.385959,36.351485],[138.386459,36.351868],[138.386684,36.351976],[138.386896,36.35216],[138.386921,36.352226],[138.386859,36.352335],[138.386659,36.352518],[138.386484,36.35261],[138.386109,36.35261],[138.386021,36.352568],[138.385759,36.352318],[138.385559,36.352226],[138.385121,36.352251],[138.384434,36.352235],[138.384196,36.352301],[138.383959,36.352235],[138.383672,36.352193],[138.383147,36.352235],[138.382859,36.352126],[138.382772,36.35206],[138.382459,36.35161],[138.382284,36.351201],[138.382109,36.351018],[138.381872,36.350935],[138.381634,36.350935],[138.381472,36.351185],[138.381347,36.351451],[138.381297,36.351726],[138.381359,36.351968],[138.381559,36.35211],[138.381734,36.352176],[138.381909,36.352326],[138.382172,36.352851],[138.382372,36.353093],[138.383134,36.353593],[138.383484,36.353926],[138.383946,36.354509],[138.384259,36.354784],[138.384384,36.355409],[138.384621,36.355818],[138.384846,36.355843],[138.384934,36.355884],[138.384996,36.356001],[138.384971,36.356834],[138.385146,36.357309],[138.385171,36.357551],[138.385034,36.358076],[138.385159,36.35945],[138.385271,36.360084],[138.385796,36.360642],[138.385996,36.360734],[138.386321,36.361025],[138.386671,36.361275],[138.386933,36.361517],[138.387283,36.362825],[138.387458,36.363033],[138.387696,36.363233],[138.388396,36.363658],[138.388708,36.36395],[138.388883,36.364175],[138.388946,36.364425],[138.388833,36.364741],[138.389033,36.365683],[138.389271,36.366],[138.389358,36.366275],[138.389508,36.366516],[138.389995,36.366725],[138.390083,36.366833],[138.390058,36.367108],[138.390208,36.367466],[138.390345,36.367624],[138.391083,36.367933],[138.39122,36.368024],[138.391308,36.368158],[138.391308,36.368249],[138.391133,36.368316],[138.390908,36.368274],[138.390883,36.368408],[138.391458,36.369174],[138.391833,36.369491],[138.392358,36.369782],[138.392508,36.370007],[138.392533,36.370232],[138.392945,36.370799],[138.39327,36.371515],[138.393595,36.372032],[138.393795,36.37224],[138.394782,36.374015],[138.394845,36.374173],[138.39502,36.374223],[138.395282,36.374132],[138.39542,36.37404],[138.39537,36.373657],[138.394895,36.372707],[138.394745,36.37194],[138.394782,36.371849],[138.394507,36.371224],[138.39402,36.370366],[138.393982,36.370141],[138.394107,36.369957],[138.394132,36.369824],[138.394095,36.369416],[138.394307,36.369257],[138.394857,36.369124],[138.395107,36.369124],[138.39537,36.369166],[138.395957,36.369407],[138.396507,36.369616],[138.396832,36.369882],[138.397057,36.370266],[138.397295,36.371216],[138.39742,36.371482],[138.397882,36.372049],[138.39817,36.372199],[138.398457,36.372115],[138.398519,36.372065],[138.399882,36.371632],[138.400319,36.371524],[138.400432,36.371449],[138.401069,36.371266],[138.401532,36.371066],[138.401757,36.371016],[138.402169,36.371291],[138.402669,36.371716],[138.402894,36.371899],[138.403044,36.371965],[138.403394,36.372207],[138.404844,36.372999],[138.406156,36.373874],[138.406906,36.374299],[138.407206,36.374432],[138.407931,36.374882],[138.408894,36.375623],[138.409231,36.375873],[138.409556,36.376032],[138.409469,36.375732],[138.408656,36.374449],[138.408269,36.373707],[138.407894,36.373257],[138.407631,36.373007],[138.407281,36.372607],[138.407044,36.372474],[138.406819,36.372424],[138.406581,36.37234],[138.406406,36.372199],[138.406169,36.371957],[138.406119,36.371749],[138.406206,36.371682],[138.406431,36.371682],[138.407019,36.371791],[138.407219,36.371724],[138.407481,36.371541],[138.407619,36.371091],[138.407619,36.370866],[138.407381,36.370282],[138.407119,36.369783],[138.407057,36.369541],[138.407144,36.369491],[138.407232,36.369491],[138.407407,36.369558],[138.408569,36.370616],[138.408894,36.370749],[138.409469,36.370791],[138.409769,36.370882],[138.410144,36.371174],[138.410469,36.371307],[138.410581,36.371266],[138.410931,36.370991],[138.411044,36.370766],[138.411181,36.370607],[138.411306,36.370583],[138.411856,36.371032],[138.412169,36.371532],[138.412381,36.372007],[138.412581,36.372366],[138.412843,36.373157],[138.413231,36.373807],[138.413993,36.374865],[138.414656,36.375424],[138.416081,36.376098],[138.416693,36.37644],[138.417093,36.376615],[138.417393,36.376707],[138.417593,36.376682],[138.417705,36.376548],[138.418106,36.375574],[138.418393,36.375574],[138.418755,36.37654],[138.41893,36.37634],[138.419218,36.376157],[138.419443,36.376065],[138.419768,36.375999],[138.420293,36.376407],[138.420805,36.376474],[138.421418,36.376399],[138.421793,36.376399],[138.422605,36.376624],[138.423918,36.376599],[138.424143,36.376507],[138.42458,36.375674],[138.424805,36.375332],[138.424955,36.375399],[138.425355,36.375849],[138.425655,36.37594],[138.425917,36.376099],[138.425967,36.376165],[138.42623,36.376324],[138.426692,36.376749],[138.426955,36.376907],[138.427605,36.377082],[138.428155,36.377374],[138.428555,36.377424],[138.42868,36.377465],[138.42923,36.377865],[138.429717,36.378315],[138.429805,36.378524],[138.429867,36.378815],[138.429792,36.380057],[138.429817,36.380373],[138.429929,36.380482],[138.430367,36.380773],[138.430692,36.38084],[138.430892,36.380957],[138.431354,36.38129],[138.431704,36.381157],[138.432029,36.381182],[138.432604,36.381515],[138.432929,36.381765],[138.433767,36.382282],[138.434292,36.382457],[138.434704,36.38239],[138.434967,36.382165],[138.435129,36.381957],[138.435192,36.381798],[138.435592,36.381507],[138.435654,36.38164],[138.436204,36.382382],[138.436616,36.383106],[138.436879,36.383398],[138.437316,36.383648],[138.437641,36.38394],[138.437816,36.384256],[138.437929,36.38464],[138.437929,36.384956],[138.437991,36.38509],[138.438016,36.385406],[138.437991,36.385673],[138.438116,36.385989],[138.438029,36.386264],[138.437941,36.386356],[138.437829,36.386714],[138.437504,36.387347],[138.437591,36.387439],[138.437654,36.388272],[138.438016,36.389914],[138.437953,36.389939],[138.438016,36.390347],[138.438191,36.390547],[138.438428,36.39068],[138.438891,36.390547],[138.439116,36.390572],[138.439266,36.390705],[138.439553,36.390864],[138.439878,36.39088],[138.440191,36.391089],[138.440341,36.391397],[138.440378,36.391605],[138.440553,36.39178],[138.440953,36.391914],[138.441128,36.392347],[138.441365,36.392705],[138.441453,36.39298],[138.441453,36.393088],[138.441778,36.393697],[138.441978,36.394013],[138.442353,36.394438],[138.442978,36.395455],[138.443153,36.395955],[138.443352,36.39638],[138.443677,36.39773],[138.443977,36.39823],[138.44444,36.398563],[138.444815,36.398696],[138.44514,36.398855],[138.445252,36.398971],[138.445489,36.399329],[138.445777,36.399688],[138.446189,36.400004],[138.446714,36.400388],[138.447002,36.400363],[138.447264,36.400546],[138.447264,36.400588],[138.447527,36.400879],[138.447839,36.400879],[138.448302,36.400921],[138.448802,36.401063],[138.449089,36.401304],[138.449239,36.401963],[138.449189,36.402638],[138.449214,36.402754],[138.449414,36.403046],[138.449739,36.403221],[138.449914,36.403379],[138.450151,36.403671],[138.450289,36.403946],[138.450301,36.404354],[138.450414,36.404554],[138.450764,36.404887],[138.451051,36.405071],[138.451313,36.405429],[138.451351,36.405704],[138.451463,36.405996],[138.451726,36.406312],[138.451763,36.406712],[138.451813,36.406737],[138.452113,36.407212],[138.453075,36.408404],[138.454913,36.41007],[138.455837,36.41072],[138.457125,36.41142],[138.457587,36.411554],[138.457637,36.411595],[138.457762,36.41142],[138.458312,36.411054],[138.458862,36.410787],[138.459112,36.410554],[138.459262,36.410237],[138.459662,36.409587],[138.4607,36.408454],[138.460987,36.408021],[138.461012,36.407779],[138.460987,36.407662],[138.460875,36.407504],[138.460613,36.407304],[138.45985,36.407037],[138.459713,36.406812],[138.459738,36.406421],[138.459938,36.405971],[138.459938,36.405587],[138.459875,36.405337],[138.459675,36.404979],[138.459676,36.404912],[138.459551,36.404754],[138.459876,36.404571],[138.460388,36.404504],[138.461175,36.404454],[138.461638,36.404479],[138.462163,36.404412],[138.463263,36.404387],[138.464425,36.404404],[138.4653,36.404263],[138.46625,36.404329],[138.466975,36.404354],[138.4673,36.404329],[138.46735,36.404371],[138.46785,36.404488],[138.468425,36.404504],[138.468862,36.404571],[138.469324,36.404571],[138.469999,36.404638],[138.470774,36.404679],[138.472137,36.404854],[138.472574,36.404854],[138.473124,36.404788],[138.473586,36.404579],[138.473824,36.404513],[138.474599,36.40413],[138.475099,36.403946],[138.475499,36.403946],[138.475849,36.403971],[138.476399,36.404188],[138.476874,36.404438],[138.477386,36.40448],[138.477824,36.404413],[138.478436,36.403963],[138.478724,36.403821],[138.479011,36.403755],[138.479473,36.403821],[138.480836,36.403296],[138.482811,36.402688],[138.483561,36.402388],[138.483911,36.402205],[138.484548,36.401955],[138.485061,36.401822],[138.485498,36.401688],[138.485848,36.401613],[138.486073,36.401505],[138.48706,36.401297],[138.487673,36.40123],[138.488073,36.401139],[138.488398,36.400997],[138.48871,36.400905],[138.488885,36.400905],[138.48901,36.401064],[138.48921,36.401247],[138.48961,36.401355],[138.489823,36.401539],[138.489823,36.401922],[138.489648,36.402238],[138.488935,36.403255],[138.488698,36.403347],[138.488585,36.403597],[138.488473,36.404047],[138.488473,36.405196],[138.48836,36.406213],[138.488247,36.40653],[138.48831,36.406821],[138.488372,36.406963],[138.488435,36.407413],[138.488722,36.408021],[138.48876,36.408763],[138.488897,36.409054],[138.489222,36.409396],[138.490297,36.410163],[138.490709,36.410679],[138.490947,36.411154],[138.490972,36.411487],[138.491122,36.411854],[138.491297,36.412146],[138.491384,36.412462],[138.491709,36.413087],[138.492122,36.413296],[138.493684,36.413562],[138.494009,36.413671],[138.495284,36.414029],[138.496096,36.414187],[138.496471,36.414187],[138.496862,36.414222],[138.497096,36.414212],[138.497384,36.414162],[138.498246,36.414121],[138.498683,36.414046],[138.500333,36.413996],[138.501408,36.413971],[138.502133,36.413879],[138.502258,36.413904],[138.502633,36.413904],[138.503096,36.414171],[138.503358,36.414379],[138.503708,36.414604],[138.504283,36.414846],[138.504633,36.414937],[138.505133,36.414912],[138.505308,36.414871],[138.505708,36.414687],[138.506633,36.414054],[138.50672,36.413938],[138.507245,36.413646],[138.508633,36.412713],[138.514533,36.409072],[138.515058,36.408822],[138.516245,36.408047],[138.516758,36.407705],[138.517283,36.407413],[138.51792,36.40723],[138.518208,36.407188],[138.519745,36.406755],[138.522845,36.406022],[138.523457,36.405755],[138.523882,36.405505],[138.524757,36.405072],[138.526257,36.404389],[138.528782,36.403214],[138.529507,36.402914],[138.531244,36.402439],[138.533444,36.402181],[138.535306,36.402223],[138.536669,36.402381],[138.537243,36.402398],[138.538318,36.402464],[138.539131,36.402481],[138.539718,36.402573],[138.540468,36.402773],[138.540693,36.402889],[138.540818,36.402998],[138.541055,36.403198],[138.541455,36.403739],[138.54228,36.404348],[138.542705,36.404598],[138.54353,36.405131],[138.54428,36.405831],[138.545305,36.406706],[138.546117,36.407656],[138.546817,36.408648],[138.547167,36.409256],[138.547954,36.410564],[138.548304,36.410989],[138.549191,36.412339],[138.549679,36.41333],[138.549916,36.413622],[138.550116,36.413805],[138.550379,36.413939],[138.550816,36.414097],[138.551141,36.414164],[138.551866,36.41448],[138.552241,36.41518],[138.552516,36.415947],[138.552691,36.416214],[138.552916,36.416438],[138.554228,36.417338],[138.554666,36.417538],[138.555016,36.417738],[138.555678,36.418055],[138.556065,36.418172],[138.55734,36.418297],[138.55844,36.418455],[138.558765,36.418563],[138.55914,36.418655],[138.55949,36.418705],[138.560215,36.418905],[138.561577,36.41933],[138.56199,36.419413],[138.563065,36.419755],[138.563152,36.419805],[138.563402,36.41998],[138.56359,36.42003],[138.564239,36.420138],[138.564764,36.420088],[138.565827,36.419913],[138.566464,36.419788],[138.566914,36.419722],[138.567064,36.419672],[138.568339,36.419605],[138.569789,36.419514],[138.570926,36.419489],[138.571389,36.419505],[138.571789,36.419439],[138.572376,36.419297],[138.573326,36.419205],[138.573526,36.41923],[138.574863,36.419655],[138.574963,36.419732],[138.575063,36.419789],[138.575538,36.42008],[138.576238,36.420414],[138.578213,36.420955],[138.579688,36.421264],[138.580475,36.421447],[138.581525,36.42158],[138.58195,36.421689],[138.582363,36.421847],[138.582562,36.42198],[138.583587,36.422414],[138.58395,36.42248],[138.584337,36.42248],[138.58515,36.422047],[138.585425,36.42173],[138.586287,36.420539],[138.586625,36.420381],[138.586837,36.420356],[138.587962,36.420597],[138.588462,36.420756],[138.589212,36.421139],[138.589437,36.42143],[138.589574,36.422064],[138.589574,36.422355],[138.589662,36.422739],[138.589937,36.423597],[138.590224,36.423939],[138.591699,36.424313],[138.592224,36.42438],[138.592649,36.424405],[138.594811,36.424339],[138.595236,36.424289],[138.596648,36.424264],[138.596986,36.424222],[138.598998,36.424147],[138.599686,36.424014],[138.599748,36.423897],[138.600048,36.423422],[138.600273,36.422747],[138.600323,36.422681],[138.600711,36.422522],[138.600886,36.422497],[138.601298,36.422364],[138.601823,36.422231],[138.60236,36.422181],[138.60266,36.422222],[138.602773,36.422272],[138.603023,36.422272],[138.603885,36.421956],[138.604085,36.421972],[138.604423,36.422197],[138.604785,36.422631],[138.605535,36.422947],[138.606373,36.423081],[138.607672,36.423164],[138.608235,36.423056],[138.608685,36.422872],[138.609322,36.422823],[138.609847,36.422848],[138.610272,36.422781],[138.611347,36.422689],[138.61171,36.422689],[138.61241,36.422664],[138.61246,36.422689],[138.612997,36.422531],[138.615747,36.421215],[138.616022,36.421056],[138.616659,36.420806],[138.616859,36.420715],[138.617197,36.420606],[138.617672,36.42054],[138.618247,36.420623],[138.618472,36.420581],[138.618722,36.420423],[138.618884,36.420065],[138.618972,36.419773],[138.619022,36.419548],[138.619197,36.419207],[138.619947,36.418298],[138.620547,36.41744],[138.620872,36.416899],[138.621297,36.416515],[138.621421,36.416465],[138.621734,36.416424],[138.621821,36.416399],[138.62185,36.416342],[138.624284,36.415832],[138.624984,36.415749],[138.625721,36.415591],[138.626471,36.415557],[138.626771,36.415599],[138.626871,36.415649],[138.627321,36.415716],[138.627696,36.415832],[138.627846,36.415924],[138.628321,36.416107],[138.629583,36.416774],[138.630633,36.417249],[138.631758,36.417732],[138.632308,36.417849],[138.632433,36.417915],[138.632708,36.41799],[138.633033,36.417965],[138.633058,36.41799],[138.63457,36.417666],[138.63667,36.417366],[138.637133,36.417232],[138.637508,36.416824],[138.637558,36.416691],[138.63797,36.416291],[138.638545,36.415974],[138.63897,36.415749],[138.639295,36.415641],[138.639732,36.415441],[138.640332,36.414999],[138.64127,36.414483],[138.64167,36.414241],[138.641945,36.414124],[138.642045,36.413991],[138.64217,36.413633],[138.642307,36.413341],[138.642282,36.413275],[138.64287,36.41235],[138.64307,36.4121],[138.643645,36.411608],[138.643795,36.411525],[138.644095,36.41155],[138.644307,36.411458]]],"type":"Polygon"}}]}