{"features":[{"type":"Feature","properties":{"yomi":"はにしな","name":"埴科","pref":"長野県","kuni_id":"K24","id_url":"G24013.html","kuni_url":"/kg/resource/K24.html","kuni":"信濃","id":"G24013"},"geometry":{"coordinates":[[[138.257221,36.640142],[138.262658,36.639009],[138.263271,36.638742],[138.264346,36.638501],[138.264146,36.637909],[138.266295,36.637509],[138.268683,36.636951],[138.26827,36.635743],[138.268858,36.635651],[138.273057,36.634618],[138.272857,36.63391],[138.273782,36.633768],[138.274157,36.633043],[138.27322,36.632502],[138.273732,36.632227],[138.273757,36.631343],[138.274132,36.63121],[138.274532,36.631352],[138.275057,36.631443],[138.275532,36.631402],[138.275982,36.631285],[138.277169,36.630544],[138.277557,36.630144],[138.278069,36.62926],[138.278332,36.628494],[138.278607,36.627952],[138.278719,36.627819],[138.278944,36.627777],[138.280044,36.627936],[138.281081,36.627961],[138.281469,36.627894],[138.282031,36.627602],[138.282344,36.627244],[138.282506,36.626886],[138.282569,36.626569],[138.282706,36.626228],[138.282881,36.625328],[138.282994,36.625011],[138.283231,36.624653],[138.283456,36.624153],[138.283931,36.62357],[138.284219,36.62312],[138.284306,36.62287],[138.284331,36.62262],[138.285006,36.622395],[138.285906,36.622178],[138.286831,36.621903],[138.287694,36.621687],[138.287806,36.62162],[138.287869,36.620803],[138.287706,36.620103],[138.287706,36.619787],[138.288444,36.618204],[138.288556,36.617912],[138.288793,36.616829],[138.289468,36.615996],[138.289506,36.615571],[138.289456,36.614796],[138.289181,36.613921],[138.289118,36.613604],[138.289231,36.613263],[138.289406,36.612988],[138.289493,36.612946],[138.289993,36.612879],[138.290693,36.612746],[138.291231,36.612588],[138.291981,36.612279],[138.292431,36.612054],[138.293481,36.611355],[138.294493,36.610546],[138.29548,36.609605],[138.29598,36.60918],[138.296768,36.608613],[138.297105,36.608322],[138.297668,36.607688],[138.298118,36.607447],[138.299243,36.60738],[138.29983,36.607313],[138.30003,36.607155],[138.300368,36.606639],[138.300618,36.606164],[138.301042,36.605147],[138.30158,36.604089],[138.301867,36.603006],[138.302242,36.602356],[138.30263,36.601997],[138.303417,36.601139],[138.303905,36.600731],[138.304742,36.600198],[138.305217,36.599698],[138.305367,36.599448],[138.304867,36.598523],[138.304842,36.59814],[138.305192,36.59629],[138.30528,36.59559],[138.305392,36.595207],[138.306155,36.594482],[138.30663,36.594123],[138.306967,36.593807],[138.307017,36.593607],[138.306892,36.592474],[138.30698,36.591999],[138.307142,36.591574],[138.307205,36.591007],[138.307205,36.590491],[138.307042,36.589607],[138.30708,36.588924],[138.306917,36.587591],[138.306942,36.587433],[138.307542,36.586874],[138.307817,36.586433],[138.30768,36.5858],[138.307517,36.585416],[138.30743,36.584966],[138.30748,36.584266],[138.307655,36.583842],[138.30798,36.583433],[138.308067,36.58325],[138.308167,36.58235],[138.308117,36.581467],[138.308005,36.580542],[138.30758,36.579642],[138.306892,36.578701],[138.30653,36.578292],[138.30633,36.577842],[138.30638,36.577551],[138.306442,36.577434],[138.30688,36.576984],[138.307192,36.576551],[138.307242,36.576217],[138.307105,36.575743],[138.30718,36.575451],[138.307242,36.575401],[138.307355,36.575109],[138.307405,36.574818],[138.307342,36.573801],[138.30738,36.573351],[138.30743,36.573076],[138.307592,36.572993],[138.30823,36.572943],[138.309292,36.572801],[138.30953,36.572718],[138.309917,36.572401],[138.310255,36.571785],[138.310442,36.571243],[138.310605,36.570276],[138.310992,36.56996],[138.311392,36.569826],[138.311855,36.569685],[138.312192,36.569685],[138.313354,36.569618],[138.313467,36.569643],[138.314154,36.569568],[138.314329,36.569501],[138.314404,36.56941],[138.314379,36.569368],[138.314767,36.568802],[138.315042,36.56851],[138.315567,36.568218],[138.315904,36.568143],[138.316517,36.567893],[138.317817,36.567485],[138.318092,36.567085],[138.318204,36.566652],[138.318279,36.566018],[138.318417,36.565543],[138.318417,36.56521],[138.318217,36.564693],[138.318392,36.564393],[138.318642,36.564077],[138.318829,36.563677],[138.318804,36.563402],[138.318605,36.56286],[138.318305,36.562594],[138.318017,36.56241],[138.317555,36.56171],[138.317292,36.561102],[138.317192,36.560969],[138.316942,36.560769],[138.31663,36.56061],[138.316267,36.560502],[138.316155,36.560519],[138.315742,36.56041],[138.315405,36.560227],[138.314742,36.560027],[138.314305,36.560052],[138.313805,36.560144],[138.313143,36.560027],[138.312005,36.559736],[138.311218,36.559444],[138.311143,36.559361],[138.311055,36.559044],[138.310468,36.557894],[138.310468,36.557802],[138.31063,36.557394],[138.31083,36.557144],[138.310718,36.556944],[138.310106,36.556652],[138.309056,36.556003],[138.308718,36.555711],[138.308356,36.555186],[138.308156,36.554578],[138.308081,36.553861],[138.308081,36.553653],[138.308181,36.553319],[138.308456,36.553044],[138.308843,36.552794],[138.309368,36.552144],[138.309793,36.551736],[138.310293,36.551303],[138.311256,36.550695],[138.311418,36.550353],[138.311093,36.55027],[138.310806,36.550128],[138.310531,36.549728],[138.310481,36.54957],[138.310418,36.548936],[138.310418,36.548528],[138.310106,36.547586],[138.309106,36.546253],[138.308806,36.545737],[138.308419,36.545353],[138.307694,36.544903],[138.307194,36.544637],[138.306832,36.544637],[138.306257,36.54482],[138.305832,36.544703],[138.305394,36.544478],[138.305007,36.544212],[138.304669,36.543803],[138.304444,36.543328],[138.304444,36.543037],[138.304532,36.54272],[138.304469,36.542387],[138.304332,36.542179],[138.303857,36.542045],[138.303395,36.542029],[138.302582,36.54212],[138.302282,36.541779],[138.300495,36.539104],[138.30027,36.538245],[138.299808,36.537704],[138.29922,36.53732],[138.299108,36.537279],[138.299058,36.537187],[138.299058,36.537004],[138.29872,36.536595],[138.298358,36.536079],[138.297746,36.535387],[138.297333,36.535046],[138.295608,36.534054],[138.295246,36.533812],[138.294409,36.533071],[138.294134,36.532771],[138.293859,36.532304],[138.293334,36.532412],[138.292946,36.532462],[138.292471,36.532412],[138.292034,36.532304],[138.291746,36.532529],[138.291534,36.532962],[138.291009,36.533454],[138.289672,36.534046],[138.288397,36.534387],[138.287622,36.534546],[138.287047,36.534612],[138.28621,36.534504],[138.285935,36.534637],[138.28546,36.535045],[138.284972,36.535612],[138.284772,36.535887],[138.284547,36.536062],[138.284022,36.536179],[138.283085,36.536295],[138.282535,36.53652],[138.28211,36.536862],[138.281922,36.536945],[138.28126,36.536679],[138.281085,36.53657],[138.280148,36.536137],[138.279098,36.53592],[138.278348,36.535854],[138.277648,36.535721],[138.277423,36.535112],[138.277123,36.534546],[138.276848,36.534204],[138.27631,36.533687],[138.275535,36.532746],[138.27531,36.532337],[138.27526,36.532112],[138.275198,36.531346],[138.275398,36.530063],[138.275423,36.529563],[138.275336,36.529113],[138.275248,36.528888],[138.274973,36.528463],[138.274698,36.528238],[138.274248,36.527988],[138.274061,36.527921],[138.273698,36.527671],[138.273423,36.527221],[138.273473,36.526521],[138.273448,36.525896],[138.273161,36.525555],[138.272548,36.525238],[138.271998,36.52468],[138.271911,36.524521],[138.271473,36.524138],[138.270249,36.523463],[138.270411,36.523396],[138.270661,36.523055],[138.270886,36.52283],[138.271111,36.522421],[138.271324,36.52213],[138.271411,36.521813],[138.271299,36.521338],[138.270911,36.52078],[138.270824,36.520347],[138.270849,36.519647],[138.270911,36.519288],[138.270849,36.518997],[138.270549,36.518772],[138.270349,36.51873],[138.269961,36.518547],[138.268761,36.517488],[138.268299,36.517172],[138.268161,36.517038],[138.267986,36.517038],[138.267961,36.516788],[138.268161,36.516322],[138.268099,36.516022],[138.267849,36.515822],[138.267299,36.514855],[138.267149,36.514447],[138.266649,36.513614],[138.266324,36.51328],[138.266012,36.513572],[138.265687,36.513772],[138.264874,36.513955],[138.264099,36.514005],[138.263687,36.513955],[138.263524,36.514005],[138.263112,36.514347],[138.262825,36.514505],[138.262475,36.514664],[138.2617,36.515089],[138.261612,36.515114],[138.261387,36.515072],[138.261,36.514822],[138.26075,36.514597],[138.260587,36.514372],[138.26025,36.514347],[138.259862,36.514439],[138.25925,36.514397],[138.258812,36.514264],[138.25845,36.514064],[138.258088,36.514172],[138.257375,36.514489],[138.25585,36.515122],[138.255213,36.515555],[138.254875,36.515713],[138.254438,36.51578],[138.253163,36.515338],[138.252238,36.51513],[138.251826,36.515155],[138.250963,36.515363],[138.250663,36.515472],[138.250413,36.515655],[138.250051,36.515705],[138.249501,36.515588],[138.248801,36.515163],[138.248564,36.515047],[138.248364,36.514913],[138.248339,36.514913],[138.248339,36.514422],[138.248526,36.514172],[138.249114,36.51358],[138.249164,36.51338],[138.249026,36.513155],[138.248526,36.512797],[138.248114,36.512255],[138.247826,36.512097],[138.247526,36.512005],[138.247326,36.511922],[138.247139,36.511622],[138.247051,36.510905],[138.246891,36.510675],[138.246776,36.510439],[138.246664,36.51003],[138.246477,36.509914],[138.245427,36.509964],[138.244727,36.509922],[138.244402,36.50983],[138.243814,36.509764],[138.243377,36.509905],[138.242352,36.510289],[138.241927,36.510239],[138.24129,36.510022],[138.240877,36.509955],[138.240465,36.50993],[138.24004,36.509838],[138.239602,36.509638],[138.239265,36.509547],[138.238827,36.509638],[138.238415,36.509888],[138.238215,36.510272],[138.237965,36.51068],[138.23789,36.51093],[138.237665,36.51118],[138.237053,36.511497],[138.23664,36.511788],[138.23604,36.51258],[138.23554,36.512763],[138.23534,36.512805],[138.234765,36.51308],[138.234153,36.513421],[138.23379,36.51353],[138.233103,36.51353],[138.232878,36.513488],[138.23229,36.513446],[138.231828,36.513538],[138.231716,36.513696],[138.230803,36.514188],[138.230666,36.514238],[138.230003,36.514288],[138.229391,36.514221],[138.228641,36.513771],[138.228216,36.513588],[138.227753,36.513521],[138.226441,36.512913],[138.225554,36.511921],[138.224916,36.511538],[138.224116,36.511004],[138.223479,36.510188],[138.222979,36.509854],[138.222054,36.509471],[138.221504,36.509338],[138.221254,36.509246],[138.221166,36.509138],[138.221054,36.508796],[138.220941,36.507896],[138.220941,36.507379],[138.220891,36.507221],[138.220854,36.507329],[138.220441,36.507471],[138.219842,36.507804],[138.219642,36.507804],[138.219167,36.507337],[138.218729,36.507404],[138.218454,36.507629],[138.218254,36.507671],[138.217817,36.507696],[138.217454,36.507679],[138.216929,36.507546],[138.216342,36.507321],[138.216042,36.507321],[138.215367,36.507504],[138.214542,36.50782],[138.213467,36.507979],[138.213317,36.507979],[138.212604,36.508095],[138.212379,36.508162],[138.211355,36.508345],[138.210305,36.508862],[138.209892,36.509628],[138.20923,36.510286],[138.208667,36.510428],[138.20818,36.510361],[138.206292,36.509978],[138.206017,36.51002],[138.20518,36.510969],[138.20488,36.511244],[138.20443,36.511469],[138.20363,36.511694],[138.203468,36.511653],[138.202918,36.511744],[138.202518,36.511719],[138.20208,36.511611],[138.201468,36.511569],[138.201105,36.511727],[138.20083,36.511794],[138.200368,36.511819],[138.20008,36.511661],[138.19978,36.511236],[138.19983,36.511144],[138.199555,36.510377],[138.199443,36.509836],[138.19903,36.509002],[138.198718,36.508552],[138.198605,36.508144],[138.198693,36.507719],[138.198793,36.507402],[138.198905,36.507219],[138.199467,36.506811],[138.199492,36.506836],[138.19993,36.506627],[138.200317,36.506269],[138.201455,36.504778],[138.201567,36.504261],[138.20148,36.503669],[138.20153,36.503261],[138.201617,36.503103],[138.201692,36.503061],[138.201855,36.501636],[138.201842,36.501028],[138.201792,36.500936],[138.203417,36.50042],[138.203767,36.500153],[138.203955,36.499629],[138.204005,36.499204],[138.20413,36.498812],[138.20443,36.498562],[138.205255,36.498287],[138.20658,36.497971],[138.207217,36.497854],[138.207692,36.497579],[138.20818,36.497346],[138.209092,36.496796],[138.20938,36.496496],[138.20968,36.496113],[138.210255,36.495746],[138.210917,36.495513],[138.21238,36.49473],[138.21278,36.494313],[138.21283,36.494113],[138.213155,36.49368],[138.214454,36.493505],[138.215142,36.493255],[138.215904,36.492339],[138.216317,36.492114],[138.217142,36.491872],[138.217392,36.491672],[138.217642,36.491372],[138.217992,36.491148],[138.218354,36.491323],[138.218904,36.491064],[138.219404,36.490698],[138.219529,36.490473],[138.219329,36.490048],[138.219017,36.489623],[138.218729,36.489156],[138.218667,36.48879],[138.219079,36.488565],[138.219667,36.488423],[138.220479,36.487848],[138.220679,36.487623],[138.221617,36.486073],[138.221754,36.48594],[138.221554,36.484274],[138.221579,36.484049],[138.221479,36.483415],[138.221479,36.483149],[138.222642,36.48284],[138.223142,36.482815],[138.223767,36.482666],[138.224679,36.482524],[138.224954,36.482516],[138.225792,36.482282],[138.225954,36.482149],[138.226554,36.481799],[138.226829,36.481682],[138.228291,36.481282],[138.228929,36.481007],[138.229716,36.480499],[138.230179,36.480066],[138.230479,36.479724],[138.230841,36.479449],[138.230829,36.479199],[138.230579,36.478841],[138.229816,36.478249],[138.229554,36.477866],[138.229554,36.477233],[138.229666,36.476016],[138.229604,36.475608],[138.229004,36.474692],[138.228829,36.474],[138.228954,36.473525],[138.229354,36.472842],[138.229404,36.472642],[138.229342,36.4721],[138.229192,36.4714],[138.229154,36.470975],[138.228867,36.470434],[138.228867,36.470259],[138.229004,36.4698],[138.228917,36.468676],[138.228967,36.466267],[138.228804,36.465209],[138.228792,36.464668],[138.228929,36.464151],[138.229167,36.463809],[138.229529,36.463776],[138.230054,36.463793],[138.231004,36.462926],[138.232779,36.462659],[138.233167,36.462584],[138.233379,36.462518],[138.234042,36.462151],[138.234692,36.461259],[138.235591,36.460751],[138.236004,36.460435],[138.236391,36.460026],[138.236629,36.459635],[138.237116,36.459201],[138.237754,36.458768],[138.238191,36.458493],[138.238591,36.458151],[138.238766,36.458168],[138.238991,36.45826],[138.239416,36.458818],[138.239554,36.458876],[138.239916,36.458943],[138.239966,36.458943],[138.240079,36.458785],[138.239879,36.458376],[138.239816,36.45811],[138.239866,36.457951],[138.240166,36.457676],[138.241179,36.457168],[138.241366,36.456827],[138.241104,36.45611],[138.241129,36.455685],[138.241204,36.455235],[138.241341,36.454893],[138.241929,36.454118],[138.242366,36.452469],[138.242079,36.451794],[138.242004,36.451685],[138.241854,36.45121],[138.242041,36.450919],[138.242541,36.450794],[138.243666,36.450735],[138.244641,36.450635],[138.245078,36.450519],[138.245166,36.450469],[138.245216,36.450269],[138.245253,36.449094],[138.245441,36.448869],[138.245953,36.448477],[138.246316,36.448161],[138.246803,36.447477],[138.24689,36.447282],[138.246978,36.447219],[138.247203,36.446969],[138.247228,36.446902],[138.247791,36.446744],[138.248041,36.446586],[138.248341,36.446136],[138.248478,36.445636],[138.248591,36.444936],[138.248666,36.444669],[138.24969,36.444061],[138.249753,36.444061],[138.249803,36.443561],[138.250103,36.443178],[138.250215,36.442728],[138.25019,36.441778],[138.250303,36.441328],[138.250465,36.44117],[138.250053,36.440811],[138.249878,36.440536],[138.249766,36.44022],[138.249653,36.439595],[138.249241,36.43912],[138.248878,36.43847],[138.248603,36.437562],[138.248566,36.436637],[138.248316,36.43542],[138.248228,36.434612],[138.248291,36.434187],[138.248541,36.433621],[138.248678,36.433279],[138.248541,36.433262],[138.248316,36.433304],[138.247953,36.433304],[138.247591,36.433237],[138.247366,36.433171],[138.247316,36.433196],[138.24689,36.433167],[138.246529,36.433037],[138.246029,36.432929],[138.245591,36.432912],[138.244266,36.433087],[138.243516,36.432979],[138.242654,36.432763],[138.242042,36.432529],[138.241529,36.432371],[138.240892,36.432313],[138.240504,36.432338],[138.239954,36.432254],[138.23903,36.431888],[138.238642,36.431846],[138.23793,36.431896],[138.237392,36.431813],[138.23693,36.431779],[138.236642,36.431713],[138.235342,36.431729],[138.234455,36.431604],[138.232293,36.431746],[138.230105,36.431654],[138.229693,36.431663],[138.229018,36.431379],[138.226843,36.430254],[138.226306,36.430013],[138.225731,36.429929],[138.225169,36.429888],[138.224481,36.429696],[138.223944,36.429588],[138.223306,36.429513],[138.222644,36.429604],[138.221769,36.429913],[138.221544,36.430029],[138.221219,36.430146],[138.220607,36.430221],[138.219419,36.430054],[138.218719,36.429746],[138.217957,36.429488],[138.217294,36.429338],[138.216769,36.429271],[138.216157,36.429413],[138.215657,36.429171],[138.214907,36.428713],[138.212632,36.427546],[138.21207,36.427146],[138.211507,36.426521],[138.21117,36.42623],[138.210733,36.426105],[138.209533,36.425872],[138.209058,36.42583],[138.207533,36.425871],[138.207283,36.425896],[138.206783,36.425722],[138.206483,36.425547],[138.205645,36.425671],[138.20512,36.425696],[138.204571,36.425638],[138.204071,36.425488],[138.202921,36.425005],[138.202583,36.424805],[138.202308,36.424805],[138.201508,36.424638],[138.200423,36.424168],[138.197562,36.426767],[138.195031,36.429373],[138.191197,36.43328],[138.185368,36.436652],[138.182608,36.439027],[138.181381,36.441173],[138.180844,36.443624],[138.181227,36.445464],[138.181074,36.447532],[138.18114,36.450578],[138.181831,36.453719],[138.182061,36.457244],[138.181754,36.459849],[138.179146,36.46299],[138.178149,36.464829],[138.177153,36.466438],[138.175235,36.467358],[138.172091,36.468737],[138.169407,36.470883],[138.164192,36.472645],[138.161278,36.474254],[138.158824,36.477012],[138.154953,36.48021],[138.149508,36.483581],[138.146518,36.486799],[138.144907,36.489481],[138.14414,36.492699],[138.143067,36.496837],[138.14276,36.500055],[138.143373,36.502277],[138.14406,36.506006],[138.143446,36.509454],[138.140379,36.512519],[138.137771,36.514588],[138.133553,36.516044],[138.129259,36.516503],[138.124888,36.516963],[138.120823,36.517959],[138.118753,36.520258],[138.117909,36.523093],[138.118139,36.525468],[138.118983,36.529606],[138.119449,36.533407],[138.119372,36.536778],[138.118145,36.538234],[138.117761,36.540609],[138.119909,36.544824],[138.122133,36.549881],[138.123436,36.552486],[138.12612,36.554095],[138.129341,36.555551],[138.132639,36.558616],[138.134326,36.560455],[138.136803,36.561857],[138.141174,36.562394],[138.147386,36.56339],[138.156128,36.565229],[138.159579,36.565459],[138.162365,36.567107],[138.165893,36.570249],[138.169114,36.574616],[138.170647,36.577451],[138.173178,36.578677],[138.176015,36.578907],[138.17916,36.578294],[138.181844,36.577528],[138.182863,36.576749],[138.18409,36.573914],[138.185011,36.570313],[138.185931,36.567554],[138.187311,36.566022],[138.189459,36.565485],[138.192143,36.566941],[138.195057,36.56832],[138.199274,36.569776],[138.200501,36.571002],[138.200655,36.572458],[138.198738,36.575293],[138.198891,36.576596],[138.198048,36.577132],[138.19636,36.578052],[138.194673,36.579431],[138.194367,36.581346],[138.195977,36.582496],[138.199121,36.583415],[138.201652,36.583109],[138.203262,36.581883],[138.204489,36.579431],[138.205563,36.577515],[138.207403,36.577439],[138.209024,36.578322],[138.212091,36.580468],[138.213165,36.581617],[138.212628,36.58361],[138.212552,36.585525],[138.213702,36.587134],[138.214929,36.58882],[138.214469,36.592115],[138.213012,36.594413],[138.213165,36.596635],[138.214239,36.598321],[138.216233,36.599011],[138.217383,36.598551],[138.218687,36.596635],[138.21999,36.595563],[138.221447,36.595639],[138.222981,36.596789],[138.223058,36.598015],[138.222674,36.599624],[138.221907,36.601846],[138.223211,36.604604],[138.227966,36.606213],[138.232984,36.607419],[138.233573,36.611269],[138.234945,36.613531],[138.235403,36.615937],[138.236837,36.617713],[138.239302,36.618286],[138.242513,36.618171],[138.245208,36.618171],[138.247673,36.618515],[138.249565,36.619775],[138.251457,36.622353],[138.252375,36.625676],[138.253024,36.628565],[138.253941,36.631658],[138.254686,36.635268],[138.257221,36.640142]]],"type":"Polygon"}}],"type":"FeatureCollection"}