{"type":"FeatureCollection","features":[{"properties":{"kuni_id":"K24","pref":"長野県","name":"南佐久","yomi":"みなみさく","kuni":"信濃","id":"G24015","kuni_url":"/kg/resource/K24.html","id_url":"G24015.html"},"geometry":{"type":"Polygon","coordinates":[[[138.592583,36.194299],[138.592758,36.194299],[138.593083,36.19439],[138.593358,36.194532],[138.593983,36.194582],[138.594408,36.194699],[138.594733,36.19474],[138.595333,36.194657],[138.595558,36.194657],[138.595708,36.194799],[138.595933,36.194907],[138.596158,36.194957],[138.597083,36.194849],[138.597333,36.194699],[138.59772,36.194291],[138.59812,36.193982],[138.59837,36.193849],[138.599195,36.193766],[138.59957,36.193874],[138.59977,36.193899],[138.60007,36.193857],[138.600245,36.193724],[138.600732,36.193116],[138.601032,36.193008],[138.601232,36.193033],[138.601432,36.193233],[138.601582,36.193283],[138.602057,36.193041],[138.602257,36.193016],[138.603332,36.193091],[138.603907,36.193299],[138.604332,36.193549],[138.604832,36.193958],[138.605382,36.194641],[138.605532,36.194757],[138.605894,36.195432],[138.606144,36.195799],[138.606369,36.196407],[138.606382,36.196674],[138.606632,36.196566],[138.607094,36.196257],[138.607544,36.196099],[138.607844,36.196057],[138.608494,36.195832],[138.609181,36.195657],[138.609681,36.195166],[138.610181,36.195083],[138.610631,36.195058],[138.611206,36.194949],[138.611731,36.195024],[138.612181,36.195116],[138.612481,36.195141],[138.613119,36.194899],[138.613444,36.194808],[138.613869,36.194749],[138.614219,36.194749],[138.614694,36.194816],[138.614969,36.194708],[138.615194,36.194549],[138.615769,36.194874],[138.616068,36.194966],[138.616318,36.194858],[138.616668,36.194924],[138.616968,36.194899],[138.617606,36.194841],[138.618256,36.194958],[138.618431,36.194983],[138.618706,36.195099],[138.618981,36.195141],[138.619156,36.195124],[138.619481,36.195391],[138.619756,36.195491],[138.620068,36.195783],[138.620293,36.196599],[138.620443,36.196841],[138.620543,36.196891],[138.620743,36.196941],[138.621168,36.196824],[138.621493,36.196849],[138.621668,36.196899],[138.621866,36.196887],[138.62193,36.196783],[138.622255,36.196841],[138.622593,36.196866],[138.622893,36.196958],[138.622918,36.196799],[138.623205,36.196324],[138.62353,36.195616],[138.624018,36.194441],[138.624343,36.194033],[138.626268,36.192675],[138.62698,36.191925],[138.627268,36.191358],[138.627355,36.190567],[138.627555,36.189825],[138.627805,36.1891],[138.628418,36.187742],[138.628793,36.187001],[138.629355,36.186517],[138.629705,36.185868],[138.62988,36.185168],[138.629418,36.183701],[138.629405,36.183293],[138.629643,36.183184],[138.630368,36.183043],[138.630955,36.182768],[138.63128,36.182318],[138.63163,36.181501],[138.632005,36.180935],[138.632655,36.180327],[138.63408,36.179343],[138.63478,36.178368],[138.635255,36.177985],[138.635843,36.177302],[138.635955,36.176627],[138.636005,36.175994],[138.63618,36.175611],[138.636568,36.175252],[138.637068,36.174927],[138.63703,36.174436],[138.636755,36.173852],[138.636518,36.173469],[138.636306,36.173019],[138.636268,36.172386],[138.636168,36.171778],[138.635856,36.170811],[138.635531,36.170903],[138.635206,36.170953],[138.634631,36.171086],[138.634343,36.171336],[138.634043,36.171678],[138.632981,36.171953],[138.632656,36.172136],[138.632256,36.172119],[138.631993,36.172144],[138.631518,36.172369],[138.631193,36.172577],[138.630931,36.172644],[138.630631,36.172511],[138.630231,36.172244],[138.629219,36.171977],[138.628406,36.171486],[138.628069,36.171194],[138.627594,36.171136],[138.626881,36.171186],[138.626431,36.171077],[138.625956,36.170828],[138.625594,36.170761],[138.625119,36.170561],[138.624869,36.170544],[138.623831,36.170686],[138.623681,36.170636],[138.623019,36.170219],[138.622631,36.170244],[138.622332,36.170377],[138.622044,36.170652],[138.621957,36.171102],[138.621866,36.171256],[138.621719,36.171261],[138.621019,36.171052],[138.620369,36.170936],[138.619819,36.170752],[138.618519,36.170336],[138.618419,36.170269],[138.617919,36.170011],[138.617707,36.169819],[138.617594,36.169644],[138.617094,36.169311],[138.616894,36.169244],[138.615757,36.169077],[138.614895,36.169036],[138.613695,36.168869],[138.612945,36.168669],[138.612445,36.168352],[138.611495,36.167536],[138.610108,36.166153],[138.609858,36.165978],[138.60927,36.165636],[138.608433,36.165403],[138.608495,36.165228],[138.60857,36.165111],[138.608708,36.164711],[138.608495,36.164211],[138.608458,36.163803],[138.608883,36.162945],[138.609045,36.16252],[138.609608,36.161728],[138.60977,36.16137],[138.609695,36.161345],[138.609358,36.161345],[138.608245,36.161661],[138.608108,36.161611],[138.607683,36.161586],[138.60732,36.161886],[138.60682,36.162353],[138.606383,36.16267],[138.606045,36.162961],[138.605733,36.163436],[138.604571,36.164228],[138.604008,36.164269],[138.603233,36.164428],[138.602783,36.164669],[138.601721,36.164894],[138.600333,36.165319],[138.598996,36.165611],[138.598246,36.165702],[138.597159,36.165519],[138.596996,36.165694],[138.596684,36.165919],[138.596071,36.165969],[138.595046,36.165802],[138.594596,36.165644],[138.594371,36.165736],[138.594121,36.166027],[138.593759,36.166236],[138.593709,36.166411],[138.593484,36.166727],[138.593146,36.166927],[138.592596,36.167085],[138.592146,36.167627],[138.591784,36.167877],[138.591584,36.16821],[138.591471,36.168644],[138.591246,36.168977],[138.590884,36.16916],[138.590271,36.169252],[138.589884,36.169427],[138.589634,36.169743],[138.589634,36.169818],[138.589609,36.169993],[138.589509,36.17026],[138.589259,36.170485],[138.588959,36.170618],[138.588909,36.171093],[138.588697,36.17156],[138.588596,36.172077],[138.588209,36.17271],[138.588134,36.17336],[138.588246,36.173926],[138.588771,36.174901],[138.588821,36.175009],[138.588746,36.175168],[138.588984,36.175868],[138.589846,36.177093],[138.590571,36.177709],[138.590571,36.177868],[138.590371,36.178092],[138.589734,36.178492],[138.589509,36.178809],[138.589359,36.178917],[138.588884,36.179026],[138.588684,36.179051],[138.588209,36.179001],[138.587984,36.178842],[138.587959,36.178234],[138.587871,36.177826],[138.587371,36.177009],[138.587246,36.176918],[138.586972,36.176851],[138.586297,36.177051],[138.585672,36.177134],[138.584972,36.177109],[138.584447,36.177151],[138.583909,36.177276],[138.583709,36.177392],[138.583584,36.177634],[138.583659,36.177934],[138.583447,36.178742],[138.583347,36.178851],[138.583147,36.178784],[138.582597,36.178484],[138.581759,36.177917],[138.58136,36.177576],[138.581235,36.177326],[138.581572,36.176401],[138.581522,36.176134],[138.581372,36.176001],[138.580897,36.175951],[138.580672,36.175876],[138.580547,36.175743],[138.580522,36.175493],[138.580597,36.175018],[138.580635,36.174634],[138.58061,36.174393],[138.58031,36.173843],[138.580235,36.173776],[138.579847,36.173235],[138.579422,36.171901],[138.579335,36.170951],[138.579347,36.170385],[138.579297,36.170277],[138.579072,36.170052],[138.578847,36.169868],[138.578723,36.169818],[138.578448,36.169702],[138.57836,36.169627],[138.57791,36.169043],[138.57736,36.168093],[138.577948,36.16796],[138.578585,36.167918],[138.578948,36.16771],[138.57931,36.16726],[138.57956,36.166877],[138.580235,36.166677],[138.58031,36.16566],[138.58056,36.165302],[138.580897,36.165077],[138.580847,36.16496],[138.580422,36.164511],[138.580123,36.163944],[138.580073,36.163311],[138.580098,36.162769],[138.580323,36.162294],[138.580823,36.161936],[138.581098,36.161869],[138.58191,36.161761],[138.582435,36.161719],[138.582572,36.161628],[138.583135,36.160953],[138.583547,36.160611],[138.584085,36.160519],[138.58466,36.160636],[138.58516,36.160861],[138.58631,36.161028],[138.58711,36.160978],[138.58751,36.160828],[138.587535,36.160511],[138.587372,36.159561],[138.587372,36.159378],[138.58756,36.159111],[138.589572,36.157578],[138.590459,36.155662],[138.590347,36.154912],[138.590822,36.154553],[138.592134,36.153745],[138.592747,36.153387],[138.593022,36.153112],[138.593134,36.152779],[138.593084,36.152254],[138.592922,36.151404],[138.592859,36.150812],[138.592884,36.150246],[138.593084,36.149754],[138.593447,36.149346],[138.594534,36.148487],[138.594872,36.148129],[138.594947,36.147971],[138.594872,36.147588],[138.594897,36.147254],[138.595009,36.147096],[138.595234,36.146621],[138.595209,36.146096],[138.595259,36.145288],[138.595122,36.145013],[138.595072,36.144879],[138.594372,36.14438],[138.594372,36.143996],[138.594822,36.143296],[138.595322,36.142738],[138.595685,36.142238],[138.59571,36.142063],[138.59566,36.141588],[138.595685,36.141113],[138.596135,36.14073],[138.596322,36.140505],[138.596772,36.140147],[138.597272,36.139397],[138.598022,36.138005],[138.598884,36.13773],[138.599222,36.137572],[138.599584,36.137189],[138.599897,36.136739],[138.600284,36.136339],[138.600759,36.135614],[138.600834,36.135547],[138.601509,36.135614],[138.602097,36.135797],[138.603597,36.136189],[138.603872,36.136231],[138.604734,36.136297],[138.604984,36.136347],[138.605484,36.136347],[138.606572,36.136239],[138.607884,36.135989],[138.609046,36.135631],[138.610384,36.134956],[138.611134,36.134414],[138.612084,36.133539],[138.612884,36.133498],[138.613384,36.134081],[138.613946,36.134239],[138.614446,36.134198],[138.614971,36.134064],[138.615146,36.133973],[138.615559,36.133656],[138.616009,36.133206],[138.616396,36.132981],[138.617171,36.133189],[138.617671,36.133389],[138.618234,36.133506],[138.619096,36.133598],[138.619758,36.133781],[138.620483,36.133898],[138.620758,36.133781],[138.620958,36.133173],[138.621521,36.132181],[138.621771,36.131981],[138.621867,36.131778],[138.622358,36.131831],[138.622946,36.131915],[138.623933,36.131823],[138.624396,36.131756],[138.624771,36.131823],[138.625121,36.132156],[138.625433,36.132206],[138.626396,36.132698],[138.626658,36.132714],[138.626921,36.132673],[138.627008,36.132631],[138.627446,36.132648],[138.627821,36.132873],[138.628546,36.133006],[138.628771,36.132981],[138.629208,36.133139],[138.629758,36.133273],[138.63022,36.133156],[138.630608,36.132864],[138.630683,36.132839],[138.630983,36.132639],[138.631158,36.132639],[138.63292,36.133423],[138.63382,36.133806],[138.634145,36.133889],[138.634258,36.133873],[138.634695,36.133573],[138.636108,36.13154],[138.636395,36.130998],[138.636595,36.130206],[138.63662,36.129715],[138.636995,36.128648],[138.637195,36.12829],[138.637458,36.127998],[138.637545,36.12784],[138.637483,36.127457],[138.63727,36.126865],[138.637333,36.126082],[138.637583,36.125382],[138.63732,36.124299],[138.637408,36.123932],[138.637583,36.123707],[138.637808,36.123532],[138.637958,36.123574],[138.638395,36.123799],[138.638883,36.123907],[138.639345,36.123799],[138.63972,36.123499],[138.639845,36.122891],[138.639845,36.122782],[138.639958,36.122549],[138.640508,36.122616],[138.640645,36.122574],[138.64102,36.122282],[138.641083,36.122191],[138.641108,36.121916],[138.64102,36.121624],[138.641006,36.121544],[138.641083,36.121557],[138.641983,36.121599],[138.642533,36.121532],[138.642645,36.121466],[138.643433,36.121349],[138.643945,36.121391],[138.644332,36.121341],[138.64462,36.121233],[138.64522,36.120349],[138.645282,36.120058],[138.64522,36.119783],[138.64507,36.119624],[138.64502,36.119608],[138.644258,36.119583],[138.64342,36.119091],[138.642958,36.118891],[138.64217,36.118374],[138.64167,36.117991],[138.641145,36.1177],[138.640483,36.117566],[138.640045,36.117366],[138.64062,36.116733],[138.64097,36.116416],[138.641633,36.116233],[138.641895,36.115958],[138.642045,36.115417],[138.64207,36.11485],[138.642233,36.114425],[138.642533,36.114108],[138.642758,36.11375],[138.642783,36.113275],[138.642345,36.112192],[138.64237,36.112034],[138.64312,36.111734],[138.64362,36.111492],[138.644083,36.111084],[138.64492,36.110834],[138.645383,36.1106],[138.646108,36.110126],[138.646395,36.109901],[138.646533,36.109634],[138.646533,36.109176],[138.646383,36.108709],[138.646533,36.107509],[138.64682,36.107126],[138.647283,36.106876],[138.647458,36.106826],[138.64762,36.106693],[138.647595,36.106109],[138.647358,36.105659],[138.646783,36.105143],[138.645796,36.10456],[138.645146,36.103835],[138.644858,36.103385],[138.644858,36.103068],[138.644946,36.102502],[138.645221,36.101577],[138.645371,36.10086],[138.645421,36.100252],[138.645333,36.099594],[138.645133,36.098894],[138.645008,36.098802],[138.643384,36.09831],[138.642659,36.098135],[138.641296,36.097685],[138.640509,36.09731],[138.639584,36.096727],[138.638597,36.096252],[138.638397,36.096302],[138.637847,36.096844],[138.637297,36.097135],[138.637172,36.096977],[138.636909,36.09646],[138.636684,36.096194],[138.635922,36.095652],[138.635722,36.095336],[138.635509,36.094886],[138.634909,36.094327],[138.634872,36.094119],[138.635134,36.093036],[138.635134,36.092678],[138.634897,36.092494],[138.63406,36.092294],[138.633672,36.092119],[138.633272,36.092053],[138.632172,36.092028],[138.63196,36.091961],[138.631447,36.091694],[138.63101,36.091428],[138.630685,36.091244],[138.630597,36.091228],[138.63051,36.091111],[138.630572,36.090819],[138.63071,36.090503],[138.630822,36.089761],[138.630523,36.087928],[138.630548,36.086895],[138.63041,36.086495],[138.630385,36.08622],[138.630673,36.085703],[138.631973,36.084862],[138.632385,36.08457],[138.632548,36.084229],[138.63266,36.083554],[138.632685,36.082812],[138.633098,36.081837],[138.633173,36.081429],[138.633173,36.080979],[138.63311,36.080554],[138.632935,36.080054],[138.632935,36.079962],[138.63396,36.079921],[138.634648,36.079779],[138.635172,36.079421],[138.636272,36.078063],[138.637797,36.076455],[138.639097,36.075305],[138.64026,36.07483],[138.640397,36.074621],[138.640572,36.073563],[138.640622,36.072455],[138.640585,36.071014],[138.640735,36.070655],[138.641047,36.070272],[138.641247,36.070105],[138.64206,36.06968],[138.64241,36.069364],[138.642672,36.068981],[138.642897,36.068072],[138.64301,36.067556],[138.64301,36.067147],[138.642835,36.066697],[138.642772,36.065823],[138.642535,36.065323],[138.642472,36.064989],[138.642547,36.062415],[138.642785,36.06149],[138.642772,36.06099],[138.64266,36.060673],[138.64211,36.06014],[138.64181,36.059665],[138.64216,36.058848],[138.64256,36.058198],[138.642822,36.057673],[138.642935,36.057265],[138.642997,36.056707],[138.642985,36.056257],[138.642935,36.055782],[138.64281,36.055532],[138.642372,36.055374],[138.642347,36.054924],[138.64246,36.053482],[138.642822,36.052466],[138.64306,36.051399],[138.643285,36.051133],[138.643835,36.050608],[138.644097,36.050116],[138.644185,36.049824],[138.644122,36.049524],[138.644035,36.049441],[138.643535,36.049191],[138.643047,36.048783],[138.642547,36.048158],[138.642197,36.047483],[138.642047,36.046941],[138.642047,36.046191],[138.64196,36.045583],[138.641873,36.045341],[138.64161,36.044841],[138.641135,36.044433],[138.640235,36.0439],[138.639185,36.043158],[138.638723,36.042642],[138.638485,36.042142],[138.638173,36.0412],[138.63816,36.0409],[138.638285,36.040409],[138.638223,36.039892],[138.637986,36.03935],[138.637636,36.038784],[138.637286,36.038309],[138.637111,36.037925],[138.637111,36.03775],[138.636961,36.037342],[138.636648,36.037167],[138.635598,36.036892],[138.635536,36.036734],[138.635511,36.035834],[138.635236,36.034751],[138.634774,36.034126],[138.634361,36.033084],[138.633574,36.032076],[138.633261,36.031709],[138.633024,36.031309],[138.632761,36.030476],[138.631787,36.028676],[138.631562,36.028401],[138.631449,36.02831],[138.631524,36.028151],[138.631699,36.027451],[138.631874,36.027118],[138.632049,36.026935],[138.632187,36.026935],[138.633086,36.027201],[138.634336,36.027601],[138.634686,36.027668],[138.635349,36.027718],[138.636136,36.027643],[138.637324,36.027277],[138.637961,36.02696],[138.639061,36.026285],[138.639548,36.026127],[138.640998,36.02596],[138.641873,36.025827],[138.642136,36.025685],[138.643085,36.02496],[138.643285,36.024669],[138.643435,36.024377],[138.64366,36.024194],[138.64476,36.024169],[138.64511,36.023985],[138.645285,36.023627],[138.645448,36.023036],[138.646085,36.021636],[138.646198,36.021186],[138.646073,36.020353],[138.645985,36.019919],[138.645985,36.019903],[138.646485,36.019919],[138.647148,36.019878],[138.647935,36.019736],[138.648248,36.019644],[138.649173,36.019169],[138.650073,36.018578],[138.650735,36.018511],[138.652072,36.01862],[138.652597,36.01862],[138.653085,36.018795],[138.653585,36.018795],[138.654647,36.018386],[138.655485,36.018003],[138.655922,36.017661],[138.656297,36.017162],[138.656847,36.016662],[138.657572,36.016553],[138.658497,36.016503],[138.660322,36.01652],[138.661334,36.016428],[138.661484,36.01627],[138.661447,36.015387],[138.661472,36.01482],[138.661734,36.014529],[138.662022,36.014054],[138.661722,36.012454],[138.661697,36.011845],[138.661834,36.011596],[138.662047,36.011412],[138.662447,36.011462],[138.663834,36.011771],[138.664097,36.011796],[138.664647,36.011721],[138.665197,36.011521],[138.665697,36.011446],[138.666509,36.011446],[138.667234,36.011537],[138.668771,36.011554],[138.669296,36.011754],[138.670334,36.012246],[138.670834,36.012312],[138.671559,36.012246],[138.672309,36.012062],[138.673121,36.011904],[138.674708,36.011696],[138.675671,36.011512],[138.676396,36.011487],[138.677258,36.011571],[138.678221,36.011796],[138.67897,36.011812],[138.679583,36.011679],[138.680358,36.011113],[138.68082,36.010679],[138.68077,36.010546],[138.680295,36.010163],[138.680033,36.009779],[138.679883,36.009263],[138.679971,36.008746],[138.680121,36.00838],[138.680833,36.007071],[138.681208,36.00603],[138.681208,36.005696],[138.681021,36.004788],[138.680996,36.004388],[138.681058,36.00423],[138.682471,36.003363],[138.682908,36.003172],[138.683033,36.00303],[138.684008,36.002572],[138.68472,36.002163],[138.685183,36.001847],[138.685458,36.001555],[138.685595,36.000989],[138.68637,36.000514],[138.686758,36.000147],[138.687133,35.999655],[138.68697,35.998706],[138.68682,35.998322],[138.686545,35.997897],[138.686483,35.997739],[138.686545,35.997356],[138.686971,35.996231],[138.687033,35.995889],[138.686921,35.995556],[138.686383,35.995039],[138.686383,35.994931],[138.686496,35.994614],[138.687208,35.993639],[138.687596,35.993256],[138.688196,35.99244],[138.688608,35.99179],[138.688833,35.99179],[138.689358,35.991648],[138.690208,35.991123],[138.690595,35.990856],[138.690895,35.99079],[138.691483,35.990848],[138.692283,35.991031],[138.69292,35.991206],[138.693308,35.991248],[138.693645,35.991156],[138.69392,35.991023],[138.69447,35.990856],[138.694808,35.990923],[138.69527,35.991123],[138.696083,35.991256],[138.696795,35.991206],[138.69707,35.991115],[138.69732,35.99094],[138.697645,35.990282],[138.697895,35.98994],[138.698257,35.989623],[138.69897,35.989282],[138.69982,35.988632],[138.700407,35.98829],[138.70077,35.988132],[138.701257,35.987965],[138.702782,35.987823],[138.704195,35.987615],[138.705907,35.987274],[138.706457,35.987132],[138.706982,35.986949],[138.707394,35.986724],[138.707732,35.986432],[138.708032,35.986357],[138.709357,35.986199],[138.709994,35.986082],[138.711744,35.985649],[138.712407,35.985399],[138.712707,35.985215],[138.712982,35.984807],[138.713144,35.984357],[138.713194,35.983857],[138.712994,35.983207],[138.712794,35.982757],[138.712657,35.982282],[138.712644,35.980308],[138.712557,35.980008],[138.712132,35.979474],[138.711994,35.979199],[138.712019,35.978958],[138.712157,35.978683],[138.712032,35.977175],[138.712082,35.975708],[138.712545,35.975033],[138.712545,35.9747],[138.71237,35.973908],[138.712207,35.973483],[138.711707,35.97285],[138.711557,35.972558],[138.711557,35.972225],[138.711382,35.971617],[138.71152,35.971408],[138.71197,35.970958],[138.712095,35.970034],[138.71237,35.96965],[138.712757,35.968775],[138.712882,35.968251],[138.713132,35.967759],[138.713895,35.966826],[138.714282,35.966018],[138.714357,35.965634],[138.714632,35.965343],[138.715132,35.965068],[138.71607,35.964501],[138.716482,35.96436],[138.717757,35.964043],[138.71837,35.96386],[138.718807,35.963652],[138.719269,35.963385],[138.719632,35.962993],[138.719819,35.96266],[138.71982,35.962277],[138.719757,35.961844],[138.719782,35.961394],[138.71987,35.961169],[138.72042,35.96076],[138.720969,35.959836],[138.721207,35.959186],[138.721507,35.959044],[138.722619,35.958819],[138.723119,35.958611],[138.723444,35.958203],[138.723582,35.958203],[138.723994,35.958378],[138.724269,35.958311],[138.724582,35.958203],[138.725082,35.958061],[138.725657,35.957811],[138.726019,35.957469],[138.726869,35.956861],[138.726982,35.956678],[138.727169,35.956028],[138.727407,35.955528],[138.728156,35.954695],[138.728369,35.954287],[138.728531,35.953878],[138.728832,35.952479],[138.729019,35.95167],[138.729481,35.951262],[138.729869,35.951037],[138.730469,35.950537],[138.730581,35.950246],[138.730556,35.949812],[138.730631,35.949479],[138.731369,35.948096],[138.731444,35.947696],[138.731444,35.947221],[138.731381,35.946746],[138.731044,35.945488],[138.731094,35.945213],[138.731344,35.945055],[138.731781,35.944855],[138.732481,35.944422],[138.732919,35.94408],[138.733381,35.943788],[138.734706,35.94313],[138.735044,35.942814],[138.735944,35.941655],[138.736244,35.94143],[138.737431,35.940839],[138.738069,35.940405],[138.738831,35.939731],[138.739243,35.939256],[138.738744,35.938397],[138.738519,35.937722],[138.738069,35.937298],[138.737769,35.937031],[138.737594,35.936714],[138.737506,35.936331],[138.737644,35.935864],[138.738194,35.934823],[138.738519,35.934306],[138.739231,35.933465],[138.739306,35.932898],[138.739106,35.931848],[138.739019,35.931257],[138.738881,35.930873],[138.738519,35.930223],[138.738506,35.92984],[138.738669,35.928965],[138.738506,35.928715],[138.737757,35.928024],[138.737669,35.927665],[138.737632,35.927074],[138.737519,35.927007],[138.737132,35.926899],[138.736694,35.926674],[138.736244,35.926316],[138.736132,35.925982],[138.736094,35.925282],[138.736044,35.924874],[138.735457,35.924116],[138.735169,35.923799],[138.73462,35.923533],[138.734057,35.923199],[138.73387,35.922991],[138.733357,35.922074],[138.73277,35.920408],[138.732675,35.919929],[138.732657,35.91985],[138.732057,35.919533],[138.73092,35.918883],[138.730358,35.9185],[138.729583,35.918058],[138.72922,35.917942],[138.728058,35.9179],[138.72787,35.917858],[138.727895,35.917658],[138.728333,35.917433],[138.728883,35.917225],[138.729608,35.916858],[138.729958,35.916542],[138.730208,35.916158],[138.73042,35.915667],[138.730533,35.9151],[138.730533,35.914742],[138.72997,35.913884],[138.729545,35.913434],[138.72932,35.913126],[138.729183,35.912626],[138.728858,35.909834],[138.728858,35.909276],[138.728433,35.909368],[138.727521,35.909343],[138.726908,35.909218],[138.726496,35.909034],[138.725996,35.908743],[138.725158,35.908343],[138.724446,35.908101],[138.722446,35.908135],[138.721921,35.907976],[138.721446,35.907976],[138.721034,35.908051],[138.719371,35.908143],[138.717971,35.908959],[138.717272,35.909234],[138.716809,35.909376],[138.715922,35.909334],[138.714722,35.909093],[138.714034,35.908826],[138.713584,35.908734],[138.712622,35.909259],[138.712047,35.909443],[138.710135,35.909543],[138.709135,35.909659],[138.708585,35.909767],[138.708035,35.910001],[138.707835,35.909976],[138.707722,35.909801],[138.707635,35.909368],[138.707385,35.908676],[138.707248,35.908493],[138.706685,35.907934],[138.70621,35.906943],[138.705873,35.906476],[138.70526,35.905935],[138.70476,35.905668],[138.70421,35.90531],[138.703623,35.90511],[138.70306,35.904843],[138.702598,35.904435],[138.701723,35.903402],[138.701473,35.903293],[138.700473,35.903277],[138.700373,35.903252],[138.700011,35.903102],[138.699811,35.902668],[138.699698,35.902202],[138.699498,35.90166],[138.699186,35.90121],[138.698661,35.900827],[138.698111,35.900544],[138.697748,35.900177],[138.697299,35.899644],[138.696911,35.899236],[138.696486,35.899102],[138.695736,35.899152],[138.694961,35.899244],[138.694249,35.899435],[138.693611,35.899502],[138.693336,35.89946],[138.693136,35.899119],[138.693224,35.898785],[138.693186,35.898469],[138.692324,35.897027],[138.692124,35.896128],[138.691974,35.895861],[138.691699,35.895753],[138.691087,35.895636],[138.690512,35.895486],[138.690037,35.895286],[138.689699,35.894944],[138.689424,35.894519],[138.689087,35.894278],[138.688474,35.894078],[138.687837,35.893944],[138.68715,35.893928],[138.685825,35.893978],[138.685675,35.893953],[138.685625,35.893911],[138.685487,35.893344],[138.685112,35.892378],[138.685112,35.891953],[138.685187,35.891636],[138.685275,35.891503],[138.685362,35.891136],[138.685237,35.890803],[138.685187,35.890445],[138.685237,35.890303],[138.685437,35.890061],[138.685512,35.889811],[138.684787,35.889295],[138.68365,35.888628],[138.68345,35.888087],[138.683613,35.887428],[138.683863,35.886845],[138.68385,35.886353],[138.683663,35.885787],[138.682925,35.88417],[138.68275,35.883629],[138.682838,35.882954],[138.68255,35.882462],[138.6825,35.882121],[138.682525,35.881562],[138.682438,35.881271],[138.681063,35.879829],[138.6807,35.879404],[138.680338,35.878846],[138.680201,35.878529],[138.680201,35.878213],[138.680088,35.877788],[138.679826,35.877404],[138.679713,35.876846],[138.679713,35.876413],[138.679601,35.875763],[138.679176,35.874863],[138.678476,35.873921],[138.677701,35.872863],[138.677364,35.87233],[138.676326,35.870397],[138.676151,35.86988],[138.675189,35.870264],[138.673914,35.87068],[138.672864,35.870838],[138.672202,35.870863],[138.671702,35.870847],[138.671339,35.870805],[138.670789,35.870847],[138.669927,35.871263],[138.669102,35.871488],[138.668827,35.871622],[138.668577,35.871921],[138.668252,35.872238],[138.667752,35.87258],[138.667114,35.872938],[138.666014,35.873779],[138.665714,35.873913],[138.665327,35.873913],[138.66439,35.873496],[138.66374,35.873271],[138.66314,35.873138],[138.662665,35.873138],[138.662277,35.873213],[138.66159,35.873546],[138.661177,35.873713],[138.660927,35.873754],[138.66034,35.873671],[138.66009,35.873963],[138.659765,35.874463],[138.659327,35.875021],[138.658915,35.875454],[138.658365,35.875746],[138.658202,35.875796],[138.65759,35.875846],[138.656065,35.875829],[138.65549,35.875696],[138.65379,35.874979],[138.653403,35.874762],[138.653015,35.874404],[138.652515,35.874062],[138.651928,35.873846],[138.650816,35.873604],[138.649566,35.873379],[138.648491,35.873362],[138.647003,35.873554],[138.646191,35.873579],[138.645779,35.873695],[138.644366,35.874262],[138.643766,35.87447],[138.643216,35.874604],[138.642854,35.874654],[138.642579,35.874604],[138.642216,35.874429],[138.641904,35.874045],[138.641042,35.873329],[138.640042,35.872729],[138.638567,35.872304],[138.636442,35.87182],[138.635905,35.871579],[138.634492,35.870095],[138.634155,35.870162],[138.631343,35.871395],[138.630343,35.872003],[138.628968,35.873053],[138.62848,35.87332],[138.628255,35.87337],[138.627943,35.873237],[138.627056,35.872428],[138.626506,35.87207],[138.625418,35.871562],[138.624643,35.871045],[138.623943,35.870795],[138.621981,35.87027],[138.62188,35.870292],[138.621706,35.870353],[138.621519,35.870353],[138.620906,35.870562],[138.619406,35.870837],[138.617869,35.870978],[138.617369,35.87112],[138.616681,35.871437],[138.615219,35.872237],[138.614469,35.872528],[138.613857,35.872687],[138.613307,35.872712],[138.612807,35.872695],[138.612232,35.872878],[138.611457,35.873286],[138.610819,35.873695],[138.610607,35.874211],[138.610444,35.874711],[138.610169,35.87512],[138.609019,35.876069],[138.608194,35.877019],[138.607744,35.877294],[138.607257,35.877969],[138.606732,35.878511],[138.606769,35.878869],[138.606907,35.879211],[138.606907,35.879461],[138.606744,35.879636],[138.606582,35.879952],[138.606644,35.88061],[138.606594,35.881235],[138.606207,35.881777],[138.606119,35.882185],[138.606469,35.883085],[138.606469,35.883785],[138.606169,35.884327],[138.605919,35.885052],[138.606157,35.885651],[138.606132,35.885993],[138.606019,35.886376],[138.606194,35.887301],[138.606182,35.889484],[138.605969,35.890134],[138.605969,35.891509],[138.605919,35.892184],[138.605219,35.8937],[138.605244,35.894017],[138.605582,35.8944],[138.606082,35.894758],[138.606994,35.895333],[138.607532,35.895625],[138.607944,35.896033],[138.607781,35.8963],[138.607344,35.896733],[138.607157,35.897208],[138.607207,35.8977],[138.607494,35.898283],[138.607681,35.898483],[138.607356,35.899099],[138.607331,35.899549],[138.607806,35.899974],[138.608119,35.900149],[138.608319,35.901116],[138.608481,35.901482],[138.609044,35.902149],[138.609131,35.902532],[138.609156,35.903032],[138.609419,35.903657],[138.609756,35.904065],[138.610169,35.904265],[138.610831,35.904465],[138.611031,35.904824],[138.611706,35.90649],[138.611931,35.90694],[138.612018,35.90759],[138.612468,35.90869],[138.612506,35.909273],[138.612418,35.909498],[138.612343,35.909523],[138.611731,35.909373],[138.610843,35.90904],[138.610281,35.908881],[138.609594,35.908881],[138.608869,35.908773],[138.607706,35.908215],[138.606494,35.90849],[138.605581,35.908656],[138.603969,35.909248],[138.603119,35.909631],[138.602344,35.910089],[138.601744,35.910631],[138.601582,35.910748],[138.601169,35.911422],[138.601369,35.912589],[138.601207,35.913222],[138.600907,35.913589],[138.600519,35.913789],[138.600357,35.913839],[138.599694,35.91393],[138.598969,35.914114],[138.598257,35.914472],[138.59762,35.914972],[138.597207,35.915497],[138.596945,35.91678],[138.596607,35.917122],[138.596332,35.917188],[138.595832,35.917388],[138.595445,35.917438],[138.594645,35.917372],[138.593982,35.917555],[138.593182,35.917946],[138.59247,35.91833],[138.592245,35.918488],[138.591308,35.919713],[138.591033,35.919838],[138.590895,35.919804],[138.59062,35.919579],[138.589983,35.918838],[138.589695,35.918363],[138.589133,35.91783],[138.588695,35.917713],[138.58787,35.917763],[138.586958,35.917996],[138.585733,35.918429],[138.585271,35.918454],[138.584383,35.918071],[138.583958,35.918004],[138.583383,35.918079],[138.582908,35.918038],[138.581933,35.917413],[138.581096,35.917121],[138.580958,35.916988],[138.580534,35.915188],[138.580196,35.914538],[138.579384,35.913572],[138.579159,35.913122],[138.579159,35.912989],[138.578996,35.912872],[138.578296,35.912605],[138.577521,35.912205],[138.576909,35.911647],[138.576771,35.911464],[138.576634,35.911439],[138.576246,35.911539],[138.574896,35.912197],[138.574446,35.912305],[138.573584,35.912089],[138.572922,35.912047],[138.572309,35.912164],[138.571622,35.912572],[138.571434,35.91273],[138.570659,35.91323],[138.569884,35.913639],[138.569197,35.913864],[138.568922,35.914072],[138.568922,35.91418],[138.569147,35.914655],[138.569147,35.914764],[138.568897,35.914947],[138.568209,35.915288],[138.567547,35.915672],[138.567297,35.91588],[138.566534,35.91638],[138.565859,35.916447],[138.565372,35.916563],[138.565197,35.91663],[138.564484,35.91733],[138.564234,35.917355],[138.563209,35.91698],[138.562522,35.916822],[138.56066,35.916605],[138.559747,35.916538],[138.558997,35.916455],[138.55841,35.915988],[138.558022,35.915963],[138.556885,35.916172],[138.55636,35.916397],[138.556697,35.916805],[138.557122,35.917497],[138.55701,35.918038],[138.556847,35.918263],[138.556297,35.918763],[138.555722,35.919038],[138.55506,35.919155],[138.554773,35.91918],[138.554035,35.919063],[138.553585,35.918821],[138.55266,35.917763],[138.552223,35.917338],[138.551998,35.917205],[138.551385,35.917055],[138.55061,35.916605],[138.550111,35.91643],[138.549886,35.91638],[138.548561,35.916363],[138.548223,35.91628],[138.547611,35.916213],[138.547136,35.916263],[138.546811,35.916263],[138.546336,35.915972],[138.545748,35.915138],[138.545523,35.914738],[138.545223,35.914713],[138.544199,35.91483],[138.543086,35.914863],[138.542174,35.914755],[138.541699,35.914597],[138.541086,35.91433],[138.540286,35.913788],[138.540149,35.913772],[138.539511,35.914355],[138.539399,35.914405],[138.537824,35.914455],[138.536962,35.914572],[138.535999,35.914647],[138.535612,35.914713],[138.535249,35.914938],[138.534862,35.915121],[138.534262,35.91528],[138.531762,35.915721],[138.530987,35.915771],[138.530687,35.91568],[138.530075,35.914855],[138.529712,35.914605],[138.52935,35.914563],[138.529075,35.91463],[138.528225,35.915446],[138.527612,35.915763],[138.526813,35.916079],[138.52645,35.916196],[138.525788,35.916538],[138.525325,35.917013],[138.524775,35.917263],[138.524188,35.917471],[138.5232,35.917921],[138.522125,35.918579],[138.52195,35.918629],[138.521263,35.918696],[138.5204,35.918704],[138.519438,35.918796],[138.518501,35.918979],[138.517913,35.919162],[138.516913,35.919845],[138.516638,35.920004],[138.516226,35.92007],[138.514976,35.920087],[138.514526,35.920195],[138.514201,35.920437],[138.514026,35.920503],[138.513776,35.920462],[138.513476,35.920304],[138.513151,35.920187],[138.512851,35.920204],[138.512576,35.920312],[138.512264,35.920812],[138.512114,35.921262],[138.511914,35.921595],[138.511326,35.922112],[138.510751,35.922495],[138.510601,35.922445],[138.510176,35.922237],[138.509376,35.921962],[138.509051,35.921895],[138.508976,35.921778],[138.508726,35.92112],[138.508514,35.920937],[138.508164,35.920803],[138.507839,35.920503],[138.507564,35.92037],[138.507139,35.920253],[138.506889,35.92007],[138.506702,35.919845],[138.506614,35.919662],[138.506114,35.919329],[138.505589,35.918904],[138.505202,35.918412],[138.50484,35.91782],[138.50449,35.916229],[138.504577,35.915779],[138.504565,35.915571],[138.504315,35.915237],[138.50379,35.914921],[138.50354,35.914496],[138.503315,35.913263],[138.503028,35.912679],[138.50264,35.912229],[138.502115,35.911963],[138.50164,35.911921],[138.501115,35.912096],[138.50059,35.912396],[138.50009,35.912554],[138.499515,35.912471],[138.498766,35.912179],[138.497703,35.911504],[138.497478,35.911421],[138.497116,35.911488],[138.496953,35.911554],[138.496853,35.911596],[138.496566,35.911579],[138.495778,35.911629],[138.495128,35.911629],[138.494816,35.911563],[138.494679,35.911404],[138.494679,35.911163],[138.494779,35.910821],[138.495479,35.909555],[138.495754,35.908855],[138.495916,35.907863],[138.495916,35.907388],[138.495704,35.906447],[138.495729,35.905905],[138.495866,35.905005],[138.495479,35.903747],[138.495216,35.903155],[138.494592,35.902055],[138.494017,35.901389],[138.492879,35.899881],[138.491817,35.898948],[138.49128,35.898589],[138.490905,35.898006],[138.49053,35.896948],[138.490355,35.896606],[138.490217,35.896456],[138.49013,35.896406],[138.489817,35.896481],[138.488855,35.896323],[138.488118,35.896215],[138.48773,35.89624],[138.487468,35.896331],[138.487105,35.896539],[138.48663,35.897106],[138.48618,35.897581],[138.485543,35.898014],[138.485055,35.898173],[138.484443,35.898448],[138.48388,35.898631],[138.483093,35.898814],[138.48263,35.898839],[138.482243,35.898798],[138.48198,35.898664],[138.48178,35.898439],[138.481643,35.898189],[138.481443,35.897973],[138.481243,35.897923],[138.480906,35.897948],[138.480006,35.898206],[138.479631,35.898181],[138.479231,35.898098],[138.478331,35.897489],[138.478156,35.897448],[138.477343,35.897498],[138.476856,35.897389],[138.476606,35.897231],[138.476344,35.897123],[138.476006,35.897098],[138.475306,35.897264],[138.474844,35.897306],[138.473919,35.897023],[138.473406,35.896931],[138.472869,35.896781],[138.472581,35.896556],[138.472356,35.896306],[138.472181,35.896223],[138.471869,35.896198],[138.471644,35.896248],[138.471169,35.896681],[138.470782,35.896948],[138.469794,35.897406],[138.469707,35.897789],[138.469519,35.898223],[138.469157,35.898489],[138.468369,35.898898],[138.467544,35.899406],[138.466332,35.899681],[138.465719,35.899931],[138.465044,35.900339],[138.464819,35.900522],[138.464507,35.900839],[138.464057,35.901564],[138.463732,35.901906],[138.463194,35.902289],[138.462832,35.902422],[138.462207,35.902539],[138.461732,35.902772],[138.461557,35.90288],[138.460382,35.903547],[138.459895,35.903664],[138.459132,35.903664],[138.458457,35.90358],[138.457607,35.903422],[138.45707,35.903297],[138.456582,35.903097],[138.45627,35.902847],[138.45607,35.902147],[138.455957,35.901947],[138.455895,35.901564],[138.456058,35.900889],[138.45592,35.900664],[138.455545,35.900281],[138.45537,35.899989],[138.455145,35.899723],[138.455008,35.899631],[138.454883,35.899631],[138.45447,35.899864],[138.454408,35.900023],[138.454445,35.900314],[138.454383,35.900631],[138.45417,35.901189],[138.454083,35.901622],[138.45412,35.902406],[138.454183,35.902931],[138.454108,35.903289],[138.453545,35.904347],[138.453183,35.905205],[138.452933,35.905614],[138.452595,35.905888],[138.451608,35.906347],[138.451533,35.906413],[138.451558,35.906863],[138.451445,35.907047],[138.451258,35.907247],[138.451195,35.907405],[138.451195,35.90763],[138.45112,35.907905],[138.450895,35.908288],[138.45042,35.908672],[138.45022,35.908946],[138.450195,35.909263],[138.45037,35.909913],[138.450345,35.910246],[138.450045,35.910796],[138.449208,35.911788],[138.449058,35.912063],[138.448958,35.912538],[138.448958,35.912846],[138.448845,35.913054],[138.448283,35.913346],[138.44772,35.913871],[138.44727,35.914163],[138.446258,35.914713],[138.446183,35.914804],[138.44587,35.915571],[138.445758,35.915687],[138.445595,35.915954],[138.445508,35.916337],[138.445345,35.916837],[138.445033,35.917179],[138.444395,35.917721],[138.444308,35.917904],[138.444395,35.918037],[138.444795,35.918262],[138.445307,35.918754],[138.445395,35.918929],[138.445482,35.919337],[138.445482,35.919845],[138.445095,35.920595],[138.44442,35.921362],[138.44422,35.921878],[138.44422,35.92217],[138.444357,35.922487],[138.444607,35.922762],[138.444995,35.923028],[138.445345,35.92317],[138.446295,35.923353],[138.447095,35.923628],[138.447307,35.923945],[138.447332,35.924186],[138.447032,35.924636],[138.446945,35.92482],[138.447057,35.924911],[138.447832,35.925253],[138.447882,35.925495],[138.447869,35.926153],[138.447932,35.926486],[138.448232,35.927253],[138.448332,35.927978],[138.448307,35.928161],[138.448169,35.928311],[138.448107,35.928469],[138.448082,35.928919],[138.447969,35.929011],[138.447294,35.929119],[138.447269,35.929169],[138.447357,35.929344],[138.448432,35.930136],[138.449144,35.930927],[138.449494,35.931202],[138.449632,35.931427],[138.449719,35.931702],[138.449881,35.932036],[138.450181,35.932377],[138.450456,35.932627],[138.451256,35.932919],[138.451619,35.93326],[138.451694,35.933535],[138.451831,35.933777],[138.452219,35.934235],[138.452331,35.934502],[138.452456,35.935335],[138.452681,35.935652],[138.452756,35.936085],[138.453031,35.93656],[138.453368,35.936785],[138.453506,35.936985],[138.453768,35.937735],[138.454043,35.938093],[138.454206,35.938585],[138.454206,35.939035],[138.453868,35.939485],[138.453806,35.93971],[138.453843,35.939985],[138.453693,35.94016],[138.453331,35.940318],[138.452781,35.940635],[138.452418,35.940968],[138.452243,35.941285],[138.452243,35.941443],[138.451806,35.941551],[138.451743,35.941801],[138.452131,35.942135],[138.451881,35.94236],[138.451743,35.942635],[138.451681,35.942901],[138.451518,35.943151],[138.451006,35.943484],[138.450956,35.943709],[138.451006,35.943909],[138.450893,35.944384],[138.450606,35.945151],[138.450306,35.945526],[138.450193,35.945618],[138.449418,35.945818],[138.449081,35.945926],[138.448531,35.946042],[138.448306,35.946217],[138.448243,35.946309],[138.447606,35.946684],[138.447331,35.946934],[138.446768,35.947092],[138.446381,35.947451],[138.446181,35.947584],[138.445906,35.948192],[138.445931,35.948209],[138.445768,35.948342],[138.445593,35.948617],[138.445456,35.949267],[138.445281,35.949375],[138.444918,35.949492],[138.444706,35.9496],[138.444593,35.949784],[138.444643,35.95005],[138.444618,35.950167],[138.444256,35.950275],[138.443968,35.9505],[138.443893,35.950567],[138.443531,35.950742],[138.443056,35.951008],[138.442668,35.951142],[138.442331,35.95135],[138.441356,35.95175],[138.440331,35.952217],[138.438806,35.952817],[138.436694,35.95375],[138.434319,35.954733],[138.433606,35.955066],[138.432931,35.955333],[138.430569,35.956399],[138.429769,35.956716],[138.428794,35.957132],[138.426932,35.957849],[138.425569,35.958249],[138.425144,35.958399],[138.424682,35.958674],[138.424345,35.958916],[138.42392,35.959074],[138.42312,35.959182],[138.422457,35.959249],[138.421457,35.959399],[138.419957,35.959799],[138.419645,35.95984],[138.41912,35.959632],[138.41827,35.959157],[138.417633,35.958949],[138.417108,35.958949],[138.416633,35.95904],[138.415808,35.959324],[138.415633,35.959349],[138.414421,35.95934],[138.413383,35.959698],[138.412946,35.95994],[138.412158,35.960257],[138.411658,35.960432],[138.410971,35.960765],[138.409908,35.96144],[138.409746,35.961548],[138.409321,35.961973],[138.408709,35.962398],[138.407909,35.96264],[138.406184,35.962906],[138.405434,35.963056],[138.404684,35.963256],[138.403209,35.963748],[138.401397,35.964548],[138.400984,35.964681],[138.400484,35.964748],[138.399709,35.964631],[138.399159,35.964514],[138.398772,35.964398],[138.398184,35.964398],[138.396159,35.965173],[138.394547,35.965614],[138.392797,35.965881],[138.391772,35.966122],[138.39071,35.966431],[138.389822,35.966856],[138.38871,35.967505],[138.387872,35.967772],[138.38726,35.967922],[138.386435,35.968214],[138.385898,35.968455],[138.385485,35.968705],[138.384898,35.968972],[138.38431,35.969189],[138.38381,35.969439],[138.382898,35.970355],[138.38216,35.971163],[138.38186,35.971455],[138.381335,35.971538],[138.37986,35.971647],[138.377886,35.971663],[138.376898,35.971497],[138.376148,35.97143],[138.375311,35.971447],[138.374711,35.971488],[138.373898,35.971621],[138.373098,35.971838],[138.372873,35.971838],[138.371936,35.971363],[138.371897,35.97136],[138.371836,35.97143],[138.371536,35.971338],[138.371249,35.971296],[138.370861,35.971321],[138.370336,35.971455],[138.370461,35.972588],[138.370674,35.973038],[138.371061,35.973554],[138.371648,35.974971],[138.371798,35.975063],[138.371961,35.975321],[138.372036,35.975413],[138.372148,35.975679],[138.372211,35.977596],[138.372186,35.977729],[138.372286,35.978812],[138.372473,35.97967],[138.372886,35.980279],[138.373761,35.981162],[138.373898,35.981679],[138.374136,35.982178],[138.374386,35.983012],[138.374411,35.983328],[138.374348,35.983478],[138.374073,35.98377],[138.373873,35.984087],[138.373561,35.98487],[138.373173,35.985703],[138.373086,35.986045],[138.373211,35.986828],[138.374061,35.988994],[138.374135,35.989419],[138.374023,35.989644],[138.373298,35.989936],[138.373073,35.990094],[138.372936,35.990336],[138.372873,35.990636],[138.372873,35.990927],[138.372811,35.991219],[138.372648,35.991461],[138.372223,35.992161],[138.372086,35.992544],[138.372086,35.992769],[138.372236,35.993644],[138.372261,35.994252],[138.372198,35.994569],[138.372086,35.994885],[138.371888,35.994987],[138.371736,35.995185],[138.370798,35.996018],[138.369986,35.997735],[138.369698,35.998035],[138.369523,35.998143],[138.368586,35.99846],[138.367736,35.998651],[138.367586,35.998876],[138.367536,35.999193],[138.367598,35.99991],[138.367536,36.000185],[138.367161,36.000926],[138.367048,36.001334],[138.366573,36.001993],[138.366223,36.002259],[138.364849,36.003168],[138.364736,36.003226],[138.364599,36.003501],[138.364536,36.003701],[138.364511,36.004084],[138.364549,36.005251],[138.364811,36.005951],[138.364761,36.006175],[138.364599,36.007575],[138.364611,36.008592],[138.364561,36.008767],[138.363936,36.009317],[138.363574,36.009925],[138.363336,36.010642],[138.362861,36.0113],[138.362324,36.012291],[138.362161,36.012433],[138.361799,36.012525],[138.361174,36.01255],[138.359762,36.012691],[138.359587,36.012741],[138.359224,36.012741],[138.358949,36.012791],[138.359112,36.012966],[138.359487,36.013233],[138.359774,36.013574],[138.359937,36.013949],[138.360262,36.014899],[138.360299,36.015257],[138.360262,36.015507],[138.360749,36.015932],[138.361261,36.016624],[138.361386,36.016849],[138.361524,36.017324],[138.361524,36.017391],[138.361386,36.017907],[138.360911,36.018432],[138.360886,36.018682],[138.360724,36.018999],[138.360386,36.019315],[138.359762,36.019582],[138.359399,36.019832],[138.359324,36.02004],[138.359474,36.02204],[138.359599,36.022315],[138.359911,36.022765],[138.360249,36.023281],[138.360549,36.024173],[138.360524,36.02449],[138.360436,36.024698],[138.359924,36.024923],[138.359449,36.02529],[138.359224,36.025698],[138.358986,36.026348],[138.358874,36.026914],[138.358899,36.027156],[138.359361,36.027673],[138.360761,36.029556],[138.361073,36.030214],[138.361085,36.030275],[138.361198,36.030481],[138.361311,36.031064],[138.361236,36.031406],[138.361036,36.031764],[138.360723,36.032105],[138.360024,36.032514],[138.359524,36.032722],[138.358761,36.033105],[138.358024,36.033222],[138.357799,36.033314],[138.356674,36.033547],[138.356224,36.033688],[138.355711,36.034138],[138.355686,36.03443],[138.355774,36.03468],[138.356386,36.035938],[138.356411,36.036255],[138.356386,36.036363],[138.356136,36.036705],[138.355799,36.03698],[138.355399,36.037113],[138.354899,36.037363],[138.355011,36.037655],[138.355586,36.038688],[138.355874,36.039271],[138.356074,36.039613],[138.356199,36.040079],[138.356311,36.041029],[138.356299,36.041704],[138.356249,36.042271],[138.355661,36.043329],[138.355274,36.043787],[138.354736,36.044237],[138.353749,36.044895],[138.353336,36.045279],[138.353186,36.045554],[138.353224,36.04582],[138.353336,36.046162],[138.353424,36.046629],[138.353349,36.046787],[138.353011,36.046903],[138.352586,36.046903],[138.352074,36.046953],[138.351086,36.04712],[138.350611,36.047278],[138.349986,36.047437],[138.349249,36.047578],[138.348187,36.047695],[138.348074,36.047745],[138.347861,36.053403],[138.347786,36.053828],[138.347824,36.054394],[138.347624,36.055002],[138.346886,36.057485],[138.346836,36.057752],[138.346686,36.058044],[138.345786,36.060552],[138.345674,36.061077],[138.345399,36.061527],[138.345361,36.061502],[138.344999,36.061685],[138.344499,36.061802],[138.344074,36.061852],[138.343699,36.061943],[138.342686,36.062152],[138.342574,36.062218],[138.342411,36.062485],[138.342186,36.063168],[138.341836,36.064426],[138.341586,36.064993],[138.341299,36.065359],[138.340511,36.065943],[138.339086,36.066676],[138.338599,36.066993],[138.337899,36.067243],[138.337199,36.067567],[138.336374,36.067859],[138.335874,36.068092],[138.334487,36.068392],[138.334412,36.068459],[138.334162,36.069067],[138.333999,36.070217],[138.333649,36.0727],[138.333611,36.074591],[138.333524,36.074658],[138.332711,36.074708],[138.332461,36.074783],[138.332311,36.07485],[138.332324,36.075183],[138.332549,36.075841],[138.332749,36.07665],[138.332836,36.076875],[138.333074,36.078199],[138.333111,36.078833],[138.333061,36.079957],[138.333099,36.080974],[138.333086,36.081599],[138.333023,36.081941],[138.333323,36.082774],[138.333611,36.083474],[138.334123,36.084207],[138.334261,36.084499],[138.334323,36.084973],[138.334161,36.085265],[138.333798,36.085723],[138.333286,36.08604],[138.33259,36.086401],[138.332561,36.08649],[138.332486,36.086565],[138.332011,36.086773],[138.331598,36.086865],[138.331236,36.086865],[138.330986,36.086798],[138.330573,36.086756],[138.329923,36.08649],[138.329786,36.086465],[138.329648,36.086373],[138.329561,36.086223],[138.329386,36.086173],[138.328998,36.085998],[138.327974,36.08564],[138.327011,36.085465],[138.326611,36.085448],[138.325849,36.08534],[138.324661,36.084898],[138.324011,36.084807],[138.323449,36.08484],[138.322574,36.084973],[138.321949,36.085182],[138.320674,36.085598],[138.319886,36.08594],[138.319699,36.086098],[138.319674,36.086415],[138.319749,36.08649],[138.319886,36.086873],[138.320024,36.087123],[138.320024,36.087206],[138.320224,36.08739],[138.320424,36.087456],[138.320524,36.087456],[138.321086,36.087606],[138.321811,36.088006],[138.322061,36.088098],[138.322386,36.087848],[138.322586,36.087781],[138.322886,36.087823],[138.323024,36.08789],[138.323724,36.088539],[138.324133,36.088855],[138.324387,36.08905],[138.324936,36.089473],[138.326436,36.090498],[138.327661,36.091148],[138.328048,36.091281],[138.327698,36.092156],[138.327211,36.093056],[138.326935,36.093414],[138.326498,36.094314],[138.32636,36.094789],[138.32631,36.09528],[138.326373,36.095822],[138.326323,36.096114],[138.32586,36.09753],[138.32561,36.097847],[138.325335,36.098005],[138.325035,36.098522],[138.324873,36.098946],[138.32466,36.100005],[138.324523,36.101013],[138.324585,36.101529],[138.324623,36.102879],[138.324772,36.104112],[138.324972,36.104446],[138.325197,36.104712],[138.325922,36.105337],[138.327435,36.107079],[138.327522,36.107129],[138.326747,36.107712],[138.326085,36.108095],[138.325885,36.108145],[138.325747,36.108145],[138.32556,36.108253],[138.324535,36.10927],[138.32371,36.10997],[138.323385,36.110178],[138.322247,36.110828],[138.321085,36.111603],[138.320735,36.111761],[138.321097,36.111895],[138.321097,36.111911],[138.32181,36.112203],[138.322985,36.112486],[138.323347,36.112645],[138.324047,36.112845],[138.324622,36.112978],[138.324847,36.113061],[138.325372,36.11317],[138.326684,36.113636],[138.328497,36.113969],[138.328934,36.114211],[138.330421,36.115461],[138.331009,36.115819],[138.331809,36.116261],[138.332146,36.116328],[138.333034,36.116328],[138.333759,36.116386],[138.334346,36.116361],[138.334596,36.116478],[138.334921,36.116744],[138.335283,36.116961],[138.335958,36.117519],[138.336633,36.117994],[138.336996,36.118169],[138.337946,36.118769],[138.338608,36.119511],[138.339058,36.120269],[138.339208,36.12056],[138.339658,36.121294],[138.33982,36.121702],[138.339945,36.122194],[138.33997,36.122752],[138.340033,36.123227],[138.340083,36.125202],[138.340195,36.126102],[138.340483,36.126685],[138.34062,36.127218],[138.34117,36.128876],[138.34142,36.12926],[138.341895,36.12966],[138.34262,36.129993],[138.343095,36.130151],[138.343507,36.130326],[138.343682,36.130485],[138.34382,36.131018],[138.344682,36.134942],[138.345095,36.137101],[138.345045,36.137409],[138.344745,36.137926],[138.344632,36.138042],[138.34427,36.138625],[138.344195,36.1391],[138.344457,36.140059],[138.344794,36.140775],[138.345219,36.141475],[138.345669,36.142483],[138.346007,36.143108],[138.346457,36.14425],[138.346407,36.144592],[138.346332,36.145242],[138.346444,36.1458],[138.346757,36.146491],[138.347232,36.147191],[138.347519,36.147475],[138.348044,36.147808],[138.348719,36.148483],[138.349194,36.149108],[138.349444,36.1496],[138.350044,36.150741],[138.350156,36.151099],[138.350106,36.151599],[138.350106,36.152041],[138.350194,36.152516],[138.350481,36.153524],[138.350619,36.153774],[138.351044,36.154057],[138.351581,36.154549],[138.352031,36.155157],[138.352818,36.156724],[138.352868,36.156991],[138.352843,36.157174],[138.352656,36.158024],[138.352606,36.158474],[138.352668,36.158815],[138.352981,36.159599],[138.353806,36.16134],[138.353918,36.161748],[138.354143,36.162265],[138.354593,36.162957],[138.355043,36.16349],[138.35658,36.165031],[138.358068,36.166281],[138.359242,36.166948],[138.359517,36.167173],[138.359655,36.16744],[138.359805,36.167956],[138.359942,36.168139],[138.360842,36.168714],[138.362142,36.169406],[138.36273,36.169739],[138.362655,36.169814],[138.363017,36.170081],[138.363342,36.170164],[138.363679,36.170323],[138.363879,36.170473],[138.364392,36.170723],[138.364767,36.170823],[138.365317,36.171073],[138.365479,36.171223],[138.365867,36.171389],[138.366104,36.171589],[138.366304,36.171864],[138.366979,36.172531],[138.367141,36.172789],[138.367679,36.173256],[138.368454,36.173689],[138.368916,36.174181],[138.369429,36.174506],[138.370229,36.174689],[138.370828,36.175064],[138.371041,36.175156],[138.371491,36.175539],[138.371866,36.175997],[138.371889,36.175959],[138.371903,36.175989],[138.372328,36.176839],[138.372916,36.177447],[138.373441,36.177814],[138.373866,36.178172],[138.37434,36.178714],[138.37564,36.179972],[138.37604,36.180238],[138.37654,36.180438],[138.376765,36.180463],[138.377178,36.180597],[138.377378,36.180622],[138.377928,36.180555],[138.378627,36.180572],[138.379177,36.180463],[138.379465,36.180372],[138.38004,36.18008],[138.38049,36.17958],[138.380852,36.179397],[138.381415,36.179264],[138.382915,36.179014],[138.382915,36.178897],[138.383414,36.178672],[138.384002,36.17858],[138.384027,36.178655],[138.384939,36.179347],[138.385302,36.179464],[138.385477,36.179705],[138.385614,36.180089],[138.385727,36.180272],[138.386652,36.180589],[138.386789,36.18088],[138.387089,36.181197],[138.387589,36.181397],[138.387739,36.181422],[138.387764,36.181464],[138.388739,36.182722],[138.389151,36.183063],[138.389714,36.183447],[138.390051,36.183872],[138.390601,36.184322],[138.391051,36.184822],[138.391589,36.185763],[138.391801,36.185988],[138.392226,36.185988],[138.393063,36.185738],[138.393226,36.185788],[138.393388,36.186213],[138.393538,36.186438],[138.393788,36.18648],[138.394088,36.186463],[138.394176,36.186596],[138.394176,36.186688],[138.394376,36.187205],[138.394288,36.187496],[138.393976,36.188013],[138.394288,36.187996],[138.394488,36.188038],[138.395238,36.188371],[138.395738,36.188896],[138.3961,36.18948],[138.39615,36.189705],[138.3966,36.190421],[138.39685,36.190988],[138.39705,36.191279],[138.397275,36.191396],[138.39775,36.191821],[138.398838,36.193213],[138.399538,36.193754],[138.399788,36.194204],[138.399875,36.194796],[138.399838,36.195404],[138.399738,36.195896],[138.399563,36.196237],[138.398925,36.196487],[138.398788,36.196737],[138.398738,36.197254],[138.3987,36.198804],[138.398488,36.199328],[138.398625,36.201037],[138.3988,36.201828],[138.398737,36.202211],[138.3986,36.202478],[138.398625,36.202778],[138.3986,36.203545],[138.398887,36.204961],[138.399275,36.205386],[138.400112,36.205744],[138.400225,36.205836],[138.400637,36.206578],[138.4007,36.206761],[138.400812,36.207727],[138.401175,36.208452],[138.401062,36.209261],[138.400625,36.209985],[138.400537,36.210369],[138.400562,36.210752],[138.400512,36.211227],[138.40065,36.211477],[138.400712,36.212102],[138.400624,36.212918],[138.400737,36.213818],[138.400649,36.214243],[138.400599,36.21436],[138.400149,36.214851],[138.400124,36.21531],[138.399987,36.215535],[138.399937,36.21571],[138.399874,36.216343],[138.400162,36.216593],[138.400349,36.216951],[138.400412,36.217218],[138.400237,36.217676],[138.400162,36.218801],[138.400099,36.218934],[138.400074,36.219317],[138.400162,36.220084],[138.399937,36.221075],[138.400024,36.221367],[138.399999,36.221434],[138.399837,36.222859],[138.399612,36.223333],[138.399362,36.223625],[138.398949,36.223875],[138.398549,36.224958],[138.398412,36.225858],[138.398274,36.22635],[138.397949,36.22665],[138.397499,36.226966],[138.397162,36.227391],[138.397049,36.228041],[138.397162,36.228633],[138.397474,36.229308],[138.397587,36.229649],[138.397499,36.229982],[138.397337,36.230299],[138.397037,36.230482],[138.396637,36.230641],[138.396025,36.231132],[138.3957,36.231132],[138.395225,36.231199],[138.394912,36.231516],[138.39475,36.23204],[138.394725,36.233032],[138.394862,36.234315],[138.394675,36.234673],[138.394425,36.23499],[138.394475,36.235373],[138.394587,36.23569],[138.394537,36.236048],[138.3942,36.236257],[138.39375,36.236415],[138.393312,36.236798],[138.393,36.237131],[138.392387,36.237606],[138.39205,36.237948],[138.391975,36.238081],[138.39195,36.23824],[138.392137,36.238531],[138.392637,36.239165],[138.3929,36.239564],[138.393062,36.240448],[138.393287,36.240856],[138.393287,36.241239],[138.39295,36.242314],[138.392812,36.242681],[138.392787,36.243064],[138.392987,36.243764],[138.393262,36.244614],[138.393437,36.244981],[138.393512,36.245364],[138.393549,36.245764],[138.393662,36.24588],[138.393762,36.24583],[138.393799,36.245431],[138.393687,36.245089],[138.393462,36.244664],[138.393374,36.244297],[138.393349,36.243964],[138.3931,36.243539],[138.39295,36.243131],[138.393062,36.242747],[138.393237,36.242364],[138.393287,36.242048],[138.393487,36.241548],[138.39345,36.241281],[138.3936,36.241148],[138.393225,36.239614],[138.393062,36.239181],[138.392337,36.238423],[138.392225,36.238215],[138.392275,36.23804],[138.3925,36.237898],[138.392662,36.237856],[138.392887,36.237898],[138.392975,36.237881],[138.393112,36.237765],[138.393175,36.237565],[138.393275,36.237406],[138.393425,36.237315],[138.393537,36.237315],[138.393725,36.237448],[138.393925,36.237515],[138.394225,36.237331],[138.394512,36.237265],[138.394812,36.237356],[138.395012,36.237581],[138.394874,36.238256],[138.394674,36.23869],[138.394787,36.239073],[138.395324,36.239973],[138.395437,36.240581],[138.395512,36.240756],[138.395962,36.241098],[138.397074,36.241839],[138.397324,36.241956],[138.397749,36.242264],[138.398474,36.242339],[138.399449,36.242473],[138.399974,36.242648],[138.400699,36.243148],[138.401236,36.243456],[138.401574,36.243706],[138.401824,36.244156],[138.402798,36.245197],[138.403548,36.245806],[138.404786,36.247156],[138.405148,36.247422],[138.405361,36.247672],[138.405423,36.247872],[138.405311,36.248214],[138.405511,36.248389],[138.405811,36.248572],[138.405761,36.248614],[138.405473,36.248664],[138.405373,36.248797],[138.405448,36.249072],[138.405848,36.24943],[138.405673,36.249747],[138.405673,36.25103],[138.405898,36.251797],[138.406185,36.252538],[138.40631,36.253138],[138.406423,36.25333],[138.406985,36.25378],[138.407373,36.254188],[138.407573,36.254213],[138.408123,36.254072],[138.408798,36.253805],[138.409098,36.253647],[138.409185,36.253663],[138.409373,36.253963],[138.409435,36.254613],[138.409485,36.25468],[138.409798,36.254863],[138.40996,36.255063],[138.409997,36.255038],[138.410135,36.255405],[138.410322,36.255472],[138.410572,36.255605],[138.41061,36.255805],[138.410497,36.256371],[138.41061,36.256705],[138.410635,36.257163],[138.410585,36.25723],[138.410497,36.257496],[138.410522,36.25763],[138.411085,36.258105],[138.411272,36.258221],[138.411747,36.258371],[138.412947,36.258438],[138.413372,36.25853],[138.413585,36.258371],[138.413697,36.258213],[138.414147,36.258238],[138.415847,36.258463],[138.416297,36.258463],[138.416509,36.258388],[138.416622,36.258321],[138.416284,36.257871],[138.416034,36.257671],[138.416072,36.257555],[138.417184,36.25783],[138.417422,36.257788],[138.417509,36.257671],[138.417647,36.25743],[138.417709,36.257222],[138.417797,36.257013],[138.417922,36.256722],[138.417984,36.256605],[138.418022,36.256488],[138.418072,36.256338],[138.418109,36.256222],[138.419211,36.255917],[138.41934,36.255885],[138.421635,36.253932],[138.425061,36.251694],[138.427762,36.250706],[138.430332,36.249653],[138.43277,36.247809],[138.438041,36.24511],[138.441063,36.244355],[138.443106,36.242709],[138.444555,36.240602],[138.446071,36.238035],[138.447389,36.235467],[138.449365,36.233821],[138.451803,36.23336],[138.456746,36.233558],[138.45971,36.233492],[138.46228,36.231517],[138.466629,36.226776],[138.468803,36.224933],[138.472559,36.223287],[138.47671,36.222563],[138.483604,36.219789],[138.486054,36.216585],[138.487166,36.216652],[138.487616,36.216652],[138.488116,36.216602],[138.488616,36.216602],[138.488754,36.216577],[138.489204,36.216602],[138.490254,36.21676],[138.490954,36.217027],[138.491429,36.21716],[138.492066,36.216843],[138.492216,36.216593],[138.494653,36.21651],[138.494641,36.216577],[138.494653,36.21666],[138.494641,36.216827],[138.494616,36.216985],[138.494578,36.21716],[138.494541,36.217402],[138.494553,36.217735],[138.494541,36.218035],[138.494503,36.218185],[138.494528,36.218343],[138.494578,36.21851],[138.494653,36.218627],[138.494728,36.218693],[138.494778,36.21876],[138.494853,36.218885],[138.496691,36.218868],[138.496691,36.218785],[138.496678,36.218577],[138.496678,36.218393],[138.496628,36.218277],[138.496591,36.21816],[138.496528,36.218018],[138.496491,36.217943],[138.496503,36.217868],[138.496841,36.217902],[138.496666,36.217227],[138.496877,36.216924],[138.496916,36.21686],[138.497066,36.216793],[138.497241,36.216635],[138.497241,36.216319],[138.496903,36.215344],[138.496903,36.214669],[138.496966,36.21431],[138.497091,36.214127],[138.497391,36.214085],[138.498591,36.214052],[138.49894,36.214119],[138.499115,36.214185],[138.49924,36.214344],[138.499315,36.214752],[138.499615,36.214819],[138.50024,36.214802],[138.500365,36.214286],[138.500203,36.213719],[138.500353,36.213111],[138.500478,36.213027],[138.500803,36.212977],[138.501578,36.212986],[138.50249,36.213086],[138.50289,36.213111],[138.503315,36.213086],[138.50364,36.212794],[138.503728,36.212782],[138.50424,36.213002],[138.504565,36.213119],[138.50504,36.213052],[138.506465,36.213069],[138.506715,36.213094],[138.507415,36.213411],[138.508627,36.212994],[138.508777,36.212861],[138.508977,36.212519],[138.509465,36.211444],[138.509665,36.211144],[138.510827,36.210753],[138.512152,36.210378],[138.512939,36.210111],[138.513639,36.210028],[138.514289,36.209828],[138.514964,36.209762],[138.515452,36.209637],[138.516852,36.209053],[138.517002,36.209012],[138.517352,36.209237],[138.517352,36.209395],[138.517477,36.209737],[138.517477,36.209937],[138.517726,36.210053],[138.518151,36.210195],[138.518826,36.209812],[138.519001,36.209745],[138.519276,36.209795],[138.519401,36.210045],[138.519376,36.210295],[138.519526,36.210545],[138.519989,36.210837],[138.520339,36.211137],[138.520589,36.211228],[138.520889,36.211428],[138.521189,36.211453],[138.521976,36.211103],[138.522776,36.211012],[138.523701,36.21077],[138.524176,36.210728],[138.524913,36.210537],[138.525263,36.210537],[138.525613,36.210403],[138.526313,36.210045],[138.526813,36.20992],[138.527226,36.20992],[138.527601,36.210012],[138.528101,36.209945],[138.5301,36.209604],[138.531338,36.209429],[138.532063,36.209137],[138.532663,36.209012],[138.533113,36.208812],[138.533138,36.208829],[138.5332,36.208679],[138.533225,36.208179],[138.533138,36.206846],[138.532738,36.205946],[138.53265,36.205488],[138.532425,36.204946],[138.532138,36.204313],[138.532088,36.203838],[138.532213,36.203754],[138.532463,36.203638],[138.532863,36.203438],[138.53305,36.203238],[138.533675,36.202971],[138.534875,36.202713],[138.535063,36.202438],[138.535063,36.201421],[138.5364,36.200213],[138.53655,36.200172],[138.536925,36.200263],[138.53745,36.200605],[138.5375,36.200763],[138.537475,36.201463],[138.537513,36.201913],[138.537638,36.202055],[138.53845,36.201738],[138.5397,36.201372],[138.53985,36.201347],[138.5399,36.201163],[138.539887,36.200238],[138.540112,36.200155],[138.540687,36.199955],[138.540937,36.199913],[138.541562,36.200097],[138.542012,36.200388],[138.542287,36.20048],[138.542612,36.200397],[138.542687,36.200422],[138.543012,36.200397],[138.543425,36.200313],[138.543625,36.200222],[138.544749,36.20003],[138.545987,36.199605],[138.546562,36.199389],[138.547287,36.199214],[138.547437,36.19923],[138.548287,36.198947],[138.548774,36.198839],[138.549099,36.198905],[138.549574,36.199114],[138.549974,36.199139],[138.550724,36.198964],[138.551124,36.198722],[138.551899,36.198564],[138.552386,36.198364],[138.552861,36.198256],[138.553536,36.198289],[138.555461,36.197939],[138.556049,36.197856],[138.556699,36.197831],[138.557274,36.198197],[138.557798,36.198114],[138.559148,36.197714],[138.559523,36.197698],[138.559698,36.197739],[138.560248,36.197748],[138.560836,36.197456],[138.561486,36.197256],[138.562111,36.197223],[138.562836,36.197114],[138.563523,36.197073],[138.563948,36.197098],[138.564435,36.197373],[138.56496,36.197556],[138.565185,36.197598],[138.565898,36.197648],[138.566548,36.197631],[138.567298,36.197523],[138.568323,36.197423],[138.56961,36.196931],[138.569935,36.19714],[138.570235,36.19719],[138.571135,36.19679],[138.57156,36.196748],[138.572935,36.196848],[138.573185,36.19694],[138.57336,36.196956],[138.573697,36.196781],[138.573922,36.196515],[138.574072,36.196398],[138.574372,36.196406],[138.574947,36.19654],[138.575222,36.19659],[138.575697,36.196506],[138.576372,36.196306],[138.576847,36.19674],[138.577147,36.196781],[138.577647,36.196656],[138.578959,36.196098],[138.579359,36.19644],[138.579659,36.196848],[138.580021,36.197098],[138.580346,36.19724],[138.581584,36.19709],[138.581734,36.19704],[138.582259,36.196732],[138.582609,36.196707],[138.583259,36.196715],[138.584084,36.197123],[138.584359,36.197173],[138.584659,36.197357],[138.584734,36.197357],[138.585234,36.197248],[138.585708,36.19709],[138.585933,36.197073],[138.586421,36.197098],[138.586883,36.197307],[138.587671,36.197382],[138.588321,36.197248],[138.588696,36.19689],[138.588846,36.196507],[138.588908,36.195898],[138.589083,36.195607],[138.589183,36.195515],[138.589508,36.195449],[138.590171,36.195182],[138.590796,36.195074],[138.591271,36.195032],[138.591646,36.194565],[138.591921,36.194432],[138.592583,36.194299]]]},"type":"Feature"}]}