{"features":[{"type":"Feature","geometry":{"coordinates":[[[138.257221,36.640142],[138.254686,36.635268],[138.253941,36.631658],[138.253024,36.628565],[138.252375,36.625676],[138.251457,36.622353],[138.249565,36.619775],[138.247673,36.618515],[138.245208,36.618171],[138.242513,36.618171],[138.239302,36.618286],[138.236837,36.617713],[138.235403,36.615937],[138.234945,36.613531],[138.233573,36.611269],[138.232984,36.607419],[138.227966,36.606213],[138.223211,36.604604],[138.221907,36.601846],[138.222674,36.599624],[138.223058,36.598015],[138.222981,36.596789],[138.221447,36.595639],[138.21999,36.595563],[138.218687,36.596635],[138.217383,36.598551],[138.216233,36.599011],[138.214239,36.598321],[138.213165,36.596635],[138.213012,36.594413],[138.214469,36.592115],[138.214929,36.58882],[138.213702,36.587134],[138.212552,36.585525],[138.212628,36.58361],[138.213165,36.581617],[138.212091,36.580468],[138.209024,36.578322],[138.207403,36.577439],[138.205563,36.577515],[138.204489,36.579431],[138.203262,36.581883],[138.201652,36.583109],[138.199121,36.583415],[138.195977,36.582496],[138.194367,36.581346],[138.194673,36.579431],[138.19636,36.578052],[138.198048,36.577132],[138.198891,36.576596],[138.198738,36.575293],[138.200655,36.572458],[138.200501,36.571002],[138.199274,36.569776],[138.195057,36.56832],[138.192143,36.566941],[138.189459,36.565485],[138.187311,36.566022],[138.185931,36.567554],[138.185011,36.570313],[138.18409,36.573914],[138.182863,36.576749],[138.181844,36.577528],[138.17916,36.578294],[138.176015,36.578907],[138.173178,36.578677],[138.170647,36.577451],[138.169114,36.574616],[138.165893,36.570249],[138.162365,36.567107],[138.159579,36.565459],[138.156128,36.565229],[138.147386,36.56339],[138.141174,36.562394],[138.136803,36.561857],[138.134326,36.560455],[138.132639,36.558616],[138.129341,36.555551],[138.12612,36.554095],[138.123436,36.552486],[138.122133,36.549881],[138.119909,36.544824],[138.117761,36.540609],[138.118145,36.538234],[138.119372,36.536778],[138.119449,36.533407],[138.118983,36.529606],[138.118139,36.525468],[138.117909,36.523093],[138.118753,36.520258],[138.120823,36.517959],[138.124888,36.516963],[138.129259,36.516503],[138.133553,36.516044],[138.137771,36.514588],[138.140379,36.512519],[138.143446,36.509454],[138.14406,36.506006],[138.143373,36.502277],[138.14276,36.500055],[138.143067,36.496837],[138.14414,36.492699],[138.144907,36.489481],[138.146518,36.486799],[138.149508,36.483581],[138.154953,36.48021],[138.158824,36.477012],[138.161278,36.474254],[138.164192,36.472645],[138.169407,36.470883],[138.172091,36.468737],[138.175235,36.467358],[138.177153,36.466438],[138.178149,36.464829],[138.179146,36.46299],[138.181754,36.459849],[138.182061,36.457244],[138.181831,36.453719],[138.18114,36.450578],[138.181074,36.447532],[138.181227,36.445464],[138.180844,36.443624],[138.181381,36.441173],[138.182608,36.439027],[138.185368,36.436652],[138.191197,36.43328],[138.195031,36.429373],[138.197562,36.426767],[138.200423,36.424168],[138.200296,36.424113],[138.199321,36.423763],[138.198571,36.423572],[138.198296,36.42353],[138.196596,36.422897],[138.196059,36.422605],[138.195371,36.42248],[138.194396,36.422422],[138.192922,36.422222],[138.189347,36.421788],[138.188822,36.42173],[138.188784,36.421638],[138.188534,36.421597],[138.187872,36.421605],[138.18746,36.421538],[138.186547,36.421463],[138.18516,36.42128],[138.18451,36.421238],[138.183772,36.421297],[138.182523,36.421171],[138.181023,36.421121],[138.180748,36.421105],[138.180048,36.420913],[138.179135,36.420538],[138.178623,36.420296],[138.178436,36.420163],[138.177536,36.41978],[138.177411,36.419721],[138.176448,36.419663],[138.174798,36.41963],[138.172161,36.41943],[138.172061,36.419396],[138.171586,36.418821],[138.171124,36.418621],[138.170874,36.418463],[138.170699,36.41818],[138.170549,36.417821],[138.170361,36.417605],[138.169549,36.417088],[138.169462,36.416963],[138.169487,36.415938],[138.168924,36.415305],[138.167874,36.41538],[138.167424,36.415472],[138.167349,36.415622],[138.167199,36.415755],[138.166462,36.416163],[138.166137,36.416413],[138.165674,36.416946],[138.165187,36.417813],[138.164912,36.418196],[138.164799,36.418363],[138.164112,36.418571],[138.163937,36.418671],[138.163774,36.418879],[138.163412,36.419779],[138.163324,36.419946],[138.162887,36.420129],[138.1625,36.420138],[138.16175,36.419871],[138.161525,36.419879],[138.161137,36.419971],[138.160837,36.420129],[138.1604,36.420163],[138.159562,36.419879],[138.15925,36.419854],[138.159112,36.419879],[138.159175,36.420129],[138.159212,36.420579],[138.159162,36.421012],[138.158975,36.421279],[138.1575,36.422179],[138.157087,36.422704],[138.15685,36.423179],[138.1563,36.423612],[138.156025,36.423912],[138.1552,36.42412],[138.1549,36.42417],[138.154263,36.424537],[138.153975,36.425037],[138.153488,36.425537],[138.152875,36.425953],[138.152025,36.426278],[138.151563,36.426328],[138.151063,36.426495],[138.15045,36.426587],[138.149813,36.426528],[138.149313,36.42667],[138.1483,36.427245],[138.14765,36.427661],[138.146301,36.428353],[138.145913,36.428678],[138.145726,36.428786],[138.144788,36.429119],[138.144626,36.429228],[138.144101,36.429286],[138.143301,36.429336],[138.142938,36.429611],[138.142613,36.430044],[138.141913,36.430636],[138.141538,36.431611],[138.141051,36.432177],[138.140163,36.433544],[138.139838,36.433977],[138.139313,36.43421],[138.137651,36.434252],[138.136601,36.434327],[138.136214,36.434452],[138.134901,36.434285],[138.134301,36.434402],[138.133314,36.434776],[138.132264,36.435285],[138.131889,36.435743],[138.131064,36.436401],[138.130664,36.437084],[138.129977,36.437476],[138.129489,36.437884],[138.128902,36.438184],[138.128577,36.438284],[138.128052,36.438176],[138.126989,36.437467],[138.126502,36.437226],[138.125539,36.437259],[138.124677,36.437226],[138.12424,36.437142],[138.124177,36.437092],[138.12399,36.437526],[138.123315,36.438525],[138.122865,36.439342],[138.12259,36.43955],[138.122115,36.439825],[138.121902,36.440063],[138.121702,36.440184],[138.121477,36.440425],[138.121252,36.440742],[138.120565,36.441342],[138.11989,36.441858],[138.11989,36.441925],[138.119578,36.442333],[138.119228,36.442533],[138.118553,36.44275],[138.118103,36.443267],[138.118015,36.443966],[138.11824,36.444283],[138.11839,36.444416],[138.118665,36.444758],[138.118728,36.444966],[138.118703,36.445391],[138.118478,36.44595],[138.118453,36.445975],[138.118441,36.446019],[138.118403,36.446108],[138.118265,36.446541],[138.117728,36.447591],[138.117853,36.448183],[138.117878,36.448949],[138.117765,36.449199],[138.11599,36.449816],[138.115865,36.449907],[138.115728,36.450082],[138.115603,36.450982],[138.115416,36.451432],[138.114841,36.452265],[138.114503,36.452849],[138.114053,36.453499],[138.113866,36.453923],[138.113541,36.454332],[138.113191,36.45444],[138.112303,36.454948],[138.112004,36.455173],[138.111704,36.455848],[138.111616,36.45639],[138.111491,36.456773],[138.111416,36.456881],[138.111091,36.457015],[138.110616,36.457081],[138.110254,36.457056],[138.109804,36.457073],[138.109454,36.45719],[138.108654,36.457814],[138.108354,36.457923],[138.107967,36.457989],[138.107517,36.457939],[138.107267,36.458048],[138.106742,36.458723],[138.106429,36.458989],[138.106129,36.459106],[138.105979,36.459281],[138.106079,36.460164],[138.106042,36.460256],[138.106192,36.460414],[138.106242,36.460997],[138.106192,36.461089],[138.105967,36.461356],[138.105854,36.462147],[138.105829,36.462705],[138.105942,36.463072],[138.106542,36.463864],[138.106742,36.464139],[138.106704,36.464947],[138.106629,36.465305],[138.106479,36.465672],[138.106242,36.466047],[138.106242,36.466188],[138.106192,36.466363],[138.106217,36.46648],[138.106192,36.466572],[138.106117,36.466588],[138.105954,36.467513],[138.105979,36.467805],[138.105979,36.46848],[138.105867,36.46873],[138.105817,36.468755],[138.105292,36.46873],[138.104267,36.468563],[138.103192,36.46833],[138.102767,36.468188],[138.102317,36.468096],[138.102117,36.468121],[138.101917,36.468163],[138.101467,36.468313],[138.101067,36.468405],[138.100567,36.468605],[138.100255,36.468805],[138.10003,36.469071],[138.09968,36.469338],[138.098818,36.469829],[138.098493,36.470096],[138.098243,36.470438],[138.097943,36.470504],[138.097768,36.470479],[138.097493,36.470588],[138.09698,36.471146],[138.096605,36.471504],[138.09608,36.471638],[138.095668,36.471729],[138.095343,36.471863],[138.095193,36.472063],[138.094793,36.472329],[138.094618,36.472396],[138.094468,36.472621],[138.09443,36.472729],[138.094155,36.472937],[138.093655,36.473087],[138.09343,36.473337],[138.093131,36.473512],[138.092508,36.473636],[138.092393,36.473662],[138.091868,36.473821],[138.091443,36.473837],[138.091218,36.473679],[138.090568,36.473112],[138.089993,36.473129],[138.089818,36.473154],[138.089318,36.472896],[138.089068,36.473012],[138.088743,36.473237],[138.088368,36.473437],[138.087718,36.473612],[138.087356,36.473654],[138.087181,36.473746],[138.086656,36.473737],[138.086231,36.473529],[138.085831,36.473371],[138.085431,36.473387],[138.085231,36.473529],[138.084856,36.473862],[138.084681,36.474104],[138.084569,36.474629],[138.084919,36.475012],[138.085644,36.47587],[138.085744,36.475895],[138.085931,36.476195],[138.086031,36.476579],[138.086281,36.477028],[138.087069,36.477778],[138.086869,36.47787],[138.086394,36.477978],[138.085069,36.47817],[138.084694,36.478262],[138.084206,36.47832],[138.083606,36.47832],[138.083081,36.478603],[138.082831,36.478945],[138.082369,36.479411],[138.081844,36.479886],[138.081694,36.479928],[138.080994,36.479811],[138.080294,36.479895],[138.078932,36.480111],[138.078782,36.480586],[138.077832,36.48062],[138.077332,36.480553],[138.076907,36.480436],[138.076444,36.480411],[138.076019,36.48052],[138.074657,36.481819],[138.074232,36.482111],[138.07377,36.482469],[138.07357,36.482894],[138.073357,36.483886],[138.07317,36.485211],[138.07322,36.485527],[138.073395,36.485802],[138.07412,36.486594],[138.074307,36.486935],[138.074657,36.487527],[138.074869,36.488794],[138.074769,36.488994],[138.07462,36.489127],[138.074295,36.48926],[138.073982,36.489435],[138.073582,36.48986],[138.073257,36.490068],[138.072932,36.490127],[138.072732,36.490085],[138.072057,36.490035],[138.071607,36.490077],[138.071295,36.490077],[138.07062,36.48991],[138.070095,36.489885],[138.06917,36.490418],[138.06887,36.490552],[138.06877,36.490485],[138.067395,36.490002],[138.06692,36.489952],[138.066245,36.489952],[138.065083,36.490143],[138.064233,36.49036],[138.062571,36.49076],[138.061346,36.490885],[138.060796,36.491018],[138.060671,36.491018],[138.060396,36.490901],[138.060221,36.49076],[138.059771,36.490718],[138.059696,36.49076],[138.058933,36.490935],[138.058133,36.491068],[138.057583,36.491335],[138.057308,36.491601],[138.056521,36.491751],[138.055846,36.491768],[138.055071,36.492059],[138.054534,36.492418],[138.053934,36.492726],[138.053359,36.492584],[138.052884,36.492226],[138.052684,36.492018],[138.051859,36.492218],[138.051534,36.492484],[138.051534,36.492551],[138.050872,36.493226],[138.050647,36.493542],[138.050297,36.493676],[138.049647,36.493534],[138.049184,36.493551],[138.048484,36.493934],[138.048109,36.494109],[138.047672,36.494559],[138.047247,36.494576],[138.046859,36.494834],[138.046822,36.494892],[138.046722,36.494909],[138.046097,36.494926],[138.045797,36.494767],[138.045447,36.494251],[138.045122,36.493842],[138.04471,36.493542],[138.04426,36.493359],[138.04361,36.492951],[138.043335,36.492609],[138.04341,36.492109],[138.043072,36.491618],[138.042497,36.491184],[138.041522,36.490634],[138.04066,36.489343],[138.040135,36.488818],[138.039735,36.488368],[138.039122,36.487801],[138.038423,36.48741],[138.037348,36.486701],[138.036548,36.486201],[138.03586,36.48586],[138.03496,36.48551],[138.034135,36.485285],[138.033185,36.48496],[138.032286,36.484685],[138.031336,36.484585],[138.030723,36.484627],[138.030373,36.48471],[138.029648,36.485093],[138.028823,36.485201],[138.027961,36.485235],[138.026536,36.485118],[138.025711,36.484976],[138.025386,36.484885],[138.024936,36.484401],[138.024724,36.484152],[138.024361,36.484201],[138.024211,36.484243],[138.023586,36.484235],[138.023111,36.484101],[138.022536,36.483985],[138.021461,36.484201],[138.020237,36.483268],[138.020112,36.483176],[138.020087,36.48311],[138.019762,36.483035],[138.019462,36.48301],[138.018812,36.482893],[138.018687,36.482718],[138.018524,36.482601],[138.018,36.482485],[138.0177,36.482301],[138.0174,36.481551],[138.017325,36.481485],[138.015375,36.481001],[138.014875,36.480701],[138.0147,36.480635],[138.014625,36.480568],[138.014275,36.480335],[138.013225,36.479993],[138.011451,36.479643],[138.010651,36.47941],[138.009276,36.479176],[138.007151,36.479201],[138.006401,36.479293],[138.006001,36.479426],[138.005639,36.479851],[138.005489,36.480093],[138.005039,36.480051],[138.004889,36.479868],[138.004664,36.479684],[138.003889,36.479276],[138.003514,36.479001],[138.002327,36.478334],[138.001452,36.477809],[138.001202,36.477626],[138.000277,36.476768],[137.99994,36.476268],[137.999565,36.475634],[137.999265,36.475518],[137.998815,36.475201],[137.998602,36.474809],[137.998102,36.474201],[137.997677,36.474018],[137.996877,36.473718],[137.996403,36.473451],[137.996128,36.473251],[137.996053,36.473135],[137.99569,36.472976],[137.99539,36.472168],[137.99489,36.472276],[137.994178,36.472393],[137.993903,36.472368],[137.993715,36.472076],[137.993353,36.471835],[137.992778,36.47161],[137.99234,36.471335],[137.99184,36.47091],[137.991703,36.470843],[137.991478,36.470593],[137.99134,36.470143],[137.99124,36.469943],[137.990965,36.469693],[137.990578,36.469401],[137.989991,36.469085],[137.989228,36.468793],[137.988403,36.468526],[137.987766,36.468251],[137.987578,36.468143],[137.987416,36.467943],[137.986916,36.467493],[137.986366,36.467193],[137.985516,36.466951],[137.984491,36.466818],[137.984279,36.466676],[137.983804,36.46621],[137.983254,36.465735],[137.982541,36.46531],[137.981941,36.465035],[137.981554,36.464676],[137.981529,36.46461],[137.981216,36.464426],[137.980616,36.464276],[137.980366,36.464068],[137.980154,36.463618],[137.980141,36.462652],[137.980091,36.462585],[137.980041,36.462585],[137.979866,36.462468],[137.979216,36.462243],[137.978492,36.461952],[137.978304,36.461843],[137.977392,36.461102],[137.977117,36.460743],[137.976979,36.46076],[137.976492,36.460985],[137.976379,36.461077],[137.975967,36.461285],[137.975304,36.461368],[137.974917,36.461326],[137.974292,36.461301],[137.974042,36.461376],[137.973955,36.461601],[137.974017,36.461801],[137.973967,36.461843],[137.973492,36.462001],[137.972967,36.462001],[137.97193,36.462076],[137.971817,36.462051],[137.971767,36.461868],[137.971792,36.461468],[137.971592,36.461326],[137.971017,36.461243],[137.97033,36.461259],[137.96893,36.461284],[137.968243,36.461426],[137.966318,36.462551],[137.965693,36.462976],[137.965005,36.46325],[137.964343,36.463384],[137.963606,36.463475],[137.963793,36.464017],[137.964543,36.465525],[137.96478,36.466175],[137.964843,36.46625],[137.964868,36.467033],[137.964755,36.467758],[137.96468,36.467916],[137.96448,36.467891],[137.964106,36.467708],[137.963718,36.4676],[137.963443,36.467558],[137.962693,36.467033],[137.961431,36.466541],[137.961243,36.466633],[137.960856,36.466991],[137.960443,36.467283],[137.959681,36.467666],[137.959268,36.467983],[137.958994,36.468508],[137.958856,36.469049],[137.958856,36.469316],[137.959069,36.470349],[137.959106,36.470757],[137.959044,36.471207],[137.958669,36.471682],[137.957869,36.472224],[137.957481,36.472557],[137.957344,36.47274],[137.957094,36.473282],[137.956931,36.473849],[137.956794,36.47459],[137.956606,36.475198],[137.956281,36.47574],[137.955694,36.476482],[137.954844,36.477248],[137.953969,36.477748],[137.952644,36.478398],[137.951994,36.478965],[137.951332,36.479439],[137.950869,36.479956],[137.950432,36.480631],[137.950069,36.481398],[137.949544,36.482097],[137.949357,36.482572],[137.949519,36.484597],[137.949719,36.485006],[137.949882,36.485097],[137.950407,36.485272],[137.950657,36.485297],[137.951332,36.485297],[137.951969,36.485231],[137.953181,36.485006],[137.954056,36.484931],[137.955381,36.484956],[137.955931,36.485047],[137.956344,36.485156],[137.956644,36.485497],[137.956731,36.485672],[137.956969,36.486014],[137.957581,36.487431],[137.957693,36.488106],[137.957581,36.488622],[137.956181,36.492005],[137.955556,36.493155],[137.955469,36.493405],[137.955444,36.493697],[137.955219,36.494463],[137.954844,36.49543],[137.954344,36.49633],[137.953519,36.497504],[137.952869,36.498321],[137.952531,36.498837],[137.952069,36.499329],[137.951656,36.499671],[137.951131,36.500029],[137.950506,36.500412],[137.950031,36.50087],[137.949919,36.501254],[137.949956,36.501629],[137.950169,36.501854],[137.950556,36.502062],[137.951056,36.502129],[137.951744,36.502104],[137.952231,36.501987],[137.952869,36.501904],[137.953768,36.501654],[137.954156,36.501496],[137.955068,36.501246],[137.955668,36.501179],[137.956281,36.501179],[137.956606,36.501221],[137.957181,36.501404],[137.957656,36.501671],[137.958068,36.501962],[137.958731,36.502546],[137.959518,36.502904],[137.959817,36.503026],[137.959918,36.503096],[137.960255,36.503254],[137.96088,36.503504],[137.961293,36.503746],[137.961705,36.504062],[137.963555,36.505321],[137.964067,36.505912],[137.964155,36.506154],[137.96413,36.506454],[137.964042,36.506745],[137.963942,36.506879],[137.963492,36.507237],[137.962505,36.507762],[137.96193,36.508004],[137.961518,36.508278],[137.96133,36.508478],[137.961243,36.508728],[137.961355,36.509112],[137.961555,36.509362],[137.96183,36.509512],[137.962243,36.509628],[137.962655,36.509787],[137.963117,36.510037],[137.96348,36.510328],[137.964517,36.51132],[137.965367,36.51192],[137.966055,36.512603],[137.966392,36.513053],[137.966992,36.51427],[137.967242,36.515145],[137.967217,36.515595],[137.966992,36.516361],[137.966667,36.516878],[137.966229,36.517419],[137.964779,36.518502],[137.964142,36.518911],[137.96288,36.519785],[137.962055,36.520469],[137.961667,36.520735],[137.960405,36.52141],[137.959455,36.522068],[137.958105,36.523168],[137.957442,36.523868],[137.957092,36.524501],[137.95693,36.524993],[137.956892,36.525401],[137.957005,36.525718],[137.957167,36.525985],[137.957342,36.526418],[137.957555,36.526776],[137.957717,36.526934],[137.957305,36.527026],[137.95643,36.527159],[137.956105,36.527184],[137.955767,36.527093],[137.95553,36.526801],[137.955355,36.526534],[137.954755,36.525834],[137.954418,36.525243],[137.95418,36.525093],[137.953955,36.524776],[137.95363,36.524051],[137.953405,36.523718],[137.95308,36.52351],[137.952005,36.52376],[137.951368,36.523785],[137.950168,36.523984],[137.949668,36.524009],[137.949418,36.523768],[137.949093,36.523201],[137.948981,36.52311],[137.948706,36.522976],[137.947693,36.522776],[137.947468,36.522618],[137.946756,36.521826],[137.946481,36.521651],[137.945656,36.521535],[137.945081,36.521426],[137.944694,36.52131],[137.944144,36.520818],[137.943756,36.519851],[137.943569,36.519735],[137.942769,36.51951],[137.941919,36.51931],[137.941482,36.519176],[137.941069,36.51911],[137.940682,36.518926],[137.940519,36.518676],[137.940319,36.51816],[137.940269,36.517776],[137.940044,36.517351],[137.939907,36.51676],[137.939519,36.516743],[137.939107,36.516768],[137.938782,36.516943],[137.938532,36.517168],[137.937982,36.51746],[137.937432,36.517551],[137.937019,36.517693],[137.936507,36.517918],[137.936394,36.517935],[137.935844,36.518301],[137.935619,36.518568],[137.935407,36.518568],[137.934719,36.518118],[137.934195,36.517984],[137.933782,36.517984],[137.933395,36.518184],[137.933182,36.518643],[137.932982,36.518884],[137.932607,36.519026],[137.932382,36.519068],[137.932082,36.519334],[137.931695,36.519584],[137.931032,36.519568],[137.930845,36.519634],[137.93057,36.520109],[137.93052,36.520334],[137.930045,36.521501],[137.92997,36.521976],[137.93057,36.522942],[137.930982,36.523309],[137.931145,36.523509],[137.931232,36.523709],[137.931232,36.524025],[137.931145,36.524675],[137.930932,36.524725],[137.93057,36.524684],[137.92977,36.525084],[137.929095,36.525309],[137.928458,36.525384],[137.927608,36.5254],[137.927195,36.525383],[137.926971,36.525542],[137.926758,36.525767],[137.926533,36.52615],[137.926346,36.526308],[137.926046,36.526775],[137.925958,36.527117],[137.925983,36.527475],[137.926071,36.527842],[137.926208,36.528108],[137.926258,36.52845],[137.926483,36.529125],[137.926595,36.52935],[137.92662,36.529575],[137.926595,36.529616],[137.926046,36.53025],[137.925933,36.53045],[137.925908,36.530991],[137.925846,36.531283],[137.925608,36.531374],[137.925471,36.531349],[137.925108,36.531149],[137.924721,36.530883],[137.924033,36.530674],[137.923733,36.530749],[137.923383,36.531108],[137.923271,36.531149],[137.923346,36.531424],[137.923733,36.532099],[137.924008,36.532683],[137.925245,36.534916],[137.925333,36.535749],[137.925245,36.536241],[137.925283,36.536582],[137.925058,36.537032],[137.924396,36.536715],[137.924121,36.536649],[137.923846,36.536715],[137.923408,36.536924],[137.923046,36.536832],[137.922583,36.536632],[137.922033,36.53629],[137.921646,36.53634],[137.921208,36.53634],[137.921133,36.536699],[137.920933,36.537107],[137.920858,36.537757],[137.920721,36.53794],[137.920658,36.537957],[137.920334,36.53769],[137.919971,36.537599],[137.919696,36.537374],[137.919371,36.537015],[137.919209,36.536949],[137.919146,36.537082],[137.919284,36.537732],[137.919184,36.537982],[137.918959,36.538207],[137.918934,36.538298],[137.919209,36.53884],[137.919484,36.538948],[137.919559,36.53909],[137.919671,36.539423],[137.919559,36.539515],[137.919396,36.539807],[137.919621,36.540465],[137.919621,36.540573],[137.919484,36.540731],[137.919234,36.54089],[137.919162,36.540884],[137.918821,36.540865],[137.918709,36.540823],[137.918596,36.540598],[137.918321,36.540465],[137.918109,36.540281],[137.917996,36.540082],[137.917334,36.539965],[137.917084,36.540056],[137.917609,36.540556],[137.917884,36.54089],[137.918384,36.541931],[137.918571,36.542156],[137.918796,36.542515],[137.919046,36.543056],[137.918409,36.543456],[137.917421,36.544248],[137.917396,36.544339],[137.917209,36.545581],[137.917009,36.546322],[137.916984,36.546956],[137.917071,36.547272],[137.917721,36.548464],[137.917596,36.549564],[137.917646,36.549972],[137.917696,36.550064],[137.917921,36.550239],[137.918196,36.550355],[137.918496,36.550622],[137.918796,36.551005],[137.918996,36.551322],[137.919046,36.551755],[137.919021,36.552447],[137.919071,36.55288],[137.919733,36.554322],[137.920258,36.554997],[137.920695,36.55538],[137.921058,36.555605],[137.921308,36.55583],[137.921445,36.556005],[137.922658,36.556613],[137.923033,36.556663],[137.923858,36.556638],[137.924083,36.556705],[137.924332,36.557355],[137.924545,36.557605],[137.925045,36.558013],[137.925595,36.558597],[137.926507,36.558772],[137.926395,36.558822],[137.92612,36.559072],[137.926007,36.55923],[137.925845,36.55968],[137.925732,36.560172],[137.925595,36.56173],[137.925707,36.563146],[137.925682,36.564046],[137.925907,36.564838],[137.926395,36.565471],[137.926782,36.565738],[137.927195,36.566004],[137.927357,36.565988],[137.927557,36.565871],[137.92802,36.565488],[137.928132,36.565446],[137.928844,36.565463],[137.928982,36.565555],[137.928982,36.565646],[137.928894,36.566255],[137.928932,36.566704],[137.929032,36.566954],[137.929282,36.567204],[137.929444,36.567429],[137.929694,36.567563],[137.930307,36.567721],[137.930607,36.567871],[137.930819,36.568029],[137.930819,36.568146],[137.930907,36.568329],[137.931244,36.568571],[137.931344,36.568913],[137.931344,36.569229],[137.931457,36.569404],[137.931682,36.569654],[137.931707,36.570013],[137.931657,36.570263],[137.931632,36.571904],[137.931957,36.572221],[137.932282,36.572354],[137.932669,36.572446],[137.933081,36.572446],[137.933444,36.572487],[137.934106,36.572871],[137.934431,36.572937],[137.934844,36.572938],[137.935394,36.572896],[137.935581,36.572938],[137.935644,36.573146],[137.935556,36.573371],[137.935344,36.573529],[137.935006,36.573621],[137.934756,36.573621],[137.934594,36.573729],[137.934519,36.573846],[137.934406,36.574362],[137.934381,36.574837],[137.933806,36.575396],[137.933081,36.575696],[137.932706,36.575937],[137.932531,36.576145],[137.932481,36.576462],[137.932756,36.576862],[137.933494,36.577629],[137.934056,36.578304],[137.934269,36.578462],[137.934569,36.578595],[137.934819,36.578912],[137.935044,36.579095],[137.935344,36.579254],[137.935531,36.579295],[137.935756,36.579545],[137.935869,36.579945],[137.936168,36.580779],[137.936393,36.581662],[137.936306,36.581837],[137.936143,36.58202],[137.935894,36.582378],[137.935756,36.582853],[137.935644,36.583712],[137.935919,36.583936],[137.936781,36.584386],[137.938018,36.585328],[137.938456,36.585778],[137.938993,36.58642],[137.939256,36.586711],[137.939493,36.587095],[137.939518,36.587203],[137.939493,36.587628],[137.939431,36.587745],[137.939393,36.588103],[137.939456,36.588511],[137.939356,36.588869],[137.938743,36.590286],[137.938618,36.590869],[137.938668,36.591269],[137.938881,36.591727],[137.939356,36.592286],[137.939806,36.592561],[137.940218,36.593077],[137.940943,36.593536],[137.94118,36.593827],[137.94123,36.593961],[137.94168,36.594752],[137.941805,36.594819],[137.942618,36.594869],[137.942793,36.594802],[137.943243,36.594736],[137.944055,36.594852],[137.945767,36.595219],[137.946817,36.595544],[137.948017,36.595702],[137.949105,36.595802],[137.950067,36.595736],[137.950667,36.595653],[137.951267,36.595469],[137.951754,36.595319],[137.951817,36.595186],[137.952092,36.595028],[137.952504,36.594919],[137.952779,36.595078],[137.953104,36.595144],[137.953592,36.595169],[137.953892,36.595328],[137.954392,36.595894],[137.954642,36.596053],[137.954841,36.596344],[137.955029,36.596369],[137.955479,36.596278],[137.955629,36.596394],[137.955654,36.596794],[137.955741,36.597111],[137.956041,36.597636],[137.956541,36.598111],[137.957616,36.598761],[137.958966,36.599894],[137.959529,36.600394],[137.960041,36.600961],[137.960478,36.601819],[137.961316,36.603077],[137.961466,36.603219],[137.962028,36.603377],[137.962728,36.603669],[137.963141,36.603877],[137.963566,36.603694],[137.964078,36.603319],[137.964953,36.603052],[137.965953,36.602902],[137.967278,36.602453],[137.96779,36.602236],[137.968628,36.602078],[137.96924,36.601878],[137.969965,36.601728],[137.971165,36.601303],[137.97159,36.601219],[137.972377,36.600953],[137.973277,36.601003],[137.97379,36.600936],[137.974265,36.600828],[137.97439,36.600845],[137.97484,36.601503],[137.975227,36.601861],[137.976177,36.602453],[137.97624,36.60252],[137.976715,36.602795],[137.977115,36.602911],[137.977839,36.602711],[137.978352,36.602445],[137.978927,36.602086],[137.979439,36.601903],[137.980039,36.601753],[137.980739,36.601486],[137.981402,36.600945],[137.981677,36.600703],[137.981952,36.600278],[137.982077,36.59992],[137.982439,36.599578],[137.982764,36.599337],[137.983339,36.599087],[137.983552,36.598862],[137.983827,36.598554],[137.984277,36.598287],[137.984889,36.59777],[137.985676,36.596804],[137.986014,36.596604],[137.986339,36.596537],[137.986726,36.596562],[137.987001,36.596629],[137.987601,36.596954],[137.987776,36.597087],[137.988651,36.597496],[137.989101,36.597904],[137.989426,36.598329],[137.990201,36.598962],[137.991376,36.59942],[137.991763,36.599445],[137.992601,36.599629],[137.992988,36.599746],[137.993413,36.599787],[137.99435,36.599771],[137.994438,36.599796],[137.994863,36.599729],[137.995013,36.599754],[137.995375,36.599687],[137.995588,36.599596],[137.995738,36.599287],[137.995825,36.598946],[137.995975,36.598704],[137.996138,36.598546],[137.996463,36.598362],[137.996938,36.598254],[137.997275,36.598229],[137.998075,36.598071],[137.998575,36.598021],[137.999,36.598021],[137.999137,36.598046],[137.999337,36.597846],[137.9997,36.597663],[138.000312,36.597413],[138.000387,36.597296],[138.000525,36.596896],[138.001225,36.595971],[138.00225,36.595288],[138.002675,36.594905],[138.003362,36.59473],[138.005262,36.594772],[138.005962,36.594772],[138.006674,36.594838],[138.007399,36.594972],[138.008124,36.595238],[138.009186,36.595555],[138.009499,36.595847],[138.009799,36.596247],[138.010724,36.596855],[138.011161,36.596988],[138.011724,36.597063],[138.012286,36.59708],[138.013174,36.596814],[138.013648,36.596855],[138.014011,36.596697],[138.014061,36.596697],[138.014336,36.596855],[138.014398,36.596947],[138.014423,36.597239],[138.014761,36.59748],[138.014898,36.597555],[138.015261,36.59753],[138.015648,36.597347],[138.016011,36.59728],[138.016123,36.597347],[138.016598,36.59793],[138.016736,36.597955],[138.016936,36.597439],[138.017211,36.597389],[138.017711,36.597505],[138.01791,36.597347],[138.017936,36.597122],[138.018098,36.597005],[138.018435,36.597097],[138.019048,36.597364],[138.01921,36.59748],[138.019498,36.59788],[138.019773,36.598155],[138.02016,36.598197],[138.020773,36.598222],[138.020973,36.598197],[138.02141,36.597997],[138.02206,36.597747],[138.022498,36.597447],[138.022885,36.597364],[138.02376,36.597739],[138.024335,36.597739],[138.02476,36.597539],[138.025335,36.597064],[138.025897,36.596814],[138.025897,36.595956],[138.026035,36.595639],[138.026035,36.595348],[138.025897,36.594948],[138.02585,36.594793],[138.025785,36.594539],[138.026035,36.594606],[138.026672,36.594698],[138.027347,36.594714],[138.028459,36.594464],[138.029397,36.594148],[138.030684,36.593948],[138.031297,36.593881],[138.031347,36.593898],[138.033496,36.593806],[138.034109,36.593848],[138.034634,36.593756],[138.034909,36.593806],[138.035471,36.593965],[138.036109,36.594048],[138.036496,36.594073],[138.037058,36.593731],[138.037833,36.593623],[138.038308,36.593373],[138.038783,36.593098],[138.039233,36.593007],[138.039558,36.593098],[138.039921,36.593282],[138.040346,36.593282],[138.040571,36.593098],[138.040596,36.593007],[138.041146,36.593098],[138.041458,36.593207],[138.041708,36.59339],[138.042045,36.59404],[138.042433,36.594715],[138.042708,36.595598],[138.043195,36.597515],[138.043333,36.598373],[138.043895,36.599948],[138.044332,36.600514],[138.044845,36.600714],[138.045532,36.600781],[138.046257,36.600756],[138.046595,36.600714],[138.04787,36.600439],[138.04802,36.600481],[138.048682,36.600414],[138.049457,36.600256],[138.050132,36.600073],[138.051632,36.599981],[138.052519,36.600006],[138.053219,36.600073],[138.054006,36.60034],[138.054256,36.600498],[138.054869,36.600698],[138.055306,36.600948],[138.055756,36.601506],[138.056006,36.601981],[138.056956,36.603064],[138.057606,36.603698],[138.058293,36.604214],[138.059081,36.604598],[138.061118,36.605381],[138.061843,36.605606],[138.062143,36.605831],[138.062143,36.606081],[138.061893,36.606281],[138.061205,36.606556],[138.061093,36.606622],[138.061055,36.606956],[138.061343,36.607656],[138.061618,36.607864],[138.061705,36.607881],[138.06193,36.607814],[138.062368,36.607614],[138.062455,36.607631],[138.062593,36.607906],[138.062568,36.608172],[138.062318,36.608355],[138.062118,36.608555],[138.062318,36.608897],[138.06268,36.60928],[138.062455,36.609597],[138.062343,36.609622],[138.062068,36.609572],[138.06148,36.609347],[138.061068,36.609239],[138.060793,36.60933],[138.060705,36.609505],[138.060755,36.609689],[138.06118,36.610022],[138.061318,36.610405],[138.061568,36.611472],[138.061655,36.611472],[138.062218,36.61158],[138.06243,36.611538],[138.062655,36.611422],[138.063493,36.610747],[138.06363,36.610589],[138.06383,36.610697],[138.06408,36.611055],[138.064305,36.611463],[138.065305,36.611688],[138.065667,36.612205],[138.06598,36.612797],[138.06603,36.613288],[138.06593,36.614396],[138.06598,36.614913],[138.066205,36.615246],[138.066655,36.615496],[138.066817,36.61563],[138.066705,36.615771],[138.06643,36.615971],[138.065955,36.616155],[138.065705,36.616355],[138.065092,36.617029],[138.064505,36.617713],[138.064117,36.618113],[138.063592,36.618429],[138.06348,36.618571],[138.063367,36.618971],[138.063155,36.619221],[138.062867,36.619046],[138.06223,36.618571],[138.062205,36.618479],[138.062367,36.618346],[138.062317,36.618213],[138.061643,36.617621],[138.061193,36.617513],[138.060605,36.617538],[138.05958,36.617471],[138.059443,36.617379],[138.05958,36.617579],[138.060055,36.617804],[138.060555,36.617921],[138.06078,36.618004],[138.061168,36.618321],[138.061368,36.618637],[138.061393,36.618979],[138.061255,36.619271],[138.060755,36.619679],[138.060305,36.619771],[138.059693,36.619546],[138.059218,36.619254],[138.058855,36.619229],[138.05783,36.619637],[138.057048,36.619742],[138.057018,36.619746],[138.055356,36.61982],[138.055181,36.619754],[138.055043,36.619454],[138.054793,36.619212],[138.054593,36.619146],[138.054181,36.619121],[138.053706,36.619029],[138.053368,36.618854],[138.052893,36.618712],[138.052643,36.618721],[138.051731,36.618512],[138.051169,36.618312],[138.051394,36.618962],[138.051681,36.620337],[138.051756,36.620545],[138.052118,36.620945],[138.052593,36.621312],[138.053018,36.621695],[138.053381,36.622278],[138.053631,36.62277],[138.054081,36.623453],[138.054243,36.623987],[138.054305,36.62467],[138.054468,36.625295],[138.054643,36.625745],[138.05503,36.62622],[138.055618,36.627119],[138.055418,36.627728],[138.055393,36.628228],[138.055505,36.628794],[138.055793,36.629377],[138.056518,36.630636],[138.056542,36.631094],[138.056355,36.63161],[138.056155,36.632285],[138.056155,36.632985],[138.05663,36.634243],[138.056692,36.634743],[138.056555,36.635127],[138.056055,36.635893],[138.055492,36.636301],[138.055105,36.636435],[138.054917,36.636568],[138.054855,36.637001],[138.055055,36.637401],[138.055467,36.637876],[138.056255,36.638235],[138.056255,36.638301],[138.056117,36.638459],[138.056392,36.638801],[138.05653,36.639143],[138.056592,36.639409],[138.056842,36.639768],[138.057317,36.640109],[138.058517,36.640626],[138.058629,36.640851],[138.058679,36.641209],[138.058879,36.641642],[138.059379,36.642317],[138.060029,36.642784],[138.060692,36.643192],[138.061442,36.643417],[138.062141,36.643526],[138.062841,36.643801],[138.063404,36.644159],[138.063954,36.644359],[138.065266,36.644426],[138.066016,36.644517],[138.066578,36.644784],[138.067028,36.645217],[138.067216,36.645617],[138.067553,36.646567],[138.067666,36.647517],[138.068028,36.648033],[138.068866,36.648142],[138.069316,36.648325],[138.07054,36.64835],[138.071903,36.648525],[138.07249,36.6485],[138.07269,36.648792],[138.073078,36.649175],[138.07344,36.6492],[138.073865,36.64895],[138.074328,36.648117],[138.07494,36.647509],[138.07544,36.647192],[138.076027,36.646984],[138.07644,36.646809],[138.07689,36.646784],[138.07784,36.646984],[138.07834,36.646984],[138.07879,36.647101],[138.079152,36.647259],[138.079377,36.647301],[138.079852,36.647301],[138.080515,36.647209],[138.08119,36.647234],[138.08194,36.647276],[138.08244,36.647276],[138.082577,36.647301],[138.08314,36.647859],[138.083664,36.648492],[138.084589,36.649259],[138.084727,36.649459],[138.084752,36.649817],[138.084589,36.650742],[138.084789,36.650967],[138.085152,36.651242],[138.085489,36.651575],[138.085714,36.652025],[138.085964,36.652117],[138.086914,36.6523],[138.088139,36.652434],[138.088839,36.652567],[138.089114,36.652592],[138.089927,36.652701],[138.090614,36.652767],[138.091901,36.652967],[138.092376,36.653017],[138.092739,36.652834],[138.093151,36.652451],[138.093764,36.652268],[138.094964,36.652318],[138.095626,36.652268],[138.096164,36.652401],[138.097501,36.652626],[138.097889,36.652901],[138.099651,36.654384],[138.099988,36.654859],[138.100776,36.655867],[138.101026,36.656342],[138.101138,36.656867],[138.101138,36.657067],[138.101838,36.657134],[138.102588,36.657267],[138.103063,36.657425],[138.103563,36.657517],[138.104088,36.657467],[138.10495,36.657717],[138.1052,36.657825],[138.105625,36.658075],[138.111714,36.658428],[138.113028,36.658953],[138.114693,36.660967],[138.115395,36.662806],[138.117147,36.663419],[138.120741,36.663069],[138.12337,36.663681],[138.126349,36.663769],[138.128851,36.663245],[138.134723,36.662894],[138.138579,36.66412],[138.141997,36.665959],[138.146379,36.667448],[138.150148,36.667448],[138.153302,36.668586],[138.156545,36.668761],[138.160226,36.6699],[138.164345,36.6699],[138.168727,36.668674],[138.171531,36.668761],[138.175107,36.667801],[138.177211,36.667101],[138.179402,36.66675],[138.182031,36.666313],[138.184134,36.665174],[138.187552,36.664211],[138.190532,36.66316],[138.194038,36.663423],[138.197105,36.663686],[138.200172,36.662722],[138.204379,36.661496],[138.209812,36.661146],[138.21586,36.661584],[138.221293,36.661847],[138.227516,36.662285],[138.231898,36.661759],[138.236367,36.660971],[138.241538,36.660358],[138.245453,36.661233],[138.249396,36.662109],[138.252727,36.662109],[138.255969,36.661846],[138.259124,36.660095],[138.263769,36.656768],[138.265834,36.65459],[138.265447,36.653573],[138.265197,36.65319],[138.265109,36.653123],[138.264059,36.65194],[138.263247,36.651174],[138.262909,36.650765],[138.262747,36.65044],[138.262584,36.649882],[138.259721,36.645691],[138.257221,36.640142]]],"type":"Polygon"},"properties":{"yomi":"さらしな","name":"更科","pref":"長野県","kuni_id":"K24","id_url":"G24010.html","kuni_url":"/kg/resource/K24.html","kuni":"信濃","id":"G24010"}}],"type":"FeatureCollection"}