{"type":"FeatureCollection","features":[{"type":"Feature","geometry":{"coordinates":[[[138.476265,37.020077],[138.47654,37.020127],[138.477489,37.020127],[138.477964,37.020169],[138.478552,37.020327],[138.478939,37.020561],[138.479977,37.021052],[138.481164,37.021502],[138.481426,37.021552],[138.481726,37.021486],[138.482001,37.021261],[138.482339,37.020627],[138.482489,37.020136],[138.482626,37.019861],[138.482964,37.019886],[138.483489,37.020003],[138.484826,37.020186],[138.485664,37.020344],[138.486139,37.020519],[138.486364,37.020503],[138.487226,37.020253],[138.487726,37.020094],[138.488426,37.020003],[138.489288,37.020211],[138.489763,37.020236],[138.490013,37.020119],[138.490101,37.020053],[138.490376,37.019944],[138.490801,37.020011],[138.491776,37.020553],[138.492076,37.020778],[138.492388,37.021094],[138.492888,37.021653],[138.493076,37.021928],[138.493463,37.022578],[138.493776,37.023003],[138.493851,37.023094],[138.494413,37.023436],[138.495188,37.024069],[138.495838,37.024677],[138.496338,37.025061],[138.496663,37.025444],[138.49685,37.025541],[138.497013,37.025852],[138.4971,37.026169],[138.49725,37.026394],[138.497425,37.026461],[138.497825,37.026511],[138.498325,37.026502],[138.499188,37.026436],[138.499825,37.026277],[138.500263,37.026119],[138.50075,37.025869],[138.501213,37.025277],[138.5015,37.025094],[138.501625,37.025077],[138.502525,37.025277],[138.502963,37.025452],[138.503913,37.026019],[138.504238,37.026086],[138.504638,37.026036],[138.504788,37.025969],[138.505188,37.025944],[138.5056,37.026036],[138.505863,37.026261],[138.506,37.026461],[138.506525,37.026302],[138.506875,37.026277],[138.507425,37.026319],[138.50775,37.026436],[138.508525,37.026811],[138.509262,37.027644],[138.509812,37.027311],[138.5103,37.027219],[138.510712,37.027236],[138.511,37.027327],[138.511312,37.027486],[138.511575,37.027686],[138.5119,37.027819],[138.512737,37.027844],[138.513112,37.028019],[138.513375,37.028602],[138.513562,37.02926],[138.513762,37.029577],[138.513875,37.02966],[138.514025,37.029685],[138.51515,37.029502],[138.515675,37.029344],[138.517262,37.02866],[138.517787,37.028435],[138.519437,37.027935],[138.519837,37.027885],[138.519899,37.02791],[138.520099,37.028227],[138.520424,37.02901],[138.520687,37.029377],[138.521037,37.029669],[138.521737,37.02996],[138.523249,37.030335],[138.523624,37.03036],[138.524149,37.030335],[138.524612,37.030352],[138.525361,37.030127],[138.525761,37.029902],[138.525999,37.029602],[138.526086,37.029244],[138.526424,37.028635],[138.526536,37.028227],[138.526474,37.027236],[138.526712,37.026852],[138.527224,37.026377],[138.527686,37.026061],[138.527899,37.025811],[138.528124,37.025294],[138.528299,37.025019],[138.528699,37.024769],[138.530461,37.024136],[138.531386,37.023478],[138.531711,37.023186],[138.532199,37.022861],[138.533274,37.022453],[138.533911,37.022045],[138.534549,37.021795],[138.535524,37.021503],[138.536023,37.021253],[138.536448,37.021095],[138.537498,37.021245],[138.538198,37.020953],[138.538711,37.020811],[138.539348,37.020745],[138.539436,37.020703],[138.502977,37.003055],[138.502577,37.002922],[138.501289,37.00208],[138.500527,37.001339],[138.499789,37.00093],[138.498414,37.000572],[138.497852,37.000205],[138.497277,36.999795],[138.496841,36.999489],[138.496364,36.999105],[138.495977,36.998514],[138.496065,36.998172],[138.496102,36.997681],[138.495965,36.996822],[138.49579,36.996372],[138.495577,36.995989],[138.495515,36.995422],[138.495515,36.994947],[138.495377,36.994314],[138.494965,36.993814],[138.494665,36.993273],[138.49419,36.992014],[138.49394,36.991714],[138.493465,36.991306],[138.492765,36.990881],[138.492303,36.990698],[138.491803,36.989998],[138.491465,36.989273],[138.491278,36.988531],[138.491278,36.98799],[138.491328,36.987332],[138.491553,36.986682],[138.491915,36.986248],[138.49239,36.98589],[138.492653,36.985465],[138.493453,36.98474],[138.493628,36.984357],[138.493653,36.983907],[138.494103,36.983524],[138.494078,36.983282],[138.494128,36.983074],[138.494378,36.982849],[138.49449,36.982674],[138.494578,36.981699],[138.49469,36.981432],[138.494778,36.980841],[138.494753,36.980599],[138.494253,36.980416],[138.493965,36.980191],[138.493865,36.980049],[138.493503,36.980116],[138.49299,36.980299],[138.49244,36.980407],[138.491828,36.980449],[138.49144,36.980449],[138.49104,36.980341],[138.489765,36.979766],[138.489315,36.979524],[138.488953,36.979224],[138.488203,36.978524],[138.487653,36.978166],[138.486403,36.977549],[138.485766,36.977299],[138.484591,36.976983],[138.483703,36.976816],[138.481941,36.976633],[138.480191,36.976566],[138.479104,36.976582],[138.478441,36.976741],[138.477466,36.976849],[138.476629,36.977007],[138.474617,36.977316],[138.473804,36.977382],[138.473079,36.977399],[138.473029,36.977424],[138.469717,36.977365],[138.469355,36.977324],[138.468467,36.977299],[138.46673,36.977157],[138.465817,36.977157],[138.46353,36.97699],[138.46273,36.976899],[138.461943,36.976757],[138.461305,36.976582],[138.46078,36.976332],[138.460393,36.976082],[138.459693,36.975424],[138.459056,36.974657],[138.458531,36.973999],[138.457256,36.972257],[138.457256,36.972216],[138.456281,36.970791],[138.455343,36.969483],[138.455168,36.969299],[138.454806,36.969049],[138.453194,36.968299],[138.452619,36.967941],[138.451144,36.966741],[138.450231,36.96595],[138.449444,36.965225],[138.448757,36.964766],[138.446669,36.963592],[138.445807,36.963],[138.445282,36.962592],[138.444232,36.961558],[138.443007,36.9602],[138.44242,36.959592],[138.442032,36.959267],[138.44167,36.959042],[138.440945,36.958775],[138.439945,36.958567],[138.438583,36.958384],[138.43792,36.958242],[138.437308,36.957992],[138.436445,36.957567],[138.434296,36.956659],[138.433333,36.956184],[138.431933,36.955567],[138.431409,36.955301],[138.430771,36.954576],[138.430546,36.954259],[138.430384,36.953892],[138.430309,36.953334],[138.430359,36.953017],[138.430696,36.952609],[138.431484,36.951934],[138.431871,36.951551],[138.432683,36.950993],[138.433408,36.950293],[138.434046,36.949418],[138.434158,36.948626],[138.434196,36.948293],[138.433971,36.947726],[138.433358,36.946935],[138.432809,36.946435],[138.432171,36.945785],[138.432084,36.945643],[138.431759,36.94531],[138.431059,36.94481],[138.430559,36.944602],[138.429971,36.94451],[138.429534,36.94456],[138.429109,36.944643],[138.428247,36.945001],[138.427547,36.94541],[138.425572,36.946826],[138.425097,36.94721],[138.424697,36.947434],[138.424172,36.947543],[138.423622,36.947451],[138.423172,36.947318],[138.422872,36.947109],[138.422535,36.946818],[138.42201,36.946135],[138.421922,36.945735],[138.421847,36.944268],[138.421872,36.944218],[138.421847,36.943385],[138.421385,36.941652],[138.421197,36.94086],[138.420785,36.939485],[138.420748,36.939185],[138.42081,36.938669],[138.420835,36.938085],[138.421123,36.936435],[138.42121,36.93626],[138.421373,36.936127],[138.42196,36.935811],[138.422348,36.935627],[138.422435,36.935519],[138.422435,36.935227],[138.422323,36.934911],[138.421973,36.934302],[138.421698,36.933961],[138.420085,36.932719],[138.419386,36.932152],[138.419111,36.931969],[138.418811,36.931836],[138.418498,36.931469],[138.418423,36.931044],[138.418448,36.929986],[138.418398,36.929303],[138.418286,36.928719],[138.418123,36.92752],[138.417936,36.92687],[138.417824,36.925986],[138.417999,36.925178],[138.418199,36.924595],[138.418973,36.923537],[138.419086,36.923245],[138.419123,36.92297],[138.419011,36.92247],[138.418849,36.922004],[138.418711,36.921145],[138.418686,36.92017],[138.418811,36.919729],[138.418886,36.91917],[138.419036,36.918837],[138.419599,36.918354],[138.419849,36.918037],[138.420224,36.917387],[138.420274,36.916796],[138.420249,36.916221],[138.420336,36.916071],[138.420886,36.916046],[138.421073,36.916146],[138.421136,36.916238],[138.421298,36.916646],[138.421511,36.916971],[138.421736,36.917237],[138.422236,36.918146],[138.422673,36.919196],[138.422836,36.919512],[138.422898,36.919729],[138.422973,36.920112],[138.423086,36.920429],[138.423161,36.920545],[138.423448,36.920587],[138.423773,36.92057],[138.424473,36.920437],[138.424748,36.920479],[138.42486,36.920612],[138.42486,36.920845],[138.424698,36.921204],[138.424273,36.922104],[138.424023,36.922304],[138.423885,36.922354],[138.42366,36.922487],[138.423548,36.92262],[138.423548,36.922754],[138.423735,36.922895],[138.423823,36.923029],[138.423735,36.923387],[138.423823,36.923478],[138.424348,36.923437],[138.424985,36.923345],[138.425385,36.923237],[138.42571,36.923012],[138.425798,36.92292],[138.425823,36.922712],[138.425798,36.922404],[138.42591,36.922087],[138.425835,36.921812],[138.425885,36.921679],[138.426198,36.921612],[138.426173,36.92132],[138.426198,36.921204],[138.426835,36.920846],[138.426973,36.920554],[138.427035,36.920287],[138.427286,36.919827],[138.427335,36.919729],[138.427648,36.919229],[138.427873,36.918679],[138.427685,36.917638],[138.42756,36.916996],[138.427585,36.916471],[138.42781,36.915505],[138.42796,36.91513],[138.428323,36.91463],[138.428423,36.914305],[138.42836,36.91403],[138.42831,36.913971],[138.42731,36.913788],[138.42661,36.91338],[138.426248,36.91313],[138.425748,36.91293],[138.425323,36.912713],[138.424961,36.91248],[138.424711,36.912421],[138.424061,36.912413],[138.423111,36.912496],[138.422786,36.912446],[138.422686,36.911963],[138.422673,36.911455],[138.422698,36.911338],[138.423748,36.911072],[138.424473,36.910538],[138.424786,36.910388],[138.425186,36.910447],[138.425236,36.910488],[138.425336,36.910722],[138.425311,36.91093],[138.425173,36.911088],[138.425136,36.911355],[138.425273,36.911597],[138.425573,36.911538],[138.426173,36.911288],[138.426323,36.911155],[138.426523,36.910813],[138.427248,36.910713],[138.427673,36.910547],[138.427748,36.910422],[138.42786,36.91003],[138.427885,36.909555],[138.428073,36.90918],[138.42846,36.908922],[138.428935,36.908697],[138.429373,36.90853],[138.430348,36.908272],[138.431848,36.908147],[138.43261,36.907947],[138.43381,36.907572],[138.435897,36.907031],[138.437122,36.906631],[138.437472,36.906381],[138.437934,36.905981],[138.438297,36.905531],[138.438572,36.905031],[138.439147,36.903648],[138.439559,36.902406],[138.440359,36.899707],[138.440597,36.899015],[138.440985,36.897432],[138.441172,36.896874],[138.441472,36.896332],[138.441822,36.895957],[138.442309,36.895641],[138.443022,36.895291],[138.443697,36.895024],[138.444259,36.894741],[138.444934,36.894516],[138.446334,36.893924],[138.446971,36.893583],[138.447596,36.893208],[138.448271,36.892733],[138.449271,36.891883],[138.451096,36.890508],[138.453983,36.88885],[138.454808,36.888434],[138.456158,36.888009],[138.456796,36.887267],[138.457508,36.886684],[138.458008,36.886351],[138.45927,36.885359],[138.460258,36.884443],[138.46072,36.884101],[138.46127,36.883585],[138.461833,36.882776],[138.46187,36.882643],[138.461758,36.882526],[138.461333,36.882368],[138.46077,36.882226],[138.46032,36.882285],[138.45987,36.882476],[138.459445,36.882593],[138.459145,36.88256],[138.458958,36.88246],[138.45872,36.882235],[138.458308,36.881385],[138.457533,36.88081],[138.457246,36.880493],[138.456733,36.87986],[138.456371,36.879493],[138.455908,36.879218],[138.455396,36.879043],[138.454571,36.878827],[138.454046,36.878543],[138.453121,36.87786],[138.452671,36.877618],[138.452096,36.877427],[138.451209,36.876844],[138.449934,36.876394],[138.448897,36.876094],[138.44746,36.875452],[138.446872,36.875252],[138.446335,36.875102],[138.445885,36.875069],[138.445285,36.875177],[138.444922,36.875319],[138.444372,36.875744],[138.443947,36.875935],[138.443347,36.876102],[138.442248,36.876085],[138.44066,36.875977],[138.440023,36.876035],[138.439398,36.87631],[138.439098,36.876385],[138.438461,36.876118],[138.437186,36.87541],[138.436686,36.875077],[138.436173,36.874843],[138.434549,36.874568],[138.433549,36.87431],[138.432974,36.874277],[138.432449,36.87416],[138.432249,36.874052],[138.431711,36.873893],[138.431136,36.873868],[138.429699,36.874077],[138.428499,36.874377],[138.427937,36.874318],[138.427324,36.874002],[138.426774,36.873602],[138.426099,36.873035],[138.424974,36.872543],[138.423525,36.872143],[138.422687,36.87206],[138.422075,36.872068],[138.421475,36.872143],[138.420475,36.872343],[138.419387,36.872493],[138.41845,36.87261],[138.417838,36.872626],[138.416888,36.872526],[138.416225,36.872535],[138.415188,36.872735],[138.413501,36.872993],[138.412563,36.873085],[138.412113,36.873168],[138.411738,36.873451],[138.411063,36.874218],[138.410513,36.874934],[138.410226,36.875092],[138.410051,36.875151],[138.407539,36.875401],[138.406589,36.875392],[138.406451,36.875726],[138.406339,36.876142],[138.406076,36.87775],[138.406051,36.878684],[138.405876,36.879308],[138.405839,36.879342],[138.405826,36.879317],[138.402251,36.879483],[138.402326,36.880975],[138.400752,36.881116],[138.399064,36.879891],[138.398139,36.877175],[138.397939,36.876567],[138.397477,36.875459],[138.39664,36.872526],[138.396502,36.872126],[138.396577,36.872126],[138.397552,36.871876],[138.398939,36.871334],[138.400352,36.870876],[138.401264,36.870493],[138.402164,36.87001],[138.401702,36.869135],[138.401639,36.868643],[138.401877,36.867726],[138.402027,36.867427],[138.402452,36.867185],[138.402564,36.866868],[138.402589,36.866527],[138.402489,36.866252],[138.402289,36.865977],[138.400802,36.864594],[138.399802,36.863744],[138.399439,36.863327],[138.399139,36.862727],[138.39899,36.862269],[138.398915,36.861894],[138.399527,36.861702],[138.399614,36.861552],[138.399577,36.860819],[138.399452,36.860036],[138.398752,36.860102],[138.39854,36.860027],[138.39844,36.859961],[138.397902,36.859869],[138.397865,36.859802],[138.397915,36.859636],[138.398102,36.859369],[138.39824,36.858561],[138.39799,36.858278],[138.398102,36.858153],[138.398465,36.858019],[138.398577,36.857936],[138.39859,36.857894],[138.39834,36.857344],[138.39769,36.856811],[138.397415,36.856461],[138.397327,36.856145],[138.397402,36.855553],[138.397477,36.855136],[138.397377,36.854895],[138.396565,36.854253],[138.396352,36.85397],[138.396165,36.853487],[138.395952,36.85342],[138.395602,36.85342],[138.395428,36.85332],[138.395115,36.852687],[138.394653,36.852653],[138.394465,36.852203],[138.394353,36.852153],[138.39409,36.852178],[138.393778,36.852162],[138.393678,36.852003],[138.393778,36.851762],[138.393815,36.85142],[138.393928,36.851287],[138.394215,36.851187],[138.394053,36.85062],[138.393915,36.850595],[138.39364,36.850629],[138.39354,36.850579],[138.393528,36.85052],[138.393765,36.849879],[138.39369,36.849862],[138.393528,36.849945],[138.393115,36.85032],[138.393003,36.850495],[138.39299,36.850778],[138.392815,36.85097],[138.39249,36.85117],[138.392228,36.851628],[138.39164,36.853261],[138.39144,36.853711],[138.391453,36.854111],[138.391515,36.85427],[138.391953,36.854628],[138.391978,36.854928],[138.391865,36.855211],[138.39179,36.855253],[138.391515,36.855294],[138.390053,36.854969],[138.388878,36.854828],[138.388441,36.854886],[138.388116,36.854869],[138.387316,36.854628],[138.386891,36.854603],[138.386341,36.854494],[138.385203,36.854136],[138.385003,36.853928],[138.384628,36.852611],[138.384416,36.852178],[138.385141,36.851303],[138.385153,36.851236],[138.384141,36.850787],[138.385266,36.849245],[138.384266,36.848762],[138.384891,36.847937],[138.385753,36.848354],[138.386066,36.84822],[138.386178,36.848237],[138.387078,36.84862],[138.387578,36.847954],[138.388003,36.848087],[138.388291,36.848229],[138.388541,36.848237],[138.388678,36.848079],[138.388741,36.847887],[138.389303,36.84737],[138.389741,36.846854],[138.390053,36.846354],[138.390478,36.845837],[138.391678,36.844829],[138.392178,36.844246],[138.39249,36.844238],[138.39309,36.844304],[138.393453,36.844121],[138.39374,36.844071],[138.393865,36.844121],[138.393965,36.844421],[138.39459,36.844254],[138.39489,36.844246],[138.395303,36.843804],[138.395978,36.843546],[138.39609,36.84348],[138.396878,36.843246],[138.39704,36.842963],[138.397503,36.842621],[138.39789,36.842438],[138.398053,36.842313],[138.39814,36.842113],[138.398365,36.841963],[138.397803,36.841497],[138.397603,36.84118],[138.39734,36.840622],[138.397065,36.840372],[138.396928,36.840288],[138.394615,36.839597],[138.393953,36.839347],[138.393141,36.839088],[138.392566,36.838822],[138.391853,36.838588],[138.390891,36.838363],[138.390453,36.838147],[138.390028,36.837822],[138.389891,36.83763],[138.389778,36.836864],[138.389841,36.836664],[138.389403,36.836405],[138.388953,36.836289],[138.388529,36.836205],[138.388216,36.836047],[138.388054,36.835847],[138.387829,36.835664],[138.387791,36.835439],[138.388066,36.835197],[138.388491,36.834964],[138.388629,36.83483],[138.388704,36.83433],[138.389104,36.834422],[138.389516,36.834306],[138.389403,36.834039],[138.389229,36.833856],[138.388816,36.834039],[138.388616,36.833864],[138.388666,36.833497],[138.388629,36.832822],[138.388516,36.832306],[138.388404,36.832081],[138.388029,36.831722],[138.387379,36.831256],[138.387041,36.830806],[138.385691,36.830164],[138.385204,36.829739],[138.384754,36.829064],[138.384492,36.828573],[138.384342,36.828056],[138.384279,36.827498],[138.384204,36.827289],[138.383917,36.826915],[138.383604,36.826623],[138.383229,36.826173],[138.382979,36.825948],[138.382479,36.825956],[138.381267,36.826098],[138.37878,36.826181],[138.378667,36.826206],[138.378442,36.826431],[138.378055,36.826906],[138.377917,36.826998],[138.377417,36.827048],[138.37683,36.827298],[138.376493,36.827498],[138.37638,36.827614],[138.376305,36.827839],[138.376268,36.828064],[138.37653,36.828898],[138.376517,36.830022],[138.376467,36.830656],[138.37653,36.831397],[138.376617,36.831822],[138.37663,36.832247],[138.376517,36.832722],[138.376355,36.833155],[138.376055,36.833539],[138.375855,36.833722],[138.375468,36.833972],[138.375018,36.834105],[138.374605,36.83413],[138.373818,36.834072],[138.372443,36.833872],[138.371857,36.833848],[138.371493,36.833905],[138.370943,36.83408],[138.370531,36.834305],[138.369956,36.83483],[138.369731,36.835138],[138.369568,36.835455],[138.369343,36.836088],[138.369168,36.836405],[138.369106,36.83658],[138.368956,36.836713],[138.368606,36.836921],[138.368493,36.837413],[138.368431,36.837463],[138.365994,36.837521],[138.365544,36.837546],[138.365269,36.837529],[138.364556,36.837663],[138.363844,36.837846],[138.363544,36.837829],[138.363431,36.837788],[138.363057,36.837246],[138.362907,36.836888],[138.362907,36.836796],[138.362782,36.836613],[138.362757,36.836504],[138.362657,36.836405],[138.362444,36.836163],[138.361782,36.834855],[138.360932,36.833397],[138.360345,36.832763],[138.358395,36.83013],[138.356883,36.827947],[138.356158,36.826822],[138.355533,36.825922],[138.355083,36.825356],[138.354646,36.824706],[138.353908,36.823848],[138.353683,36.823489],[138.353383,36.822406],[138.353346,36.822006],[138.353384,36.821415],[138.353871,36.82009],[138.354196,36.819456],[138.355733,36.816865],[138.355733,36.816799],[138.357433,36.814207],[138.357846,36.813391],[138.358096,36.812741],[138.358446,36.811908],[138.358971,36.810416],[138.359183,36.809566],[138.359158,36.809108],[138.359021,36.808525],[138.358196,36.805892],[138.357783,36.805325],[138.357071,36.804634],[138.356546,36.804267],[138.356159,36.804117],[138.355546,36.803959],[138.354896,36.803867],[138.354146,36.803825],[138.352747,36.803867],[138.351809,36.803933],[138.351234,36.804025],[138.350135,36.804258],[138.34931,36.80455],[138.348347,36.80475],[138.347385,36.804842],[138.346623,36.804842],[138.34621,36.80475],[138.34571,36.804508],[138.345435,36.804233],[138.345048,36.803583],[138.34466,36.802817],[138.344423,36.8016],[138.34441,36.801059],[138.344748,36.800025],[138.345735,36.797751],[138.34661,36.796034],[138.34686,36.795468],[138.347022,36.794843],[138.346885,36.794301],[138.346635,36.79376],[138.34586,36.792951],[138.345335,36.792543],[138.343935,36.791668],[138.342811,36.791151],[138.341048,36.790476],[138.339923,36.790451],[138.338848,36.790385],[138.338224,36.790318],[138.337361,36.78996],[138.336924,36.789643],[138.336536,36.789085],[138.336349,36.788718],[138.336211,36.788135],[138.336186,36.787685],[138.336261,36.787277],[138.336561,36.786535],[138.336949,36.785968],[138.337361,36.785635],[138.338786,36.784935],[138.340186,36.784485],[138.341073,36.784052],[138.341623,36.783561],[138.342573,36.782269],[138.34296,36.781711],[138.34326,36.781169],[138.34351,36.780444],[138.343373,36.779661],[138.34301,36.778869],[138.342548,36.778128],[138.342048,36.777611],[138.341311,36.777161],[138.341086,36.777095],[138.340536,36.777003],[138.339986,36.776961],[138.339411,36.777028],[138.338536,36.777211],[138.337899,36.777453],[138.337411,36.777753],[138.336586,36.778469],[138.336174,36.778678],[138.335424,36.778852],[138.334936,36.778852],[138.334474,36.778744],[138.334086,36.778536],[138.333949,36.778427],[138.333699,36.778136],[138.333449,36.777711],[138.333062,36.776086],[138.332987,36.775569],[138.332924,36.77442],[138.332837,36.773603],[138.332487,36.772686],[138.332124,36.771986],[138.331962,36.771445],[138.332074,36.77097],[138.332074,36.770545],[138.332012,36.770162],[138.331824,36.769553],[138.331462,36.769012],[138.330862,36.768495],[138.3297,36.767845],[138.32855,36.76737],[138.327662,36.76717],[138.326075,36.76692],[138.324925,36.766745],[138.323875,36.766495],[138.323138,36.76627],[138.322088,36.766004],[138.321288,36.765754],[138.320713,36.765462],[138.320413,36.76517],[138.320113,36.764379],[138.319976,36.763862],[138.319888,36.763204],[138.320001,36.76267],[138.320163,36.762396],[138.320926,36.761471],[138.321888,36.760612],[138.322913,36.759913],[138.323426,36.759913],[138.324688,36.759979],[138.32535,36.759888],[138.325925,36.759713],[138.326425,36.759713],[138.327088,36.759663],[138.327163,36.759421],[138.327138,36.759054],[138.327413,36.759054],[138.328237,36.759121],[138.328537,36.759171],[138.328625,36.759713],[138.328812,36.759779],[138.330462,36.760021],[138.331337,36.760204],[138.332,36.760296],[138.332087,36.760313],[138.332799,36.76038],[138.333324,36.76038],[138.333974,36.760271],[138.334499,36.760063],[138.335162,36.759746],[138.335599,36.759455],[138.335899,36.759163],[138.336149,36.758663],[138.336424,36.75783],[138.336474,36.757138],[138.336449,36.756505],[138.336362,36.756005],[138.336199,36.75558],[138.335762,36.75488],[138.335624,36.754497],[138.335487,36.753555],[138.335449,36.75328],[138.335449,36.75308],[138.335449,36.75298],[138.335112,36.752239],[138.334837,36.751789],[138.333662,36.750297],[138.333262,36.749872],[138.332937,36.749572],[138.332262,36.749172],[138.331087,36.748672],[138.3298,36.748106],[138.329125,36.747923],[138.317214,36.745172],[138.316327,36.744972],[138.315989,36.744831],[138.314927,36.744272],[138.313552,36.743639],[138.312877,36.743389],[138.312652,36.743272],[138.311427,36.742731],[138.311277,36.742931],[138.310915,36.743181],[138.310352,36.743339],[138.30969,36.743406],[138.308903,36.743581],[138.307953,36.744006],[138.307415,36.744347],[138.306965,36.744547],[138.306378,36.744864],[138.305953,36.745289],[138.305503,36.745622],[138.305116,36.74578],[138.304716,36.745805],[138.303266,36.745688],[138.301141,36.745347],[138.299541,36.745138],[138.298816,36.745005],[138.298391,36.744847],[138.297916,36.744547],[138.297604,36.74428],[138.297329,36.744122],[138.296929,36.74403],[138.296429,36.74403],[138.295904,36.744097],[138.295229,36.744297],[138.294804,36.744522],[138.294579,36.744788],[138.294104,36.745621],[138.294042,36.745896],[138.294067,36.746321],[138.294267,36.746663],[138.295779,36.748238],[138.296779,36.749529],[138.296929,36.749663],[138.297629,36.750046],[138.297816,36.750296],[138.297616,36.750838],[138.297029,36.751304],[138.296554,36.751571],[138.295579,36.751912],[138.294767,36.752337],[138.293942,36.753037],[138.293979,36.753079],[138.293954,36.753112],[138.294004,36.753471],[138.294329,36.754346],[138.294504,36.75457],[138.294692,36.754729],[138.294992,36.754754],[138.295629,36.754596],[138.295979,36.754596],[138.296554,36.754887],[138.296829,36.754929],[138.297054,36.754704],[138.297141,36.754687],[138.297829,36.754796],[138.298479,36.754979],[138.299116,36.755404],[138.299504,36.755762],[138.299828,36.755896],[138.300566,36.756729],[138.300653,36.757004],[138.300541,36.75732],[138.300541,36.757454],[138.300766,36.758329],[138.300741,36.758804],[138.300603,36.759237],[138.300128,36.760045],[138.300241,36.760387],[138.300628,36.760853],[138.301616,36.761078],[138.302028,36.761237],[138.303078,36.761528],[138.30324,36.761753],[138.30329,36.762253],[138.303465,36.762928],[138.304203,36.763986],[138.304115,36.764253],[138.303978,36.76437],[138.30354,36.76462],[138.302828,36.764953],[138.302528,36.765245],[138.302253,36.765811],[138.302091,36.766394],[138.301953,36.766694],[138.301628,36.767228],[138.300853,36.768311],[138.300741,36.768719],[138.301078,36.769936],[138.301078,36.770386],[138.300916,36.770744],[138.300603,36.771152],[138.299866,36.771852],[138.299841,36.772077],[138.299928,36.772485],[138.299841,36.773269],[138.300028,36.773585],[138.300641,36.773993],[138.301078,36.774327],[138.301928,36.775077],[138.30209,36.775452],[138.301953,36.776377],[138.301628,36.77771],[138.301603,36.778093],[138.301465,36.778476],[138.301003,36.779493],[138.30114,36.780234],[138.301115,36.780393],[138.301553,36.780618],[138.301828,36.780818],[138.302015,36.781068],[138.302378,36.781226],[138.302728,36.781468],[138.302953,36.781768],[138.302953,36.781834],[138.302815,36.782101],[138.30199,36.782892],[138.301003,36.784042],[138.301003,36.784517],[138.30059,36.785142],[138.300753,36.785709],[138.300703,36.785959],[138.300815,36.786134],[138.30109,36.786342],[138.301115,36.786542],[138.303011,36.78864],[138.303333,36.792259],[138.304024,36.795708],[138.302665,36.800211],[138.301592,36.802212],[138.301664,36.804356],[138.30288,36.80793],[138.304956,36.811257],[138.306888,36.815046],[138.308091,36.818018],[138.307902,36.818063],[138.307739,36.818213],[138.307439,36.81878],[138.307352,36.819388],[138.307164,36.820046],[138.306777,36.820313],[138.306114,36.82018],[138.305064,36.819863],[138.304877,36.819846],[138.304002,36.81998],[138.304002,36.820138],[138.304377,36.820405],[138.304414,36.820538],[138.304327,36.820788],[138.303827,36.821263],[138.30274,36.822479],[138.301777,36.823879],[138.301415,36.824146],[138.300265,36.824379],[138.29974,36.824537],[138.29924,36.824646],[138.298727,36.824629],[138.298502,36.824646],[138.298115,36.824921],[138.297865,36.825212],[138.297815,36.825479],[138.298065,36.825912],[138.298452,36.826204],[138.299102,36.826879],[138.300102,36.827554],[138.30029,36.827846],[138.30029,36.828904],[138.300514,36.830279],[138.300677,36.830729],[138.301064,36.832328],[138.301089,36.832895],[138.301064,36.833095],[138.300902,36.834445],[138.300714,36.835103],[138.300327,36.835511],[138.299852,36.835686],[138.298477,36.835803],[138.297877,36.835936],[138.297489,36.83612],[138.297215,36.836386],[138.297102,36.836403],[138.297015,36.836486],[138.296927,36.836761],[138.296515,36.837395],[138.29604,36.837844],[138.29554,36.838169],[138.294715,36.838828],[138.294152,36.839169],[138.29379,36.839236],[138.292952,36.839269],[138.29239,36.839311],[138.291653,36.839452],[138.290665,36.839794],[138.290215,36.839736],[138.289953,36.839619],[138.28989,36.839619],[138.28959,36.839511],[138.289165,36.839511],[138.288515,36.839586],[138.286791,36.839819],[138.285391,36.839969],[138.284878,36.839927],[138.283766,36.839436],[138.283566,36.839394],[138.282816,36.839011],[138.282116,36.838727],[138.281916,36.838594],[138.281279,36.838302],[138.280716,36.837944],[138.280167,36.837652],[138.279154,36.837186],[138.278817,36.837027],[138.278017,36.837036],[138.277629,36.836994],[138.276942,36.836769],[138.276405,36.836661],[138.275717,36.836644],[138.27503,36.836811],[138.274792,36.836919],[138.274467,36.837169],[138.274292,36.837602],[138.274205,36.838052],[138.274367,36.839135],[138.274592,36.839919],[138.274717,36.840843],[138.27478,36.841002],[138.275017,36.84116],[138.275142,36.841202],[138.27553,36.841468],[138.27578,36.841743],[138.276167,36.842077],[138.276892,36.842452],[138.278229,36.842468],[138.278854,36.842535],[138.279517,36.842685],[138.279991,36.842952],[138.280591,36.843218],[138.280929,36.843335],[138.281006,36.843385],[138.282524,36.842275],[138.284613,36.841679],[138.288096,36.84148],[138.292424,36.842425],[138.297797,36.845009],[138.304463,36.850477],[138.307946,36.854553],[138.311975,36.863501],[138.316484,36.870253],[138.320236,36.873466],[138.32363,36.878464],[138.325952,36.884978],[138.327381,36.889351],[138.331133,36.892921],[138.337001,36.901162],[138.342302,36.909862],[138.350631,36.925246],[138.354092,36.930942],[138.35448,36.931434],[138.355055,36.932592],[138.355217,36.932834],[138.355417,36.932925],[138.356192,36.932842],[138.35653,36.932859],[138.356917,36.933025],[138.357442,36.9335],[138.357642,36.933767],[138.357754,36.934267],[138.357829,36.936067],[138.358129,36.937217],[138.358692,36.938258],[138.359079,36.938825],[138.359491,36.939567],[138.359929,36.94025],[138.360316,36.9407],[138.360654,36.941017],[138.361154,36.941267],[138.362041,36.941567],[138.362291,36.941742],[138.362429,36.942058],[138.362816,36.942425],[138.363128,36.942583],[138.363566,36.943142],[138.364491,36.94425],[138.364703,36.945025],[138.364653,36.945383],[138.364316,36.945558],[138.363816,36.945741],[138.363566,36.9459],[138.363391,36.946308],[138.363478,36.946775],[138.364028,36.947949],[138.364166,36.948383],[138.364441,36.949649],[138.364616,36.950074],[138.364778,36.950866],[138.364353,36.951741],[138.363941,36.952216],[138.363716,36.952574],[138.363603,36.952957],[138.363741,36.953324],[138.364128,36.953749],[138.366015,36.955016],[138.366628,36.955516],[138.366965,36.955924],[138.36779,36.956715],[138.368177,36.957165],[138.368265,36.957307],[138.367927,36.957707],[138.36754,36.958315],[138.367228,36.959107],[138.367315,36.959673],[138.367503,36.960007],[138.368002,36.960732],[138.368477,36.961615],[138.369227,36.962748],[138.369365,36.963756],[138.369552,36.963915],[138.37009,36.964256],[138.370914,36.96494],[138.371578,36.9652],[138.371867,36.965293],[138.371914,36.965606],[138.372014,36.965898],[138.372189,36.966073],[138.372627,36.966306],[138.372827,36.966506],[138.373102,36.96739],[138.373427,36.967706],[138.374126,36.968131],[138.374464,36.968381],[138.374676,36.969214],[138.375039,36.969756],[138.375089,36.970123],[138.375314,36.970414],[138.375589,36.970614],[138.375839,36.970914],[138.376064,36.971564],[138.376089,36.971839],[138.376026,36.972239],[138.376451,36.972489],[138.376839,36.972789],[138.377088,36.972922],[138.377526,36.972964],[138.377926,36.972964],[138.378563,36.972989],[138.379063,36.973197],[138.379788,36.973647],[138.380038,36.973922],[138.380338,36.974781],[138.3805,36.974939],[138.381275,36.975389],[138.3815,36.975614],[138.381638,36.975822],[138.382225,36.976339],[138.382275,36.976472],[138.382225,36.976747],[138.382163,36.976814],[138.381075,36.97778],[138.38035,36.978205],[138.380063,36.978497],[138.379838,36.978839],[138.379676,36.979197],[138.379088,36.98028],[138.378688,36.980547],[138.378888,36.980705],[138.379688,36.98118],[138.380475,36.981747],[138.38105,36.982022],[138.381663,36.982197],[138.381888,36.982313],[138.382225,36.982605],[138.382588,36.982788],[138.383637,36.983063],[138.383975,36.983197],[138.3845,36.983605],[138.384775,36.983738],[138.38525,36.98408],[138.3857,36.984305],[138.386662,36.984922],[138.386887,36.985013],[138.387362,36.985347],[138.388449,36.986255],[138.388912,36.986455],[138.389474,36.987405],[138.390162,36.988155],[138.390574,36.988671],[138.390774,36.989146],[138.390912,36.989263],[138.390962,36.989555],[138.390849,36.990271],[138.390624,36.990496],[138.390399,36.990838],[138.390324,36.991088],[138.390374,36.991288],[138.390899,36.991696],[138.391812,36.992671],[138.392149,36.992913],[138.392599,36.993079],[138.393099,36.993188],[138.393424,36.993329],[138.393899,36.993596],[138.394461,36.994071],[138.394536,36.994229],[138.394424,36.994437],[138.393874,36.994929],[138.393811,36.995196],[138.393974,36.995987],[138.394199,36.996529],[138.394386,36.996846],[138.394699,36.997204],[138.394999,36.997121],[138.396061,36.996512],[138.396149,36.996446],[138.396311,36.996404],[138.396848,36.996496],[138.398173,36.996837],[138.398398,36.996929],[138.399548,36.997271],[138.400186,36.997829],[138.400436,36.997879],[138.40141,36.997904],[138.401935,36.997971],[138.402498,36.997971],[138.403448,36.997704],[138.404023,36.997729],[138.404698,36.998046],[138.40536,36.998279],[138.406447,36.998054],[138.406785,36.998012],[138.407035,36.998054],[138.40731,36.998212],[138.407785,36.998579],[138.408397,36.998804],[138.40876,36.998712],[138.409097,36.998579],[138.409572,36.998487],[138.410185,36.998446],[138.41033,36.998453],[138.410547,36.998471],[138.410822,36.998562],[138.410984,36.998679],[138.411159,36.998946],[138.411322,36.999621],[138.411484,37.000096],[138.411809,37.001837],[138.411972,37.002287],[138.412284,37.00247],[138.412584,37.002537],[138.412847,37.002495],[138.413484,37.002087],[138.413734,37.002045],[138.414259,37.002154],[138.414821,37.002454],[138.415234,37.002637],[138.415596,37.002729],[138.416934,37.002795],[138.417359,37.002912],[138.417634,37.003054],[138.417721,37.003129],[138.417971,37.003195],[138.419109,37.00327],[138.419721,37.003354],[138.420121,37.00347],[138.420508,37.003629],[138.421283,37.004079],[138.421596,37.004354],[138.422421,37.005228],[138.422671,37.005345],[138.423283,37.005428],[138.423345,37.005412],[138.423845,37.005453],[138.424883,37.005637],[138.426495,37.005978],[138.427408,37.00627],[138.428057,37.00632],[138.430482,37.006004],[138.431007,37.006004],[138.431507,37.006137],[138.431907,37.006295],[138.432382,37.006612],[138.433182,37.00702],[138.434857,37.00747],[138.435419,37.007678],[138.435832,37.007903],[138.436244,37.00822],[138.436894,37.00887],[138.437169,37.009253],[138.437281,37.009503],[138.437669,37.009887],[138.439031,37.01002],[138.439556,37.010137],[138.439619,37.010178],[138.440206,37.010986],[138.440781,37.01162],[138.441206,37.011778],[138.441593,37.011978],[138.442143,37.01252],[138.442706,37.01302],[138.443156,37.013178],[138.445431,37.013403],[138.445943,37.013495],[138.446355,37.013744],[138.446943,37.014011],[138.44758,37.014236],[138.448893,37.014619],[138.449843,37.014828],[138.450368,37.014869],[138.450792,37.014961],[138.451067,37.015169],[138.45168,37.015753],[138.451776,37.015861],[138.451817,37.015911],[138.452067,37.016086],[138.452542,37.016294],[138.45363,37.016678],[138.453905,37.016861],[138.454242,37.017152],[138.45443,37.017444],[138.454767,37.018161],[138.454954,37.019311],[138.455129,37.019627],[138.455154,37.019602],[138.455379,37.019652],[138.456329,37.019677],[138.457104,37.019652],[138.457942,37.019586],[138.458442,37.019477],[138.458892,37.019319],[138.459929,37.018869],[138.460991,37.018511],[138.461966,37.018394],[138.463129,37.018469],[138.463666,37.018602],[138.464329,37.018694],[138.464778,37.018694],[138.465953,37.018602],[138.466366,37.018536],[138.467378,37.017953],[138.467853,37.017869],[138.468403,37.017844],[138.469078,37.017869],[138.469515,37.017936],[138.470053,37.018094],[138.47069,37.018361],[138.471803,37.018369],[138.472478,37.018411],[138.472978,37.018478],[138.473453,37.018661],[138.47409,37.019019],[138.474727,37.019494],[138.47524,37.019761],[138.47559,37.019919],[138.47604,37.020061],[138.476265,37.020077]]],"type":"Polygon"},"properties":{"kuni_id":"K24","pref":"長野県","name":"下水内","yomi":"しもみのち","kuni":"信濃","id":"G24009","kuni_url":"/kg/resource/K24.html","id_url":"G24009.html"}}]}