{"features":[{"type":"Feature","geometry":{"type":"Polygon","coordinates":[[[138.951132,36.308743],[138.950945,36.309734],[138.951257,36.310126],[138.951457,36.310526],[138.95137,36.310892],[138.95112,36.311592],[138.950657,36.312401],[138.950395,36.312967],[138.950545,36.313417],[138.949945,36.314242],[138.949395,36.314884],[138.949195,36.315184],[138.948932,36.315742],[138.948707,36.316717],[138.949839,36.31719],[138.951233,36.318391],[138.952867,36.318919],[138.954478,36.320569],[138.95702,36.323109],[138.958832,36.324969],[138.960584,36.32771],[138.963099,36.330756],[138.965004,36.333192],[138.966452,36.334334],[138.968433,36.33441],[138.971176,36.333877],[138.972319,36.332964],[138.973996,36.331745],[138.975291,36.33106],[138.977425,36.330603],[138.97933,36.330756],[138.980854,36.330299],[138.982225,36.329537],[138.984511,36.329537],[138.986772,36.329975],[138.989507,36.330357],[138.993417,36.328702],[138.996679,36.325805],[138.999941,36.319045],[139.00429,36.312164],[139.007794,36.308302],[139.009909,36.304792],[139.010353,36.303903],[139.011382,36.301811],[139.012263,36.299944],[139.0138,36.298142],[139.015069,36.29674],[139.015537,36.295538],[139.015136,36.29427],[139.014534,36.293669],[139.013065,36.293669],[139.011728,36.293736],[139.010459,36.292868],[139.009791,36.292401],[139.009858,36.2916],[139.011929,36.291333],[139.013666,36.290999],[139.014802,36.289597],[139.014334,36.286926],[139.012864,36.285925],[139.011595,36.28479],[139.010335,36.284061],[139.010041,36.284302],[139.009891,36.284619],[139.009754,36.28516],[139.009604,36.285569],[139.009191,36.286352],[139.008841,36.286669],[139.008391,36.286885],[139.007679,36.287152],[139.007579,36.287444],[139.007379,36.28781],[139.007091,36.288485],[139.006916,36.288818],[139.006516,36.289202],[139.006354,36.289443],[139.006279,36.289743],[139.005979,36.290052],[139.005604,36.290318],[139.005042,36.290793],[139.004867,36.290877],[139.004742,36.290835],[139.004742,36.290335],[139.004679,36.290177],[139.004329,36.289927],[139.004129,36.289727],[139.003929,36.289293],[139.003067,36.288185],[139.002817,36.287977],[139.002492,36.287527],[139.002292,36.287319],[139.002042,36.287185],[139.001605,36.286702],[139.00093,36.286344],[139.000705,36.286094],[139.00048,36.285635],[139.00013,36.285385],[138.99978,36.285202],[138.999417,36.285019],[138.99898,36.285019],[138.99823,36.28506],[138.998105,36.285102],[138.997805,36.285144],[138.99728,36.285027],[138.99688,36.284844],[138.996605,36.284694],[138.995993,36.284169],[138.99558,36.284152],[138.995118,36.284169],[138.99483,36.28406],[138.994618,36.283944],[138.994105,36.28386],[138.992968,36.28391],[138.992643,36.283885],[138.992093,36.28386],[138.992093,36.283885],[138.991843,36.283977],[138.991643,36.28411],[138.991268,36.284469],[138.990743,36.284827],[138.990743,36.285193],[138.990831,36.285443],[138.990756,36.285935],[138.990631,36.286127],[138.990406,36.286285],[138.990143,36.286327],[138.989856,36.286418],[138.989756,36.286535],[138.990118,36.286802],[138.990168,36.286935],[138.990118,36.287143],[138.989456,36.288793],[138.989343,36.289193],[138.989293,36.28981],[138.989343,36.289993],[138.989543,36.290218],[138.989981,36.290601],[138.988656,36.290168],[138.988418,36.290035],[138.988218,36.289993],[138.987868,36.289968],[138.987493,36.290035],[138.987181,36.290126],[138.986856,36.289993],[138.986594,36.289926],[138.985956,36.289993],[138.985669,36.289885],[138.984931,36.289676],[138.984444,36.289476],[138.984131,36.289485],[138.983956,36.289618],[138.983694,36.290251],[138.983406,36.290685],[138.982969,36.291068],[138.982719,36.291385],[138.982456,36.291943],[138.981969,36.292651],[138.982294,36.29341],[138.982469,36.293593],[138.982731,36.294335],[138.982706,36.295285],[138.982418,36.296168],[138.982281,36.296418],[138.982131,36.296576],[138.981156,36.297501],[138.981131,36.297726],[138.981206,36.297901],[138.981468,36.298243],[138.981618,36.298968],[138.981793,36.299143],[138.982031,36.299301],[138.982318,36.299393],[138.982531,36.299551],[138.982731,36.299893],[138.982493,36.300118],[138.982318,36.300176],[138.981518,36.300326],[138.980968,36.300501],[138.980556,36.300684],[138.980156,36.301109],[138.979981,36.301159],[138.979781,36.301134],[138.979581,36.301159],[138.979281,36.301301],[138.978993,36.301318],[138.978756,36.301209],[138.978581,36.301001],[138.978418,36.301026],[138.978131,36.301301],[138.977956,36.301234],[138.977893,36.301159],[138.977693,36.301076],[138.977143,36.300984],[138.976669,36.300626],[138.976356,36.300893],[138.976119,36.300984],[138.975656,36.301101],[138.975131,36.301126],[138.974244,36.300768],[138.973969,36.300534],[138.973694,36.300968],[138.973419,36.301126],[138.973344,36.301126],[138.972844,36.301268],[138.972531,36.301493],[138.972494,36.301784],[138.972381,36.302284],[138.972244,36.302468],[138.971956,36.302709],[138.971506,36.303009],[138.970456,36.303459],[138.969781,36.303718],[138.969219,36.304009],[138.968944,36.304209],[138.968719,36.304209],[138.968131,36.304101],[138.967869,36.304151],[138.967756,36.304309],[138.967556,36.304759],[138.967331,36.305251],[138.967206,36.305368],[138.966794,36.305526],[138.966406,36.305551],[138.966081,36.305234],[138.965894,36.305384],[138.965581,36.305618],[138.963819,36.305984],[138.963594,36.306076],[138.963019,36.306434],[138.962144,36.307151],[138.961819,36.307209],[138.961482,36.307093],[138.961182,36.306959],[138.960957,36.306759],[138.960632,36.306601],[138.960419,36.306618],[138.960257,36.306701],[138.960082,36.306901],[138.960032,36.307001],[138.959707,36.307001],[138.959419,36.306909],[138.959182,36.306943],[138.958894,36.307034],[138.958669,36.307143],[138.958469,36.307126],[138.958057,36.306876],[138.957445,36.306609],[138.957157,36.306634],[138.957095,36.306851],[138.957219,36.307784],[138.957194,36.308434],[138.957132,36.308618],[138.956932,36.308709],[138.956295,36.308551],[138.95547,36.308484],[138.954607,36.308484],[138.953982,36.308543],[138.953495,36.308601],[138.952582,36.308851],[138.952207,36.308926],[138.951132,36.308743]]]},"properties":{"id_url":"G25008.html","kuni_url":"/kg/resource/K25.html","kuni":"上野","id":"G25008","yomi":"かたおか","name":"片岡","pref":"群馬県","kuni_id":"K25"}}],"type":"FeatureCollection"}