{"features":[{"type":"Feature","properties":{"yomi":"あそ","name":"安蘇","pref":"栃木県","kuni_id":"K26","id_url":"G26001.html","kuni_url":"/kg/resource/K26.html","id":"G26001","kuni":"下野"},"geometry":{"type":"Polygon","coordinates":[[[139.48262,36.578163],[139.482758,36.578138],[139.48332,36.577938],[139.48362,36.57773],[139.483958,36.577305],[139.484183,36.577171],[139.484995,36.577055],[139.485245,36.576896],[139.485545,36.57663],[139.48577,36.57638],[139.486495,36.575813],[139.486795,36.57563],[139.487045,36.575455],[139.487157,36.57523],[139.487632,36.574613],[139.487882,36.574438],[139.488357,36.574163],[139.489695,36.573805],[139.490057,36.573738],[139.49027,36.573713],[139.490695,36.573622],[139.491282,36.573372],[139.491645,36.573147],[139.492082,36.573055],[139.492445,36.572964],[139.492895,36.572764],[139.493307,36.572472],[139.494007,36.572014],[139.49417,36.571972],[139.494395,36.572014],[139.494507,36.572064],[139.495207,36.572289],[139.496207,36.572489],[139.496482,36.572489],[139.496769,36.572511],[139.496782,36.572489],[139.497019,36.572455],[139.497194,36.572389],[139.497482,36.572339],[139.497694,36.572339],[139.498057,36.572522],[139.498532,36.57258],[139.499044,36.572472],[139.499882,36.572089],[139.500132,36.571931],[139.500282,36.571772],[139.500357,36.570714],[139.500407,36.570464],[139.500519,36.570281],[139.500682,36.570147],[139.500994,36.570081],[139.502419,36.569914],[139.504019,36.569589],[139.505169,36.569256],[139.506606,36.569039],[139.506806,36.568964],[139.507144,36.568689],[139.507469,36.568506],[139.507819,36.56844],[139.508144,36.56834],[139.508406,36.56804],[139.509506,36.567365],[139.510056,36.566881],[139.510543,36.566665],[139.511106,36.565973],[139.511568,36.565557],[139.511806,36.565273],[139.512006,36.565098],[139.512343,36.564907],[139.512743,36.564707],[139.513431,36.564265],[139.513656,36.56399],[139.513681,36.563824],[139.513506,36.563449],[139.512806,36.562532],[139.512318,36.561949],[139.512181,36.561665],[139.512031,36.561149],[139.511981,36.560857],[139.512318,36.560432],[139.512493,36.560049],[139.512581,36.559132],[139.512943,36.558433],[139.512806,36.557924],[139.512468,36.557191],[139.512343,36.556866],[139.512356,36.556649],[139.512768,36.556241],[139.512956,36.556175],[139.514643,36.556391],[139.515268,36.556558],[139.515743,36.556658],[139.515818,36.55665],[139.515918,36.556441],[139.515881,36.556241],[139.516218,36.555716],[139.516368,36.555383],[139.516606,36.555258],[139.516943,36.555233],[139.517606,36.555333],[139.518468,36.555058],[139.518693,36.555016],[139.519068,36.555025],[139.519993,36.555166],[139.520205,36.555133],[139.520199,36.555114],[139.520193,36.5551],[139.520018,36.554833],[139.518756,36.5539],[139.518506,36.5535],[139.518606,36.552683],[139.518793,36.552408],[139.519081,36.552159],[139.519156,36.551942],[139.519206,36.5514],[139.519568,36.550925],[139.519856,36.550625],[139.520656,36.550075],[139.520906,36.549826],[139.521006,36.549184],[139.521156,36.548884],[139.521456,36.548676],[139.521993,36.548376],[139.52223,36.548084],[139.52248,36.547251],[139.522668,36.546934],[139.52288,36.546226],[139.52313,36.545893],[139.523405,36.545684],[139.52413,36.545234],[139.52433,36.544976],[139.524618,36.544085],[139.524943,36.543435],[139.524893,36.542285],[139.52488,36.541677],[139.525068,36.541377],[139.525805,36.540968],[139.526355,36.540702],[139.527043,36.540352],[139.528105,36.540119],[139.528393,36.53996],[139.528918,36.539377],[139.52903,36.539194],[139.52918,36.539044],[139.529742,36.53886],[139.530117,36.538694],[139.530305,36.538544],[139.530505,36.538194],[139.530867,36.537186],[139.531117,36.536186],[139.531005,36.535611],[139.531017,36.535394],[139.531092,36.535153],[139.53133,36.534761],[139.531542,36.534261],[139.53158,36.533961],[139.531605,36.533336],[139.53183,36.532553],[139.531755,36.531853],[139.531593,36.531261],[139.531443,36.531036],[139.531405,36.530878],[139.531405,36.530453],[139.531493,36.529937],[139.531555,36.529803],[139.531793,36.529587],[139.532418,36.529203],[139.532693,36.529012],[139.533043,36.528362],[139.533568,36.527662],[139.53393,36.526737],[139.534018,36.526595],[139.534717,36.526054],[139.535155,36.525395],[139.535167,36.525029],[139.535005,36.524721],[139.534268,36.523729],[139.53413,36.523421],[139.534118,36.523071],[139.534218,36.522754],[139.53418,36.521663],[139.53438,36.520196],[139.534393,36.519796],[139.534605,36.519096],[139.535555,36.51723],[139.535855,36.516771],[139.537055,36.516272],[139.537393,36.516088],[139.537568,36.515838],[139.537768,36.515372],[139.537943,36.515055],[139.538218,36.514805],[139.538818,36.514447],[139.53888,36.51438],[139.53883,36.513922],[139.538905,36.513714],[139.539405,36.513447],[139.539893,36.513022],[139.540118,36.51288],[139.54033,36.512839],[139.541442,36.51298],[139.54193,36.512947],[139.54248,36.512747],[139.54313,36.512672],[139.543567,36.512697],[139.54388,36.512639],[139.544117,36.512505],[139.54428,36.51233],[139.54443,36.512005],[139.544417,36.511456],[139.544355,36.510806],[139.544367,36.510481],[139.544555,36.509856],[139.544905,36.509414],[139.54558,36.508872],[139.546292,36.508389],[139.546467,36.508206],[139.546605,36.507989],[139.546942,36.507873],[139.547442,36.507839],[139.547604,36.507798],[139.547829,36.507656],[139.548029,36.507481],[139.548054,36.507339],[139.547854,36.506856],[139.547979,36.506356],[139.548804,36.505648],[139.549279,36.504998],[139.549329,36.504823],[139.549217,36.504065],[139.549217,36.50394],[139.549317,36.503657],[139.549554,36.503465],[139.549901,36.503254],[139.550079,36.503132],[139.550167,36.503057],[139.550692,36.50294],[139.551142,36.502857],[139.551854,36.502582],[139.552217,36.502357],[139.552692,36.502107],[139.553641,36.501882],[139.554141,36.501765],[139.555204,36.501274],[139.555391,36.500774],[139.555529,36.50014],[139.555866,36.499465],[139.556004,36.499265],[139.556141,36.499149],[139.556366,36.499107],[139.557041,36.499082],[139.557229,36.499016],[139.557429,36.498899],[139.557766,36.498316],[139.557979,36.498132],[139.558429,36.497882],[139.558728,36.497841],[139.559516,36.497866],[139.559853,36.497907],[139.560128,36.497866],[139.560691,36.497549],[139.561016,36.497499],[139.561241,36.497499],[139.561466,36.497407],[139.562441,36.496824],[139.563141,36.496458],[139.563778,36.496283],[139.56389,36.496283],[139.56394,36.496124],[139.564053,36.495041],[139.56419,36.494858],[139.56444,36.494699],[139.564853,36.494341],[139.565365,36.493933],[139.565615,36.493683],[139.566328,36.492825],[139.566528,36.492441],[139.566465,36.492041],[139.56619,36.491275],[139.566063,36.490687],[139.565993,36.490363],[139.56599,36.49035],[139.566153,36.489692],[139.56644,36.48915],[139.566515,36.489108],[139.56724,36.488859],[139.567378,36.488725],[139.567415,36.488359],[139.56749,36.488159],[139.567665,36.487934],[139.568015,36.487617],[139.568265,36.487525],[139.569303,36.487617],[139.569353,36.487642],[139.569865,36.487659],[139.569915,36.487642],[139.57014,36.487342],[139.570278,36.487025],[139.570398,36.486826],[139.570615,36.486467],[139.57164,36.485226],[139.571865,36.485017],[139.572028,36.484709],[139.572115,36.484326],[139.572253,36.484026],[139.572328,36.483934],[139.572578,36.483826],[139.57264,36.483851],[139.573365,36.483693],[139.573527,36.483551],[139.573752,36.483076],[139.57384,36.482743],[139.574115,36.482001],[139.574277,36.481684],[139.574615,36.481318],[139.574777,36.481068],[139.574802,36.480826],[139.574753,36.48026],[139.574828,36.479918],[139.575053,36.479585],[139.575527,36.479468],[139.576052,36.479243],[139.576527,36.479085],[139.57669,36.478993],[139.576802,36.478793],[139.577052,36.478093],[139.57719,36.477893],[139.577727,36.47766],[139.578052,36.477485],[139.578227,36.477168],[139.578665,36.476652],[139.578777,36.476418],[139.57884,36.476085],[139.578865,36.474869],[139.578802,36.474527],[139.578827,36.474394],[139.579002,36.47426],[139.579215,36.474144],[139.579465,36.474077],[139.580165,36.473735],[139.580802,36.473244],[139.581227,36.473086],[139.581477,36.472811],[139.581527,36.472627],[139.581752,36.472427],[139.582002,36.472069],[139.582165,36.471594],[139.58234,36.471461],[139.58339,36.471594],[139.584177,36.471819],[139.584677,36.471836],[139.585149,36.471819],[139.585152,36.471819],[139.585627,36.471861],[139.585789,36.471927],[139.586127,36.471994],[139.586239,36.471861],[139.586377,36.471586],[139.586852,36.470803],[139.587289,36.470503],[139.587627,36.470344],[139.587677,36.469736],[139.587789,36.469419],[139.588152,36.468878],[139.588127,36.468478],[139.588177,36.468203],[139.588314,36.467936],[139.588402,36.46762],[139.588427,36.466945],[139.588502,36.466695],[139.588839,36.466536],[139.589627,36.466353],[139.590289,36.466261],[139.590852,36.466145],[139.591214,36.466036],[139.591452,36.465695],[139.591652,36.465537],[139.592289,36.465128],[139.593876,36.463937],[139.593881,36.463935],[139.594014,36.463887],[139.594626,36.46382],[139.594914,36.463953],[139.594989,36.464045],[139.595126,36.46452],[139.595164,36.464928],[139.595326,36.465553],[139.595476,36.465828],[139.595689,36.46592],[139.595826,36.465853],[139.595889,36.465628],[139.596114,36.465487],[139.596414,36.465378],[139.596913,36.465262],[139.597226,36.465395],[139.597951,36.465353],[139.598563,36.465487],[139.598676,36.465462],[139.599201,36.465053],[139.599651,36.464945],[139.599676,36.464895],[139.599588,36.46467],[139.599288,36.464403],[139.599288,36.46427],[139.599613,36.464045],[139.600338,36.463879],[139.600513,36.463812],[139.600863,36.463429],[139.601088,36.46327],[139.601813,36.46307],[139.602475,36.46232],[139.602675,36.461987],[139.602675,36.461871],[139.602588,36.461696],[139.6025,36.461154],[139.60275,36.460496],[139.6032,36.459771],[139.603425,36.459596],[139.603538,36.459596],[139.603863,36.459438],[139.604638,36.458646],[139.6049,36.458488],[139.605313,36.458396],[139.605675,36.458213],[139.606175,36.457854],[139.60645,36.457496],[139.6065,36.457196],[139.6065,36.456813],[139.60665,36.456655],[139.607313,36.456338],[139.607563,36.456096],[139.607813,36.455596],[139.608038,36.45528],[139.60815,36.455188],[139.608425,36.455146],[139.609375,36.45508],[139.60995,36.455097],[139.610875,36.45528],[139.611262,36.455255],[139.61165,36.455072],[139.611825,36.454897],[139.612012,36.454505],[139.612462,36.453513],[139.6129,36.451889],[139.613062,36.450697],[139.61325,36.449997],[139.613475,36.449655],[139.613675,36.449522],[139.613975,36.449431],[139.614287,36.449472],[139.614562,36.449614],[139.615287,36.450397],[139.615899,36.450964],[139.616549,36.451389],[139.617162,36.451572],[139.617999,36.451889],[139.618661,36.452222],[139.618911,36.452405],[139.619524,36.452647],[139.620036,36.452714],[139.620311,36.452714],[139.620449,36.452647],[139.620466,36.452635],[139.620311,36.452472],[139.619499,36.45193],[139.618412,36.450889],[139.617374,36.450214],[139.617237,36.449972],[139.617262,36.449814],[139.617374,36.449722],[139.617574,36.449631],[139.618624,36.449289],[139.619274,36.449039],[139.619524,36.448864],[139.619849,36.448139],[139.620162,36.447781],[139.620599,36.447414],[139.620762,36.447164],[139.621187,36.446714],[139.621299,36.446489],[139.621299,36.446306],[139.621374,36.445906],[139.621762,36.445604],[139.622224,36.445514],[139.622637,36.445448],[139.622924,36.445264],[139.623311,36.444898],[139.623574,36.444564],[139.623961,36.444314],[139.624611,36.443973],[139.625336,36.443173],[139.625486,36.443065],[139.625786,36.44299],[139.626261,36.443015],[139.626611,36.443173],[139.626849,36.44324],[139.627474,36.443215],[139.628561,36.443298],[139.629248,36.443365],[139.631086,36.443806],[139.631386,36.443823],[139.631411,36.443848],[139.631673,36.44319],[139.632086,36.44249],[139.631986,36.442065],[139.631623,36.440982],[139.631473,36.440665],[139.631498,36.440307],[139.631648,36.440073],[139.631736,36.440007],[139.631848,36.439782],[139.631848,36.43949],[139.632436,36.438065],[139.632611,36.437765],[139.632811,36.437607],[139.633086,36.437565],[139.633286,36.437499],[139.633461,36.437332],[139.633611,36.437065],[139.634348,36.436499],[139.635286,36.435882],[139.635611,36.435674],[139.635698,36.435657],[139.636048,36.435424],[139.636048,36.435357],[139.635961,36.435224],[139.635786,36.435091],[139.635723,36.435024],[139.635686,36.434616],[139.635748,36.434099],[139.635711,36.433966],[139.635474,36.433757],[139.635149,36.433083],[139.635086,36.432049],[139.634899,36.431416],[139.634924,36.430966],[139.635374,36.430799],[139.635686,36.430508],[139.635899,36.430374],[139.636136,36.4303],[139.636461,36.430258],[139.636699,36.430191],[139.637049,36.429941],[139.637199,36.429775],[139.637874,36.4286],[139.637924,36.428508],[139.637899,36.428441],[139.637536,36.428283],[139.637424,36.428266],[139.637099,36.427975],[139.636911,36.427542],[139.636936,36.4273],[139.636849,36.426775],[139.636724,36.426375],[139.636699,36.425967],[139.636487,36.425467],[139.636512,36.425242],[139.636687,36.424992],[139.637012,36.424742],[139.637124,36.4245],[139.637162,36.424267],[139.637249,36.424067],[139.637449,36.424],[139.637687,36.423775],[139.637774,36.423434],[139.638062,36.422909],[139.638274,36.422709],[139.638274,36.4225],[139.637674,36.421834],[139.637374,36.421292],[139.637399,36.421017],[139.637549,36.420751],[139.637962,36.420317],[139.638337,36.420134],[139.638487,36.420084],[139.638812,36.419834],[139.638837,36.419809],[139.639224,36.419609],[139.640112,36.419517],[139.640499,36.419492],[139.641012,36.419401],[139.641262,36.419268],[139.641562,36.418976],[139.641899,36.418684],[139.642312,36.418501],[139.642449,36.418459],[139.643124,36.418093],[139.643237,36.418009],[139.643462,36.417601],[139.643762,36.417443],[139.643874,36.417418],[139.644237,36.41726],[139.644787,36.416851],[139.644849,36.416768],[139.645212,36.416535],[139.645461,36.416493],[139.645799,36.416518],[139.646236,36.416426],[139.646411,36.416243],[139.646436,36.416018],[139.646374,36.41566],[139.646349,36.41471],[139.646299,36.414668],[139.645987,36.414552],[139.645399,36.414418],[139.645099,36.41431],[139.644737,36.41406],[139.644424,36.413785],[139.644012,36.412977],[139.643699,36.412502],[139.643562,36.41221],[139.643474,36.411893],[139.643362,36.411693],[139.642725,36.411244],[139.642475,36.410952],[139.642412,36.410677],[139.642575,36.409444],[139.642575,36.409035],[139.642525,36.40876],[139.642137,36.408044],[139.641462,36.407077],[139.641125,36.406919],[139.6399,36.406561],[139.639563,36.406402],[139.639313,36.406086],[139.639363,36.404777],[139.639425,36.404353],[139.639388,36.403944],[139.639063,36.403428],[139.638613,36.402886],[139.638438,36.402636],[139.638363,36.401894],[139.637801,36.401061],[139.637438,36.400295],[139.637301,36.399711],[139.636576,36.398578],[139.636264,36.39827],[139.635964,36.398195],[139.635626,36.398087],[139.635151,36.397612],[139.634651,36.397453],[139.634064,36.397095],[139.633639,36.39662],[139.633476,36.396262],[139.633451,36.395704],[139.633189,36.395404],[139.633001,36.39502],[139.633027,36.394662],[139.633139,36.394212],[139.633164,36.393721],[139.633052,36.392454],[139.633102,36.392096],[139.633077,36.391779],[139.632777,36.391263],[139.632152,36.390671],[139.631764,36.390155],[139.63054,36.389321],[139.630402,36.389146],[139.63034,36.38883],[139.63034,36.388513],[139.630265,36.38813],[139.629977,36.387638],[139.62989,36.387338],[139.629865,36.386913],[139.630065,36.385739],[139.630202,36.385314],[139.630527,36.384839],[139.631065,36.384456],[139.631202,36.384339],[139.631252,36.384206],[139.631177,36.383822],[139.63109,36.383197],[139.630615,36.381348],[139.630503,36.381056],[139.63019,36.380989],[139.62969,36.380939],[139.629053,36.380806],[139.62844,36.380606],[139.62819,36.380398],[139.627153,36.380106],[139.62674,36.379773],[139.626428,36.37869],[139.626228,36.378265],[139.626066,36.378198],[139.625653,36.378198],[139.624928,36.378356],[139.624503,36.378381],[139.622553,36.378265],[139.622441,36.378248],[139.621891,36.378181],[139.621765,36.378103],[139.620966,36.377665],[139.620391,36.377415],[139.620079,36.377365],[139.619779,36.377415],[139.619454,36.377506],[139.619179,36.377639],[139.618904,36.377681],[139.618129,36.377614],[139.616954,36.377598],[139.616591,36.377506],[139.616341,36.377348],[139.616129,36.377081],[139.615904,36.376698],[139.615854,36.376448],[139.615904,36.376156],[139.615954,36.376065],[139.616204,36.375973],[139.616704,36.375656],[139.616892,36.375456],[139.617329,36.37489],[139.617529,36.374282],[139.616804,36.373698],[139.616392,36.373223],[139.616117,36.373023],[139.615867,36.372915],[139.614217,36.372332],[139.613567,36.37199],[139.612955,36.371765],[139.61233,36.371898],[139.61208,36.371923],[139.611505,36.37159],[139.611192,36.371448],[139.611117,36.371365],[139.610867,36.371248],[139.610505,36.371157],[139.610205,36.370998],[139.61023,36.370573],[139.610342,36.370374],[139.610592,36.369832],[139.610642,36.36954],[139.610592,36.369332],[139.61043,36.369157],[139.60993,36.36879],[139.60968,36.368565],[139.609655,36.368299],[139.60973,36.368115],[139.609593,36.367824],[139.609155,36.367599],[139.608668,36.36744],[139.608168,36.367357],[139.60798,36.367265],[139.608005,36.367174],[139.608968,36.366382],[139.609043,36.366141],[139.608968,36.365932],[139.608905,36.365282],[139.608968,36.365007],[139.609018,36.363974],[139.608905,36.363683],[139.608818,36.363633],[139.609943,36.362891],[139.610118,36.362758],[139.61168,36.361941],[139.612068,36.36165],[139.61228,36.361333],[139.612393,36.36095],[139.612393,36.360641],[139.612505,36.360275],[139.612693,36.360117],[139.613055,36.359917],[139.613267,36.359758],[139.613155,36.35935],[139.61313,36.359042],[139.61338,36.3585],[139.613405,36.358292],[139.613043,36.357325],[139.61288,36.356467],[139.612905,36.356384],[139.613068,36.3562],[139.613618,36.355725],[139.613755,36.355526],[139.613893,36.355209],[139.613918,36.354959],[139.613843,36.354084],[139.613693,36.353384],[139.613593,36.353092],[139.61348,36.352909],[139.613318,36.352751],[139.613068,36.352643],[139.612843,36.352368],[139.612905,36.352209],[139.613255,36.351743],[139.613418,36.351334],[139.613418,36.351059],[139.613343,36.350859],[139.61298,36.350501],[139.612655,36.350343],[139.612455,36.350159],[139.612268,36.349535],[139.612093,36.349285],[139.611905,36.348768],[139.611856,36.34811],[139.611681,36.34766],[139.611768,36.347501],[139.611981,36.347326],[139.612368,36.346918],[139.61253,36.346652],[139.612593,36.346018],[139.612781,36.345743],[139.612943,36.345593],[139.613143,36.345477],[139.613418,36.34541],[139.613655,36.34541],[139.61443,36.345452],[139.615118,36.345427],[139.61528,36.345385],[139.615443,36.345202],[139.615743,36.344644],[139.615943,36.344419],[139.616218,36.34421],[139.61673,36.34401],[139.617093,36.343852],[139.617505,36.343735],[139.617993,36.34356],[139.61808,36.343494],[139.61803,36.343202],[139.618055,36.342727],[139.618293,36.342277],[139.618518,36.341219],[139.61788,36.339844],[139.617855,36.339569],[139.617905,36.339278],[139.618343,36.338628],[139.618155,36.338244],[139.61738,36.337053],[139.616968,36.336511],[139.616918,36.336486],[139.616793,36.336453],[139.616818,36.336361],[139.616693,36.335553],[139.616681,36.335195],[139.616568,36.334762],[139.616418,36.33452],[139.616506,36.334428],[139.616668,36.334337],[139.616781,36.334312],[139.617381,36.333895],[139.617506,36.333603],[139.617843,36.333328],[139.618081,36.333037],[139.617968,36.332628],[139.617131,36.331245],[139.616968,36.33102],[139.616481,36.33017],[139.616418,36.329945],[139.616493,36.329579],[139.616893,36.328587],[139.617018,36.327546],[139.617006,36.327321],[139.617506,36.327204],[139.618218,36.327104],[139.618493,36.326988],[139.618881,36.326688],[139.618768,36.326396],[139.618956,36.326238],[139.619068,36.326263],[139.619356,36.326504],[139.620081,36.325846],[139.619631,36.324971],[139.620043,36.324804],[139.620281,36.324196],[139.621468,36.324313],[139.621643,36.324355],[139.621767,36.324468],[139.621806,36.324538],[139.622943,36.324755],[139.62443,36.32513],[139.62658,36.325663],[139.627105,36.325838],[139.629505,36.32638],[139.631567,36.32693],[139.633392,36.32753],[139.634279,36.327705],[139.634417,36.327663],[139.634579,36.327413],[139.634629,36.326963],[139.635054,36.32653],[139.635042,36.326413],[139.634767,36.325896],[139.634879,36.325696],[139.634867,36.325538],[139.634192,36.324213],[139.63413,36.323897],[139.634242,36.323563],[139.634267,36.323313],[139.634042,36.322838],[139.633755,36.322613],[139.633167,36.32228],[139.633005,36.321972],[139.63303,36.32143],[139.633317,36.32048],[139.633405,36.320047],[139.633367,36.31978],[139.633167,36.319555],[139.632917,36.319355],[139.632555,36.319131],[139.630768,36.318489],[139.630355,36.318247],[139.63023,36.318064],[139.63023,36.317456],[139.630093,36.317189],[139.62933,36.316339],[139.628993,36.315681],[139.627918,36.314564],[139.627556,36.314023],[139.626931,36.313356],[139.626906,36.313106],[139.626956,36.312656],[139.627256,36.311756],[139.627256,36.311348],[139.627131,36.311006],[139.627081,36.310515],[139.627256,36.30934],[139.627168,36.309207],[139.626644,36.308848],[139.626194,36.308648],[139.625944,36.30849],[139.625719,36.308273],[139.625544,36.308048],[139.625406,36.307932],[139.624981,36.307307],[139.624844,36.306965],[139.624781,36.306432],[139.624894,36.306249],[139.625581,36.305432],[139.625656,36.305182],[139.625631,36.304849],[139.625544,36.304482],[139.625506,36.304124],[139.625694,36.302882],[139.625444,36.302657],[139.625194,36.302666],[139.624881,36.302574],[139.624469,36.302332],[139.624157,36.302057],[139.623732,36.301791],[139.623119,36.301616],[139.622394,36.301532],[139.621767,36.30142],[139.621607,36.301166],[139.621457,36.299458],[139.621444,36.298733],[139.621357,36.298441],[139.621219,36.29815],[139.621019,36.297908],[139.62017,36.2972],[139.620195,36.296791],[139.62032,36.296158],[139.620332,36.295208],[139.620182,36.294808],[139.619532,36.293758],[139.619307,36.293508],[139.618257,36.292625],[139.61807,36.292533],[139.617932,36.292558],[139.617657,36.292675],[139.61732,36.292767],[139.61702,36.292725],[139.61677,36.292575],[139.616482,36.292642],[139.616432,36.292692],[139.61612,36.292283],[139.616057,36.291725],[139.615883,36.291009],[139.61582,36.290984],[139.614958,36.291083],[139.61452,36.291067],[139.61407,36.291],[139.613945,36.290059],[139.613908,36.289409],[139.613795,36.28925],[139.61382,36.288842],[139.613683,36.287717],[139.61332,36.2877],[139.612745,36.2878],[139.611833,36.287834],[139.611383,36.287792],[139.611083,36.287684],[139.610883,36.28755],[139.610545,36.287467],[139.610208,36.287125],[139.609983,36.286817],[139.609983,36.286634],[139.61052,36.286092],[139.611295,36.285809],[139.611645,36.285651],[139.612308,36.285117],[139.612558,36.285026],[139.612908,36.285026],[139.613245,36.284751],[139.613483,36.284584],[139.613708,36.284543],[139.61387,36.284468],[139.614195,36.283926],[139.614295,36.283634],[139.614158,36.283318],[139.61402,36.283159],[139.61382,36.283051],[139.61337,36.282943],[139.613183,36.282859],[139.613095,36.282568],[139.613533,36.282443],[139.614058,36.282351],[139.61422,36.281968],[139.614383,36.281735],[139.614533,36.28131],[139.614333,36.28106],[139.614083,36.280843],[139.613995,36.28066],[139.61402,36.280568],[139.614295,36.280435],[139.61457,36.280335],[139.614845,36.280085],[139.614958,36.278618],[139.614945,36.27826],[139.614995,36.27756],[139.61417,36.276577],[139.613895,36.276335],[139.613858,36.276269],[139.61392,36.276202],[139.614108,36.276152],[139.61472,36.276119],[139.61477,36.276144],[139.615108,36.276135],[139.615408,36.276069],[139.615683,36.275727],[139.61617,36.275002],[139.616595,36.274452],[139.616983,36.274086],[139.61637,36.273844],[139.615808,36.273536],[139.615245,36.273119],[139.614395,36.272252],[139.614145,36.271894],[139.612958,36.270444],[139.612045,36.269553],[139.611233,36.268994],[139.610033,36.268469],[139.609308,36.268228],[139.608646,36.268061],[139.607783,36.267978],[139.607371,36.268028],[139.606483,36.268061],[139.605958,36.268111],[139.603796,36.268186],[139.602996,36.268261],[139.600396,36.268386],[139.599559,36.268352],[139.597984,36.268369],[139.596872,36.268427],[139.596347,36.26841],[139.594272,36.268552],[139.593447,36.268585],[139.592947,36.268635],[139.591835,36.268668],[139.590485,36.268685],[139.58976,36.268602],[139.589623,36.26856],[139.588598,36.268527],[139.588348,36.268577],[139.586661,36.268935],[139.585561,36.26911],[139.584536,36.269185],[139.583948,36.269168],[139.583311,36.269043],[139.582811,36.268868],[139.581636,36.268343],[139.580886,36.268035],[139.580236,36.267751],[139.579599,36.267535],[139.578849,36.267227],[139.577874,36.266943],[139.577087,36.266777],[139.575375,36.266751],[139.57405,36.266793],[139.572575,36.266943],[139.572225,36.267085],[139.571838,36.26731],[139.571488,36.267609],[139.571125,36.267859],[139.570575,36.268051],[139.57025,36.268051],[139.569688,36.267951],[139.568325,36.267759],[139.565513,36.267168],[139.564238,36.267001],[139.562914,36.266926],[139.562214,36.266959],[139.561526,36.267101],[139.560926,36.267292],[139.560151,36.267817],[139.558952,36.268892],[139.557952,36.269875],[139.556402,36.271333],[139.554214,36.273233],[139.553714,36.2736],[139.55352,36.273821],[139.553589,36.273866],[139.555876,36.276658],[139.555914,36.277016],[139.555539,36.277649],[139.555264,36.277949],[139.558124,36.283742],[139.557965,36.284164],[139.557444,36.284858],[139.556383,36.285335],[139.555507,36.285875],[139.554354,36.286223],[139.552912,36.287963],[139.551954,36.289046],[139.549675,36.292237],[139.547194,36.295155],[139.545076,36.299049],[139.54377,36.302929],[139.543117,36.304868],[139.543117,36.305707],[139.544038,36.30558],[139.544088,36.305688],[139.544063,36.30598],[139.544101,36.30628],[139.544076,36.306588],[139.543926,36.307379],[139.543738,36.308063],[139.543551,36.309796],[139.543413,36.311062],[139.543288,36.312437],[139.543113,36.313345],[139.5431,36.313862],[139.54305,36.314154],[139.543088,36.314737],[139.543013,36.315079],[139.542713,36.315512],[139.542575,36.315845],[139.542588,36.31612],[139.5427,36.316437],[139.543088,36.317695],[139.543238,36.31852],[139.5436,36.320636],[139.543687,36.32077],[139.543687,36.320836],[139.5438,36.321036],[139.544462,36.321953],[139.54465,36.323061],[139.544625,36.323445],[139.5443,36.324094],[139.544362,36.324619],[139.544537,36.325044],[139.544737,36.325286],[139.544775,36.325511],[139.544675,36.326103],[139.544737,36.326461],[139.545187,36.326811],[139.545562,36.327644],[139.545724,36.327911],[139.545924,36.328069],[139.546174,36.328136],[139.546024,36.328994],[139.546037,36.329352],[139.546174,36.329819],[139.546462,36.330227],[139.546937,36.330511],[139.547862,36.330885],[139.548337,36.331285],[139.548487,36.33171],[139.548412,36.331985],[139.548087,36.332394],[139.547624,36.332919],[139.547512,36.333277],[139.547599,36.333685],[139.547774,36.333952],[139.548561,36.334793],[139.548186,36.336485],[139.548324,36.336618],[139.548324,36.336702],[139.547649,36.338193],[139.547624,36.338251],[139.547511,36.338435],[139.547361,36.338393],[139.547311,36.33831],[139.547511,36.337285],[139.544024,36.336801],[139.544099,36.336485],[139.544187,36.336127],[139.541799,36.335835],[139.541674,36.336335],[139.536112,36.335676],[139.5356,36.336485],[139.53555,36.336693],[139.535375,36.336876],[139.535275,36.336943],[139.535062,36.336885],[139.534487,36.336818],[139.5342,36.336801],[139.533987,36.336893],[139.533762,36.337026],[139.533388,36.337393],[139.533113,36.337718],[139.532963,36.337968],[139.5322,36.336726],[139.532063,36.336485],[139.531963,36.33646],[139.53165,36.336168],[139.531175,36.335926],[139.53085,36.335893],[139.530425,36.335785],[139.530088,36.335651],[139.529388,36.335076],[139.528738,36.33461],[139.528413,36.334585],[139.528163,36.334685],[139.527751,36.33491],[139.527426,36.335051],[139.526926,36.335151],[139.526476,36.335085],[139.525951,36.33491],[139.525563,36.334668],[139.525101,36.334176],[139.524851,36.334068],[139.524601,36.334093],[139.523776,36.334443],[139.523038,36.334718],[139.522788,36.334901],[139.522551,36.335201],[139.522351,36.335251],[139.522076,36.335159],[139.521039,36.334726],[139.520614,36.334434],[139.519739,36.333593],[139.519301,36.333235],[139.518964,36.333168],[139.518489,36.333243],[139.517827,36.333385],[139.516977,36.333643],[139.516089,36.333884],[139.515177,36.334076],[139.514714,36.334076],[139.514489,36.334284],[139.514327,36.334601],[139.514114,36.334918],[139.513952,36.335326],[139.513777,36.335984],[139.513877,36.336484],[139.513789,36.336601],[139.513439,36.336717],[139.512827,36.336826],[139.512615,36.336876],[139.512452,36.336967],[139.511952,36.337526],[139.511727,36.337842],[139.511452,36.338051],[139.510527,36.338592],[139.510465,36.338659],[139.510415,36.339375],[139.510277,36.339717],[139.509952,36.340234],[139.509702,36.34075],[139.509615,36.341],[139.50964,36.341425],[139.509702,36.3417],[139.50959,36.341833],[139.508877,36.341767],[139.508165,36.341792],[139.507503,36.34195],[139.507178,36.342058],[139.506565,36.34215],[139.505803,36.34215],[139.505628,36.342242],[139.505553,36.34245],[139.505578,36.342692],[139.50564,36.342942],[139.505765,36.34355],[139.50574,36.344566],[139.505828,36.345216],[139.506103,36.345916],[139.506128,36.346166],[139.505965,36.346616],[139.505665,36.347266],[139.505603,36.347791],[139.505803,36.348783],[139.505828,36.349024],[139.505915,36.349274],[139.50599,36.349391],[139.506152,36.349499],[139.506465,36.349632],[139.506727,36.349841],[139.50684,36.350107],[139.50739,36.350916],[139.507365,36.351574],[139.507227,36.352724],[139.507315,36.353599],[139.50704,36.35394],[139.506927,36.35419],[139.50674,36.354973],[139.506627,36.355582],[139.50649,36.356057],[139.506515,36.356332],[139.506652,36.35644],[139.506902,36.356507],[139.507915,36.356982],[139.508602,36.35709],[139.508964,36.357273],[139.509377,36.357698],[139.509752,36.358356],[139.509864,36.358673],[139.509889,36.358965],[139.509864,36.359506],[139.509889,36.359823],[139.510164,36.360406],[139.510527,36.360898],[139.510714,36.361123],[139.510889,36.361398],[139.510939,36.361756],[139.511189,36.362456],[139.511814,36.363673],[139.512039,36.363939],[139.512451,36.364231],[139.512639,36.364981],[139.512639,36.365089],[139.512564,36.365297],[139.512201,36.365631],[139.511951,36.365922],[139.511926,36.366172],[139.512014,36.366689],[139.511901,36.36748],[139.511789,36.36768],[139.511576,36.367822],[139.511164,36.36793],[139.510552,36.36793],[139.510114,36.367839],[139.509764,36.367914],[139.509014,36.368155],[139.508052,36.368722],[139.507777,36.368972],[139.507452,36.369355],[139.507289,36.369605],[139.507289,36.369713],[139.507527,36.369988],[139.507614,36.370188],[139.507639,36.371247],[139.507839,36.37278],[139.508052,36.373955],[139.508139,36.374854],[139.508114,36.375054],[139.506902,36.375146],[139.506714,36.375188],[139.506464,36.375646],[139.505939,36.376704],[139.505552,36.377179],[139.505339,36.377379],[139.505202,36.377629],[139.505114,36.377896],[139.505139,36.378412],[139.505277,36.378979],[139.505339,36.38017],[139.505777,36.381953],[139.505889,36.38222],[139.505914,36.382453],[139.505827,36.382812],[139.505302,36.38342],[139.505227,36.38367],[139.505277,36.383987],[139.505252,36.384661],[139.505139,36.385178],[139.505114,36.385203],[139.505039,36.385311],[139.504452,36.385786],[139.504214,36.386078],[139.504039,36.38667],[139.503939,36.386911],[139.503802,36.387028],[139.503552,36.387161],[139.503414,36.387319],[139.503352,36.387661],[139.503552,36.388653],[139.503552,36.389394],[139.503464,36.389686],[139.503214,36.390227],[139.502802,36.390544],[139.501702,36.390994],[139.500739,36.391444],[139.500527,36.391602],[139.500089,36.392144],[139.499889,36.392285],[139.499427,36.39246],[139.498439,36.39271],[139.498027,36.39291],[139.497752,36.393294],[139.497614,36.393702],[139.497414,36.394044],[139.497115,36.39431],[139.496776,36.394532],[139.49659,36.394502],[139.496315,36.394477],[139.496027,36.394535],[139.495802,36.394668],[139.495265,36.39516],[139.494677,36.395585],[139.49439,36.395635],[139.49414,36.39561],[139.493865,36.395627],[139.493427,36.395752],[139.492902,36.396035],[139.492465,36.396168],[139.49169,36.39631],[139.491315,36.396626],[139.49099,36.397051],[139.490565,36.39781],[139.490365,36.397985],[139.489628,36.398409],[139.489303,36.398809],[139.488878,36.399226],[139.486853,36.400509],[139.486503,36.400784],[139.48639,36.400992],[139.486678,36.401551],[139.486715,36.401876],[139.48684,36.402192],[139.486978,36.402351],[139.48694,36.402509],[139.486815,36.402684],[139.486015,36.404067],[139.485753,36.404709],[139.48559,36.405667],[139.485678,36.40685],[139.48499,36.406808],[139.484628,36.406833],[139.48439,36.406892],[139.483753,36.407167],[139.483403,36.407292],[139.483278,36.407417],[139.483153,36.407617],[139.48299,36.408316],[139.482778,36.410191],[139.48269,36.410583],[139.482465,36.410699],[139.481565,36.410983],[139.48119,36.411233],[139.481078,36.411424],[139.48069,36.411708],[139.480091,36.411991],[139.479453,36.412358],[139.479353,36.412549],[139.479241,36.412999],[139.479266,36.413407],[139.479428,36.414307],[139.47944,36.414574],[139.479365,36.414957],[139.479253,36.415274],[139.479065,36.415782],[139.478928,36.415899],[139.478191,36.416257],[139.478066,36.416532],[139.477953,36.416949],[139.477978,36.417324],[139.478303,36.418315],[139.478453,36.418565],[139.478553,36.418857],[139.478415,36.41924],[139.478403,36.419432],[139.478578,36.41979],[139.47869,36.419873],[139.47869,36.420032],[139.478578,36.420307],[139.478353,36.420598],[139.47824,36.420665],[139.478128,36.42089],[139.478165,36.421115],[139.478278,36.421432],[139.478253,36.422173],[139.47819,36.422423],[139.477715,36.42249],[139.477328,36.422473],[139.476778,36.422631],[139.476165,36.422673],[139.475603,36.422831],[139.475378,36.422965],[139.475191,36.423173],[139.475053,36.423581],[139.474853,36.423848],[139.474716,36.423965],[139.474578,36.424006],[139.474378,36.424215],[139.474303,36.424523],[139.474278,36.425156],[139.474103,36.425564],[139.474053,36.425814],[139.473828,36.426264],[139.473416,36.426623],[139.472778,36.426898],[139.472216,36.427056],[139.472103,36.427148],[139.471716,36.427256],[139.471278,36.427239],[139.470716,36.427122],[139.470103,36.427056],[139.469991,36.427214],[139.469516,36.428206],[139.469441,36.428481],[139.469391,36.430622],[139.469191,36.430914],[139.468691,36.43128],[139.468503,36.431455],[139.468116,36.431705],[139.467691,36.432139],[139.467416,36.432314],[139.467103,36.432455],[139.466528,36.432855],[139.465966,36.433172],[139.465778,36.433422],[139.465641,36.433488],[139.464966,36.433447],[139.464304,36.433288],[139.463904,36.433088],[139.463491,36.433022],[139.462016,36.432913],[139.461816,36.432863],[139.461679,36.432863],[139.461566,36.432955],[139.461491,36.433363],[139.461429,36.434222],[139.461216,36.434538],[139.460566,36.43478],[139.460404,36.434963],[139.460241,36.435372],[139.460129,36.435572],[139.459966,36.435755],[139.459654,36.436205],[139.459629,36.436338],[139.459741,36.436996],[139.459829,36.437421],[139.459741,36.437671],[139.459379,36.43803],[139.459104,36.438238],[139.458941,36.438438],[139.458854,36.43898],[139.458691,36.439338],[139.457654,36.439929],[139.457304,36.440154],[139.457041,36.440271],[139.456941,36.440288],[139.456042,36.440204],[139.455792,36.440246],[139.454967,36.440946],[139.454679,36.441104],[139.454604,36.441221],[139.453992,36.441554],[139.453854,36.441737],[139.453792,36.442187],[139.453654,36.442371],[139.453154,36.442687],[139.452629,36.443071],[139.452429,36.443254],[139.452354,36.443496],[139.452429,36.443929],[139.452404,36.444287],[139.452379,36.444379],[139.452179,36.444562],[139.451879,36.444737],[139.451654,36.444787],[139.451242,36.444787],[139.450117,36.444587],[139.449454,36.444787],[139.449205,36.444812],[139.44868,36.44472],[139.448092,36.444387],[139.447705,36.444179],[139.44733,36.443437],[139.44678,36.443146],[139.446642,36.443054],[139.446467,36.442854],[139.44608,36.442112],[139.445917,36.441971],[139.445605,36.441862],[139.445155,36.441746],[139.444718,36.441596],[139.444068,36.441146],[139.44393,36.441121],[139.443593,36.441187],[139.44343,36.441279],[139.443268,36.441304],[139.44198,36.440829],[139.441593,36.440579],[139.441455,36.440421],[139.44123,36.439879],[139.440806,36.439704],[139.440556,36.439346],[139.440306,36.439096],[139.439668,36.438979],[139.439443,36.438896],[139.439193,36.437379],[139.439193,36.436929],[139.438881,36.437046],[139.438743,36.437071],[139.437881,36.437337],[139.437493,36.437429],[139.437318,36.437562],[139.437243,36.437704],[139.43702,36.437812],[139.437018,36.437812],[139.436206,36.437796],[139.435931,36.437837],[139.435569,36.437971],[139.435269,36.437971],[139.434431,36.437612],[139.433644,36.437454],[139.432369,36.437437],[139.431894,36.437304],[139.431394,36.437104],[139.430419,36.436629],[139.430019,36.436446],[139.429719,36.436354],[139.429194,36.436696],[139.428969,36.436921],[139.428832,36.437354],[139.428857,36.437646],[139.428807,36.437912],[139.428357,36.438029],[139.427357,36.438145],[139.426832,36.438387],[139.426132,36.438395],[139.425957,36.43837],[139.425794,36.438412],[139.425744,36.438529],[139.425682,36.439229],[139.425719,36.439629],[139.425682,36.43997],[139.425719,36.440104],[139.425657,36.441028],[139.425607,36.441237],[139.425382,36.441412],[139.424382,36.441728],[139.423907,36.441978],[139.423469,36.44227],[139.423157,36.44277],[139.422932,36.443336],[139.422794,36.444145],[139.422769,36.444261],[139.422607,36.444553],[139.422269,36.444936],[139.421857,36.445228],[139.421045,36.445436],[139.420745,36.445544],[139.420207,36.445528],[139.419682,36.445436],[139.41887,36.445144],[139.418457,36.445094],[139.417932,36.445186],[139.417057,36.445436],[139.416145,36.445528],[139.415783,36.445528],[139.415508,36.445486],[139.415283,36.445303],[139.414283,36.444878],[139.413945,36.444786],[139.412433,36.444744],[139.411858,36.444769],[139.411183,36.444861],[139.410746,36.445128],[139.410408,36.445603],[139.410246,36.445694],[139.409883,36.445586],[139.409158,36.445428],[139.408708,36.445361],[139.408233,36.445336],[139.407258,36.445428],[139.406646,36.445611],[139.406558,36.445703],[139.406733,36.445836],[139.407233,36.446011],[139.407821,36.446261],[139.408096,36.446486],[139.409296,36.447902],[139.409633,36.448494],[139.41002,36.448961],[139.410358,36.449119],[139.410858,36.449252],[139.411195,36.449302],[139.411583,36.449477],[139.411745,36.449636],[139.41192,36.449952],[139.412258,36.450835],[139.412345,36.451302],[139.412345,36.451602],[139.412057,36.45261],[139.411757,36.453677],[139.411782,36.454077],[139.411895,36.45426],[139.41207,36.454735],[139.411957,36.455277],[139.41162,36.455477],[139.411345,36.455518],[139.41087,36.455543],[139.410732,36.45561],[139.41057,36.455752],[139.40962,36.45681],[139.40937,36.456968],[139.409145,36.457126],[139.409032,36.457351],[139.408757,36.457735],[139.408508,36.457801],[139.408395,36.457918],[139.408345,36.458051],[139.408532,36.458276],[139.408845,36.45846],[139.40932,36.458501],[139.409645,36.458451],[139.410157,36.458435],[139.410707,36.458451],[139.411382,36.45861],[139.411607,36.458885],[139.411907,36.459509],[139.412157,36.459826],[139.412382,36.460026],[139.413019,36.460409],[139.413382,36.460659],[139.414057,36.461243],[139.414444,36.461759],[139.414694,36.461901],[139.414869,36.461918],[139.416319,36.461359],[139.417706,36.460901],[139.417906,36.460793],[139.418156,36.460518],[139.418181,36.460268],[139.418119,36.459976],[139.418144,36.459801],[139.418069,36.459118],[139.418119,36.458893],[139.418206,36.45881],[139.418869,36.458443],[139.419094,36.458193],[139.419144,36.458176],[139.419644,36.457677],[139.419681,36.45761],[139.420181,36.457252],[139.420569,36.457093],[139.420906,36.457002],[139.421231,36.456952],[139.421681,36.456977],[139.421881,36.457043],[139.422769,36.457535],[139.423331,36.457943],[139.424531,36.459027],[139.424893,36.459185],[139.425218,36.459268],[139.425643,36.459335],[139.425918,36.459335],[139.426418,36.459268],[139.426781,36.459135],[139.426981,36.459135],[139.427281,36.459177],[139.427593,36.459177],[139.427956,36.459068],[139.42868,36.458702],[139.429318,36.458502],[139.43038,36.458002],[139.430993,36.457527],[139.431355,36.45771],[139.43143,36.457819],[139.431405,36.457977],[139.431155,36.458427],[139.430905,36.459018],[139.430993,36.45951],[139.43113,36.459735],[139.431218,36.45996],[139.431243,36.460393],[139.431155,36.460618],[139.431105,36.46066],[139.43058,36.460802],[139.43013,36.460843],[139.429793,36.46091],[139.429543,36.461027],[139.429518,36.461276],[139.429605,36.461501],[139.429793,36.461676],[139.43033,36.462018],[139.430443,36.462218],[139.430668,36.462468],[139.431167,36.462601],[139.43153,36.462735],[139.43208,36.463318],[139.43248,36.463635],[139.43278,36.463768],[139.433205,36.463885],[139.435017,36.46411],[139.435342,36.464218],[139.435384,36.464261],[139.435379,36.464285],[139.435404,36.46476],[139.435492,36.465143],[139.435879,36.46571],[139.436104,36.465868],[139.436467,36.466043],[139.436554,36.466176],[139.436829,36.467084],[139.436854,36.467309],[139.436692,36.467918],[139.436717,36.468368],[139.436891,36.468634],[139.436916,36.469451],[139.437054,36.469742],[139.437254,36.469992],[139.437279,36.470217],[139.437229,36.470709],[139.437316,36.471092],[139.437429,36.471384],[139.437291,36.472109],[139.437291,36.472492],[139.437366,36.472875],[139.437654,36.473684],[139.437766,36.47425],[139.438103,36.474925],[139.437991,36.474975],[139.436816,36.474792],[139.436341,36.474683],[139.435641,36.474458],[139.435116,36.474167],[139.434704,36.473717],[139.434166,36.472925],[139.433966,36.472742],[139.433167,36.472409],[139.432942,36.4722],[139.432604,36.471775],[139.432329,36.471484],[139.431829,36.471284],[139.431492,36.471259],[139.431292,36.471325],[139.431042,36.471459],[139.430879,36.4716],[139.431067,36.471734],[139.431492,36.472184],[139.431579,36.472434],[139.431442,36.472925],[139.431492,36.473625],[139.431467,36.473783],[139.431354,36.473967],[139.431167,36.474125],[139.430554,36.474483],[139.430517,36.474575],[139.430654,36.474683],[139.430992,36.475092],[139.431217,36.475858],[139.431167,36.476041],[139.430717,36.476358],[139.430692,36.476583],[139.430604,36.477233],[139.430504,36.477483],[139.430666,36.477841],[139.430666,36.477958],[139.430504,36.478208],[139.430279,36.478316],[139.429667,36.478433],[139.429604,36.478541],[139.429666,36.478791],[139.429941,36.479358],[139.430004,36.479691],[139.429941,36.479941],[139.429979,36.480591],[139.429954,36.481224],[139.429779,36.482041],[139.429729,36.482124],[139.429666,36.482174],[139.429479,36.482441],[139.429116,36.482757],[139.427804,36.483349],[139.427591,36.483549],[139.427279,36.483732],[139.426866,36.48384],[139.426442,36.483999],[139.426104,36.484299],[139.425967,36.484682],[139.426004,36.484882],[139.426191,36.485357],[139.426391,36.485649],[139.426391,36.486057],[139.426304,36.486373],[139.426279,36.486532],[139.426954,36.487523],[139.427004,36.487657],[139.427341,36.48874],[139.427791,36.489748],[139.427966,36.49004],[139.428016,36.490248],[139.428016,36.490448],[139.427829,36.490581],[139.427541,36.490631],[139.426929,36.490565],[139.425929,36.49029],[139.425391,36.490223],[139.425091,36.490248],[139.424091,36.490456],[139.423641,36.490498],[139.423254,36.490456],[139.423004,36.49039],[139.422254,36.490365],[139.421917,36.490406],[139.421417,36.490639],[139.421217,36.490881],[139.421104,36.491223],[139.421329,36.491831],[139.422367,36.492931],[139.422591,36.493248],[139.422641,36.493431],[139.422529,36.493681],[139.422254,36.493814],[139.420617,36.494106],[139.419967,36.494289],[139.419667,36.494422],[139.418917,36.494806],[139.418667,36.494856],[139.417942,36.494881],[139.417904,36.494972],[139.417992,36.495214],[139.418242,36.495822],[139.418329,36.496164],[139.418354,36.49648],[139.418279,36.497064],[139.418104,36.497422],[139.418142,36.497763],[139.418392,36.498238],[139.419567,36.499972],[139.419679,36.50038],[139.419117,36.50083],[139.418979,36.501121],[139.419042,36.501305],[139.419204,36.50148],[139.419342,36.501705],[139.419342,36.501863],[139.419067,36.502246],[139.419154,36.502363],[139.420354,36.502813],[139.420766,36.503038],[139.421154,36.503238],[139.421466,36.503463],[139.422441,36.504088],[139.422779,36.504246],[139.423004,36.504471],[139.423079,36.504671],[139.423116,36.505171],[139.423553,36.505846],[139.423891,36.506321],[139.424003,36.506587],[139.424028,36.506771],[139.423978,36.506971],[139.423753,36.507312],[139.423428,36.507604],[139.423003,36.507854],[139.422453,36.508037],[139.422203,36.508196],[139.421891,36.508579],[139.421753,36.50887],[139.421778,36.509095],[139.421866,36.509187],[139.422616,36.509587],[139.424353,36.510354],[139.424628,36.510379],[139.425066,36.510237],[139.425465,36.510329],[139.425878,36.510487],[139.426303,36.510554],[139.42699,36.510595],[139.427778,36.510754],[139.42789,36.510937],[139.428165,36.511729],[139.428503,36.512512],[139.428703,36.512737],[139.42939,36.512895],[139.429527,36.51292],[139.429927,36.513053],[139.430252,36.513253],[139.43054,36.513595],[139.430765,36.513953],[139.431065,36.514203],[139.431402,36.514562],[139.431452,36.514853],[139.431377,36.515053],[139.431427,36.515487],[139.431627,36.515753],[139.431852,36.515936],[139.431627,36.516345],[139.431652,36.516678],[139.431577,36.517061],[139.431602,36.517128],[139.431765,36.517245],[139.432327,36.517178],[139.432689,36.517178],[139.432802,36.517336],[139.432827,36.517853],[139.432777,36.518145],[139.432864,36.518753],[139.432964,36.519111],[139.433052,36.519203],[139.433502,36.519336],[139.434277,36.519453],[139.434564,36.519519],[139.434639,36.519561],[139.434814,36.520219],[139.434864,36.521161],[139.434764,36.522269],[139.435451,36.522902],[139.435926,36.523394],[139.436289,36.523711],[139.436964,36.524069],[139.437026,36.524361],[139.437164,36.524652],[139.437576,36.524994],[139.438888,36.525444],[139.439363,36.52551],[139.439976,36.525485],[139.440026,36.526069],[139.440313,36.526835],[139.440701,36.527494],[139.441763,36.528777],[139.44185,36.529027],[139.441688,36.529452],[139.441463,36.529743],[139.44135,36.53026],[139.4414,36.530443],[139.442863,36.531701],[139.44255,36.531751],[139.442275,36.531751],[139.441988,36.53171],[139.441488,36.53171],[139.441075,36.531818],[139.44085,36.531885],[139.440575,36.531885],[139.439713,36.531751],[139.439288,36.531735],[139.438876,36.531776],[139.438151,36.532068],[139.437338,36.532526],[139.436926,36.532634],[139.436226,36.532593],[139.435813,36.532593],[139.435038,36.532776],[139.434776,36.532884],[139.434638,36.533109],[139.434588,36.533493],[139.434501,36.533726],[139.434588,36.533876],[139.434901,36.533876],[139.435151,36.533743],[139.435538,36.533718],[139.436151,36.533834],[139.436676,36.534151],[139.436926,36.534443],[139.437438,36.535384],[139.437851,36.536242],[139.437551,36.536626],[139.437463,36.536626],[139.437051,36.536917],[139.436963,36.537076],[139.436963,36.537325],[139.437213,36.537617],[139.437138,36.537759],[139.436601,36.538092],[139.436413,36.538434],[139.436351,36.538725],[139.436413,36.539425],[139.436463,36.539675],[139.436638,36.539967],[139.436775,36.540125],[139.437188,36.5403],[139.437775,36.540417],[139.438063,36.540508],[139.438138,36.540575],[139.438138,36.540658],[139.437975,36.540817],[139.437413,36.541],[139.437163,36.541117],[139.437025,36.541292],[139.437,36.541542],[139.437063,36.541883],[139.437,36.542108],[139.437063,36.542333],[139.4372,36.542466],[139.437475,36.542716],[139.437675,36.543166],[139.437738,36.544291],[139.437838,36.544516],[139.43795,36.544633],[139.438288,36.544833],[139.438288,36.545191],[139.438238,36.545574],[139.438375,36.546024],[139.438513,36.546391],[139.438488,36.546974],[139.438513,36.547474],[139.438275,36.548149],[139.438275,36.548574],[139.4388,36.549724],[139.43905,36.550107],[139.439137,36.550332],[139.439112,36.550357],[139.439137,36.550516],[139.43925,36.55074],[139.439612,36.551057],[139.440425,36.551549],[139.441812,36.552224],[139.442237,36.552382],[139.442287,36.552424],[139.442762,36.552515],[139.443437,36.55254],[139.443874,36.552424],[139.444124,36.55229],[139.444624,36.55184],[139.444962,36.551682],[139.445549,36.551541],[139.446162,36.551699],[139.446524,36.551632],[139.446974,36.551407],[139.447549,36.550982],[139.447974,36.550774],[139.448662,36.550641],[139.449024,36.550482],[139.449562,36.550049],[139.449887,36.549891],[139.450649,36.549757],[139.450949,36.549757],[139.451061,36.549716],[139.452374,36.549641],[139.452649,36.549758],[139.453399,36.550457],[139.454749,36.551399],[139.455136,36.551599],[139.456248,36.552366],[139.456886,36.552932],[139.457286,36.553107],[139.457611,36.553199],[139.458036,36.55324],[139.458511,36.553174],[139.459286,36.552974],[139.459736,36.552991],[139.460236,36.553082],[139.460798,36.553057],[139.461098,36.553965],[139.46146,36.554482],[139.461685,36.554732],[139.462223,36.555724],[139.462448,36.556348],[139.462473,36.556598],[139.462035,36.557573],[139.461998,36.557815],[139.46211,36.557973],[139.462648,36.558357],[139.46281,36.558582],[139.463035,36.559665],[139.46321,36.559848],[139.463597,36.560048],[139.464047,36.560206],[139.464485,36.560406],[139.46491,36.560748],[139.465247,36.561106],[139.465472,36.561673],[139.46561,36.562506],[139.46556,36.563406],[139.465585,36.563589],[139.465835,36.563723],[139.466697,36.564014],[139.466984,36.564173],[139.467397,36.564581],[139.467784,36.564739],[139.467984,36.564756],[139.468847,36.564731],[139.469047,36.564781],[139.469209,36.564981],[139.469434,36.565364],[139.469597,36.565564],[139.469772,36.565656],[139.470047,36.565681],[139.470934,36.565497],[139.472271,36.565089],[139.472446,36.565073],[139.473059,36.566081],[139.473559,36.566464],[139.473921,36.566597],[139.474121,36.567031],[139.473984,36.567389],[139.473734,36.567597],[139.473571,36.567864],[139.473621,36.568139],[139.473709,36.568272],[139.474184,36.568655],[139.474209,36.56883],[139.473959,36.570122],[139.473909,36.570822],[139.473909,36.57113],[139.474021,36.571813],[139.473909,36.572422],[139.473884,36.572897],[139.474083,36.573413],[139.474171,36.573547],[139.474333,36.57368],[139.474608,36.573797],[139.475421,36.57393],[139.476171,36.574197],[139.476821,36.57438],[139.477546,36.574713],[139.478296,36.575163],[139.479183,36.575771],[139.479745,36.57623],[139.48002,36.576521],[139.480395,36.576971],[139.480645,36.577196],[139.48087,36.577305],[139.481558,36.577513],[139.48192,36.577646],[139.482395,36.577963],[139.48262,36.578163]]]}}],"type":"FeatureCollection"}