{"type":"FeatureCollection","features":[{"geometry":{"type":"Polygon","coordinates":[[[139.976237,36.607381],[139.975053,36.605009],[139.975053,36.603028],[139.975053,36.601881],[139.975904,36.599432],[139.975595,36.597349],[139.975176,36.596584],[139.974477,36.595308],[139.974477,36.593806],[139.974796,36.592583],[139.974796,36.590364],[139.974456,36.588817],[139.973872,36.587976],[139.972908,36.586931],[139.972711,36.585813],[139.972929,36.583077],[139.972806,36.58103],[139.973174,36.580038],[139.974392,36.579018],[139.975227,36.578189],[139.975227,36.577335],[139.974291,36.576159],[139.973481,36.575085],[139.972957,36.57431],[139.973152,36.570347],[139.97293,36.56881],[139.9721,36.567989],[139.9721,36.566753],[139.972521,36.564845],[139.972521,36.562543],[139.971043,36.561635],[139.970203,36.560627],[139.968329,36.558377],[139.966151,36.556557],[139.964237,36.555474],[139.962894,36.55502],[139.961928,36.554194],[139.959675,36.552267],[139.958899,36.551376],[139.958372,36.550286],[139.958372,36.548926],[139.957402,36.547465],[139.955845,36.546957],[139.954939,36.546068],[139.953953,36.544568],[139.953953,36.543199],[139.954529,36.542086],[139.955453,36.540304],[139.955915,36.538516],[139.955915,36.537585],[139.956117,36.53623],[139.956826,36.534773],[139.957144,36.531702],[139.956941,36.527617],[139.956941,36.526488],[139.956578,36.524894],[139.956407,36.524048],[139.955782,36.522991],[139.95472,36.521849],[139.953642,36.520529],[139.952967,36.519223],[139.953173,36.518034],[139.952936,36.516723],[139.95224,36.513969],[139.952045,36.512508],[139.952759,36.510249],[139.953562,36.50745],[139.953936,36.506303],[139.954117,36.504839],[139.955855,36.502726],[139.956773,36.501776],[139.957216,36.50058],[139.957409,36.499531],[139.957409,36.498737],[139.955303,36.494738],[139.954376,36.49235],[139.953057,36.489764],[139.953057,36.48874],[139.953357,36.487506],[139.954741,36.486145],[139.955448,36.485221],[139.955612,36.483933],[139.956217,36.482246],[139.958088,36.480612],[139.959286,36.479949],[139.960358,36.480189],[139.961252,36.480389],[139.962405,36.480224],[139.963308,36.479537],[139.963582,36.477695],[139.963598,36.477229],[139.963607,36.476979],[139.963594,36.476279],[139.963495,36.475579],[139.963207,36.474512],[139.96302,36.472704],[139.963007,36.472188],[139.963032,36.471921],[139.963295,36.470971],[139.96322,36.47048],[139.962995,36.469846],[139.962307,36.468621],[139.961695,36.467688],[139.961595,36.467447],[139.961295,36.46683],[139.960933,36.466222],[139.960808,36.465813],[139.96072,36.464505],[139.960858,36.463172],[139.960833,36.462681],[139.960933,36.462481],[139.961583,36.462322],[139.96162,36.462147],[139.961445,36.461756],[139.96147,36.461739],[139.960733,36.460198],[139.960508,36.459606],[139.960196,36.458931],[139.959846,36.458498],[139.959571,36.458023],[139.959158,36.457456],[139.958883,36.457323],[139.957921,36.457289],[139.957271,36.457356],[139.956796,36.457489],[139.956321,36.456898],[139.955109,36.455081],[139.954296,36.453815],[139.954096,36.453856],[139.952746,36.454431],[139.952509,36.454523],[139.952134,36.454473],[139.950709,36.454898],[139.949622,36.455181],[139.948972,36.455239],[139.948822,36.455039],[139.948759,36.454631],[139.948047,36.452306],[139.947834,36.451065],[139.947197,36.449815],[139.946185,36.448115],[139.945272,36.446782],[139.94416,36.444899],[139.94371,36.444174],[139.943173,36.443449],[139.942698,36.442724],[139.942285,36.441957],[139.941298,36.440457],[139.940211,36.438583],[139.937711,36.434841],[139.937324,36.43425],[139.936186,36.432141],[139.935374,36.43085],[139.935024,36.430283],[139.934949,36.429858],[139.934812,36.429408],[139.934212,36.428317],[139.933974,36.427659],[139.933699,36.426642],[139.933487,36.425242],[139.933349,36.424542],[139.933299,36.423842],[139.932762,36.420368],[139.9327,36.419818],[139.932737,36.419451],[139.93265,36.419176],[139.932587,36.418501],[139.9327,36.418093],[139.9337,36.415868],[139.933812,36.41551],[139.933787,36.415085],[139.9332,36.41336],[139.9323,36.410677],[139.931987,36.409386],[139.931787,36.407561],[139.931787,36.407311],[139.931463,36.405478],[139.93125,36.403453],[139.931138,36.402912],[139.93115,36.401845],[139.930063,36.401887],[139.929225,36.402012],[139.928988,36.402228],[139.928913,36.402687],[139.92885,36.403137],[139.928838,36.40352],[139.928413,36.404078],[139.928075,36.404195],[139.927825,36.404203],[139.927638,36.404145],[139.92745,36.403845],[139.927338,36.403486],[139.927176,36.403261],[139.926713,36.402195],[139.926713,36.402137],[139.925563,36.402278],[139.924913,36.401037],[139.924963,36.400987],[139.925413,36.400837],[139.925463,36.400787],[139.925313,36.400512],[139.925313,36.400195],[139.925226,36.399837],[139.924713,36.39907],[139.924676,36.398837],[139.924913,36.39862],[139.924626,36.398545],[139.924188,36.398504],[139.923851,36.398295],[139.923026,36.397545],[139.922639,36.39732],[139.922951,36.396487],[139.922989,36.396262],[139.922889,36.395587],[139.922501,36.394896],[139.922326,36.394696],[139.921376,36.393487],[139.921339,36.393204],[139.921439,36.392796],[139.921676,36.392712],[139.921714,36.392438],[139.921864,36.392013],[139.922114,36.391654],[139.922226,36.391246],[139.922276,36.390163],[139.922526,36.389371],[139.922589,36.389013],[139.921989,36.387905],[139.921451,36.386655],[139.920952,36.38573],[139.920602,36.384963],[139.920527,36.384263],[139.920177,36.383355],[139.920064,36.382997],[139.919652,36.382814],[139.919577,36.382314],[139.919214,36.381322],[139.919089,36.380822],[139.918977,36.380706],[139.918664,36.380689],[139.917815,36.380047],[139.91739,36.379614],[139.916027,36.377864],[139.915777,36.377689],[139.915577,36.377414],[139.91529,36.376848],[139.91534,36.376464],[139.915415,36.375381],[139.915465,36.375356],[139.917077,36.375731],[139.917552,36.375731],[139.919227,36.375906],[139.919065,36.37559],[139.918077,36.373623],[139.91779,36.372665],[139.917615,36.371948],[139.917302,36.370632],[139.917228,36.370157],[139.916903,36.369632],[139.916178,36.368074],[139.915865,36.367416],[139.91559,36.366649],[139.915515,36.366532],[139.915403,36.366191],[139.916215,36.366107],[139.917528,36.366074],[139.917415,36.365966],[139.91694,36.365616],[139.916503,36.365233],[139.915978,36.364866],[139.914903,36.363999],[139.913928,36.363341],[139.913741,36.363183],[139.912216,36.362308],[139.911891,36.362083],[139.911016,36.361558],[139.909779,36.360716],[139.908479,36.359716],[139.907241,36.358642],[139.907016,36.358667],[139.906879,36.358567],[139.906579,36.35805],[139.906354,36.357475],[139.906054,36.356942],[139.905792,36.356217],[139.905567,36.355742],[139.905142,36.355692],[139.904779,36.355667],[139.904467,36.356525],[139.903504,36.358408],[139.903417,36.358491],[139.903667,36.358933],[139.903667,36.359066],[139.903517,36.35945],[139.903067,36.360058],[139.902929,36.360458],[139.903054,36.360983],[139.903267,36.361349],[139.903554,36.361591],[139.903654,36.361816],[139.903379,36.362341],[139.903117,36.362499],[139.901279,36.362799],[139.901079,36.363182],[139.900654,36.363316],[139.899479,36.363416],[139.89878,36.363441],[139.898642,36.363416],[139.899167,36.364499],[139.89793,36.364582],[139.895792,36.364582],[139.89433,36.364674],[139.894092,36.364599],[139.894142,36.365207],[139.894105,36.36524],[139.892855,36.36529],[139.892793,36.364682],[139.890543,36.364732],[139.890293,36.362515],[139.88893,36.362599],[139.888943,36.362382],[139.888831,36.359774],[139.888768,36.359191],[139.888793,36.358849],[139.889443,36.358766],[139.889918,36.358858],[139.89008,36.358974],[139.890668,36.359133],[139.891305,36.359524],[139.891693,36.359841],[139.891855,36.359933],[139.89238,36.360099],[139.893218,36.359941],[139.89378,36.359749],[139.894255,36.359658],[139.894318,36.359724],[139.894593,36.359866],[139.89493,36.359549],[139.89518,36.359099],[139.89488,36.358566],[139.894805,36.358008],[139.894868,36.35765],[139.893818,36.3562],[139.893343,36.356308],[139.892705,36.356375],[139.892618,36.356033],[139.891643,36.356008],[139.890668,36.356066],[139.889006,36.3561],[139.888968,36.35425],[139.889031,36.353483],[139.886381,36.353508],[139.886219,36.35325],[139.885969,36.352758],[139.885831,36.352308],[139.885869,36.351784],[139.886406,36.350459],[139.885781,36.350242],[139.885394,36.350225],[139.884994,36.350825],[139.884569,36.351167],[139.884094,36.351325],[139.883531,36.351392],[139.882981,36.351225],[139.882806,36.351117],[139.882144,36.350767],[139.881894,36.350742],[139.881807,36.350767],[139.881894,36.350942],[139.882231,36.351108],[139.882531,36.351192],[139.882419,36.351583],[139.877982,36.35105],[139.877932,36.350967],[139.878069,36.35045],[139.877957,36.3504],[139.876295,36.350208],[139.875407,36.350167],[139.87537,36.350492],[139.875445,36.351017],[139.875282,36.351017],[139.874895,36.351083],[139.874732,36.350475],[139.874707,36.350158],[139.874003,36.350226],[139.87367,36.350258],[139.87272,36.350317],[139.87262,36.350592],[139.872632,36.351033],[139.872707,36.35145],[139.872957,36.351725],[139.873482,36.352025],[139.873832,36.352366],[139.873757,36.352425],[139.873532,36.352425],[139.873195,36.35225],[139.87277,36.351941],[139.87247,36.351833],[139.872332,36.35185],[139.872232,36.351966],[139.87207,36.352266],[139.872032,36.352841],[139.87207,36.354199],[139.87197,36.354874],[139.871742,36.355269],[139.87162,36.354908],[139.87127,36.355049],[139.871182,36.355091],[139.871132,36.355966],[139.87117,36.356124],[139.871232,36.356999],[139.871207,36.357357],[139.871232,36.357674],[139.871157,36.358007],[139.871045,36.358166],[139.870932,36.358257],[139.870795,36.358257],[139.870707,36.358166],[139.870657,36.358032],[139.87062,36.357632],[139.870645,36.357382],[139.870582,36.356507],[139.870682,36.355833],[139.870657,36.355249],[139.870545,36.355158],[139.87032,36.355066],[139.870208,36.355066],[139.870045,36.355033],[139.870045,36.355366],[139.870158,36.356149],[139.87012,36.357316],[139.870007,36.357749],[139.86977,36.358865],[139.869682,36.35929],[139.869582,36.359949],[139.869445,36.36024],[139.869332,36.360149],[139.867683,36.359299],[139.867095,36.35894],[139.866783,36.358832],[139.86597,36.358432],[139.865133,36.358074],[139.863821,36.357432],[139.863708,36.35734],[139.863008,36.356982],[139.862646,36.356732],[139.862171,36.356107],[139.862021,36.355774],[139.861996,36.355624],[139.862108,36.355307],[139.861683,36.355124],[139.861458,36.355099],[139.861433,36.354857],[139.861621,36.354632],[139.861483,36.354557],[139.861171,36.354616],[139.860708,36.354857],[139.860121,36.355224],[139.859934,36.355399],[139.859159,36.356482],[139.859021,36.356732],[139.858971,36.356924],[139.858609,36.357532],[139.858646,36.357807],[139.858846,36.358374],[139.858759,36.358682],[139.858759,36.358923],[139.858484,36.359298],[139.858521,36.359782],[139.858471,36.360257],[139.858583,36.360857],[139.858946,36.361665],[139.859208,36.362023],[139.859946,36.36324],[139.860483,36.364289],[139.860658,36.364931],[139.860671,36.365289],[139.860733,36.365789],[139.860733,36.365856],[139.860746,36.366098],[139.860758,36.366256],[139.860845,36.367297],[139.860945,36.368289],[139.861045,36.368597],[139.861345,36.369247],[139.861745,36.369905],[139.86192,36.370289],[139.86217,36.370722],[139.862895,36.371122],[139.863995,36.371822],[139.865532,36.372955],[139.866245,36.373713],[139.866345,36.373947],[139.86637,36.374013],[139.866382,36.37408],[139.866382,36.374097],[139.866407,36.374413],[139.866407,36.374638],[139.866457,36.37483],[139.866482,36.375038],[139.86637,36.375746],[139.867032,36.376788],[139.867594,36.377513],[139.868257,36.37818],[139.868394,36.378338],[139.868469,36.378463],[139.868519,36.378629],[139.868532,36.378763],[139.868519,36.379021],[139.868332,36.379804],[139.868182,36.380238],[139.868444,36.380604],[139.868282,36.380696],[139.867082,36.381237],[139.865182,36.382071],[139.86507,36.382037],[139.864357,36.381321],[139.864207,36.381304],[139.863345,36.381546],[139.862457,36.380587],[139.86207,36.380729],[139.861432,36.380946],[139.861257,36.380812],[139.861107,36.380829],[139.860657,36.381021],[139.860195,36.380721],[139.859433,36.380912],[139.859233,36.380346],[139.858995,36.380412],[139.858608,36.380529],[139.85872,36.380787],[139.85497,36.382412],[139.855345,36.382829],[139.855195,36.38337],[139.855295,36.383545],[139.856045,36.38452],[139.85417,36.385428],[139.85352,36.384362],[139.852983,36.383728],[139.85187,36.382653],[139.85322,36.382054],[139.852808,36.381079],[139.851571,36.381579],[139.851296,36.380887],[139.850171,36.381212],[139.849321,36.381529],[139.849271,36.381595],[139.849533,36.382295],[139.849696,36.382737],[139.848621,36.38297],[139.848621,36.383578],[139.848696,36.38482],[139.848758,36.385286],[139.848946,36.38562],[139.849146,36.385828],[139.849233,36.385853],[139.84977,36.386153],[139.849808,36.38622],[139.84987,36.386345],[139.850283,36.387003],[139.85047,36.387078],[139.85072,36.38717],[139.85102,36.387236],[139.851358,36.387411],[139.852758,36.388503],[139.853245,36.388869],[139.853608,36.389153],[139.853933,36.389378],[139.854132,36.389586],[139.854732,36.390386],[139.855457,36.391569],[139.855882,36.392352],[139.855882,36.392511],[139.855557,36.393102],[139.855507,36.393327],[139.855482,36.393677],[139.85557,36.393902],[139.855645,36.393994],[139.855845,36.394352],[139.85622,36.394744],[139.85602,36.394777],[139.856295,36.395202],[139.857032,36.39616],[139.858094,36.397169],[139.858469,36.397585],[139.858444,36.397644],[139.858332,36.39766],[139.856794,36.397668],[139.856682,36.397735],[139.856744,36.398027],[139.856882,36.398502],[139.857032,36.399193],[139.857007,36.399243],[139.857032,36.399468],[139.857007,36.399593],[139.857032,36.39986],[139.857007,36.400793],[139.857082,36.401118],[139.857582,36.401818],[139.857669,36.402151],[139.857669,36.402401],[139.857532,36.402585],[139.857357,36.402826],[139.857282,36.403159],[139.857282,36.403384],[139.857369,36.403793],[139.857657,36.404601],[139.857857,36.405268],[139.858256,36.406209],[139.858456,36.406617],[139.858519,36.406926],[139.858519,36.407242],[139.858606,36.407751],[139.859006,36.408759],[139.859056,36.409167],[139.859456,36.410534],[139.859494,36.410775],[139.859831,36.411675],[139.860181,36.412367],[139.860319,36.412908],[139.861006,36.414291],[139.861106,36.414558],[139.861143,36.414808],[139.861393,36.414808],[139.861643,36.414916],[139.862156,36.415433],[139.862318,36.415725],[139.862543,36.416016],[139.862918,36.416416],[139.862918,36.416558],[139.863006,36.417183],[139.863006,36.417383],[139.863093,36.417824],[139.863168,36.417808],[139.863368,36.417824],[139.863843,36.417783],[139.864043,36.417716],[139.864105,36.419174],[139.864193,36.419816],[139.864705,36.421674],[139.86538,36.42314],[139.86548,36.423482],[139.865768,36.424199],[139.86588,36.424582],[139.86613,36.425623],[139.86613,36.426007],[139.866193,36.42644],[139.866168,36.426598],[139.86623,36.427007],[139.866205,36.427498],[139.86628,36.428381],[139.866655,36.429756],[139.866855,36.430248],[139.86713,36.431073],[139.86733,36.431939],[139.86733,36.432314],[139.867542,36.434314],[139.867542,36.435097],[139.867617,36.435914],[139.867729,36.436272],[139.867817,36.436406],[139.867992,36.436947],[139.868267,36.437397],[139.868417,36.437764],[139.868354,36.43803],[139.867667,36.439005],[139.867054,36.439539],[139.866717,36.439997],[139.866554,36.440688],[139.866529,36.441255],[139.866704,36.44153],[139.866917,36.441755],[139.867117,36.442072],[139.867179,36.44243],[139.867204,36.443671],[139.867042,36.444388],[139.866817,36.444896],[139.866679,36.445496],[139.866679,36.445813],[139.866742,36.446038],[139.866854,36.446263],[139.867129,36.446513],[139.867554,36.447013],[139.867666,36.447504],[139.867716,36.448163],[139.867829,36.448629],[139.868429,36.450179],[139.868704,36.450571],[139.869091,36.451021],[139.869291,36.451087],[139.869654,36.451046],[139.869991,36.450954],[139.870404,36.450779],[139.871079,36.450346],[139.871241,36.450304],[139.871116,36.453529],[139.870841,36.455287],[139.870878,36.455687],[139.870791,36.456095],[139.870616,36.456212],[139.870404,36.456278],[139.870179,36.456295],[139.869779,36.455937],[139.869116,36.455037],[139.868579,36.454495],[139.868279,36.454337],[139.867966,36.453887],[139.867629,36.453145],[139.867204,36.452304],[139.867091,36.451995],[139.866366,36.45217],[139.866454,36.452287],[139.866541,36.452695],[139.866766,36.453529],[139.866316,36.453595],[139.866091,36.453662],[139.866266,36.45452],[139.866329,36.455037],[139.866504,36.456862],[139.866429,36.456962],[139.865916,36.457103],[139.865754,36.457237],[139.865966,36.457511],[139.865954,36.457653],[139.865841,36.457811],[139.865879,36.457836],[139.866004,36.458128],[139.866841,36.459953],[139.867041,36.460561],[139.867191,36.462019],[139.868166,36.461911],[139.869141,36.461753],[139.869366,36.461753],[139.869503,36.462903],[139.869666,36.463511],[139.870116,36.463561],[139.870703,36.463578],[139.870866,36.463628],[139.871491,36.464461],[139.871737,36.464898],[139.871841,36.464669],[139.872478,36.464111],[139.872903,36.464044],[139.873253,36.464111],[139.873803,36.464386],[139.873953,36.464569],[139.87374,36.465019],[139.87369,36.465202],[139.873128,36.466027],[139.872928,36.466544],[139.872915,36.467069],[139.87304,36.46761],[139.873328,36.46951],[139.873078,36.469485],[139.872578,36.469502],[139.871737,36.469623],[139.871041,36.469752],[139.870566,36.469818],[139.869503,36.470093],[139.868253,36.470335],[139.867216,36.470452],[139.867191,36.471085],[139.867028,36.471868],[139.866803,36.47216],[139.866641,36.47246],[139.866553,36.472768],[139.866553,36.473068],[139.866616,36.473335],[139.866703,36.473518],[139.866978,36.473743],[139.867528,36.473518],[139.867716,36.47356],[139.868078,36.473876],[139.868766,36.474618],[139.869215,36.475209],[139.86919,36.475243],[139.869128,36.475243],[139.86859,36.475043],[139.868178,36.474918],[139.867678,36.474868],[139.867041,36.474868],[139.865616,36.475001],[139.864328,36.475226],[139.863191,36.475343],[139.862178,36.475384],[139.861878,36.475434],[139.861678,36.475526],[139.861653,36.475768],[139.862053,36.476676],[139.861766,36.476717],[139.861128,36.476751],[139.860316,36.476826],[139.859891,36.475851],[139.859729,36.475834],[139.859279,36.475851],[139.858866,36.475942],[139.858366,36.476201],[139.857666,36.476626],[139.855804,36.477592],[139.854716,36.478267],[139.854241,36.478517],[139.853854,36.478659],[139.853266,36.478759],[139.852566,36.478934],[139.852404,36.479009],[139.851867,36.4791],[139.851842,36.479217],[139.851904,36.479484],[139.851841,36.479509],[139.851317,36.479842],[139.851004,36.480133],[139.850617,36.480725],[139.850004,36.481467],[139.849504,36.481916],[139.848804,36.482641],[139.848367,36.483],[139.847604,36.483183],[139.846942,36.483225],[139.846467,36.483291],[139.846079,36.483475],[139.845829,36.483766],[139.845304,36.485008],[139.845167,36.485166],[139.844242,36.485074],[139.844042,36.485641],[139.843704,36.486024],[139.843604,36.486266],[139.843517,36.486649],[139.843304,36.487116],[139.843104,36.487324],[139.842604,36.487707],[139.842017,36.487724],[139.841879,36.487391],[139.841479,36.487299],[139.841517,36.486941],[139.84043,36.486866],[139.839842,36.486757],[139.839592,36.486757],[139.839505,36.487207],[139.83948,36.48854],[139.839542,36.48894],[139.839654,36.489349],[139.840179,36.490474],[139.840242,36.490499],[139.840517,36.490457],[139.840717,36.49039],[139.841292,36.490932],[139.841867,36.491698],[139.841667,36.492165],[139.841054,36.492148],[139.840242,36.492082],[139.840129,36.49239],[139.840529,36.49264],[139.841142,36.492948],[139.841304,36.493132],[139.841079,36.493781],[139.840854,36.494215],[139.840304,36.494948],[139.840242,36.49504],[139.839979,36.49509],[139.838004,36.494673],[139.837054,36.494356],[139.836779,36.494406],[139.836567,36.494531],[139.836179,36.49464],[139.836517,36.494915],[139.836654,36.495156],[139.836704,36.495589],[139.836454,36.496014],[139.836179,36.496173],[139.835679,36.496381],[139.835454,36.496398],[139.834392,36.496198],[139.83423,36.497164],[139.834229,36.497756],[139.834454,36.498222],[139.834479,36.498539],[139.834679,36.498897],[139.834654,36.499006],[139.834429,36.499531],[139.834379,36.499864],[139.834467,36.500047],[139.834679,36.500206],[139.834992,36.500247],[139.835554,36.500181],[139.836054,36.500272],[139.836079,36.500497],[139.835992,36.500697],[139.835717,36.500972],[139.835442,36.501397],[139.835242,36.501514],[139.834792,36.501647],[139.834067,36.501939],[139.833654,36.501289],[139.833367,36.500972],[139.833154,36.500814],[139.832992,36.500789],[139.83253,36.50083],[139.832142,36.500947],[139.831805,36.501105],[139.83108,36.50158],[139.830917,36.501755],[139.830592,36.502297],[139.830255,36.502664],[139.830192,36.502797],[139.83023,36.503064],[139.830192,36.503138],[139.830155,36.503338],[139.830217,36.503497],[139.830267,36.503538],[139.830667,36.503563],[139.831005,36.503563],[139.831167,36.503605],[139.831217,36.503672],[139.831192,36.503805],[139.830867,36.504147],[139.830805,36.50433],[139.83078,36.504647],[139.830505,36.504847],[139.83033,36.505113],[139.830305,36.505363],[139.830392,36.505613],[139.830642,36.505947],[139.83068,36.506155],[139.830642,36.506555],[139.830567,36.507055],[139.830567,36.507705],[139.830817,36.507821],[139.830904,36.50798],[139.830904,36.50863],[139.830829,36.508946],[139.830717,36.508971],[139.830567,36.508905],[139.830404,36.508988],[139.830379,36.509038],[139.830492,36.509238],[139.830579,36.509755],[139.830554,36.510813],[139.830829,36.511246],[139.830692,36.511313],[139.830529,36.511338],[139.830279,36.511271],[139.829967,36.510954],[139.829817,36.510146],[139.829742,36.509988],[139.829629,36.509896],[139.82923,36.509854],[139.82898,36.509921],[139.828817,36.510054],[139.82868,36.510254],[139.828592,36.510463],[139.828517,36.510529],[139.827955,36.510529],[139.82778,36.510238],[139.827592,36.509629],[139.826805,36.509679],[139.82678,36.509654],[139.826754,36.509921],[139.826555,36.509946],[139.826492,36.509921],[139.826492,36.509763],[139.826167,36.509363],[139.825792,36.509071],[139.82583,36.508979],[139.826017,36.508979],[139.82608,36.508888],[139.825817,36.508413],[139.825705,36.507738],[139.825567,36.507646],[139.825317,36.507605],[139.825205,36.507538],[139.825068,36.507355],[139.82503,36.507113],[139.825143,36.506455],[139.825168,36.506388],[139.825867,36.50623],[139.826067,36.506163],[139.82623,36.50603],[139.826205,36.505805],[139.826142,36.505713],[139.825818,36.505688],[139.825555,36.505755],[139.825418,36.505713],[139.825368,36.505371],[139.825618,36.505063],[139.82558,36.50488],[139.82533,36.504538],[139.825055,36.503955],[139.82488,36.503755],[139.82483,36.504088],[139.824893,36.50463],[139.824805,36.505063],[139.824718,36.505263],[139.824605,36.505288],[139.824443,36.505263],[139.82428,36.505988],[139.824255,36.506388],[139.824343,36.507113],[139.824643,36.508238],[139.82473,36.508421],[139.824767,36.508729],[139.82473,36.508888],[139.824792,36.509229],[139.825017,36.509796],[139.825017,36.509996],[139.82488,36.510179],[139.824242,36.510763],[139.824105,36.510988],[139.824067,36.511238],[139.824105,36.511329],[139.823855,36.511412],[139.823567,36.511596],[139.823293,36.511712],[139.82313,36.511821],[139.822868,36.511621],[139.822593,36.511487],[139.821805,36.511287],[139.82133,36.511104],[139.82128,36.511246],[139.820143,36.512637],[139.819418,36.513321],[139.819255,36.513587],[139.819005,36.513879],[139.818555,36.514245],[139.818168,36.514429],[139.81783,36.514787],[139.817605,36.514895],[139.81738,36.515104],[139.817218,36.515354],[139.817105,36.51582],[139.817193,36.516254],[139.817355,36.516412],[139.818005,36.516479],[139.818055,36.516545],[139.818093,36.516837],[139.818143,36.516879],[139.818568,36.516879],[139.81993,36.516787],[139.820693,36.516812],[139.821017,36.51692],[139.820855,36.517079],[139.820443,36.517262],[139.819968,36.51737],[139.819543,36.517528],[139.819518,36.51762],[139.819743,36.51857],[139.819855,36.518795],[139.819992,36.51897],[139.82008,36.51902],[139.82028,36.518995],[139.822092,36.518628],[139.823267,36.518603],[139.82458,36.51847],[139.826217,36.51842],[139.827367,36.518304],[139.827817,36.518212],[139.827929,36.518237],[139.828129,36.518729],[139.828242,36.519312],[139.828379,36.519653],[139.828579,36.519945],[139.829504,36.520845],[139.829367,36.521045],[139.829279,36.521362],[139.829366,36.521495],[139.829479,36.52152],[139.829841,36.521678],[139.829504,36.522737],[139.829179,36.523411],[139.829154,36.52382],[139.829204,36.524136],[139.829316,36.524361],[139.829429,36.524495],[139.829654,36.52447],[139.829966,36.524378],[139.830466,36.524311],[139.830629,36.524353],[139.830766,36.524511],[139.830829,36.524761],[139.830741,36.525278],[139.830804,36.525436],[139.831304,36.525845],[139.831341,36.526111],[139.831029,36.526478],[139.831229,36.526703],[139.831504,36.526786],[139.831591,36.526786],[139.831729,36.526878],[139.831754,36.526945],[139.831566,36.527194],[139.831479,36.527461],[139.831616,36.527644],[139.831516,36.527894],[139.831591,36.528094],[139.831928,36.528386],[139.831903,36.528611],[139.831703,36.528928],[139.831628,36.529244],[139.831716,36.529511],[139.832191,36.529944],[139.832241,36.530169],[139.832216,36.530844],[139.832253,36.530936],[139.832216,36.531111],[139.832166,36.531136],[139.832053,36.531094],[139.831878,36.530936],[139.831803,36.530936],[139.831491,36.531111],[139.831416,36.531227],[139.831441,36.531269],[139.831916,36.531719],[139.832003,36.531927],[139.832028,36.532286],[139.832253,36.532511],[139.832141,36.532669],[139.831916,36.532627],[139.831391,36.532244],[139.831278,36.532261],[139.831103,36.532402],[139.830853,36.532694],[139.830828,36.532877],[139.831003,36.533502],[139.830891,36.533777],[139.830666,36.534044],[139.830391,36.53416],[139.830141,36.534202],[139.829941,36.534269],[139.830116,36.534585],[139.830028,36.534719],[139.829028,36.535219],[139.828878,36.535152],[139.828628,36.534702],[139.828266,36.534452],[139.828154,36.534277],[139.828016,36.53421],[139.827929,36.53421],[139.827766,36.53466],[139.827704,36.534685],[139.827429,36.534685],[139.827341,36.53486],[139.827454,36.535019],[139.827654,36.535152],[139.827654,36.535202],[139.827316,36.535627],[139.827291,36.536169],[139.827154,36.536352],[139.826929,36.53651],[139.826291,36.53676],[139.826316,36.536852],[139.826466,36.537002],[139.826716,36.537118],[139.826829,36.537227],[139.826766,36.537343],[139.826491,36.537343],[139.826154,36.537302],[139.826016,36.537252],[139.825254,36.536827],[139.824841,36.537035],[139.824979,36.53721],[139.825004,36.537302],[139.824866,36.537435],[139.824754,36.53746],[139.824566,36.537418],[139.824391,36.537552],[139.824341,36.537735],[139.824341,36.537977],[139.824391,36.538252],[139.824316,36.538477],[139.823979,36.538952],[139.823591,36.539601],[139.823316,36.539985],[139.823179,36.540301],[139.823179,36.540435],[139.823066,36.540501],[139.822979,36.540501],[139.822891,36.540418],[139.822679,36.540301],[139.822191,36.540168],[139.821641,36.54006],[139.821441,36.540151],[139.821104,36.540376],[139.820741,36.54071],[139.820529,36.541926],[139.820579,36.542151],[139.820804,36.542493],[139.820841,36.543234],[139.820704,36.543709],[139.820566,36.543893],[139.820229,36.544093],[139.819954,36.544209],[139.819666,36.544609],[139.819479,36.544834],[139.819204,36.545043],[139.819141,36.545176],[139.819204,36.545451],[139.819029,36.545651],[139.819004,36.545742],[139.818616,36.546167],[139.819066,36.546392],[139.819404,36.546526],[139.820041,36.546867],[139.820404,36.547134],[139.821303,36.547901],[139.822091,36.548659],[139.823016,36.549742],[139.823666,36.550684],[139.824053,36.551675],[139.824278,36.552058],[139.824478,36.55215],[139.82479,36.55235],[139.82509,36.552625],[139.82534,36.552917],[139.826053,36.554017],[139.826278,36.554533],[139.82644,36.555325],[139.826303,36.555908],[139.825753,36.55695],[139.825703,36.557216],[139.82584,36.557824],[139.824928,36.559474],[139.824905,36.559504],[139.82479,36.559558],[139.823915,36.559791],[139.823665,36.559808],[139.82339,36.559724],[139.822803,36.559433],[139.821603,36.559008],[139.821228,36.558824],[139.819603,36.557566],[139.818878,36.557116],[139.818128,36.556758],[139.818066,36.556783],[139.817228,36.557049],[139.816341,36.556991],[139.815128,36.556766],[139.814329,36.556499],[139.813879,36.556291],[139.812454,36.555824],[139.812304,36.555824],[139.811916,36.555758],[139.811666,36.555849],[139.811004,36.556341],[139.810641,36.556549],[139.809991,36.556733],[139.809691,36.556933],[139.808941,36.557607],[139.808466,36.557924],[139.807404,36.558516],[139.807317,36.558607],[139.806842,36.558874],[139.806767,36.558807],[139.806592,36.558924],[139.805779,36.559507],[139.804842,36.560032],[139.804892,36.56019],[139.804592,36.56039],[139.804479,36.56059],[139.804367,36.561049],[139.804342,36.56134],[139.804142,36.561407],[139.804092,36.561657],[139.804067,36.56244],[139.803929,36.562715],[139.803729,36.56294],[139.803529,36.563073],[139.803279,36.563348],[139.803004,36.563348],[139.802342,36.563798],[139.802254,36.563982],[139.802279,36.564115],[139.802679,36.565106],[139.802767,36.56544],[139.803067,36.56589],[139.803216,36.566206],[139.803291,36.566523],[139.803329,36.568123],[139.803641,36.569223],[139.803929,36.569947],[139.803591,36.570106],[139.803191,36.570197],[139.802441,36.570172],[139.802104,36.570106],[139.801604,36.570131],[139.801354,36.570239],[139.801266,36.570314],[139.801016,36.570381],[139.800716,36.570381],[139.800129,36.570289],[139.799729,36.570156],[139.798729,36.569731],[139.798554,36.569772],[139.797967,36.570314],[139.797779,36.570339],[139.797467,36.570272],[139.797192,36.570297],[139.797054,36.570389],[139.796967,36.571105],[139.796854,36.57138],[139.796692,36.571514],[139.795579,36.572172],[139.795354,36.572347],[139.795217,36.572572],[139.795104,36.572939],[139.794992,36.573588],[139.795054,36.573772],[139.795192,36.573838],[139.795829,36.573947],[139.796142,36.57408],[139.796367,36.574305],[139.796429,36.574647],[139.796317,36.57523],[139.795979,36.575663],[139.795842,36.576155],[139.795754,36.576272],[139.795267,36.57753],[139.795042,36.578205],[139.795179,36.578613],[139.794992,36.578905],[139.794629,36.579088],[139.794454,36.579288],[139.794454,36.579496],[139.794629,36.580029],[139.794567,36.580188],[139.794404,36.580396],[139.794242,36.582129],[139.794054,36.582471],[139.794079,36.582604],[139.794416,36.582554],[139.794941,36.582579],[139.795279,36.582671],[139.795866,36.582754],[139.796179,36.582779],[139.796391,36.582687],[139.797654,36.582029],[139.797679,36.582079],[139.798104,36.582238],[139.798941,36.582346],[139.799416,36.582388],[139.800091,36.583487],[139.800341,36.583696],[139.801516,36.583896],[139.801903,36.583871],[139.802128,36.583829],[139.802441,36.583646],[139.802691,36.583421],[139.803053,36.583013],[139.803403,36.582129],[139.803578,36.581954],[139.803766,36.581838],[139.803966,36.581771],[139.804241,36.581521],[139.804578,36.581321],[139.805466,36.58098],[139.805616,36.580955],[139.805803,36.581071],[139.805916,36.581271],[139.806003,36.581563],[139.806428,36.582529],[139.806815,36.583279],[139.807078,36.583879],[139.807215,36.584562],[139.80714,36.584787],[139.807078,36.585237],[139.807165,36.585596],[139.807478,36.586362],[139.807653,36.586571],[139.807603,36.586712],[139.807565,36.587229],[139.807315,36.587337],[139.806978,36.587204],[139.806815,36.586996],[139.806403,36.586946],[139.80634,36.586904],[139.805678,36.586837],[139.805028,36.586962],[139.803315,36.587695],[139.802678,36.588012],[139.802116,36.58832],[139.801553,36.588703],[139.801353,36.58877],[139.800828,36.589037],[139.799903,36.589412],[139.799591,36.590037],[139.799253,36.590487],[139.799028,36.590712],[139.799128,36.59087],[139.798878,36.59127],[139.798453,36.591695],[139.798203,36.592103],[139.798391,36.592661],[139.798691,36.593095],[139.798641,36.593469],[139.798353,36.593694],[139.798191,36.594119],[139.797903,36.595019],[139.797428,36.594611],[139.796178,36.593728],[139.795791,36.593594],[139.795453,36.593569],[139.794891,36.593586],[139.794703,36.593544],[139.794504,36.593319],[139.794566,36.592803],[139.794791,36.592261],[139.794991,36.591945],[139.794741,36.59177],[139.793716,36.59142],[139.793066,36.591103],[139.792716,36.590745],[139.792341,36.590836],[139.792016,36.591078],[139.791904,36.59112],[139.791029,36.591253],[139.789991,36.591678],[139.789491,36.591986],[139.788642,36.592653],[139.786879,36.593144],[139.785817,36.593611],[139.785004,36.593852],[139.784417,36.594144],[139.783804,36.594336],[139.783154,36.594336],[139.782317,36.594511],[139.781817,36.594619],[139.781642,36.594686],[139.78078,36.594911],[139.78013,36.595177],[139.779792,36.595377],[139.777942,36.596627],[139.77603,36.598277],[139.775417,36.598743],[139.774905,36.59906],[139.774742,36.599218],[139.774068,36.599643],[139.773643,36.59986],[139.773305,36.599952],[139.773005,36.599902],[139.772443,36.599702],[139.771918,36.599135],[139.771393,36.59886],[139.77083,36.598877],[139.770243,36.598993],[139.76988,36.599127],[139.769568,36.599077],[139.769156,36.598868],[139.768818,36.598535],[139.768543,36.598127],[139.768518,36.597652],[139.769156,36.595369],[139.769043,36.595385],[139.767843,36.595294],[139.766281,36.59526],[139.765419,36.595185],[139.763456,36.595135],[139.762819,36.595152],[139.762144,36.595285],[139.761644,36.595435],[139.761506,36.595618],[139.761419,36.595935],[139.761631,36.597102],[139.761544,36.59751],[139.761231,36.597843],[139.760831,36.598176],[139.760556,36.59856],[139.760219,36.59876],[139.759906,36.598893],[139.759706,36.599051],[139.759006,36.600076],[139.758969,36.600501],[139.759169,36.600909],[139.759219,36.601134],[139.758931,36.601493],[139.757869,36.602526],[139.757619,36.602568],[139.756857,36.603167],[139.756607,36.603326],[139.756269,36.603192],[139.755744,36.602917],[139.755207,36.602709],[139.755094,36.602642],[139.754869,36.602842],[139.754569,36.602659],[139.754007,36.602484],[139.753482,36.602234],[139.75312,36.602142],[139.75267,36.602267],[139.752145,36.602609],[139.75202,36.602917],[139.751545,36.603342],[139.750982,36.603659],[139.750357,36.605092],[139.749982,36.606234],[139.749732,36.606575],[139.749195,36.606617],[139.74872,36.606542],[139.748307,36.606542],[139.74777,36.606742],[139.74727,36.607325],[139.74692,36.607658],[139.747032,36.607908],[139.747345,36.608292],[139.74737,36.608675],[139.747332,36.608992],[139.747195,36.609233],[139.74697,36.609458],[139.746743,36.609545],[139.74662,36.609617],[139.74642,36.609633],[139.74637,36.609683],[139.746345,36.609858],[139.746495,36.610358],[139.746607,36.611241],[139.746432,36.611575],[139.746132,36.611866],[139.746107,36.611958],[139.746032,36.612133],[139.745645,36.61225],[139.74527,36.612316],[139.74497,36.612491],[139.744795,36.612824],[139.744495,36.613141],[139.743232,36.614216],[139.74292,36.614616],[139.742945,36.614641],[139.74292,36.615141],[139.742845,36.615291],[139.742807,36.615724],[139.742907,36.616466],[139.743232,36.616449],[139.743632,36.616474],[139.744082,36.616682],[139.744657,36.617091],[139.745232,36.617566],[139.745744,36.618582],[139.746119,36.618857],[139.746644,36.619066],[139.746742,36.619102],[139.746844,36.619191],[139.747069,36.619266],[139.747357,36.618974],[139.748656,36.619541],[139.749156,36.61979],[139.749406,36.620199],[139.749431,36.620357],[139.749344,36.620799],[139.749319,36.621232],[139.749819,36.621999],[139.750006,36.622557],[139.750469,36.623032],[139.751118,36.623557],[139.751693,36.624098],[139.751718,36.624232],[139.752318,36.625607],[139.752743,36.625723],[139.75363,36.62604],[139.75408,36.626315],[139.754443,36.626698],[139.75533,36.627106],[139.755993,36.627265],[139.75753,36.627298],[139.757955,36.627348],[139.758142,36.627456],[139.75868,36.627573],[139.76013,36.627581],[139.76178,36.627298],[139.762342,36.627098],[139.76259,36.626924],[139.762229,36.627625],[139.761349,36.629335],[139.760425,36.631129],[139.75955,36.634448],[139.759202,36.63746],[139.759202,36.642631],[139.76054,36.645481],[139.762896,36.649942],[139.763249,36.651573],[139.764168,36.657841],[139.765244,36.660687],[139.766558,36.664159],[139.768199,36.668629],[139.771666,36.671013],[139.770883,36.67239],[139.769334,36.673765],[139.765392,36.676377],[139.760672,36.679353],[139.757083,36.682063],[139.753993,36.684349],[139.753554,36.685584],[139.753255,36.686431],[139.751908,36.687461],[139.750445,36.688242],[139.749664,36.689288],[139.748681,36.69125],[139.746365,36.69381],[139.743159,36.697411],[139.740935,36.699184],[139.738557,36.70028],[139.732887,36.703477],[139.730343,36.704581],[139.729188,36.705191],[139.728245,36.705965],[139.727854,36.707773],[139.727854,36.709106],[139.729474,36.714281],[139.729641,36.715311],[139.728792,36.717402],[139.728065,36.719782],[139.728469,36.722185],[139.729856,36.727142],[139.730025,36.730407],[139.730025,36.733329],[139.730722,36.737774],[139.730266,36.740846],[139.729597,36.743047],[139.728258,36.745333],[139.726975,36.746256],[139.725557,36.746256],[139.72414,36.746256],[139.720851,36.746256],[139.716913,36.746256],[139.712737,36.746638],[139.709492,36.746201],[139.706068,36.745985],[139.703865,36.746247],[139.70133,36.747339],[139.699445,36.748277],[139.698519,36.748974],[139.696784,36.750736],[139.695602,36.751531],[139.694502,36.751917],[139.691548,36.752507],[139.688243,36.753667],[139.682175,36.756279],[139.679485,36.757022],[139.678156,36.757655],[139.676125,36.759127],[139.673084,36.760512],[139.67023,36.760795],[139.667887,36.761014],[139.66702,36.760597],[139.664074,36.760597],[139.662468,36.760479],[139.661068,36.760597],[139.65948,36.761232],[139.657021,36.76241],[139.654242,36.7635],[139.651519,36.763893],[139.650174,36.763893],[139.648354,36.763893],[139.646441,36.764102],[139.643973,36.764371],[139.643186,36.765229],[139.642873,36.765787],[139.642473,36.766312],[139.641398,36.767295],[139.640686,36.767854],[139.639874,36.768237],[139.639211,36.768462],[139.638924,36.768528],[139.638199,36.768845],[139.637536,36.769337],[139.636074,36.770336],[139.635199,36.770628],[139.634362,36.77077],[139.633774,36.770986],[139.632949,36.771495],[139.632374,36.772003],[139.631716,36.772657],[139.630899,36.773469],[139.630737,36.773678],[139.630562,36.774094],[139.630562,36.775052],[139.630512,36.775352],[139.629849,36.775477],[139.629224,36.775652],[139.628737,36.775694],[139.628175,36.775849],[139.628162,36.775852],[139.627525,36.776136],[139.627175,36.776194],[139.626775,36.776044],[139.62615,36.776019],[139.625562,36.776102],[139.624562,36.777202],[139.624525,36.777319],[139.624587,36.777894],[139.624586,36.777901],[139.624475,36.77851],[139.62415,36.779635],[139.624125,36.780143],[139.623762,36.780877],[139.623387,36.781027],[139.623087,36.781027],[139.623,36.78116],[139.623137,36.781576],[139.62295,36.781985],[139.62285,36.782376],[139.622712,36.78266],[139.622475,36.78291],[139.62215,36.78336],[139.621862,36.784034],[139.621775,36.784134],[139.621325,36.784451],[139.62105,36.784768],[139.620912,36.784793],[139.619575,36.785559],[139.619075,36.786242],[139.618938,36.786284],[139.618488,36.786692],[139.618188,36.787167],[139.6181,36.788159],[139.6181,36.788609],[139.61775,36.789125],[139.617363,36.78985],[139.617363,36.790367],[139.617275,36.790709],[139.617163,36.790842],[139.616938,36.791275],[139.61705,36.791633],[139.617275,36.792083],[139.617288,36.792583],[139.617225,36.792717],[139.617288,36.793142],[139.61745,36.79355],[139.617425,36.79405],[139.617287,36.7945],[139.617175,36.794591],[139.616725,36.794833],[139.616513,36.7952],[139.616375,36.795783],[139.616038,36.796075],[139.61565,36.796533],[139.615125,36.796775],[139.614763,36.797183],[139.614313,36.797499],[139.614013,36.797858],[139.613763,36.798249],[139.613238,36.798858],[139.6127,36.799283],[139.6124,36.799399],[139.612313,36.799732],[139.612063,36.800349],[139.6121,36.800707],[139.611963,36.801182],[139.611988,36.801566],[139.612188,36.802041],[139.612013,36.802557],[139.611625,36.802782],[139.61085,36.803032],[139.61035,36.803215],[139.609625,36.803299],[139.609088,36.803482],[139.608513,36.803774],[139.607838,36.804007],[139.607588,36.804049],[139.610091,36.806],[139.613576,36.808199],[139.61715,36.810151],[139.619637,36.811707],[139.622336,36.812827],[139.625075,36.81369],[139.630442,36.814992],[139.632073,36.815544],[139.632995,36.816064],[139.634825,36.817096],[139.635823,36.817513],[139.637454,36.818194],[139.638928,36.818455],[139.640843,36.818794],[139.643194,36.819438],[139.644411,36.820071],[139.645387,36.821171],[139.648123,36.824462],[139.650112,36.826615],[139.651231,36.82734],[139.652602,36.827694],[139.654447,36.827248],[139.655783,36.827032],[139.657346,36.826779],[139.661601,36.826091],[139.664433,36.826091],[139.66605,36.825773],[139.667152,36.825773],[139.669183,36.825977],[139.670474,36.826193],[139.673048,36.826624],[139.675331,36.827333],[139.677101,36.827882],[139.678484,36.828311],[139.680479,36.82893],[139.682638,36.82893],[139.684416,36.82893],[139.687164,36.828392],[139.689503,36.827586],[139.690918,36.82664],[139.692239,36.825986],[139.693315,36.825331],[139.694654,36.824257],[139.696307,36.82283],[139.69857,36.821429],[139.700422,36.819725],[139.703341,36.817134],[139.705021,36.81598],[139.706354,36.815277],[139.708985,36.814336],[139.711378,36.81336],[139.713086,36.81291],[139.715893,36.812171],[139.719059,36.810704],[139.720979,36.809332],[139.722115,36.808523],[139.722584,36.807846],[139.72337,36.806713],[139.725879,36.803624],[139.729202,36.801435],[139.730818,36.800792],[139.732384,36.800216],[139.734859,36.799304],[139.73697,36.798888],[139.738054,36.798674],[139.739253,36.798438],[139.741437,36.797706],[139.742708,36.797025],[139.744384,36.794868],[139.744908,36.792769],[139.746335,36.791483],[139.747821,36.790145],[139.748423,36.789159],[139.750135,36.787597],[139.75167,36.78674],[139.753397,36.785774],[139.754304,36.785018],[139.756372,36.783294],[139.757731,36.781718],[139.758684,36.78086],[139.760043,36.779986],[139.761886,36.779284],[139.763125,36.778687],[139.764324,36.778234],[139.766368,36.777883],[139.768905,36.777447],[139.770312,36.77725],[139.773667,36.777122],[139.778626,36.776728],[139.780253,36.776097],[139.781871,36.775585],[139.783143,36.775191],[139.784368,36.774739],[139.786473,36.773228],[139.787817,36.772646],[139.789172,36.772359],[139.790466,36.772201],[139.794075,36.770791],[139.796346,36.769951],[139.799543,36.769951],[139.801724,36.770278],[139.804312,36.770668],[139.80614,36.770497],[139.807567,36.770207],[139.809081,36.770068],[139.81023,36.770068],[139.811757,36.770068],[139.814079,36.76964],[139.815713,36.76899],[139.816951,36.76883],[139.818712,36.76883],[139.821046,36.768608],[139.822393,36.768112],[139.824489,36.767814],[139.826206,36.767423],[139.828035,36.766761],[139.829185,36.766187],[139.831236,36.764423],[139.832735,36.762776],[139.833863,36.761663],[139.834405,36.76064],[139.835689,36.758566],[139.836433,36.757549],[139.837506,36.756722],[139.838782,36.755672],[139.839805,36.754215],[139.840816,36.753166],[139.841992,36.752351],[139.84314,36.75189],[139.844337,36.751577],[139.845869,36.751177],[139.847115,36.750851],[139.848337,36.750732],[139.84963,36.750732],[139.851495,36.751102],[139.852916,36.751102],[139.854248,36.751102],[139.855239,36.750673],[139.855565,36.749445],[139.856586,36.74785],[139.857104,36.747183],[139.858093,36.74591],[139.858176,36.744508],[139.858903,36.742839],[139.860719,36.739865],[139.862115,36.737899],[139.863747,36.73637],[139.865037,36.735912],[139.867698,36.735272],[139.87214,36.734749],[139.875237,36.734385],[139.877134,36.734186],[139.878491,36.734043],[139.879884,36.733615],[139.882122,36.732187],[139.883218,36.731723],[139.88417,36.731057],[139.884963,36.729997],[139.886076,36.729209],[139.887714,36.728599],[139.890046,36.728026],[139.891286,36.727364],[139.89336,36.725885],[139.895062,36.724817],[139.896651,36.723819],[139.899638,36.722353],[139.90009,36.722339],[139.900652,36.722131],[139.90104,36.722064],[139.901815,36.722131],[139.902177,36.722131],[139.903102,36.721814],[139.903715,36.721748],[139.904165,36.721881],[139.90544,36.722056],[139.906302,36.722214],[139.906614,36.722214],[139.906752,36.722173],[139.906864,36.721515],[139.906939,36.721156],[139.907114,36.720773],[139.907364,36.720481],[139.907839,36.720048],[139.908639,36.719331],[139.908952,36.719123],[139.909614,36.718807],[139.910452,36.718382],[139.910952,36.718173],[139.912064,36.71754],[139.912514,36.717157],[139.913739,36.716282],[139.914014,36.716032],[139.914489,36.71544],[139.914714,36.715282],[139.915151,36.715149],[139.916014,36.714807],[139.916901,36.714224],[139.917439,36.713949],[139.918439,36.713299],[139.918939,36.712824],[139.919139,36.712416],[139.919351,36.711741],[139.919776,36.711083],[139.920026,36.710433],[139.920301,36.710049],[139.920551,36.709849],[139.921276,36.709441],[139.921714,36.709141],[139.922639,36.708783],[139.923526,36.708625],[139.923976,36.708425],[139.924413,36.708041],[139.925088,36.707158],[139.925388,36.706817],[139.925951,36.7063],[139.92602,36.706224],[139.926501,36.705692],[139.927888,36.704109],[139.928088,36.703775],[139.928613,36.703159],[139.928976,36.702867],[139.929976,36.702167],[139.930813,36.701176],[139.931001,36.700818],[139.931176,36.700001],[139.931313,36.699843],[139.931701,36.699643],[139.931951,36.699459],[139.932113,36.699168],[139.932313,36.698918],[139.932701,36.69856],[139.9337,36.697926],[139.934175,36.69736],[139.934475,36.69711],[139.935513,36.696502],[139.935838,36.696185],[139.937675,36.694044],[139.93815,36.693635],[139.939125,36.69296],[139.939588,36.692527],[139.9399,36.692144],[139.940538,36.691152],[139.941513,36.690002],[139.94165,36.689886],[139.942312,36.689144],[139.944675,36.686595],[139.94565,36.685237],[139.945787,36.68497],[139.9464,36.684045],[139.947762,36.682304],[139.947975,36.681895],[139.948112,36.681537],[139.948337,36.681179],[139.9485,36.680704],[139.948587,36.680296],[139.948925,36.679346],[139.9492,36.678829],[139.94975,36.677721],[139.950362,36.676146],[139.950612,36.675713],[139.951112,36.675088],[139.95245,36.673755],[139.95255,36.673596],[139.953387,36.671988],[139.953637,36.67163],[139.954,36.670972],[139.954275,36.670255],[139.954437,36.670072],[139.954662,36.669789],[139.9546,36.669405],[139.954375,36.669114],[139.953812,36.668705],[139.953675,36.668572],[139.953675,36.66848],[139.95345,36.668055],[139.953137,36.666747],[139.952912,36.666006],[139.952625,36.664548],[139.952338,36.662406],[139.952175,36.660498],[139.952088,36.660115],[139.952,36.65904],[139.951963,36.657774],[139.95205,36.656315],[139.952325,36.654716],[139.952351,36.653124],[139.953013,36.6493],[139.953001,36.64775],[139.953301,36.644217],[139.953713,36.643092],[139.954188,36.642309],[139.955301,36.640168],[139.955776,36.639093],[139.956138,36.63806],[139.956276,36.637268],[139.956501,36.635244],[139.956688,36.634477],[139.957101,36.633202],[139.957638,36.632011],[139.958026,36.631261],[139.958388,36.630411],[139.959188,36.628861],[139.959663,36.628161],[139.959838,36.627778],[139.961176,36.625353],[139.961338,36.625128],[139.962263,36.623395],[139.962813,36.622429],[139.963875,36.620921],[139.964513,36.620154],[139.9658,36.618313],[139.966213,36.617838],[139.966575,36.617546],[139.967088,36.617321],[139.967775,36.617121],[139.968588,36.617055],[139.969237,36.616913],[139.969425,36.61678],[139.969737,36.616421],[139.96985,36.615547],[139.96985,36.615072],[139.970175,36.61368],[139.970812,36.612439],[139.970787,36.612081],[139.970475,36.611181],[139.970475,36.610731],[139.970663,36.608889],[139.970663,36.608256],[139.970688,36.607631],[139.970753,36.607619],[139.970863,36.607631],[139.972813,36.607248],[139.9741,36.607156],[139.975087,36.607223],[139.976237,36.607381]]]},"properties":{"kuni_id":"K26","pref":"栃木県","name":"河内","yomi":"かうち","kuni":"下野","id":"G26006","kuni_url":"/kg/resource/K26.html","id_url":"G26006.html"},"type":"Feature"}]}