{"type":"FeatureCollection","features":[{"type":"Feature","properties":{"pref":"福島県","kuni_id":"K27","yomi":"きくた","name":"菊多","id":"G27004","kuni":"磐城","id_url":"G27004.html","kuni_url":"/kg/resource/K27.html"},"geometry":{"coordinates":[[[140.663384,37.089051],[140.670775,37.087488],[140.68628,37.08558],[140.695711,37.085638],[140.704679,37.08691],[140.712682,37.086988],[140.722851,37.088178],[140.731462,37.088361],[140.738294,37.086541],[140.741892,37.085771],[140.745683,37.083781],[140.748831,37.080186],[140.751176,37.07753],[140.752793,37.074137],[140.754248,37.068401],[140.757285,37.060333],[140.759043,37.056877],[140.760986,37.048991],[140.761949,37.042194],[140.762075,37.039173],[140.762516,37.037286],[140.764153,37.03609],[140.767802,37.035921],[140.77097,37.034533],[140.772026,37.031868],[140.771137,37.027536],[140.770915,37.020373],[140.770303,37.016764],[140.771369,37.015096],[140.774821,37.013528],[140.778978,37.012666],[140.783057,37.013606],[140.78643,37.015487],[140.788626,37.015566],[140.790431,37.014233],[140.792862,37.010079],[140.793725,37.007493],[140.793568,37.004279],[140.794353,37.001771],[140.796627,36.99942],[140.799765,36.994952],[140.80497,36.988404],[140.808265,36.986523],[140.811481,36.984328],[140.813363,36.981585],[140.815246,36.980409],[140.819246,36.979312],[140.827012,36.97939],[140.830971,36.978505],[140.834422,36.977016],[140.836775,36.974743],[140.837874,36.971686],[140.838423,36.968473],[140.838815,36.965338],[140.84109,36.96377],[140.845247,36.9633],[140.852228,36.963692],[140.855915,36.963848],[140.857092,36.963143],[140.857955,36.961262],[140.857955,36.959067],[140.857327,36.9575],[140.855131,36.956716],[140.853013,36.956246],[140.852071,36.955305],[140.851836,36.953973],[140.852777,36.950916],[140.854195,36.946327],[140.855215,36.941859],[140.856627,36.940057],[140.859607,36.93794],[140.863686,36.935276],[140.867571,36.932864],[140.868397,36.932508],[140.871272,36.92955],[140.871634,36.929369],[140.874397,36.927942],[140.873547,36.926667],[140.871634,36.927686],[140.87136,36.927884],[140.868798,36.926284],[140.871634,36.92482],[140.873873,36.923701],[140.87216,36.922276],[140.871634,36.922553],[140.866823,36.925025],[140.861537,36.921684],[140.8624,36.919784],[140.863037,36.918176],[140.86265,36.917876],[140.8609,36.919242],[140.860525,36.919276],[140.860338,36.919459],[140.860213,36.9195],[140.859813,36.919784],[140.859838,36.919842],[140.859813,36.920034],[140.859663,36.920284],[140.859425,36.920492],[140.859113,36.920667],[140.858725,36.920825],[140.858363,36.920834],[140.85785,36.920775],[140.857513,36.920717],[140.857013,36.92065],[140.856688,36.920559],[140.856413,36.920517],[140.855901,36.920367],[140.855513,36.920292],[140.854838,36.920167],[140.854451,36.920092],[140.854151,36.92005],[140.854076,36.919983],[140.854013,36.919917],[140.853938,36.919783],[140.853101,36.919742],[140.853001,36.919633],[140.852376,36.919175],[140.851227,36.9182],[140.850314,36.917583],[140.849939,36.917125],[140.849965,36.916925],[140.84989,36.916608],[140.84934,36.916425],[140.849165,36.916308],[140.848765,36.91615],[140.84854,36.915992],[140.848727,36.915583],[140.848328,36.9152],[140.847828,36.91495],[140.847128,36.9149],[140.847028,36.914833],[140.847078,36.914517],[140.847003,36.914308],[140.846603,36.913992],[140.845766,36.913492],[140.844991,36.912875],[140.844491,36.9124],[140.844341,36.911967],[140.844216,36.911875],[140.843603,36.911584],[140.842328,36.910575],[140.841854,36.909942],[140.841866,36.9094],[140.841991,36.909001],[140.841991,36.908884],[140.841641,36.908659],[140.841491,36.908609],[140.841091,36.908767],[140.840816,36.909059],[140.840666,36.9091],[140.840566,36.909259],[140.840604,36.909617],[140.840379,36.910067],[140.840179,36.91025],[140.839679,36.910359],[140.839341,36.910492],[140.839241,36.910442],[140.839229,36.9104],[140.838879,36.910192],[140.838579,36.9101],[140.838329,36.9101],[140.838366,36.91035],[140.838066,36.910209],[140.838016,36.910142],[140.838104,36.909875],[140.837979,36.909625],[140.837729,36.9096],[140.837191,36.910092],[140.837091,36.910767],[140.836841,36.910992],[140.836466,36.911009],[140.836378,36.911167],[140.836278,36.911842],[140.836053,36.911842],[140.835828,36.912067],[140.835803,36.912042],[140.835803,36.911625],[140.836103,36.910559],[140.835991,36.910684],[140.835528,36.910917],[140.835078,36.911083],[140.834528,36.911233],[140.833991,36.91135],[140.833566,36.911417],[140.833266,36.911408],[140.833066,36.911483],[140.832253,36.910958],[140.832029,36.910692],[140.831779,36.910217],[140.831729,36.909875],[140.831454,36.909983],[140.831129,36.910075],[140.830679,36.910292],[140.830416,36.910883],[140.829941,36.911575],[140.829003,36.912491],[140.828578,36.912625],[140.826978,36.9125],[140.826216,36.912316],[140.824304,36.911608],[140.823654,36.911333],[140.822879,36.910941],[140.821954,36.91055],[140.820679,36.909958],[140.819829,36.909658],[140.819254,36.909425],[140.817579,36.908625],[140.816817,36.908125],[140.816217,36.907733],[140.815367,36.907125],[140.814692,36.906575],[140.813992,36.906167],[140.81318,36.90555],[140.81163,36.904208],[140.810493,36.903325],[140.809143,36.902117],[140.808605,36.901417],[140.807955,36.900842],[140.806793,36.899642],[140.806168,36.89905],[140.805893,36.898617],[140.804206,36.897167],[140.803419,36.896392],[140.802719,36.895642],[140.802319,36.895101],[140.801206,36.893893],[140.800856,36.893376],[140.799794,36.892284],[140.799119,36.891443],[140.798532,36.890743],[140.797019,36.88841],[140.796132,36.886843],[140.794607,36.884535],[140.794082,36.883627],[140.79332,36.881886],[140.793295,36.881861],[140.793058,36.881186],[140.792683,36.880436],[140.792395,36.879686],[140.792046,36.879078],[140.791208,36.877178],[140.790996,36.87652],[140.790721,36.87582],[140.790659,36.87532],[140.789959,36.87307],[140.790021,36.872737],[140.790109,36.87187],[140.790271,36.870995],[140.790172,36.870079],[140.790022,36.869504],[140.789734,36.868746],[140.789572,36.868246],[140.789522,36.867679],[140.789397,36.867154],[140.789247,36.866746],[140.789097,36.865979],[140.789134,36.865629],[140.789435,36.864888],[140.78971,36.864071],[140.789885,36.863421],[140.790047,36.86308],[140.790247,36.862805],[140.790635,36.862621],[140.790785,36.861813],[140.79051,36.861472],[140.79011,36.861105],[140.790085,36.861022],[140.790497,36.860772],[140.790347,36.860413],[140.790047,36.85998],[140.789622,36.859822],[140.789372,36.859572],[140.789347,36.859505],[140.789547,36.859389],[140.789747,36.859389],[140.790297,36.859647],[140.79131,36.859564],[140.79141,36.85958],[140.791347,36.860147],[140.791497,36.860172],[140.791522,36.86058],[140.791572,36.860755],[140.791772,36.860872],[140.791922,36.860847],[140.791647,36.860305],[140.791672,36.859947],[140.79176,36.859655],[140.792035,36.85963],[140.79221,36.859455],[140.79246,36.85943],[140.792709,36.859572],[140.793034,36.859639],[140.793459,36.85953],[140.793084,36.85883],[140.792785,36.858622],[140.79116,36.858614],[140.79111,36.858564],[140.791147,36.858097],[140.791047,36.857439],[140.790622,36.857031],[140.78986,36.856481],[140.789173,36.856481],[140.788348,36.856631],[140.787773,36.856489],[140.787573,36.856372],[140.787048,36.856189],[140.786148,36.856231],[140.785773,36.856547],[140.78536,36.857689],[140.785473,36.858414],[140.785748,36.858822],[140.785948,36.861463],[140.786448,36.862055],[140.786273,36.862188],[140.785798,36.862255],[140.78501,36.862288],[140.784535,36.862446],[140.783935,36.86298],[140.783198,36.863338],[140.782073,36.863213],[140.781248,36.863929],[140.779848,36.865862],[140.779236,36.866487],[140.778286,36.867021],[140.777548,36.867287],[140.777248,36.867337],[140.776623,36.867304],[140.775874,36.867212],[140.775449,36.867187],[140.774649,36.866912],[140.773999,36.866521],[140.773849,36.866387],[140.773774,36.866362],[140.773449,36.866379],[140.772624,36.867145],[140.772286,36.867612],[140.772186,36.868204],[140.771974,36.868537],[140.771774,36.86847],[140.771662,36.86822],[140.771862,36.867479],[140.772199,36.86707],[140.772474,36.866396],[140.772699,36.865996],[140.772711,36.865787],[140.772462,36.865337],[140.772037,36.865062],[140.771487,36.865079],[140.770812,36.865279],[140.769099,36.865879],[140.768524,36.866212],[140.767912,36.866362],[140.767787,36.866812],[140.767274,36.867829],[140.767199,36.867845],[140.767099,36.867645],[140.767187,36.867079],[140.767462,36.866629],[140.767812,36.866295],[140.768874,36.865471],[140.769587,36.865087],[140.770887,36.864579],[140.771312,36.864537],[140.771662,36.864454],[140.771824,36.864162],[140.771624,36.863229],[140.771387,36.862938],[140.770637,36.862571],[140.769487,36.862221],[140.768587,36.861838],[140.767787,36.861604],[140.766812,36.861554],[140.766087,36.861729],[140.765025,36.862213],[140.764825,36.862437],[140.764825,36.862487],[140.764925,36.862529],[140.765399,36.862621],[140.766124,36.862654],[140.766299,36.862629],[140.766774,36.862404],[140.767174,36.862346],[140.767224,36.862438],[140.767199,36.862821],[140.766774,36.863037],[140.766187,36.863196],[140.766212,36.863621],[140.766362,36.863896],[140.766462,36.863937],[140.766837,36.863804],[140.767062,36.863829],[140.767112,36.864129],[140.767037,36.864237],[140.766662,36.864437],[140.766549,36.864796],[140.766749,36.865004],[140.767149,36.864871],[140.767424,36.865004],[140.767399,36.865079],[140.766899,36.865479],[140.766512,36.865904],[140.765724,36.867187],[140.765499,36.867454],[140.765424,36.867495],[140.765374,36.867404],[140.765312,36.866779],[140.765762,36.865895],[140.765974,36.865379],[140.765887,36.864229],[140.765487,36.863279],[140.765412,36.863212],[140.764987,36.863279],[140.764512,36.863229],[140.764112,36.863087],[140.764012,36.863112],[140.763687,36.863421],[140.76355,36.864121],[140.763675,36.864262],[140.764274,36.865095],[140.764612,36.865554],[140.764837,36.865912],[140.764687,36.866654],[140.764549,36.86672],[140.764149,36.866879],[140.763924,36.866787],[140.764187,36.866387],[140.764087,36.865995],[140.763712,36.86552],[140.763574,36.864795],[140.763225,36.864412],[140.763175,36.864412],[140.76265,36.864837],[140.762387,36.865195],[140.762037,36.865304],[140.761537,36.86582],[140.761249,36.866387],[140.760949,36.866612],[140.7605,36.866653],[140.759825,36.866645],[140.759787,36.86712],[140.760149,36.86832],[140.760399,36.86897],[140.760524,36.869428],[140.760487,36.869945],[140.760412,36.870078],[140.760762,36.870261],[140.761537,36.870178],[140.761937,36.870245],[140.761962,36.870403],[140.761212,36.870761],[140.760737,36.871053],[140.760499,36.871503],[140.760374,36.872269],[140.760037,36.872403],[140.759387,36.872461],[140.758462,36.872411],[140.757987,36.872228],[140.757962,36.872111],[140.758512,36.871894],[140.759299,36.871986],[140.759874,36.871544],[140.759924,36.870936],[140.759774,36.869128],[140.758837,36.867587],[140.758287,36.86727],[140.757075,36.86782],[140.756475,36.868312],[140.756012,36.868895],[140.755662,36.869436],[140.755512,36.86957],[140.755099,36.86977],[140.754075,36.870036],[140.751962,36.870445],[140.750787,36.870395],[140.749887,36.870253],[140.749362,36.870245],[140.7479,36.871303],[140.74775,36.871386],[140.747325,36.871453],[140.747175,36.871428],[140.746825,36.871453],[140.74675,36.871428],[140.746646,36.871423],[140.7463,36.871336],[140.74595,36.871311],[140.745637,36.871444],[140.745,36.871853],[140.744825,36.872078],[140.744687,36.872419],[140.744687,36.872644],[140.744575,36.872869],[140.744287,36.873027],[140.744075,36.873052],[140.743525,36.873144],[140.743212,36.873302],[140.742975,36.873527],[140.7427,36.874052],[140.742175,36.874727],[140.741362,36.87536],[140.7409,36.875594],[140.740637,36.87561],[140.74015,36.875502],[140.739912,36.875327],[140.739562,36.874786],[140.739012,36.874469],[140.7384,36.874286],[140.738112,36.874061],[140.73785,36.873752],[140.737587,36.873594],[140.736862,36.873344],[140.73665,36.873011],[140.736137,36.872944],[140.735525,36.872736],[140.735325,36.872744],[140.735087,36.872694],[140.734737,36.872378],[140.734537,36.872069],[140.7345,36.871953],[140.7343,36.871769],[140.734012,36.871769],[140.732875,36.872003],[140.7321,36.872228],[140.731463,36.872386],[140.731175,36.872527],[140.731088,36.872619],[140.730975,36.872886],[140.730975,36.873386],[140.730913,36.873769],[140.730713,36.873952],[140.730338,36.874061],[140.729525,36.874402],[140.728838,36.874477],[140.728338,36.874294],[140.728051,36.874294],[140.727501,36.87441],[140.726888,36.874594],[140.726076,36.874619],[140.725651,36.874552],[140.725063,36.874369],[140.724138,36.874152],[140.723988,36.87401],[140.723576,36.873452],[140.723489,36.872977],[140.723489,36.872661],[140.723576,36.872211],[140.723539,36.871777],[140.723451,36.871419],[140.723251,36.871127],[140.722964,36.871061],[140.722239,36.871111],[140.721764,36.870969],[140.721339,36.870952],[140.720901,36.871044],[140.720526,36.871177],[140.720376,36.871319],[140.720214,36.871785],[140.720001,36.872177],[140.719751,36.87251],[140.719464,36.872602],[140.719114,36.872602],[140.718477,36.872469],[140.718064,36.872294],[140.717739,36.872202],[140.717577,36.872202],[140.716727,36.872544],[140.716389,36.872635],[140.714702,36.872727],[140.714177,36.872843],[140.713927,36.87296],[140.713715,36.873118],[140.713577,36.873302],[140.712627,36.874027],[140.712102,36.874518],[140.711752,36.874901],[140.711465,36.875068],[140.710977,36.875401],[140.710802,36.875585],[140.710627,36.875876],[140.710227,36.876285],[140.710052,36.876626],[140.709965,36.876893],[140.709802,36.877126],[140.709502,36.877209],[140.709215,36.877234],[140.70849,36.877468],[140.708115,36.877759],[140.70769,36.878168],[140.70734,36.878326],[140.707303,36.878301],[140.707278,36.878326],[140.707015,36.878284],[140.706003,36.878442],[140.705715,36.878376],[140.705478,36.878417],[140.705403,36.878759],[140.705453,36.878892],[140.705603,36.879567],[140.705403,36.879817],[140.705165,36.880001],[140.705003,36.880226],[140.705203,36.880517],[140.705553,36.880742],[140.705965,36.881084],[140.706165,36.881351],[140.706052,36.881467],[140.70579,36.881575],[140.705328,36.881692],[140.704603,36.88165],[140.70414,36.881784],[140.703815,36.882017],[140.703615,36.882334],[140.70344,36.882692],[140.70304,36.883142],[140.702403,36.883459],[140.702203,36.883534],[140.70174,36.8836],[140.700665,36.883717],[140.699065,36.883625],[140.698928,36.883742],[140.698353,36.8844],[140.698203,36.884508],[140.697628,36.884758],[140.697365,36.884942],[140.69734,36.885008],[140.697053,36.885233],[140.69639,36.886025],[140.696353,36.886183],[140.696478,36.886566],[140.696765,36.886933],[140.69694,36.887266],[140.696853,36.887475],[140.696653,36.887583],[140.69639,36.887675],[140.696303,36.887766],[140.695953,36.887883],[140.695328,36.8882],[140.695178,36.888583],[140.69509,36.888691],[140.69489,36.888808],[140.694365,36.888558],[140.693553,36.888583],[140.692828,36.887866],[140.692453,36.887575],[140.692328,36.8876],[140.692041,36.887758],[140.691778,36.887958],[140.691778,36.888008],[140.691378,36.888233],[140.691316,36.8883],[140.690916,36.888499],[140.690541,36.888549],[140.690103,36.888524],[140.689691,36.888349],[140.689491,36.888216],[140.689291,36.888166],[140.688966,36.888258],[140.688016,36.888466],[140.688078,36.888716],[140.688391,36.889191],[140.688428,36.889324],[140.687728,36.889799],[140.686891,36.890207],[140.686578,36.890299],[140.685966,36.890074],[140.685878,36.890074],[140.685591,36.890299],[140.685178,36.890482],[140.684716,36.890532],[140.683941,36.890557],[140.683679,36.890641],[140.683504,36.890666],[140.683266,36.890824],[140.683066,36.891032],[140.682841,36.891166],[140.682666,36.891207],[140.681966,36.891774],[140.681741,36.892115],[140.681304,36.892482],[140.680954,36.892682],[140.680641,36.892815],[140.680116,36.893249],[140.679979,36.89329],[140.679741,36.893249],[140.679479,36.89309],[140.679191,36.892982],[140.679041,36.892957],[140.678616,36.89314],[140.677766,36.893323],[140.677304,36.893365],[140.676904,36.893457],[140.676554,36.893573],[140.676354,36.893732],[140.676179,36.893798],[140.675042,36.893757],[140.673392,36.893173],[140.673279,36.89329],[140.673017,36.893423],[140.672492,36.893607],[140.672179,36.893607],[140.672004,36.893565],[140.671792,36.893432],[140.671742,36.893473],[140.670692,36.89379],[140.670379,36.894248],[140.670142,36.894406],[140.669392,36.894565],[140.667942,36.895015],[140.66763,36.89509],[140.667342,36.895106],[140.666905,36.894973],[140.666555,36.895065],[140.666267,36.895206],[140.664992,36.896039],[140.664905,36.896131],[140.664555,36.896356],[140.66413,36.896539],[140.663655,36.896606],[140.66328,36.896431],[140.663017,36.896364],[140.66273,36.896339],[140.66258,36.896364],[140.662555,36.896389],[140.661718,36.896706],[140.661393,36.896798],[140.660705,36.896798],[140.660068,36.896706],[140.659605,36.896798],[140.659168,36.897031],[140.658005,36.897322],[140.65728,36.897347],[140.65688,36.897331],[140.65638,36.897189],[140.655943,36.897214],[140.655743,36.897372],[140.655255,36.898389],[140.654968,36.898731],[140.65503,36.899114],[140.65518,36.899522],[140.65518,36.899972],[140.65503,36.900555],[140.654893,36.900939],[140.65463,36.901014],[140.654168,36.900947],[140.653356,36.900497],[140.652968,36.900405],[140.652368,36.900205],[140.652043,36.900047],[140.651081,36.899755],[140.650768,36.899714],[140.650356,36.899822],[140.649606,36.900122],[140.649293,36.900305],[140.647606,36.900897],[140.647094,36.90103],[140.646856,36.90103],[140.646619,36.900847],[140.646569,36.900555],[140.646594,36.89988],[140.646556,36.899589],[140.646381,36.899405],[140.645894,36.899247],[140.645369,36.899164],[140.644706,36.899005],[140.644144,36.898939],[140.642094,36.899105],[140.641457,36.898905],[140.640119,36.898363],[140.637244,36.89758],[140.637007,36.897605],[140.636807,36.897672],[140.636395,36.89763],[140.635907,36.897672],[140.635795,36.897788],[140.63567,36.897972],[140.635595,36.898222],[140.63522,36.898763],[140.635045,36.898922],[140.634632,36.898988],[140.63397,36.899038],[140.633332,36.899147],[140.63232,36.899555],[140.632032,36.899646],[140.631795,36.899763],[140.630632,36.899946],[140.63052,36.900055],[140.630495,36.900463],[140.630407,36.900738],[140.630057,36.900938],[140.629657,36.901121],[140.628608,36.901329],[140.628233,36.901504],[140.628058,36.901713],[140.62792,36.902121],[140.62792,36.902438],[140.627783,36.902746],[140.62772,36.902771],[140.627458,36.902771],[140.626908,36.902463],[140.62577,36.901946],[140.625658,36.901946],[140.62522,36.902554],[140.62502,36.902713],[140.62412,36.902671],[140.62392,36.902696],[140.62372,36.902804],[140.623395,36.902854],[140.622321,36.903279],[140.621946,36.903329],[140.621771,36.903287],[140.621656,36.903216],[140.621583,36.903196],[140.621483,36.903062],[140.621283,36.902854],[140.620958,36.902587],[140.620783,36.902562],[140.620608,36.902604],[140.620383,36.902737],[140.619683,36.903029],[140.619083,36.903137],[140.618883,36.903204],[140.618371,36.903337],[140.618121,36.903329],[140.617521,36.903462],[140.617071,36.903529],[140.616771,36.903479],[140.616246,36.903429],[140.615921,36.903362],[140.615546,36.903362],[140.615196,36.903537],[140.614809,36.903854],[140.614709,36.904079],[140.614659,36.90432],[140.614709,36.90462],[140.614896,36.905204],[140.615271,36.905904],[140.615471,36.906445],[140.615546,36.90652],[140.615608,36.90672],[140.615458,36.906945],[140.615308,36.907103],[140.614758,36.907345],[140.614583,36.907545],[140.614271,36.908312],[140.614321,36.908537],[140.614221,36.908811],[140.614046,36.908986],[140.613733,36.90912],[140.613209,36.90932],[140.613084,36.909495],[140.612896,36.910403],[140.612521,36.910711],[140.611546,36.910386],[140.611271,36.91037],[140.610821,36.91052],[140.610521,36.910678],[140.610159,36.911061],[140.609734,36.911753],[140.609384,36.911728],[140.608771,36.911903],[140.608571,36.912103],[140.608196,36.912378],[140.607946,36.912511],[140.607721,36.912553],[140.607421,36.912686],[140.607109,36.912861],[140.606934,36.913536],[140.606934,36.913986],[140.606796,36.914577],[140.606671,36.914844],[140.606109,36.915311],[140.605734,36.91576],[140.605359,36.916102],[140.604921,36.916369],[140.604546,36.91661],[140.604446,36.91681],[140.604396,36.917285],[140.604059,36.91796],[140.603784,36.918385],[140.603659,36.918452],[140.603234,36.918635],[140.602996,36.918902],[140.602846,36.919168],[140.602946,36.919777],[140.602934,36.919943],[140.602896,36.92006],[140.602734,36.920235],[140.602434,36.920443],[140.601784,36.920668],[140.601396,36.92071],[140.601109,36.920718],[140.600946,36.92076],[140.600684,36.920951],[140.600496,36.92141],[140.600484,36.921626],[140.600521,36.921826],[140.600771,36.922243],[140.601146,36.922576],[140.601159,36.922793],[140.600909,36.922951],[140.600171,36.923051],[140.599846,36.923143],[140.599246,36.923484],[140.598784,36.923876],[140.598384,36.924559],[140.598259,36.924826],[140.597946,36.925067],[140.597596,36.925226],[140.597322,36.925326],[140.596872,36.925417],[140.596422,36.925451],[140.596022,36.925567],[140.595659,36.925634],[140.594972,36.925851],[140.594359,36.926142],[140.593884,36.926326],[140.592847,36.926517],[140.592659,36.92665],[140.592609,36.926825],[140.592622,36.927017],[140.592747,36.927284],[140.593222,36.927842],[140.593497,36.928034],[140.593897,36.928209],[140.593972,36.928325],[140.593934,36.928467],[140.593659,36.928617],[140.593472,36.928842],[140.593534,36.928984],[140.593897,36.929342],[140.594446,36.930217],[140.594384,36.9304],[140.594021,36.930867],[140.593959,36.93145],[140.594046,36.931833],[140.594159,36.931991],[140.594346,36.932091],[140.594459,36.9322],[140.594509,36.932341],[140.594171,36.932741],[140.593959,36.933316],[140.593909,36.933566],[140.593934,36.933875],[140.593871,36.93415],[140.593571,36.934616],[140.593034,36.935183],[140.592534,36.935624],[140.592459,36.935933],[140.592496,36.936191],[140.592584,36.936383],[140.592771,36.936583],[140.593421,36.937191],[140.593659,36.937366],[140.594096,36.937557],[140.594371,36.937782],[140.594433,36.937982],[140.593946,36.938691],[140.593846,36.938849],[140.593046,36.939324],[140.592808,36.939382],[140.592534,36.939332],[140.592121,36.938616],[140.592009,36.938382],[140.591784,36.938191],[140.591596,36.938157],[140.591409,36.938174],[140.591171,36.938232],[140.589771,36.939174],[140.589459,36.939357],[140.589196,36.93959],[140.588821,36.940249],[140.588446,36.941065],[140.588346,36.941482],[140.588021,36.942098],[140.587459,36.943648],[140.587534,36.943906],[140.587246,36.944298],[140.586721,36.94489],[140.586271,36.945223],[140.586134,36.945306],[140.586298,36.945611],[140.586396,36.945839],[140.586846,36.946198],[140.586958,36.946381],[140.586858,36.946823],[140.586758,36.947064],[140.586671,36.947556],[140.586296,36.948672],[140.586183,36.948806],[140.586121,36.948822],[140.585733,36.948714],[140.585496,36.948764],[140.585321,36.948964],[140.585208,36.949555],[140.585071,36.950064],[140.585033,36.95033],[140.585071,36.95048],[140.585171,36.950589],[140.585333,36.950689],[140.585746,36.950872],[140.585796,36.950972],[140.585696,36.951172],[140.585296,36.951555],[140.584071,36.952297],[140.583696,36.952472],[140.583471,36.952613],[140.583271,36.952855],[140.582771,36.953271],[140.582671,36.95348],[140.582658,36.953721],[140.582796,36.954188],[140.582671,36.95468],[140.582683,36.954988],[140.582446,36.955513],[140.582371,36.955754],[140.582383,36.955838],[140.58267,36.956196],[140.583345,36.956813],[140.58352,36.956888],[140.583633,36.957079],[140.583433,36.957579],[140.583033,36.958162],[140.58287,36.958354],[140.582745,36.958562],[140.582733,36.958812],[140.582795,36.959046],[140.582845,36.959546],[140.583108,36.960237],[140.583158,36.960845],[140.583145,36.96117],[140.582908,36.961554],[140.583033,36.961795],[140.58307,36.96232],[140.582845,36.96312],[140.582808,36.963495],[140.58287,36.963837],[140.58282,36.964045],[140.582658,36.964178],[140.582458,36.964278],[140.582258,36.96432],[140.582108,36.964403],[140.58202,36.964537],[140.582033,36.964603],[140.582333,36.965011],[140.58237,36.965211],[140.582345,36.965445],[140.582195,36.965636],[140.581908,36.96572],[140.580845,36.965878],[140.58032,36.965936],[140.580108,36.965995],[140.58002,36.966095],[140.579945,36.966303],[140.579595,36.966778],[140.579558,36.966911],[140.57957,36.967103],[140.57987,36.967386],[140.580058,36.967844],[140.58007,36.967986],[140.579533,36.968353],[140.57932,36.968561],[140.579183,36.968844],[140.579083,36.968878],[140.578608,36.968878],[140.578133,36.968936],[140.577871,36.969003],[140.577621,36.969177],[140.577508,36.969469],[140.577371,36.969627],[140.577171,36.969702],[140.576958,36.969877],[140.576896,36.970019],[140.576608,36.970169],[140.576421,36.970377],[140.576296,36.970602],[140.576258,36.971044],[140.576096,36.971136],[140.575896,36.971177],[140.575683,36.971302],[140.574933,36.972044],[140.574546,36.972285],[140.574283,36.972377],[140.574021,36.972385],[140.573746,36.972452],[140.573571,36.972644],[140.573471,36.972952],[140.573346,36.973119],[140.572946,36.97316],[140.572821,36.973302],[140.572534,36.973443],[140.572171,36.97356],[140.571746,36.973618],[140.570909,36.973943],[140.570821,36.974102],[140.570734,36.974493],[140.570659,36.974652],[140.570584,36.974743],[140.570371,36.974843],[140.570209,36.97501],[140.570121,36.975326],[140.570159,36.975993],[140.570146,36.976293],[140.570321,36.97671],[140.570796,36.977235],[140.570796,36.97736],[140.570584,36.97741],[140.570296,36.977418],[140.569909,36.977526],[140.570046,36.977934],[140.570121,36.978276],[140.569996,36.978943],[140.569909,36.979168],[140.569884,36.979534],[140.569921,36.980051],[140.569434,36.980976],[140.569184,36.981526],[140.569159,36.981792],[140.569071,36.981942],[140.568809,36.982067],[140.567984,36.982109],[140.567634,36.982234],[140.567409,36.982359],[140.567284,36.982509],[140.567246,36.983417],[140.567159,36.983892],[140.567109,36.983942],[140.566559,36.984134],[140.566096,36.984259],[140.565947,36.984342],[140.565859,36.984542],[140.565822,36.984759],[140.565884,36.985251],[140.565859,36.985725],[140.565971,36.985875],[140.566996,36.986242],[140.567871,36.9868],[140.567984,36.98685],[140.568571,36.986884],[140.568659,36.98695],[140.568771,36.987084],[140.568771,36.987259],[140.568584,36.987767],[140.568546,36.988134],[140.568571,36.9885],[140.568709,36.988784],[140.569071,36.989109],[140.569483,36.989384],[140.569683,36.989584],[140.569858,36.989984],[140.570246,36.989992],[140.570546,36.989992],[140.570871,36.990117],[140.571008,36.990209],[140.571333,36.990634],[140.571433,36.9907],[140.571921,36.990767],[140.572071,36.990809],[140.572283,36.991017],[140.572358,36.991292],[140.572471,36.991442],[140.572858,36.991575],[140.573296,36.991833],[140.573695,36.992017],[140.574045,36.992017],[140.574483,36.991933],[140.57492,36.9921],[140.575258,36.992142],[140.57567,36.99205],[140.57597,36.992083],[140.576483,36.9924],[140.576608,36.992533],[140.577058,36.992483],[140.577395,36.992608],[140.577707,36.992833],[140.578082,36.99345],[140.578432,36.994208],[140.578645,36.994392],[140.579082,36.994558],[140.579345,36.994792],[140.579757,36.995083],[140.580582,36.995358],[140.581282,36.995625],[140.581644,36.995883],[140.581732,36.995925],[140.582044,36.996142],[140.582457,36.996483],[140.583619,36.997275],[140.584394,36.998091],[140.584619,36.998183],[140.584907,36.998083],[140.585144,36.997825],[140.585332,36.9977],[140.585407,36.997683],[140.585719,36.997808],[140.585794,36.997875],[140.586094,36.998625],[140.586231,36.998725],[140.586656,36.998808],[140.587081,36.998941],[140.587494,36.999125],[140.588269,36.999733],[140.588956,37.000483],[140.589681,37.001024],[140.589931,37.001499],[140.590056,37.001966],[140.590168,37.002124],[140.590643,37.002216],[140.591018,37.002199],[140.591318,37.002091],[140.591881,37.001749],[140.592743,37.001299],[140.593131,37.001266],[140.593381,37.001333],[140.593718,37.001858],[140.594305,37.002433],[140.594455,37.002683],[140.594655,37.002841],[140.595143,37.002974],[140.595355,37.003099],[140.596105,37.003316],[140.596518,37.003558],[140.59663,37.003849],[140.596668,37.004241],[140.59683,37.004532],[140.597168,37.004616],[140.597805,37.005141],[140.598168,37.005158],[140.599055,37.004958],[140.599455,37.005183],[140.599705,37.005474],[140.599817,37.005741],[140.600092,37.006308],[140.600367,37.006666],[140.601017,37.007183],[140.60118,37.007841],[140.601467,37.008133],[140.601792,37.008333],[140.602017,37.008624],[140.602692,37.009233],[140.603029,37.009758],[140.603004,37.010091],[140.602305,37.010999],[140.601967,37.011332],[140.601717,37.011491],[140.601355,37.011632],[140.601005,37.011857],[140.600667,37.012149],[140.600305,37.012399],[140.599417,37.012966],[140.59883,37.013207],[140.598605,37.013416],[140.598192,37.014049],[140.597992,37.014249],[140.597892,37.014566],[140.598005,37.014907],[140.598192,37.015149],[140.598305,37.015424],[140.59848,37.015665],[140.599055,37.015782],[140.60023,37.01589],[140.60068,37.01589],[140.601117,37.015782],[140.601754,37.015416],[140.602042,37.015149],[140.602817,37.014266],[140.603067,37.014082],[140.603729,37.013499],[140.604229,37.013357],[140.605229,37.013199],[140.605679,37.013316],[140.606017,37.014057],[140.606517,37.014324],[140.606742,37.014641],[140.607266,37.014574],[140.607716,37.014616],[140.608104,37.014482],[140.608579,37.014191],[140.609241,37.013899],[140.609716,37.013783],[140.610004,37.013624],[140.610304,37.013533],[140.610579,37.013491],[140.611004,37.013466],[140.611304,37.013349],[140.611554,37.012966],[140.611779,37.012741],[140.612754,37.012716],[140.613454,37.012899],[140.614141,37.013166],[140.614591,37.013524],[140.614791,37.013866],[140.614978,37.014066],[140.615266,37.014833],[140.615928,37.015058],[140.616291,37.015108],[140.617053,37.015033],[140.617328,37.015258],[140.617603,37.015574],[140.617891,37.015758],[140.618253,37.016316],[140.61869,37.016774],[140.61884,37.017541],[140.619178,37.018099],[140.619728,37.019274],[140.620153,37.019791],[140.620653,37.019991],[140.620878,37.020491],[140.620915,37.021549],[140.621028,37.021866],[140.62119,37.022132],[140.621252,37.022541],[140.621215,37.022832],[140.621077,37.023332],[140.62114,37.023624],[140.621302,37.024099],[140.621452,37.024282],[140.621415,37.024665],[140.621252,37.025249],[140.621265,37.02649],[140.621651,37.027194],[140.62174,37.027198],[140.62184,37.027307],[140.621915,37.027832],[140.62194,37.028432],[140.62174,37.029232],[140.621651,37.029227],[140.62144,37.029332],[140.621552,37.029848],[140.62149,37.030165],[140.621077,37.030731],[140.620852,37.03089],[140.620852,37.030931],[140.620552,37.031115],[140.62049,37.031406],[140.620802,37.031881],[140.620915,37.032131],[140.62094,37.032465],[140.620777,37.032806],[140.62064,37.033281],[140.620702,37.034273],[140.620927,37.034631],[140.621177,37.034814],[140.621651,37.035268],[140.621752,37.035273],[140.622164,37.035373],[140.623014,37.035764],[140.623989,37.036064],[140.624227,37.036464],[140.624327,37.037197],[140.624314,37.037772],[140.624152,37.038289],[140.624177,37.038864],[140.623952,37.039397],[140.624027,37.039622],[140.624426,37.04028],[140.624551,37.041005],[140.624464,37.041905],[140.624889,37.042422],[140.625476,37.042864],[140.626089,37.042889],[140.626789,37.043139],[140.627801,37.043863],[140.627564,37.044763],[140.627526,37.045422],[140.627164,37.045505],[140.626589,37.045755],[140.625451,37.046088],[140.624714,37.046138],[140.624626,37.046205],[140.624664,37.046596],[140.624501,37.04708],[140.624264,37.047446],[140.624651,37.048271],[140.624939,37.048971],[140.625689,37.049621],[140.626126,37.050204],[140.626388,37.050388],[140.627076,37.051254],[140.627288,37.051463],[140.628013,37.051638],[140.629526,37.051679],[140.630063,37.051671],[140.630676,37.052204],[140.630963,37.052396],[140.631838,37.052563],[140.632738,37.052504],[140.63375,37.052946],[140.633913,37.053396],[140.633388,37.053871],[140.633175,37.054387],[140.633475,37.055104],[140.633525,37.055329],[140.634175,37.055771],[140.6351,37.056129],[140.636513,37.056462],[140.6374,37.056596],[140.638287,37.056654],[140.63905,37.056646],[140.639612,37.056421],[140.640687,37.056096],[140.64095,37.056112],[140.6413,37.056512],[140.64165,37.056837],[140.6426,37.056696],[140.642837,37.056679],[140.642637,37.057154],[140.64235,37.058129],[140.642775,37.058637],[140.642687,37.058929],[140.642175,37.059254],[140.641937,37.059762],[140.64155,37.060379],[140.641412,37.060512],[140.641437,37.060995],[140.641412,37.061437],[140.641624,37.061987],[140.641299,37.062253],[140.640687,37.062637],[140.640487,37.062953],[140.640774,37.063178],[140.641312,37.063528],[140.642037,37.063537],[140.642399,37.063587],[140.642299,37.063778],[140.641762,37.064237],[140.641662,37.064395],[140.641774,37.06502],[140.641674,37.065328],[140.640762,37.066795],[140.640399,37.067894],[140.640087,37.068428],[140.640012,37.068494],[140.640237,37.068728],[140.640399,37.068844],[140.641399,37.069161],[140.642024,37.069644],[140.642387,37.070228],[140.642961,37.070636],[140.643161,37.070919],[140.643086,37.071353],[140.643211,37.071386],[140.643999,37.071411],[140.645274,37.071378],[140.647599,37.071744],[140.648698,37.071869],[140.650711,37.072003],[140.651111,37.072019],[140.652211,37.071961],[140.652648,37.072011],[140.652923,37.072311],[140.653036,37.072394],[140.653935,37.072211],[140.654248,37.072361],[140.654448,37.073211],[140.654535,37.073486],[140.654898,37.074103],[140.655773,37.074528],[140.65666,37.074586],[140.65736,37.074961],[140.65751,37.075178],[140.658085,37.076436],[140.65796,37.076861],[140.657435,37.077794],[140.657022,37.078336],[140.656647,37.078644],[140.655885,37.078727],[140.655048,37.078519],[140.654148,37.078344],[140.653398,37.07841],[140.652898,37.078744],[140.652685,37.07926],[140.65231,37.08006],[140.652285,37.080219],[140.652548,37.080294],[140.653648,37.080235],[140.653873,37.080252],[140.654548,37.080452],[140.655235,37.08071],[140.655522,37.080894],[140.655522,37.08096],[140.65531,37.081402],[140.655172,37.08156],[140.654547,37.08211],[140.653922,37.083052],[140.653035,37.084835],[140.652985,37.085051],[140.652985,37.085576],[140.653235,37.08586],[140.653647,37.08606],[140.654235,37.086151],[140.654985,37.086068],[140.655085,37.08601],[140.655322,37.085751],[140.655472,37.085451],[140.655597,37.085301],[140.656072,37.085035],[140.656585,37.084868],[140.657372,37.084935],[140.657885,37.08516],[140.658084,37.085476],[140.658134,37.085843],[140.658084,37.085976],[140.657847,37.086218],[140.657597,37.086426],[140.657547,37.086535],[140.657235,37.086626],[140.656247,37.086726],[140.655847,37.08691],[140.655622,37.087176],[140.655547,37.087701],[140.655547,37.088126],[140.655697,37.088618],[140.655897,37.088984],[140.656522,37.089268],[140.657597,37.089651],[140.658184,37.089601],[140.659422,37.088984],[140.660134,37.088776],[140.660972,37.088409],[140.661934,37.08791],[140.662471,37.087843],[140.662834,37.08806],[140.663384,37.089051]]],"type":"Polygon"}}]}