{"type":"FeatureCollection","features":[{"type":"Feature","properties":{"name":"宇多","yomi":"うだ","kuni_id":"K27","pref":"福島県","kuni_url":"/kg/resource/K27.html","id_url":"G27010.html","id":"G27010","kuni":"磐城"},"geometry":{"coordinates":[[[140.85645,37.891058],[140.856562,37.89115],[140.8577,37.891725],[140.85845,37.891767],[140.858787,37.891817],[140.859237,37.891992],[140.859787,37.892017],[140.860099,37.892233],[140.860349,37.8923],[140.861174,37.892567],[140.861662,37.892592],[140.861774,37.892658],[140.862087,37.892792],[140.863136,37.892858],[140.863336,37.892808],[140.863574,37.892833],[140.864111,37.892983],[140.864336,37.893192],[140.864624,37.893475],[140.865136,37.893833],[140.865761,37.894083],[140.866474,37.894283],[140.867023,37.894458],[140.867561,37.894775],[140.867761,37.894925],[140.868423,37.895242],[140.868736,37.89555],[140.869048,37.8958],[140.869311,37.896067],[140.869536,37.8962],[140.869986,37.896308],[140.87036,37.896292],[140.870985,37.8964],[140.871356,37.896525],[140.871597,37.896596],[140.87301,37.896608],[140.874223,37.896733],[140.876672,37.897134],[140.87831,37.897367],[140.878422,37.897417],[140.879735,37.897517],[140.880134,37.897742],[140.880784,37.897884],[140.881034,37.898],[140.883672,37.899009],[140.884434,37.899259],[140.886134,37.899967],[140.887434,37.900433],[140.889108,37.900917],[140.889558,37.901075],[140.889896,37.901592],[140.890146,37.902117],[140.890596,37.902433],[140.890946,37.902458],[140.891796,37.902083],[140.892171,37.902283],[140.892333,37.902308],[140.892571,37.902267],[140.893108,37.902042],[140.893596,37.901917],[140.893708,37.901942],[140.894158,37.902167],[140.894383,37.902392],[140.89552,37.902309],[140.896433,37.902384],[140.89802,37.902934],[140.89892,37.903642],[140.899995,37.9043],[140.90022,37.904392],[140.90042,37.904375],[140.900345,37.903559],[140.900582,37.903159],[140.90052,37.902934],[140.900382,37.902709],[140.90047,37.902442],[140.900395,37.902034],[140.900395,37.901675],[140.900345,37.901517],[140.899695,37.900967],[140.899608,37.900859],[140.899495,37.9005],[140.899645,37.899734],[140.899958,37.899442],[140.900683,37.898301],[140.90092,37.897742],[140.90107,37.897634],[140.901545,37.897568],[140.90212,37.897593],[140.90237,37.897576],[140.902607,37.897393],[140.903207,37.897084],[140.904057,37.896843],[140.904632,37.896759],[140.90577,37.896651],[140.907045,37.896684],[140.907332,37.897068],[140.907607,37.897318],[140.908232,37.897276],[140.908582,37.897218],[140.909969,37.896818],[140.910719,37.896668],[140.911282,37.896518],[140.911907,37.896518],[140.912369,37.89666],[140.913469,37.897226],[140.914056,37.897618],[140.914119,37.897726],[140.914569,37.898043],[140.914944,37.897935],[140.915544,37.897335],[140.915744,37.897293],[140.916631,37.896626],[140.917431,37.89616],[140.917494,37.896001],[140.917469,37.89591],[140.917556,37.895643],[140.917731,37.895485],[140.918556,37.894993],[140.919494,37.894577],[140.919531,37.894377],[140.919731,37.894035],[140.919569,37.893768],[140.919594,37.89341],[140.919719,37.892977],[140.919781,37.892552],[140.919919,37.89226],[140.920094,37.892035],[140.920494,37.892285],[140.920606,37.892269],[140.921119,37.892319],[140.921793,37.892302],[140.922056,37.892169],[140.922906,37.891969],[140.923343,37.891977],[140.923643,37.892135],[140.923618,37.892469],[140.923681,37.894718],[140.923818,37.894852],[140.923818,37.894902],[140.924218,37.894993],[140.925093,37.895202],[140.925493,37.895452],[140.92588,37.89561],[140.926705,37.895735],[140.927105,37.895693],[140.927393,37.895602],[140.927818,37.895402],[140.92833,37.895319],[140.929043,37.895385],[140.929218,37.895502],[140.929405,37.895843],[140.929443,37.895952],[140.929655,37.896335],[140.92978,37.896335],[140.930118,37.896435],[140.930318,37.896185],[140.930518,37.89601],[140.930855,37.896035],[140.931005,37.896127],[140.931355,37.895227],[140.931443,37.894894],[140.931393,37.894527],[140.931418,37.894444],[140.931205,37.893469],[140.93123,37.892711],[140.931318,37.892552],[140.931355,37.892327],[140.931218,37.891961],[140.93133,37.891402],[140.931568,37.890911],[140.931805,37.890527],[140.931943,37.890169],[140.932093,37.889411],[140.932105,37.888886],[140.93223,37.888078],[140.932368,37.887786],[140.932443,37.88682],[140.932618,37.88642],[140.932818,37.885386],[140.932868,37.88377],[140.932931,37.883412],[140.933193,37.883137],[140.933243,37.882962],[140.933231,37.882087],[140.933206,37.881795],[140.933468,37.880937],[140.933506,37.880554],[140.933418,37.879929],[140.933281,37.879429],[140.933631,37.879362],[140.933793,37.879229],[140.933856,37.878896],[140.933756,37.878446],[140.933756,37.878246],[140.934131,37.877862],[140.934268,37.877662],[140.934418,37.876962],[140.934743,37.876496],[140.934993,37.876271],[140.935281,37.875804],[140.935468,37.875171],[140.935493,37.874929],[140.935443,37.874413],[140.935531,37.874271],[140.935843,37.874096],[140.936049,37.874061],[140.936068,37.874013],[140.935731,37.87383],[140.935731,37.873738],[140.936181,37.872455],[140.936268,37.872121],[140.936291,37.872003],[140.936831,37.871896],[140.937093,37.871905],[140.937168,37.87278],[140.937331,37.873346],[140.937731,37.87348],[140.938006,37.873621],[140.938206,37.873755],[140.938181,37.874163],[140.938318,37.874271],[140.938456,37.874321],[140.938493,37.873663],[140.938518,37.873596],[140.938331,37.873463],[140.938043,37.873396],[140.937593,37.873096],[140.937568,37.872738],[140.937456,37.872263],[140.937431,37.871971],[140.937493,37.871946],[140.937781,37.871547],[140.938268,37.87043],[140.938831,37.869105],[140.938968,37.868839],[140.939118,37.86868],[140.939181,37.868139],[140.939131,37.867755],[140.939319,37.865872],[140.939381,37.865756],[140.939344,37.865556],[140.939431,37.865372],[140.939581,37.865306],[140.939756,37.864947],[140.939781,37.864772],[140.939706,37.864456],[140.939819,37.864297],[140.939881,37.864122],[140.939881,37.863914],[140.939994,37.863847],[140.940081,37.863714],[140.940031,37.863464],[140.940119,37.863314],[140.940481,37.863156],[140.940831,37.862439],[140.940719,37.862281],[140.940694,37.861856],[140.941006,37.861723],[140.941131,37.861523],[140.941269,37.861115],[140.941581,37.861098],[140.942069,37.860765],[140.942594,37.860206],[140.942644,37.860223],[140.942644,37.860048],[140.942569,37.85989],[140.943056,37.859173],[140.943344,37.858657],[140.943406,37.858457],[140.943406,37.858207],[140.943581,37.857823],[140.943756,37.85774],[140.944131,37.857632],[140.944293,37.857473],[140.944556,37.857365],[140.944781,37.85734],[140.945406,37.857432],[140.945556,37.85674],[140.945706,37.855774],[140.945718,37.855232],[140.945981,37.854091],[140.946181,37.853816],[140.946531,37.853507],[140.947081,37.852907],[140.947193,37.852657],[140.949621,37.858117],[140.955633,37.859467],[140.956545,37.85685],[140.949233,37.85525],[140.950368,37.851691],[140.950818,37.851733],[140.953118,37.844692],[140.954506,37.844892],[140.954993,37.843275],[140.953368,37.84295],[140.954031,37.840692],[140.958968,37.841634],[140.959055,37.841409],[140.959555,37.839951],[140.959018,37.839384],[140.955081,37.838526],[140.955606,37.837018],[140.956906,37.837251],[140.957368,37.836351],[140.958493,37.834785],[140.959593,37.832927],[140.959431,37.83141],[140.961581,37.830577],[140.962043,37.830869],[140.962231,37.830711],[140.962468,37.830819],[140.962331,37.830977],[140.962768,37.831227],[140.962435,37.832303],[140.96248,37.832344],[140.962605,37.83216],[140.962793,37.831994],[140.963143,37.831635],[140.963305,37.831452],[140.96363,37.831077],[140.964105,37.830494],[140.964293,37.830094],[140.96443,37.829761],[140.964593,37.829594],[140.964893,37.829344],[140.965268,37.829111],[140.965905,37.828786],[140.96653,37.828544],[140.967218,37.828269],[140.96788,37.828019],[140.96873,37.827786],[140.969355,37.827703],[140.96988,37.827669],[140.970155,37.827711],[140.971858,37.830787],[140.973658,37.830137],[140.972745,37.828521],[140.974442,37.827928],[140.974305,37.827661],[140.975329,37.82737],[140.975596,37.82612],[140.975667,37.826095],[140.975804,37.82637],[140.976192,37.826786],[140.976454,37.827145],[140.976679,37.827586],[140.976767,37.827886],[140.977067,37.82787],[140.977495,37.828998],[140.977557,37.828996],[140.977832,37.828671],[140.97802,37.828379],[140.978242,37.828011],[140.978667,37.82737],[140.978829,37.827128],[140.979179,37.826678],[140.979492,37.826303],[140.979929,37.825887],[140.980379,37.825512],[140.980742,37.825178],[140.981029,37.824937],[140.981292,37.824712],[140.981792,37.824287],[140.982042,37.824079],[140.982192,37.823995],[140.983629,37.824012],[140.984616,37.82397],[140.985429,37.824012],[140.986029,37.824012],[140.986379,37.82387],[140.986779,37.82337],[140.987229,37.823012],[140.987341,37.822787],[140.987204,37.822521],[140.986854,37.822271],[140.986279,37.822096],[140.986329,37.820646],[140.986454,37.819721],[140.986229,37.819113],[140.986304,37.818054],[140.986492,37.817129],[140.986379,37.815896],[140.986467,37.813821],[140.986479,37.812088],[140.986629,37.810147],[140.986604,37.809539],[140.986654,37.80913],[140.986655,37.808322],[140.986717,37.80708],[140.986667,37.806564],[140.986717,37.805639],[140.986842,37.804897],[140.986717,37.802389],[140.98658,37.801556],[140.986655,37.800706],[140.986643,37.800006],[140.986793,37.798315],[140.986755,37.796423],[140.98678,37.795607],[140.986855,37.794773],[140.986918,37.791665],[140.987018,37.79029],[140.987031,37.788957],[140.987193,37.785466],[140.987556,37.782108],[140.987569,37.7808],[140.987644,37.779691],[140.987794,37.778366],[140.988131,37.776675],[140.988719,37.774617],[140.989057,37.77315],[140.989269,37.77245],[140.989532,37.771775],[140.989744,37.770875],[140.990244,37.769226],[140.990507,37.768617],[140.990782,37.768167],[140.991394,37.767284],[140.992081,37.766834],[140.992544,37.766676],[140.993519,37.766759],[140.993756,37.766826],[140.993844,37.766784],[140.993731,37.766693],[140.993594,37.766334],[140.993594,37.766059],[140.993806,37.765743],[140.994069,37.765493],[140.994794,37.765359],[140.995256,37.765309],[140.995444,37.765201],[140.995744,37.764634],[140.996269,37.764184],[140.996592,37.763738],[140.996794,37.763535],[140.997119,37.763301],[140.997394,37.763193],[140.997781,37.763218],[140.997944,37.763485],[140.998006,37.76351],[140.998143,37.76341],[140.998868,37.763226],[140.999793,37.763176],[141.000356,37.763101],[141.000381,37.762951],[141.000556,37.762593],[141.000881,37.76226],[141.000931,37.762068],[141.000831,37.762035],[141.000581,37.762193],[141.000293,37.762326],[141.000156,37.762285],[141.000106,37.761385],[141.000143,37.760443],[141.000331,37.759335],[141.000568,37.758552],[141.000831,37.75796],[141.001306,37.757677],[141.002043,37.757394],[141.002256,37.75716],[141.002256,37.756977],[141.002343,37.756427],[141.002656,37.755685],[141.002731,37.755269],[141.003031,37.754877],[141.003281,37.754744],[141.003931,37.754652],[141.003893,37.754494],[141.003918,37.753986],[141.003606,37.753569],[141.003556,37.753369],[141.003818,37.753086],[141.003831,37.753027],[141.003843,37.752961],[141.003868,37.752902],[141.003956,37.752844],[141.004043,37.752794],[141.004068,37.752719],[141.004056,37.752652],[141.004043,37.752594],[141.004043,37.752561],[141.004068,37.752511],[141.004106,37.752469],[141.004106,37.752402],[141.004093,37.752336],[141.004118,37.752302],[141.004168,37.752261],[141.004218,37.752211],[141.004231,37.752177],[141.004218,37.752094],[141.004206,37.752027],[141.004256,37.752011],[141.004293,37.751986],[141.004343,37.751944],[141.004381,37.751886],[141.004406,37.751869],[141.004481,37.751861],[141.004531,37.751844],[141.004568,37.751811],[141.004568,37.751752],[141.004531,37.751711],[141.004531,37.751677],[141.004581,37.751602],[141.004581,37.751552],[141.004568,37.751486],[141.004531,37.751427],[141.004531,37.751411],[141.004568,37.751378],[141.004581,37.751336],[141.004581,37.751294],[141.004568,37.751236],[141.004581,37.751219],[141.004618,37.751186],[141.004656,37.751136],[141.004656,37.751103],[141.004668,37.751069],[141.004693,37.751036],[141.004731,37.751044],[141.004781,37.751019],[141.004818,37.750978],[141.004843,37.750928],[141.004906,37.750919],[141.004968,37.750969],[141.005043,37.751011],[141.005106,37.751019],[141.005168,37.751003],[141.005206,37.750978],[141.005256,37.750961],[141.005293,37.750928],[141.005293,37.750869],[141.005243,37.750811],[141.005106,37.750761],[141.005043,37.750703],[141.005043,37.750644],[141.005018,37.750594],[141.004993,37.750528],[141.005006,37.750428],[141.005068,37.750286],[141.005218,37.750136],[141.005431,37.750053],[141.005656,37.749986],[141.005906,37.749944],[141.006031,37.749953],[141.006181,37.749911],[141.006281,37.749911],[141.006393,37.749928],[141.006393,37.749969],[141.006443,37.750053],[141.006506,37.750086],[141.006581,37.750103],[141.006668,37.750086],[141.006731,37.750111],[141.006781,37.750119],[141.006856,37.750086],[141.006918,37.750086],[141.006943,37.750128],[141.006993,37.750178],[141.007081,37.750228],[141.007131,37.750253],[141.007143,37.750328],[141.007181,37.750378],[141.007268,37.750386],[141.007343,37.750361],[141.007356,37.750319],[141.007343,37.750228],[141.007343,37.750161],[141.007381,37.750128],[141.007381,37.750053],[141.007381,37.749986],[141.007456,37.749969],[141.007493,37.749928],[141.007493,37.749861],[141.007606,37.749878],[141.007581,37.749953],[141.007581,37.750053],[141.007631,37.750136],[141.007706,37.750103],[141.007793,37.750053],[141.007856,37.750053],[141.007906,37.750044],[141.007968,37.750019],[141.00803,37.749953],[141.008118,37.749928],[141.00818,37.749886],[141.00823,37.749794],[141.008243,37.749719],[141.008243,37.749653],[141.008168,37.749561],[141.008156,37.749545],[141.008193,37.749486],[141.008206,37.749428],[141.008181,37.749378],[141.008231,37.749336],[141.008268,37.749286],[141.008256,37.74922],[141.008231,37.749128],[141.008231,37.749078],[141.008268,37.749003],[141.008306,37.748936],[141.008268,37.74887],[141.008256,37.748836],[141.008293,37.748745],[141.008281,37.748678],[141.008206,37.748595],[141.008206,37.748545],[141.008231,37.748495],[141.008231,37.748453],[141.008156,37.748328],[141.008156,37.748278],[141.008206,37.748211],[141.008206,37.74817],[141.008168,37.748095],[141.008168,37.748053],[141.008206,37.748003],[141.008231,37.747945],[141.008193,37.747895],[141.008156,37.747861],[141.008206,37.74782],[141.008256,37.74772],[141.008268,37.747686],[141.008318,37.74767],[141.008381,37.74767],[141.008418,37.747628],[141.008456,37.74752],[141.008481,37.747503],[141.008543,37.747478],[141.008568,37.747411],[141.008593,37.747353],[141.008618,37.747236],[141.008643,37.747195],[141.008693,37.747153],[141.008681,37.747095],[141.008731,37.746978],[141.008943,37.746636],[141.009056,37.746503],[141.009256,37.746387],[141.009343,37.746328],[141.009406,37.746262],[141.009443,37.746178],[141.009456,37.74602],[141.009468,37.74587],[141.009468,37.74567],[141.009493,37.74542],[141.009531,37.745262],[141.009581,37.745112],[141.009706,37.744887],[141.009743,37.744812],[141.009743,37.744745],[141.009756,37.744603],[141.009818,37.744362],[141.009893,37.744145],[141.010043,37.743895],[141.010118,37.743803],[141.010168,37.743687],[141.010218,37.743387],[141.010431,37.742737],[141.010593,37.742354],[141.010631,37.742212],[141.010643,37.74207],[141.010706,37.741854],[141.010768,37.74167],[141.010806,37.741437],[141.010868,37.741195],[141.010931,37.741062],[141.010968,37.740904],[141.011006,37.740687],[141.011106,37.740337],[141.011243,37.739979],[141.011268,37.739762],[141.011293,37.739537],[141.011281,37.739321],[141.011281,37.739129],[141.011281,37.738379],[141.011281,37.738071],[141.011268,37.737813],[141.011281,37.737713],[141.011356,37.737638],[141.011406,37.737538],[141.011381,37.737413],[141.011356,37.737379],[141.011393,37.737288],[141.011368,37.737204],[141.011406,37.737171],[141.011406,37.737088],[141.011356,37.737013],[141.011356,37.736979],[141.011393,37.736946],[141.011381,37.736871],[141.011381,37.736829],[141.011468,37.736754],[141.011556,37.736696],[141.011581,37.736629],[141.011581,37.736521],[141.011506,37.736421],[141.011481,37.736371],[141.011518,37.736279],[141.011518,37.736221],[141.011456,37.736088],[141.011506,37.736004],[141.011518,37.735946],[141.011493,37.735846],[141.011506,37.735813],[141.011556,37.735738],[141.011581,37.735679],[141.011618,37.735629],[141.011668,37.735588],[141.011693,37.735529],[141.011656,37.735463],[141.011656,37.735388],[141.011706,37.735305],[141.011693,37.735188],[141.011718,37.735113],[141.011768,37.735063],[141.011768,37.735013],[141.011743,37.734938],[141.011743,37.734905],[141.011806,37.734855],[141.011831,37.734813],[141.011818,37.734755],[141.011781,37.73473],[141.011731,37.734705],[141.011756,37.734663],[141.011856,37.734538],[141.011881,37.73448],[141.011856,37.73443],[141.011831,37.734346],[141.011868,37.734288],[141.011906,37.734213],[141.011881,37.734138],[141.011918,37.734088],[141.011968,37.73403],[141.011968,37.733971],[141.012006,37.733946],[141.012081,37.733921],[141.012118,37.733863],[141.012131,37.733788],[141.012143,37.733763],[141.012231,37.733721],[141.012256,37.733671],[141.012256,37.733613],[141.012193,37.73358],[141.012168,37.733546],[141.012168,37.733463],[141.012131,37.733405],[141.012081,37.733355],[141.012056,37.733338],[141.012068,37.733288],[141.012068,37.733246],[141.012068,37.733146],[141.012081,37.733105],[141.012131,37.733063],[141.012131,37.733013],[141.012068,37.732913],[141.012068,37.73288],[141.012118,37.732813],[141.012118,37.732738],[141.012093,37.732688],[141.012081,37.732638],[141.012106,37.732588],[141.012131,37.73253],[141.012118,37.732455],[141.012106,37.732397],[141.012118,37.732347],[141.012156,37.732288],[141.012168,37.73223],[141.012131,37.732163],[141.012106,37.732122],[141.012118,37.732088],[141.012131,37.73203],[141.012131,37.731997],[141.012168,37.731972],[141.012231,37.731955],[141.012243,37.731888],[141.012243,37.731822],[141.012281,37.731788],[141.012331,37.731747],[141.012356,37.731688],[141.012356,37.731638],[141.012318,37.731588],[141.012243,37.731538],[141.012156,37.731547],[141.012131,37.73153],[141.012106,37.731455],[141.012118,37.731372],[141.012093,37.731305],[141.012018,37.731247],[141.012006,37.731205],[141.012006,37.73113],[141.011993,37.731072],[141.011956,37.730988],[141.011968,37.730947],[141.011981,37.730888],[141.011956,37.73083],[141.011943,37.730763],[141.011968,37.730705],[141.011981,37.730638],[141.011956,37.730572],[141.011943,37.730513],[141.011968,37.730472],[141.012006,37.730397],[141.011993,37.730338],[141.011993,37.730288],[141.012018,37.73023],[141.012018,37.730188],[141.011956,37.730122],[141.011943,37.730063],[141.011943,37.730005],[141.011968,37.729955],[141.011931,37.729889],[141.011893,37.729839],[141.011918,37.729797],[141.011943,37.72973],[141.011931,37.729664],[141.011906,37.729589],[141.011943,37.729555],[141.011943,37.72948],[141.011931,37.729439],[141.011931,37.729389],[141.011943,37.72933],[141.011981,37.729289],[141.011968,37.72923],[141.011943,37.729197],[141.012006,37.729114],[141.012031,37.729022],[141.011993,37.728955],[141.011981,37.728914],[141.011993,37.728864],[141.012006,37.728797],[141.011956,37.728697],[141.011918,37.728639],[141.011943,37.728589],[141.011981,37.728522],[141.011969,37.72843],[141.011931,37.72838],[141.011969,37.728339],[141.011981,37.728255],[141.011956,37.728214],[141.011994,37.728155],[141.012019,37.72808],[141.012006,37.728014],[141.011969,37.727955],[141.011969,37.727889],[141.012031,37.727697],[141.012094,37.727655],[141.012119,37.727589],[141.012106,37.72753],[141.012069,37.72748],[141.012044,37.727439],[141.012056,37.727356],[141.012081,37.727297],[141.012119,37.727231],[141.012094,37.727172],[141.012044,37.727097],[141.012081,37.726997],[141.012131,37.726964],[141.012156,37.726906],[141.012144,37.726814],[141.012119,37.726756],[141.012131,37.726681],[141.012156,37.726614],[141.012144,37.726547],[141.012094,37.726522],[141.012094,37.726481],[141.012094,37.726422],[141.012044,37.726339],[141.012044,37.726297],[141.012169,37.726039],[141.012169,37.725964],[141.011869,37.725472],[141.011819,37.725297],[141.011806,37.724956],[141.011806,37.724797],[141.011844,37.724672],[141.011819,37.724539],[141.011819,37.724398],[141.011806,37.724323],[141.011769,37.724248],[141.011794,37.724164],[141.011856,37.723939],[141.011856,37.723873],[141.011769,37.723639],[141.011681,37.723506],[141.011669,37.723406],[141.011681,37.723298],[141.011706,37.723148],[141.011706,37.723073],[141.011644,37.722839],[141.011469,37.722498],[141.011419,37.722323],[141.011344,37.722181],[141.011331,37.722073],[141.011331,37.721939],[141.011369,37.721815],[141.010594,37.721814],[141.008956,37.721806],[141.008657,37.721739],[141.008507,37.721706],[141.008232,37.721664],[141.007444,37.721506],[141.006432,37.721331],[141.005544,37.721189],[141.005319,37.721173],[141.005382,37.721848],[141.003819,37.722172],[141.002769,37.722372],[141.00212,37.722564],[141.001795,37.722656],[141.00117,37.722931],[141.00087,37.723139],[141.000607,37.723397],[141.00042,37.723647],[140.999145,37.726355],[140.999095,37.72648],[140.999095,37.726697],[140.99907,37.726897],[140.99902,37.726997],[140.998857,37.727138],[140.998582,37.72728],[140.998232,37.727455],[140.998082,37.727472],[140.997657,37.727488],[140.997382,37.727538],[140.99702,37.727696],[140.996594,37.728025],[140.995807,37.728155],[140.99542,37.728363],[140.992383,37.730346],[140.99042,37.731529],[140.989533,37.732329],[140.988783,37.733104],[140.987795,37.733495],[140.986371,37.733879],[140.984958,37.734337],[140.983683,37.734679],[140.982346,37.734762],[140.980646,37.734762],[140.979421,37.734737],[140.979096,37.735087],[140.978634,37.736003],[140.977484,37.73672],[140.976446,37.73717],[140.975459,37.737836],[140.972834,37.739436],[140.970959,37.739378],[140.970284,37.739219],[140.969809,37.739444],[140.969285,37.739744],[140.968572,37.739994],[140.968272,37.740444],[140.967285,37.740644],[140.966147,37.740944],[140.965597,37.741169],[140.964322,37.741227],[140.963422,37.741086],[140.963085,37.741311],[140.961848,37.742969],[140.96116,37.74321],[140.960173,37.742919],[140.95976,37.74286],[140.958523,37.742985],[140.956935,37.74281],[140.955611,37.742785],[140.954898,37.743269],[140.954398,37.743727],[140.953448,37.743102],[140.952698,37.742727],[140.952186,37.742844],[140.951248,37.74261],[140.950249,37.742444],[140.949836,37.74231],[140.948261,37.742002],[140.947161,37.742752],[140.946274,37.742943],[140.945524,37.743527],[140.945086,37.744085],[140.944049,37.744185],[140.943299,37.743827],[140.942737,37.743368],[140.941862,37.743243],[140.940487,37.743302],[140.939599,37.743402],[140.938749,37.74371],[140.9375,37.743901],[140.936087,37.744176],[140.93555,37.744651],[140.934887,37.744876],[140.933812,37.744876],[140.932987,37.74456],[140.932387,37.744126],[140.931975,37.743468],[140.931525,37.742868],[140.93055,37.742093],[140.929863,37.742035],[140.927888,37.740452],[140.927526,37.739827],[140.927163,37.739552],[140.926576,37.73896],[140.925701,37.738152],[140.924751,37.73746],[140.924364,37.73686],[140.923914,37.73686],[140.922164,37.737735],[140.921801,37.737977],[140.921126,37.738593],[140.920189,37.739235],[140.919864,37.739818],[140.919301,37.740401],[140.918101,37.741551],[140.917551,37.742226],[140.917301,37.742759],[140.916301,37.742759],[140.915576,37.742709],[140.915264,37.743184],[140.914289,37.743509],[140.913752,37.743842],[140.913464,37.744376],[140.912889,37.744476],[140.911864,37.744042],[140.911377,37.744109],[140.911064,37.742967],[140.910977,37.742826],[140.909277,37.741826],[140.909127,37.741609],[140.90884,37.741517],[140.907777,37.741451],[140.906877,37.741567],[140.90664,37.741684],[140.906315,37.741776],[140.905428,37.741567],[140.90434,37.740976],[140.904103,37.740801],[140.903878,37.740842],[140.903815,37.740884],[140.903415,37.741742],[140.903178,37.741825],[140.901716,37.741084],[140.901366,37.740326],[140.900216,37.739234],[140.899716,37.739276],[140.898379,37.739584],[140.897141,37.7397],[140.896404,37.739992],[140.895354,37.740559],[140.895016,37.7407],[140.893767,37.74075],[140.892942,37.741233],[140.892379,37.741108],[140.891717,37.740475],[140.891254,37.740408],[140.890754,37.740933],[140.890629,37.740942],[140.890154,37.740892],[140.889267,37.740983],[140.88848,37.741458],[140.888317,37.741683],[140.887992,37.74225],[140.887017,37.742716],[140.886155,37.743475],[140.884667,37.744341],[140.884243,37.744474],[140.883218,37.744866],[140.882868,37.745533],[140.882393,37.745866],[140.88223,37.746074],[140.88178,37.746416],[140.880805,37.746541],[140.878781,37.746532],[140.877731,37.746657],[140.876006,37.746432],[140.875206,37.746574],[140.874094,37.746974],[140.873856,37.746907],[140.873656,37.746649],[140.873556,37.746407],[140.873194,37.746007],[140.872794,37.745965],[140.872294,37.745699],[140.872119,37.745665],[140.871597,37.745757],[140.871406,37.745715],[140.871032,37.745457],[140.870457,37.74519],[140.870007,37.744932],[140.869907,37.744532],[140.869782,37.744257],[140.869269,37.743757],[140.869094,37.743532],[140.868069,37.742757],[140.867719,37.742099],[140.867607,37.741607],[140.867132,37.741332],[140.866607,37.741257],[140.865882,37.740941],[140.865032,37.740774],[140.864782,37.740791],[140.86347,37.740766],[140.862345,37.740666],[140.861595,37.740657],[140.861345,37.740591],[140.860645,37.740274],[140.860033,37.739541],[140.859383,37.739332],[140.858745,37.739399],[140.858095,37.739324],[140.85737,37.739432],[140.856598,37.73919],[140.85622,37.739116],[140.854795,37.738832],[140.854245,37.738899],[140.853646,37.738732],[140.853071,37.738682],[140.852571,37.738274],[140.851746,37.737816],[140.851533,37.737249],[140.851058,37.737024],[140.850333,37.736616],[140.849933,37.735957],[140.849758,37.735749],[140.849158,37.735316],[140.848933,37.735207],[140.848446,37.734657],[140.848321,37.734433],[140.847871,37.733983],[140.847196,37.733841],[140.846121,37.733991],[140.845196,37.734007],[140.844871,37.733932],[140.844221,37.733574],[140.843346,37.733432],[140.842559,37.733466],[140.841609,37.733616],[140.840959,37.733841],[140.840159,37.733924],[140.839859,37.734016],[140.839597,37.734166],[140.838284,37.735557],[140.837809,37.73594],[140.837447,37.736549],[140.836922,37.73679],[140.836622,37.736724],[140.835597,37.736782],[140.835284,37.737115],[140.835159,37.73739],[140.834659,37.737765],[140.834097,37.738623],[140.833972,37.73889],[140.833534,37.739432],[140.833309,37.73999],[140.833084,37.740398],[140.832822,37.741115],[140.832634,37.741881],[140.831884,37.742415],[140.830772,37.74284],[140.830447,37.743398],[140.830059,37.745131],[140.829797,37.745673],[140.829222,37.746048],[140.828309,37.746747],[140.827647,37.747397],[140.827122,37.747822],[140.825972,37.747989],[140.824659,37.747889],[140.823935,37.747981],[140.82331,37.747589],[140.822585,37.747406],[140.82246,37.747422],[140.822085,37.747672],[140.82021,37.74788],[140.819247,37.748189],[140.818597,37.748597],[140.818472,37.748889],[140.817985,37.749488],[140.817185,37.749688],[140.816372,37.749755],[140.816097,37.749822],[140.815272,37.750397],[140.815247,37.750555],[140.815035,37.75098],[140.813885,37.751338],[140.813272,37.751738],[140.813097,37.751871],[140.812722,37.75198],[140.812323,37.751938],[140.811598,37.751905],[140.810923,37.752013],[140.810385,37.752213],[140.809835,37.752505],[140.80941,37.752863],[140.80901,37.752971],[140.808498,37.752946],[140.807548,37.753021],[140.807448,37.753163],[140.807248,37.753346],[140.806985,37.753513],[140.805698,37.753721],[140.805348,37.753763],[140.80461,37.753513],[140.80361,37.753487],[140.803123,37.753704],[140.80296,37.753896],[140.802698,37.754571],[140.801885,37.755179],[140.80041,37.755729],[140.799548,37.756112],[140.798373,37.756345],[140.797273,37.75632],[140.796398,37.75597],[140.795598,37.755779],[140.794223,37.755762],[140.792961,37.756212],[140.791936,37.756612],[140.790848,37.756728],[140.789586,37.756811],[140.787773,37.757361],[140.787086,37.757278],[140.786586,37.75752],[140.785824,37.757545],[140.784736,37.757703],[140.783711,37.757636],[140.783561,37.757528],[140.783349,37.757644],[140.782486,37.758519],[140.781799,37.758953],[140.780686,37.759119],[140.778986,37.759286],[140.777124,37.759386],[140.775837,37.759869],[140.774837,37.760069],[140.773987,37.760211],[140.773762,37.760027],[140.773537,37.759644],[140.773187,37.759519],[140.772374,37.759602],[140.771999,37.759419],[140.771874,37.759269],[140.771374,37.759261],[140.770762,37.759494],[140.770587,37.759619],[140.76975,37.760385],[140.768975,37.76141],[140.768625,37.761702],[140.76775,37.761577],[140.7667,37.761035],[140.765912,37.760585],[140.765012,37.760385],[140.763363,37.759735],[140.762638,37.759635],[140.762138,37.759435],[140.761688,37.759002],[140.761575,37.758727],[140.761213,37.758102],[140.759763,37.757194],[140.759575,37.756619],[140.759351,37.756169],[140.758863,37.755802],[140.757826,37.755627],[140.757126,37.755469],[140.756976,37.755377],[140.756813,37.754936],[140.756813,37.754461],[140.756738,37.754011],[140.756188,37.753019],[140.756051,37.752811],[140.755801,37.752311],[140.755176,37.751878],[140.754651,37.751653],[140.753926,37.751528],[140.753626,37.751528],[140.752426,37.751228],[140.751576,37.751444],[140.750901,37.751444],[140.750189,37.751578],[140.749464,37.751886],[140.748889,37.752219],[140.748477,37.752536],[140.748027,37.753019],[140.747902,37.753219],[140.747564,37.753453],[140.747302,37.753469],[140.74661,37.753215],[140.746239,37.753036],[140.746089,37.753019],[140.745714,37.752794],[140.745277,37.752519],[140.744914,37.752186],[140.744664,37.752119],[140.744089,37.751844],[140.743815,37.751778],[140.743015,37.751669],[140.74244,37.751644],[140.742165,37.751761],[140.741977,37.751936],[140.741777,37.752052],[140.741615,37.752027],[140.741452,37.751919],[140.741065,37.751486],[140.74079,37.751019],[140.74074,37.750203],[140.739877,37.750069],[140.739552,37.749978],[140.73914,37.749911],[140.738815,37.749911],[140.738453,37.749961],[140.73779,37.750094],[140.737265,37.750278],[140.736615,37.750619],[140.736415,37.750661],[140.736165,37.750594],[140.735228,37.749986],[140.73449,37.749786],[140.733715,37.749669],[140.733091,37.749652],[140.732316,37.749586],[140.732266,37.749602],[140.732103,37.749811],[140.731853,37.750011],[140.731628,37.750077],[140.731053,37.750061],[140.730203,37.749927],[140.730003,37.750102],[140.729791,37.750444],[140.729603,37.750669],[140.729153,37.751119],[140.728666,37.751794],[140.728366,37.752002],[140.728466,37.752044],[140.728778,37.752469],[140.728916,37.75301],[140.728966,37.753019],[140.729016,37.753027],[140.729091,37.753227],[140.729291,37.75336],[140.729541,37.753435],[140.730228,37.753844],[140.730403,37.754002],[140.730553,37.754294],[140.730603,37.754527],[140.730803,37.75511],[140.731166,37.755477],[140.732215,37.755952],[140.733065,37.75621],[140.733465,37.756393],[140.733965,37.756535],[140.734365,37.756535],[140.73474,37.756602],[140.73524,37.756943],[140.735915,37.757177],[140.73594,37.757268],[140.73604,37.757718],[140.736128,37.75786],[140.736177,37.75801],[140.736102,37.75826],[140.736052,37.758693],[140.736077,37.759118],[140.736165,37.759502],[140.73634,37.759885],[140.73644,37.760043],[140.736715,37.760676],[140.736702,37.761018],[140.736627,37.761426],[140.736365,37.762185],[140.736265,37.76266],[140.736015,37.763293],[140.735977,37.763609],[140.736052,37.763876],[140.736227,37.764218],[140.736327,37.764759],[140.736215,37.765301],[140.735977,37.767101],[140.73569,37.768276],[140.735565,37.768267],[140.73524,37.768159],[140.734915,37.768084],[140.73459,37.768059],[140.734365,37.768151],[140.73384,37.768217],[140.733015,37.768076],[140.73274,37.768117],[140.732415,37.768109],[140.73184,37.767992],[140.731115,37.767992],[140.730765,37.767809],[140.72974,37.767101],[140.72914,37.766601],[140.72879,37.766234],[140.728553,37.765717],[140.728178,37.765442],[140.727778,37.765259],[140.727503,37.765034],[140.727353,37.764559],[140.727153,37.764376],[140.726278,37.764076],[140.722754,37.761434],[140.722704,37.761434],[140.722204,37.761609],[140.721766,37.761926],[140.721666,37.761943],[140.721516,37.761901],[140.720666,37.761418],[140.720341,37.761259],[140.719854,37.761118],[140.719179,37.760801],[140.718216,37.760768],[140.717316,37.760609],[140.716292,37.760576],[140.715817,37.760484],[140.715167,37.760301],[140.713692,37.759926],[140.712442,37.760434],[140.711942,37.760609],[140.711629,37.760634],[140.711279,37.760584],[140.710679,37.760651],[140.710379,37.760717],[140.709879,37.760776],[140.708305,37.760742],[140.707855,37.760692],[140.70698,37.760576],[140.70668,37.760259],[140.70663,37.760059],[140.706655,37.760034],[140.706505,37.759942],[140.705705,37.759709],[140.70568,37.759734],[140.70343,37.759517],[140.703055,37.759576],[140.702555,37.759534],[140.702405,37.759576],[140.702305,37.759667],[140.702255,37.759776],[140.702243,37.760026],[140.702417,37.760317],[140.702392,37.760409],[140.701305,37.762025],[140.701155,37.762159],[140.70108,37.762292],[140.700967,37.763034],[140.700593,37.763484],[140.70028,37.763684],[140.69988,37.7638],[140.69903,37.763834],[140.69818,37.763759],[140.69793,37.763759],[140.69763,37.763825],[140.69718,37.764092],[140.696768,37.764567],[140.696118,37.765058],[140.695768,37.765208],[140.695155,37.765433],[140.69493,37.765475],[140.69423,37.765925],[140.692943,37.766725],[140.692768,37.7669],[140.692693,37.767083],[140.692518,37.767191],[140.69198,37.767191],[140.69138,37.767208],[140.69123,37.767183],[140.690955,37.767225],[140.69068,37.767316],[140.690156,37.767633],[140.689756,37.767783],[140.689281,37.767891],[140.688493,37.768],[140.688343,37.768066],[140.688118,37.76825],[140.687868,37.768383],[140.687418,37.768558],[140.687056,37.768824],[140.684968,37.769941],[140.684518,37.770249],[140.684393,37.770474],[140.684393,37.770699],[140.684506,37.771224],[140.684531,37.772032],[140.684343,37.773132],[140.683931,37.773674],[140.683106,37.774615],[140.682768,37.775174],[140.682718,37.775424],[140.68278,37.776215],[140.68288,37.776849],[140.682855,37.777074],[140.682718,37.777432],[140.682343,37.777949],[140.682118,37.778398],[140.68188,37.778715],[140.68173,37.778757],[140.681255,37.778798],[140.680606,37.778998],[140.679806,37.779215],[140.679531,37.77919],[140.679143,37.779232],[140.678618,37.779415],[140.678143,37.779657],[140.678043,37.779748],[140.678006,37.780356],[140.678131,37.780648],[140.678256,37.780923],[140.678356,37.78124],[140.678218,37.781781],[140.677718,37.782765],[140.677656,37.783106],[140.678393,37.785114],[140.678443,37.785431],[140.67848,37.786289],[140.678455,37.786581],[140.678443,37.787264],[140.678643,37.787397],[140.679168,37.787856],[140.680168,37.788847],[140.680655,37.789197],[140.68168,37.790122],[140.681805,37.790281],[140.681905,37.790672],[140.682043,37.790914],[140.682168,37.790989],[140.682818,37.791055],[140.683805,37.791197],[140.684068,37.791339],[140.684318,37.791564],[140.684518,37.79188],[140.684743,37.792314],[140.684993,37.792655],[140.685292,37.79288],[140.685742,37.793022],[140.686255,37.79343],[140.68673,37.793589],[140.687255,37.793705],[140.687705,37.793755],[140.687955,37.793914],[140.68823,37.794439],[140.688942,37.79543],[140.689342,37.795755],[140.689892,37.796388],[140.691092,37.796755],[140.692942,37.797263],[140.693567,37.797522],[140.693742,37.797605],[140.693967,37.79788],[140.693979,37.79813],[140.693879,37.798605],[140.693679,37.79903],[140.693292,37.799747],[140.693242,37.799955],[140.693242,37.800155],[140.693392,37.800446],[140.693554,37.800655],[140.693929,37.801171],[140.694317,37.803271],[140.694542,37.803121],[140.694692,37.803096],[140.694967,37.803121],[140.695417,37.80308],[140.696192,37.802771],[140.696754,37.802663],[140.697554,37.802688],[140.698679,37.802855],[140.699679,37.803088],[140.701029,37.803296],[140.701379,37.80328],[140.702179,37.803196],[140.702604,37.803221],[140.702879,37.803113],[140.703266,37.802796],[140.703641,37.802621],[140.704816,37.802355],[140.705091,37.802338],[140.705266,37.802405],[140.705779,37.802363],[140.706029,37.802297],[140.706279,37.802047],[140.706429,37.802005],[140.706929,37.802122],[140.708116,37.801588],[140.708666,37.801505],[140.709091,37.801505],[140.709366,37.801438],[140.709566,37.801463],[140.710116,37.801263],[140.710491,37.801063],[140.710891,37.800955],[140.711653,37.800622],[140.712303,37.800289],[140.712603,37.800089],[140.713116,37.799572],[140.713266,37.799322],[140.713928,37.797931],[140.714366,37.797397],[140.714566,37.797239],[140.714816,37.797106],[140.715716,37.796814],[140.716228,37.796597],[140.716378,37.796281],[140.716603,37.795989],[140.716678,37.795789],[140.716803,37.795581],[140.717016,37.795089],[140.717091,37.794906],[140.717291,37.794839],[140.717341,37.794848],[140.717466,37.794756],[140.71794,37.794623],[140.718105,37.794551],[140.718353,37.794464],[140.718778,37.793998],[140.718903,37.793798],[140.719028,37.793681],[140.71989,37.793256],[140.720115,37.793198],[140.72049,37.793173],[140.72099,37.793023],[140.72124,37.79289],[140.72154,37.792823],[140.72234,37.792756],[140.722803,37.792648],[140.723003,37.79254],[140.723515,37.791298],[140.72359,37.791215],[140.72384,37.79074],[140.724078,37.789948],[140.724228,37.78914],[140.725128,37.787432],[140.725303,37.78689],[140.725565,37.786265],[140.725765,37.785724],[140.726028,37.78464],[140.726165,37.783541],[140.726215,37.782591],[140.726278,37.782232],[140.726503,37.781716],[140.726628,37.781599],[140.726853,37.781516],[140.727478,37.781432],[140.727753,37.781449],[140.728553,37.781749],[140.730377,37.782466],[140.731602,37.782857],[140.732027,37.783016],[140.733152,37.783607],[140.733452,37.783791],[140.734127,37.784341],[140.734714,37.784907],[140.735289,37.785141],[140.736114,37.785391],[140.736614,37.785782],[140.737239,37.786416],[140.737627,37.786957],[140.738052,37.787232],[140.738852,37.78744],[140.739701,37.787624],[140.741201,37.787799],[140.741776,37.787865],[140.744239,37.788174],[140.744889,37.788432],[140.745089,37.788457],[140.745263,37.788432],[140.745513,37.788341],[140.745713,37.788207],[140.746118,37.787876],[140.746507,37.787487],[140.746609,37.78742],[140.746869,37.787139],[140.747126,37.786957],[140.747776,37.786432],[140.748351,37.785891],[140.748851,37.785483],[140.749238,37.785316],[140.749513,37.785274],[140.75315,37.785433],[140.754688,37.785458],[140.757325,37.785549],[140.758612,37.785466],[140.75995,37.785233],[140.762062,37.784641],[140.763449,37.784175],[140.764774,37.783833],[140.766212,37.78355],[140.767787,37.7833],[140.771586,37.782617],[140.772149,37.782542],[140.773411,37.782283],[140.776011,37.781625],[140.776911,37.781067],[140.778998,37.779492],[140.780073,37.778784],[140.781273,37.778501],[140.782311,37.778309],[140.783248,37.777668],[140.785535,37.77596],[140.786623,37.77526],[140.787085,37.77506],[140.788435,37.774585],[140.789685,37.774352],[140.790785,37.773943],[140.791723,37.773502],[140.792685,37.773243],[140.793823,37.773277],[140.795048,37.773485],[140.796035,37.773935],[140.797735,37.774885],[140.79846,37.775494],[140.799147,37.776127],[140.799285,37.77636],[140.799385,37.777793],[140.79951,37.778177],[140.800272,37.778685],[140.802684,37.779477],[140.803172,37.779718],[140.803209,37.779977],[140.803047,37.780035],[140.802359,37.780185],[140.800072,37.780393],[140.79891,37.780543],[140.797585,37.780943],[140.796572,37.781035],[140.795622,37.780851],[140.794685,37.781026],[140.794547,37.781193],[140.794372,37.781768],[140.794272,37.782393],[140.793885,37.782626],[140.792922,37.783309],[140.791985,37.784467],[140.790447,37.785784],[140.789523,37.786684],[140.788823,37.78715],[140.788085,37.787517],[140.787535,37.788175],[140.787085,37.788908],[140.786873,37.789108],[140.786048,37.789208],[140.784223,37.789208],[140.783473,37.7895],[140.783023,37.790083],[140.783085,37.790725],[140.783085,37.791333],[140.782698,37.791516],[140.780811,37.791208],[140.779811,37.791008],[140.779173,37.791066],[140.779036,37.791183],[140.778823,37.791849],[140.778773,37.792674],[140.778898,37.793283],[140.778686,37.793516],[140.777486,37.794191],[140.776611,37.794399],[140.775548,37.794082],[140.774598,37.793991],[140.773936,37.794416],[140.773149,37.795274],[140.773049,37.795924],[140.773011,37.79684],[140.772474,37.79729],[140.771549,37.797515],[140.770374,37.797632],[140.768161,37.797715],[140.767474,37.797407],[140.766712,37.796765],[140.766412,37.796182],[140.765962,37.795974],[140.764937,37.796232],[140.764549,37.796599],[140.764387,37.79724],[140.765049,37.798307],[140.766099,37.798973],[140.768399,37.79984],[140.770186,37.800398],[140.771274,37.800465],[140.772136,37.800623],[140.772899,37.801098],[140.773448,37.801798],[140.773661,37.802723],[140.773611,37.804073],[140.773936,37.804831],[140.774473,37.805731],[140.774898,37.806256],[140.776948,37.806148],[140.777973,37.806306],[140.778798,37.805831],[140.779673,37.805182],[140.780935,37.80509],[140.781985,37.804657],[140.783098,37.804473],[140.784023,37.803982],[140.784973,37.803373],[140.785873,37.802907],[140.78696,37.802482],[140.787847,37.801649],[140.788472,37.801624],[140.78941,37.801874],[140.790135,37.801857],[140.791097,37.801232],[140.792085,37.800391],[140.792597,37.800224],[140.792835,37.800366],[140.79391,37.800507],[140.795047,37.800124],[140.796159,37.799591],[140.797284,37.799249],[140.798472,37.798799],[140.799897,37.798208],[140.800972,37.797933],[140.802184,37.7981],[140.803134,37.797908],[140.804046,37.797833],[140.804971,37.797875],[140.805971,37.798016],[140.806646,37.797642],[140.807484,37.797425],[140.808371,37.796942],[140.809221,37.796125],[140.809796,37.79575],[140.810396,37.795567],[140.811171,37.795934],[140.812121,37.796134],[140.813396,37.796184],[140.813871,37.796775],[140.814558,37.797317],[140.814808,37.797367],[140.815508,37.797842],[140.816283,37.79825],[140.817208,37.798234],[140.818395,37.798392],[140.819183,37.798725],[140.820145,37.798692],[140.82202,37.798817],[140.82272,37.798559],[140.82362,37.798667],[140.824132,37.798242],[140.825482,37.797376],[140.826007,37.796751],[140.826757,37.796359],[140.827007,37.796151],[140.828057,37.795868],[140.829457,37.795701],[140.830245,37.795109],[140.830882,37.794768],[140.831607,37.795059],[140.832169,37.795459],[140.833069,37.795284],[140.834307,37.795768],[140.835369,37.795343],[140.836657,37.79511],[140.837881,37.795401],[140.838369,37.795468],[140.839119,37.795626],[140.840769,37.796126],[140.841644,37.796068],[140.842581,37.795685],[140.843831,37.795493],[140.844906,37.795426],[140.845943,37.795251],[140.846406,37.795301],[140.847481,37.795643],[140.848343,37.795677],[140.850743,37.795285],[140.851718,37.79531],[140.852343,37.795627],[140.85288,37.796327],[140.853668,37.796835],[140.854468,37.797268],[140.854868,37.797702],[140.854655,37.798368],[140.854705,37.799051],[140.855342,37.799968],[140.85613,37.800893],[140.85648,37.801176],[140.857829,37.802743],[140.857879,37.803268],[140.857229,37.803893],[140.856467,37.804243],[140.855855,37.804609],[140.855317,37.805617],[140.854817,37.806167],[140.853805,37.806942],[140.853855,37.807834],[140.854154,37.809117],[140.854017,37.809275],[140.853917,37.810175],[140.854029,37.810909],[140.853829,37.811509],[140.853992,37.811858],[140.854679,37.812875],[140.855842,37.8137],[140.856279,37.813908],[140.857529,37.81435],[140.858266,37.814542],[140.857979,37.816416],[140.857879,37.816708],[140.857316,37.817358],[140.857079,37.81755],[140.856279,37.81805],[140.855304,37.818924],[140.855054,37.819083],[140.854391,37.819683],[140.854104,37.820674],[140.853654,37.821224],[140.853654,37.821541],[140.853929,37.822291],[140.853779,37.823282],[140.853929,37.823649],[140.854104,37.824399],[140.854241,37.825699],[140.854691,37.826915],[140.854978,37.827432],[140.855666,37.828407],[140.855991,37.828965],[140.855653,37.829315],[140.855003,37.829373],[140.853716,37.829307],[140.852653,37.829498],[140.852466,37.82964],[140.852203,37.830148],[140.852528,37.831415],[140.853016,37.832273],[140.853803,37.833156],[140.853991,37.833331],[140.855053,37.833773],[140.854378,37.834414],[140.853878,37.834739],[140.853553,37.835164],[140.853503,37.835314],[140.853703,37.835756],[140.85394,37.836206],[140.85399,37.836339],[140.854253,37.836348],[140.854253,37.836406],[140.854165,37.836489],[140.85409,37.836673],[140.853953,37.837147],[140.854065,37.837439],[140.854403,37.837972],[140.854353,37.838197],[140.854153,37.838622],[140.854165,37.839097],[140.854365,37.839839],[140.85434,37.840081],[140.854265,37.841089],[140.854315,37.84138],[140.854403,37.841564],[140.854328,37.841897],[140.853928,37.842197],[140.85364,37.842489],[140.853078,37.843455],[140.852978,37.843922],[140.852715,37.844555],[140.852665,37.844597],[140.852015,37.845655],[140.851678,37.846421],[140.851378,37.847005],[140.851203,37.847788],[140.85109,37.847996],[140.850703,37.848513],[140.850303,37.849096],[140.850278,37.849321],[140.850228,37.849388],[140.850652,37.850146],[140.850627,37.850304],[140.850402,37.850796],[140.85049,37.850954],[140.85069,37.851113],[140.851027,37.851313],[140.851465,37.851488],[140.852315,37.851463],[140.852477,37.851488],[140.853102,37.851421],[140.853302,37.851463],[140.853502,37.851596],[140.85359,37.851754],[140.853627,37.851913],[140.85359,37.852113],[140.853627,37.852313],[140.853715,37.852471],[140.853915,37.852579],[140.854452,37.852763],[140.854877,37.852829],[140.855052,37.852829],[140.855302,37.852938],[140.856189,37.854079],[140.856277,37.854279],[140.856402,37.854796],[140.856577,37.855196],[140.856739,37.855337],[140.857202,37.855471],[140.857539,37.855646],[140.857852,37.855846],[140.858914,37.856221],[140.859026,37.856404],[140.859176,37.857012],[140.859289,37.857229],[140.859601,37.857662],[140.859976,37.85862],[140.860414,37.859362],[140.860439,37.85952],[140.860926,37.860929],[140.861326,37.861404],[140.861538,37.861695],[140.861701,37.862028],[140.861763,37.862295],[140.861763,37.86252],[140.861688,37.862928],[140.861263,37.863978],[140.861238,37.864162],[140.861438,37.864586],[140.861563,37.865461],[140.861451,37.866153],[140.861313,37.866311],[140.861026,37.866761],[140.860951,37.867036],[140.860951,37.867195],[140.860863,37.867419],[140.860726,37.867553],[140.860438,37.867728],[140.860038,37.867844],[140.859838,37.867961],[140.859538,37.868269],[140.859338,37.868653],[140.859363,37.868703],[140.859251,37.868786],[140.858913,37.868944],[140.858688,37.869353],[140.858576,37.869486],[140.858151,37.869577],[140.858088,37.869669],[140.857926,37.869802],[140.857051,37.870927],[140.856938,37.871127],[140.856913,37.871402],[140.856601,37.871894],[140.856713,37.872544],[140.856663,37.872635],[140.856413,37.872835],[140.856038,37.873402],[140.855613,37.873577],[140.855076,37.874169],[140.854851,37.87426],[140.854688,37.874393],[140.854713,37.874502],[140.854888,37.87466],[140.855851,37.875177],[140.855976,37.875193],[140.856201,37.875327],[140.856376,37.87551],[140.856513,37.876068],[140.856751,37.876318],[140.857738,37.876718],[140.85825,37.87696],[140.8592,37.87756],[140.859938,37.878102],[140.860088,37.878276],[140.860425,37.878568],[140.860688,37.878901],[140.861,37.879193],[140.861512,37.879551],[140.8608,37.879601],[140.86035,37.879693],[140.860125,37.879801],[140.8599,37.879985],[140.8595,37.88041],[140.859338,37.880776],[140.858938,37.881201],[140.85835,37.881451],[140.858113,37.881493],[140.857838,37.881626],[140.857613,37.881784],[140.857463,37.881943],[140.857413,37.882168],[140.857363,37.882593],[140.8571,37.882618],[140.8567,37.882534],[140.856588,37.882776],[140.856538,37.883317],[140.856625,37.883784],[140.8566,37.884059],[140.856463,37.884592],[140.856463,37.884909],[140.856575,37.885517],[140.856588,37.885834],[140.856675,37.886409],[140.856763,37.886592],[140.857212,37.887125],[140.857412,37.887267],[140.857787,37.887442],[140.858162,37.887509],[140.858925,37.88755],[140.85935,37.88775],[140.859612,37.888],[140.8599,37.888425],[140.859962,37.8888],[140.859762,37.888892],[140.858687,37.889234],[140.858487,37.889367],[140.858175,37.889484],[140.85755,37.8898],[140.857012,37.890225],[140.856812,37.890517],[140.85665,37.8907],[140.85645,37.891058]]],"type":"Polygon"}}]}