{"type":"FeatureCollection","features":[{"properties":{"kuni":"磐城","id":"G27012","kuni_url":"/kg/resource/K27.html","id_url":"G27012.html","kuni_id":"K27","pref":"宮城県","name":"伊具","yomi":"いぐ"},"geometry":{"type":"Polygon","coordinates":[[[140.705956,38.02248],[140.706281,38.022539],[140.706969,38.022672],[140.707219,38.023164],[140.707681,38.023189],[140.709194,38.023572],[140.709244,38.023614],[140.709356,38.024097],[140.709493,38.02418],[140.710156,38.024114],[140.711006,38.024114],[140.711231,38.024272],[140.711781,38.025039],[140.712481,38.025889],[140.713205,38.026147],[140.714555,38.026097],[140.715805,38.026339],[140.71688,38.02643],[140.71728,38.026497],[140.71813,38.026947],[140.718817,38.027672],[140.719505,38.028222],[140.720467,38.028655],[140.721054,38.029197],[140.721504,38.029738],[140.721792,38.030347],[140.721929,38.030463],[140.723079,38.031113],[140.723617,38.031522],[140.724179,38.031472],[140.724816,38.031072],[140.725691,38.03093],[140.727066,38.030164],[140.728191,38.029672],[140.728854,38.029289],[140.729316,38.028806],[140.730004,38.028539],[140.730254,38.028656],[140.730554,38.02933],[140.730991,38.02953],[140.732091,38.029839],[140.732478,38.030072],[140.732841,38.030789],[140.732978,38.030947],[140.733553,38.031147],[140.734341,38.031264],[140.734703,38.03113],[140.734866,38.031105],[140.735853,38.031214],[140.736515,38.031397],[140.736715,38.031331],[140.736903,38.031147],[140.737015,38.031172],[140.737703,38.031847],[140.738003,38.031981],[140.738578,38.031756],[140.73954,38.031506],[140.74014,38.031414],[140.740528,38.031572],[140.741052,38.032072],[140.741765,38.032656],[140.74254,38.032764],[140.743752,38.032989],[140.74394,38.033122],[140.744352,38.033206],[140.74519,38.033122],[140.745615,38.033256],[140.745727,38.033397],[140.745777,38.033822],[140.745314,38.034431],[140.745102,38.034797],[140.745264,38.03508],[140.745652,38.035264],[140.746364,38.035739],[140.746599,38.0358],[140.747377,38.035897],[140.747652,38.036055],[140.747927,38.03643],[140.748202,38.03673],[140.748752,38.037114],[140.748727,38.037422],[140.748614,38.03763],[140.748589,38.037897],[140.748777,38.03808],[140.749226,38.03828],[140.749801,38.038414],[140.750489,38.03848],[140.750901,38.038547],[140.751151,38.03873],[140.751176,38.039297],[140.751314,38.039539],[140.751701,38.039789],[140.752001,38.039922],[140.752389,38.039972],[140.752439,38.039947],[140.752575,38.039958],[140.752826,38.039947],[140.753289,38.040055],[140.753701,38.040264],[140.754338,38.040397],[140.754801,38.040464],[140.755351,38.040464],[140.756063,38.040397],[140.756363,38.040439],[140.757001,38.040822],[140.757501,38.041022],[140.758151,38.041022],[140.758651,38.04093],[140.759038,38.041089],[140.759725,38.041247],[140.759863,38.041222],[140.760463,38.040956],[140.76085,38.040706],[140.761313,38.040481],[140.762275,38.040364],[140.762938,38.040139],[140.76335,38.040047],[140.763763,38.040031],[140.764175,38.039939],[140.764663,38.039781],[140.765075,38.039689],[140.765712,38.039731],[140.766075,38.039639],[140.767,38.039148],[140.76755,38.038923],[140.768187,38.03874],[140.768712,38.038848],[140.7692,38.039006],[140.7697,38.039006],[140.7703,38.038965],[140.772662,38.03919],[140.774424,38.039723],[140.774537,38.039881],[140.774724,38.040515],[140.774924,38.040715],[140.775224,38.040873],[140.775412,38.041031],[140.775474,38.04139],[140.775474,38.041706],[140.775612,38.041931],[140.776399,38.042381],[140.776624,38.042448],[140.777149,38.042698],[140.777561,38.042806],[140.777674,38.042806],[140.777974,38.042723],[140.778461,38.042448],[140.778799,38.042223],[140.779149,38.04204],[140.780686,38.041973],[140.782236,38.041773],[140.782474,38.041857],[140.783273,38.042556],[140.783473,38.042781],[140.783298,38.043506],[140.783361,38.043731],[140.783911,38.044048],[140.786323,38.045081],[140.787185,38.045481],[140.788035,38.045823],[140.788248,38.046115],[140.78831,38.04634],[140.788448,38.046381],[140.788723,38.046065],[140.788998,38.045906],[140.789735,38.045823],[140.79001,38.045681],[140.79026,38.045456],[140.790585,38.045231],[140.791298,38.045048],[140.79161,38.044848],[140.792073,38.044148],[140.792485,38.043898],[140.79301,38.043857],[140.793835,38.04424],[140.795147,38.044465],[140.796035,38.04464],[140.796472,38.044823],[140.79696,38.045273],[140.797985,38.045857],[140.797922,38.04599],[140.797922,38.046307],[140.798197,38.04694],[140.798372,38.047881],[140.798672,38.048248],[140.799022,38.048556],[140.799084,38.048673],[140.799084,38.049031],[140.799247,38.049465],[140.800184,38.050181],[140.800547,38.050565],[140.800647,38.050765],[140.800759,38.05144],[140.801034,38.051465],[140.801996,38.051398],[140.802459,38.050765],[140.802796,38.050673],[140.803459,38.050631],[140.804309,38.050515],[140.805109,38.050581],[140.805959,38.050806],[140.807109,38.051531],[140.807634,38.051706],[140.808096,38.051956],[140.808621,38.052315],[140.809058,38.052381],[140.809558,38.052356],[140.810433,38.052423],[140.810658,38.052473],[140.810746,38.053148],[140.810658,38.054364],[140.810683,38.056231],[140.810745,38.056773],[140.81097,38.058056],[140.81132,38.059431],[140.811708,38.060831],[140.811933,38.06148],[140.812645,38.063055],[140.81322,38.064189],[140.81342,38.064414],[140.813807,38.064997],[140.816145,38.067672],[140.817632,38.069113],[140.818119,38.069546],[140.818182,38.06963],[140.818844,38.070238],[140.819469,38.070846],[140.819857,38.071296],[140.820182,38.071888],[140.820406,38.072446],[140.820544,38.072646],[140.821294,38.074746],[140.822006,38.075846],[140.822306,38.076279],[140.822602,38.076603],[140.822908,38.076938],[140.823131,38.077179],[140.823494,38.077038],[140.824368,38.076563],[140.824918,38.076179],[140.825393,38.075779],[140.825831,38.075554],[140.826268,38.075438],[140.826206,38.075254],[140.826318,38.073705],[140.826568,38.073255],[140.826756,38.072688],[140.826919,38.071813],[140.826706,38.070863],[140.826506,38.069313],[140.826256,38.069013],[140.826019,38.068613],[140.826044,38.068072],[140.826281,38.067713],[140.826556,38.06748],[140.826456,38.066897],[140.826094,38.066272],[140.826144,38.065772],[140.826481,38.065322],[140.826944,38.065072],[140.827544,38.064805],[140.827819,38.06428],[140.828369,38.063581],[140.828394,38.063247],[140.828369,38.063089],[140.828619,38.062747],[140.828756,38.062164],[140.828969,38.061689],[140.829381,38.061464],[140.829769,38.061306],[140.829881,38.061172],[140.830156,38.060672],[140.830269,38.060156],[140.830206,38.059681],[140.830231,38.059123],[140.830156,38.058714],[140.830019,38.058314],[140.830044,38.057298],[140.830256,38.056556],[140.830319,38.056215],[140.830094,38.055698],[140.829869,38.055315],[140.829982,38.054815],[140.830094,38.054665],[140.830319,38.054165],[140.830669,38.05299],[140.830857,38.052157],[140.830919,38.051532],[140.830119,38.051123],[140.829919,38.050632],[140.830169,38.04959],[140.830144,38.049007],[140.830007,38.048574],[140.830282,38.048349],[140.830494,38.048265],[140.830882,38.047965],[140.830807,38.047449],[140.830582,38.046574],[140.830419,38.046282],[140.830282,38.045266],[140.829532,38.044841],[140.82932,38.044499],[140.829207,38.044074],[140.829032,38.043641],[140.828382,38.042833],[140.828182,38.042449],[140.828107,38.041958],[140.828107,38.041508],[140.828207,38.040941],[140.828432,38.040558],[140.828508,38.03975],[140.828783,38.039116],[140.828758,38.0388],[140.82857,38.038416],[140.828533,38.038033],[140.82857,38.037833],[140.828533,38.037383],[140.82867,38.036908],[140.82897,38.036525],[140.82922,38.03605],[140.82952,38.035667],[140.82997,38.035375],[140.830295,38.035033],[140.83037,38.0347],[140.830295,38.034358],[140.83002,38.03425],[140.829745,38.034025],[140.829658,38.03355],[140.829658,38.032984],[140.829495,38.0313],[140.829658,38.031025],[140.83007,38.029901],[140.830208,38.029701],[140.830345,38.029401],[140.83032,38.029401],[140.830183,38.029159],[140.830121,38.028951],[140.830208,38.028567],[140.830283,38.028459],[140.830558,38.028251],[140.830671,38.028234],[140.830996,38.027943],[140.831221,38.027443],[140.831271,38.026993],[140.831433,38.026293],[140.831846,38.025484],[140.832258,38.02501],[140.832896,38.02451],[140.833033,38.024243],[140.833058,38.02386],[140.833283,38.023635],[140.834295,38.023501],[140.83487,38.023385],[140.83517,38.023268],[140.835395,38.022977],[140.83542,38.022577],[140.835308,38.022077],[140.835258,38.021585],[140.835358,38.021293],[140.835495,38.021218],[140.835858,38.021152],[140.83627,38.021018],[140.836895,38.020519],[140.83737,38.020052],[140.83827,38.019419],[140.838683,38.019011],[140.838908,38.018677],[140.839008,38.018602],[140.83912,38.018311],[140.83907,38.017994],[140.83877,38.017186],[140.83877,38.016803],[140.838845,38.016378],[140.83912,38.015428],[140.839095,38.015161],[140.838758,38.014503],[140.838708,38.014303],[140.838708,38.013511],[140.838821,38.013245],[140.839283,38.012837],[140.839358,38.012678],[140.839533,38.012028],[140.839471,38.011687],[140.839083,38.010903],[140.838946,38.01047],[140.838946,38.010087],[140.839333,38.00962],[140.839658,38.009304],[140.840133,38.008762],[140.840458,38.007879],[140.840546,38.007812],[140.840808,38.007721],[140.840921,38.007587],[140.840896,38.007321],[140.840533,38.006504],[140.840596,38.006013],[140.840671,38.005763],[140.840646,38.005671],[140.840671,38.004996],[140.840483,38.004546],[140.840458,38.003896],[140.840371,38.002996],[140.840307,38.002795],[140.840208,38.002613],[140.840033,38.00223],[140.839696,38.00198],[140.839496,38.001955],[140.839158,38.00168],[140.839221,38.001163],[140.839558,38.00078],[140.840333,38.000563],[140.841008,38.000288],[140.841321,37.999955],[140.841471,37.999505],[140.841296,37.998988],[140.840996,37.998397],[140.840796,37.997905],[140.840484,37.997297],[140.840171,37.996822],[140.840371,37.996347],[140.840571,37.995272],[140.840859,37.994639],[140.840971,37.994122],[140.841059,37.993922],[140.841434,37.993514],[140.842459,37.992997],[140.842971,37.992689],[140.843059,37.992305],[140.843034,37.992147],[140.842946,37.991381],[140.843234,37.990681],[140.843209,37.989689],[140.843409,37.989289],[140.844121,37.988456],[140.844384,37.987964],[140.844671,37.987597],[140.844984,37.987039],[140.845321,37.986639],[140.846046,37.986164],[140.846721,37.985648],[140.847096,37.985156],[140.847409,37.984614],[140.847821,37.982931],[140.847846,37.982298],[140.847396,37.98144],[140.847571,37.980923],[140.847934,37.980248],[140.848459,37.979732],[140.849171,37.97949],[140.849646,37.97904],[140.850259,37.977915],[140.850571,37.977465],[140.850621,37.977332],[140.850546,37.976898],[140.850396,37.976765],[140.849971,37.976107],[140.850209,37.975274],[140.850859,37.97404],[140.851059,37.973524],[140.850896,37.971541],[140.851071,37.971274],[140.851559,37.971024],[140.852209,37.970266],[140.852471,37.969741],[140.852246,37.968508],[140.852359,37.968141],[140.852784,37.967716],[140.853221,37.967133],[140.853309,37.966458],[140.852534,37.965666],[140.852597,37.965058],[140.852859,37.964658],[140.852884,37.963933],[140.853109,37.963483],[140.853484,37.963058],[140.853547,37.961125],[140.852809,37.9599],[140.852759,37.959117],[140.851884,37.957809],[140.851535,37.957109],[140.85166,37.956609],[140.851822,37.95645],[140.85231,37.956142],[140.85271,37.955509],[140.852972,37.954884],[140.852572,37.954184],[140.85206,37.952876],[140.85201,37.952242],[140.85161,37.950751],[140.85181,37.950143],[140.853322,37.949185],[140.853872,37.948693],[140.853922,37.94851],[140.853647,37.947901],[140.853047,37.947018],[140.853022,37.946543],[140.853047,37.94601],[140.852972,37.945168],[140.852597,37.944585],[140.852485,37.944202],[140.852748,37.943868],[140.852798,37.943643],[140.852435,37.943169],[140.851785,37.942602],[140.851561,37.942418],[140.851385,37.942219],[140.85181,37.94141],[140.852298,37.940935],[140.852585,37.940377],[140.852648,37.939944],[140.852535,37.939336],[140.852248,37.938952],[140.851423,37.938452],[140.851023,37.938136],[140.850885,37.937661],[140.85091,37.937303],[140.851773,37.936744],[140.852173,37.936519],[140.852485,37.936203],[140.852485,37.935686],[140.852373,37.935103],[140.852398,37.934495],[140.85266,37.933911],[140.853235,37.933187],[140.853835,37.932537],[140.85426,37.931953],[140.85461,37.931262],[140.854923,37.930945],[140.855573,37.930495],[140.856085,37.93002],[140.856198,37.929645],[140.856098,37.929012],[140.856173,37.928537],[140.856523,37.928246],[140.85661,37.927912],[140.856548,37.927346],[140.855848,37.925563],[140.855023,37.924571],[140.854773,37.924055],[140.854623,37.923238],[140.854436,37.922721],[140.854148,37.922338],[140.854086,37.922113],[140.854086,37.921613],[140.854411,37.921097],[140.855373,37.920338],[140.855323,37.919672],[140.8552,37.919346],[140.855161,37.91898],[140.854761,37.917989],[140.854561,37.917764],[140.854361,37.917655],[140.853724,37.917614],[140.853561,37.917455],[140.853361,37.917364],[140.853011,37.917322],[140.852936,37.91728],[140.852249,37.917189],[140.852024,37.91708],[140.851786,37.916764],[140.851724,37.916339],[140.851361,37.915847],[140.851236,37.915581],[140.851149,37.915106],[140.850811,37.914481],[140.850811,37.914256],[140.850861,37.914097],[140.851311,37.913356],[140.851336,37.913064],[140.851249,37.912839],[140.850824,37.912239],[140.850962,37.912189],[140.851099,37.912098],[140.851362,37.911856],[140.851587,37.911673],[140.851724,37.911631],[140.852774,37.911689],[140.853061,37.911581],[140.853199,37.911173],[140.853336,37.910931],[140.854074,37.910548],[140.854499,37.91009],[140.854536,37.909915],[140.854449,37.90969],[140.854499,37.909198],[140.854661,37.908615],[140.854999,37.908007],[140.855136,37.907915],[140.855336,37.907848],[140.855624,37.907823],[140.855886,37.907848],[140.856336,37.90769],[140.856499,37.907532],[140.856611,37.907282],[140.856724,37.907148],[140.857036,37.906948],[140.857299,37.906715],[140.857436,37.906449],[140.857349,37.906024],[140.857111,37.905532],[140.856461,37.90499],[140.856374,37.90479],[140.856649,37.903666],[140.856849,37.903174],[140.857299,37.902749],[140.858149,37.902232],[140.858399,37.902074],[140.858461,37.901891],[140.858199,37.901357],[140.857999,37.900699],[140.857874,37.899716],[140.857962,37.899449],[140.857924,37.899316],[140.857812,37.899133],[140.857724,37.898683],[140.857687,37.898324],[140.858049,37.897133],[140.858249,37.896933],[140.858449,37.8968],[140.858937,37.89655],[140.859387,37.896125],[140.859499,37.895983],[140.859637,37.89565],[140.859637,37.8954],[140.859462,37.895],[140.858974,37.89435],[140.858399,37.89395],[140.857824,37.893525],[140.857112,37.8929],[140.856662,37.892358],[140.856362,37.891683],[140.856425,37.891083],[140.85645,37.891058],[140.85665,37.8907],[140.856812,37.890517],[140.857012,37.890225],[140.85755,37.8898],[140.858175,37.889484],[140.858487,37.889367],[140.858687,37.889234],[140.859762,37.888892],[140.859962,37.8888],[140.8599,37.888425],[140.859612,37.888],[140.85935,37.88775],[140.858925,37.88755],[140.858162,37.887509],[140.857787,37.887442],[140.857412,37.887267],[140.857212,37.887125],[140.856763,37.886592],[140.856675,37.886409],[140.856588,37.885834],[140.856575,37.885517],[140.856463,37.884909],[140.856463,37.884592],[140.8566,37.884059],[140.856625,37.883784],[140.856538,37.883317],[140.856588,37.882776],[140.8567,37.882534],[140.8571,37.882618],[140.857363,37.882593],[140.857413,37.882168],[140.857463,37.881943],[140.857613,37.881784],[140.857838,37.881626],[140.858113,37.881493],[140.85835,37.881451],[140.858938,37.881201],[140.859338,37.880776],[140.8595,37.88041],[140.8599,37.879985],[140.860125,37.879801],[140.86035,37.879693],[140.8608,37.879601],[140.861512,37.879551],[140.861,37.879193],[140.860688,37.878901],[140.860425,37.878568],[140.860088,37.878276],[140.859938,37.878102],[140.8592,37.87756],[140.85825,37.87696],[140.857738,37.876718],[140.856751,37.876318],[140.856513,37.876068],[140.856376,37.87551],[140.856201,37.875327],[140.855976,37.875193],[140.855851,37.875177],[140.854888,37.87466],[140.854713,37.874502],[140.854688,37.874393],[140.854851,37.87426],[140.855076,37.874169],[140.855613,37.873577],[140.856038,37.873402],[140.856413,37.872835],[140.856663,37.872635],[140.856713,37.872544],[140.856601,37.871894],[140.856913,37.871402],[140.856938,37.871127],[140.857051,37.870927],[140.857926,37.869802],[140.858088,37.869669],[140.858151,37.869577],[140.858576,37.869486],[140.858688,37.869353],[140.858913,37.868944],[140.859251,37.868786],[140.859363,37.868703],[140.859338,37.868653],[140.859538,37.868269],[140.859838,37.867961],[140.860038,37.867844],[140.860438,37.867728],[140.860726,37.867553],[140.860863,37.867419],[140.860951,37.867195],[140.860951,37.867036],[140.861026,37.866761],[140.861313,37.866311],[140.861451,37.866153],[140.861563,37.865461],[140.861438,37.864586],[140.861238,37.864162],[140.861263,37.863978],[140.861688,37.862928],[140.861763,37.86252],[140.861763,37.862295],[140.861701,37.862028],[140.861538,37.861695],[140.861326,37.861404],[140.860926,37.860929],[140.860439,37.85952],[140.860414,37.859362],[140.859976,37.85862],[140.859601,37.857662],[140.859289,37.857229],[140.859176,37.857012],[140.859026,37.856404],[140.858914,37.856221],[140.857852,37.855846],[140.857539,37.855646],[140.857202,37.855471],[140.856739,37.855337],[140.856577,37.855196],[140.856402,37.854796],[140.856277,37.854279],[140.856189,37.854079],[140.855302,37.852938],[140.855052,37.852829],[140.854877,37.852829],[140.854452,37.852763],[140.853915,37.852579],[140.853715,37.852471],[140.853627,37.852313],[140.85359,37.852113],[140.853627,37.851913],[140.85359,37.851754],[140.853502,37.851596],[140.853302,37.851463],[140.853102,37.851421],[140.852477,37.851488],[140.852315,37.851463],[140.851465,37.851488],[140.851027,37.851313],[140.85069,37.851113],[140.85049,37.850954],[140.850402,37.850796],[140.850627,37.850304],[140.850652,37.850146],[140.850228,37.849388],[140.850278,37.849321],[140.850303,37.849096],[140.850703,37.848513],[140.85109,37.847996],[140.851203,37.847788],[140.851378,37.847005],[140.851678,37.846421],[140.852015,37.845655],[140.852665,37.844597],[140.852715,37.844555],[140.852978,37.843922],[140.853078,37.843455],[140.85364,37.842489],[140.853928,37.842197],[140.854328,37.841897],[140.854403,37.841564],[140.854315,37.84138],[140.854265,37.841089],[140.85434,37.840081],[140.854365,37.839839],[140.854165,37.839097],[140.854153,37.838622],[140.854353,37.838197],[140.854403,37.837972],[140.854065,37.837439],[140.853953,37.837147],[140.85409,37.836673],[140.854165,37.836489],[140.854253,37.836406],[140.854253,37.836348],[140.85399,37.836339],[140.85394,37.836206],[140.853703,37.835756],[140.853503,37.835314],[140.853553,37.835164],[140.853878,37.834739],[140.854378,37.834414],[140.855053,37.833773],[140.853991,37.833331],[140.853803,37.833156],[140.853016,37.832273],[140.852528,37.831415],[140.852203,37.830148],[140.852466,37.82964],[140.852653,37.829498],[140.853716,37.829307],[140.855003,37.829373],[140.855653,37.829315],[140.855991,37.828965],[140.855666,37.828407],[140.854978,37.827432],[140.854691,37.826915],[140.854241,37.825699],[140.854104,37.824399],[140.853929,37.823649],[140.853779,37.823282],[140.853929,37.822291],[140.853654,37.821541],[140.853654,37.821224],[140.854104,37.820674],[140.854391,37.819683],[140.855054,37.819083],[140.855304,37.818924],[140.856279,37.81805],[140.857079,37.81755],[140.857316,37.817358],[140.857879,37.816708],[140.857979,37.816416],[140.858266,37.814542],[140.857529,37.81435],[140.856279,37.813908],[140.855842,37.8137],[140.854679,37.812875],[140.853992,37.811858],[140.853829,37.811509],[140.854029,37.810909],[140.853917,37.810175],[140.854017,37.809275],[140.854154,37.809117],[140.853855,37.807834],[140.853805,37.806942],[140.854817,37.806167],[140.855317,37.805617],[140.855855,37.804609],[140.856467,37.804243],[140.857229,37.803893],[140.857879,37.803268],[140.857829,37.802743],[140.85648,37.801176],[140.85613,37.800893],[140.855342,37.799968],[140.854705,37.799051],[140.854655,37.798368],[140.854868,37.797702],[140.854468,37.797268],[140.853668,37.796835],[140.85288,37.796327],[140.852343,37.795627],[140.851718,37.79531],[140.850743,37.795285],[140.848343,37.795677],[140.847481,37.795643],[140.846406,37.795301],[140.845943,37.795251],[140.844906,37.795426],[140.843831,37.795493],[140.842581,37.795685],[140.841644,37.796068],[140.840769,37.796126],[140.839119,37.795626],[140.838369,37.795468],[140.837881,37.795401],[140.836657,37.79511],[140.835369,37.795343],[140.834307,37.795768],[140.833069,37.795284],[140.832169,37.795459],[140.831607,37.795059],[140.830882,37.794768],[140.830245,37.795109],[140.829457,37.795701],[140.828057,37.795868],[140.827007,37.796151],[140.826757,37.796359],[140.826007,37.796751],[140.825482,37.797376],[140.824132,37.798242],[140.82362,37.798667],[140.82272,37.798559],[140.82202,37.798817],[140.820145,37.798692],[140.819183,37.798725],[140.818395,37.798392],[140.817208,37.798234],[140.816283,37.79825],[140.815508,37.797842],[140.814808,37.797367],[140.814558,37.797317],[140.813871,37.796775],[140.813396,37.796184],[140.812121,37.796134],[140.811171,37.795934],[140.810396,37.795567],[140.809796,37.79575],[140.809221,37.796125],[140.808371,37.796942],[140.807484,37.797425],[140.806646,37.797642],[140.805971,37.798016],[140.804971,37.797875],[140.804046,37.797833],[140.803134,37.797908],[140.802184,37.7981],[140.800972,37.797933],[140.799897,37.798208],[140.798472,37.798799],[140.797284,37.799249],[140.796159,37.799591],[140.795047,37.800124],[140.79391,37.800507],[140.792835,37.800366],[140.792597,37.800224],[140.792085,37.800391],[140.791097,37.801232],[140.790135,37.801857],[140.78941,37.801874],[140.788472,37.801624],[140.787847,37.801649],[140.78696,37.802482],[140.785873,37.802907],[140.784973,37.803373],[140.784023,37.803982],[140.783098,37.804473],[140.781985,37.804657],[140.780935,37.80509],[140.779673,37.805182],[140.778798,37.805831],[140.777973,37.806306],[140.776948,37.806148],[140.774898,37.806256],[140.774473,37.805731],[140.773936,37.804831],[140.773611,37.804073],[140.773661,37.802723],[140.773448,37.801798],[140.772899,37.801098],[140.772136,37.800623],[140.771274,37.800465],[140.770186,37.800398],[140.768399,37.79984],[140.766099,37.798973],[140.765049,37.798307],[140.764387,37.79724],[140.764549,37.796599],[140.764937,37.796232],[140.765962,37.795974],[140.766412,37.796182],[140.766712,37.796765],[140.767474,37.797407],[140.768161,37.797715],[140.770374,37.797632],[140.771549,37.797515],[140.772474,37.79729],[140.773011,37.79684],[140.773049,37.795924],[140.773149,37.795274],[140.773936,37.794416],[140.774598,37.793991],[140.775548,37.794082],[140.776611,37.794399],[140.777486,37.794191],[140.778686,37.793516],[140.778898,37.793283],[140.778773,37.792674],[140.778823,37.791849],[140.779036,37.791183],[140.779173,37.791066],[140.779811,37.791008],[140.780811,37.791208],[140.782698,37.791516],[140.783085,37.791333],[140.783085,37.790725],[140.783023,37.790083],[140.783473,37.7895],[140.784223,37.789208],[140.786048,37.789208],[140.786873,37.789108],[140.787085,37.788908],[140.787535,37.788175],[140.788085,37.787517],[140.788823,37.78715],[140.789523,37.786684],[140.790447,37.785784],[140.791985,37.784467],[140.792922,37.783309],[140.793885,37.782626],[140.794272,37.782393],[140.794372,37.781768],[140.794547,37.781193],[140.794685,37.781026],[140.795622,37.780851],[140.796572,37.781035],[140.797585,37.780943],[140.79891,37.780543],[140.800072,37.780393],[140.802359,37.780185],[140.803047,37.780035],[140.803209,37.779977],[140.803172,37.779718],[140.802684,37.779477],[140.800272,37.778685],[140.79951,37.778177],[140.799385,37.777793],[140.799285,37.77636],[140.799147,37.776127],[140.79846,37.775494],[140.797735,37.774885],[140.796035,37.773935],[140.795048,37.773485],[140.793823,37.773277],[140.792685,37.773243],[140.791723,37.773502],[140.790785,37.773943],[140.789685,37.774352],[140.788435,37.774585],[140.787085,37.77506],[140.786623,37.77526],[140.785535,37.77596],[140.783248,37.777668],[140.782311,37.778309],[140.781273,37.778501],[140.780073,37.778784],[140.778998,37.779492],[140.776911,37.781067],[140.776011,37.781625],[140.773411,37.782283],[140.772149,37.782542],[140.771586,37.782617],[140.767787,37.7833],[140.766212,37.78355],[140.764774,37.783833],[140.763449,37.784175],[140.762062,37.784641],[140.75995,37.785233],[140.758612,37.785466],[140.757325,37.785549],[140.754688,37.785458],[140.75315,37.785433],[140.749513,37.785274],[140.749238,37.785316],[140.748851,37.785483],[140.748351,37.785891],[140.747776,37.786432],[140.747126,37.786957],[140.746869,37.787139],[140.746609,37.78742],[140.746507,37.787487],[140.746118,37.787876],[140.745713,37.788207],[140.745513,37.788341],[140.745263,37.788432],[140.745089,37.788457],[140.744889,37.788432],[140.744239,37.788174],[140.741776,37.787865],[140.741201,37.787799],[140.739701,37.787624],[140.738852,37.78744],[140.738052,37.787232],[140.737627,37.786957],[140.737239,37.786416],[140.736614,37.785782],[140.736114,37.785391],[140.735289,37.785141],[140.734714,37.784907],[140.734127,37.784341],[140.733452,37.783791],[140.733152,37.783607],[140.732027,37.783016],[140.731602,37.782857],[140.730377,37.782466],[140.728553,37.781749],[140.727753,37.781449],[140.727478,37.781432],[140.726853,37.781516],[140.726628,37.781599],[140.726503,37.781716],[140.726278,37.782232],[140.726215,37.782591],[140.726165,37.783541],[140.726028,37.78464],[140.725765,37.785724],[140.725565,37.786265],[140.725303,37.78689],[140.725128,37.787432],[140.724228,37.78914],[140.724078,37.789948],[140.72384,37.79074],[140.72359,37.791215],[140.723515,37.791298],[140.723003,37.79254],[140.722803,37.792648],[140.72234,37.792756],[140.72154,37.792823],[140.72124,37.79289],[140.72099,37.793023],[140.72049,37.793173],[140.720115,37.793198],[140.71989,37.793256],[140.719028,37.793681],[140.718903,37.793798],[140.718778,37.793998],[140.718353,37.794464],[140.718105,37.794551],[140.71794,37.794623],[140.717466,37.794756],[140.717341,37.794848],[140.717291,37.794839],[140.717091,37.794906],[140.717016,37.795089],[140.716803,37.795581],[140.716678,37.795789],[140.716603,37.795989],[140.716378,37.796281],[140.716228,37.796597],[140.715716,37.796814],[140.714816,37.797106],[140.714566,37.797239],[140.714366,37.797397],[140.713928,37.797931],[140.713266,37.799322],[140.713116,37.799572],[140.712603,37.800089],[140.712303,37.800289],[140.711653,37.800622],[140.710891,37.800955],[140.710491,37.801063],[140.710116,37.801263],[140.709566,37.801463],[140.709366,37.801438],[140.709091,37.801505],[140.708666,37.801505],[140.708116,37.801588],[140.706929,37.802122],[140.706429,37.802005],[140.706279,37.802047],[140.706029,37.802297],[140.705779,37.802363],[140.705266,37.802405],[140.705091,37.802338],[140.704816,37.802355],[140.703641,37.802621],[140.703266,37.802796],[140.702879,37.803113],[140.702604,37.803221],[140.702179,37.803196],[140.701379,37.80328],[140.701029,37.803296],[140.699679,37.803088],[140.698679,37.802855],[140.697554,37.802688],[140.696754,37.802663],[140.696192,37.802771],[140.695417,37.80308],[140.694967,37.803121],[140.694692,37.803096],[140.694542,37.803121],[140.694317,37.803271],[140.694345,37.803431],[140.694379,37.803571],[140.694454,37.803729],[140.694804,37.803929],[140.695254,37.804254],[140.695354,37.804479],[140.695254,37.804654],[140.695054,37.804771],[140.694692,37.805304],[140.692854,37.806962],[140.692292,37.807229],[140.692067,37.807362],[140.691967,37.807479],[140.691917,37.807746],[140.691942,37.807904],[140.691992,37.80822],[140.691942,37.808287],[140.691967,37.808312],[140.691892,37.808379],[140.691804,37.808604],[140.691504,37.80907],[140.691454,37.80937],[140.691492,37.80982],[140.691617,37.81007],[140.691642,37.810204],[140.691592,37.810495],[140.691417,37.81072],[140.691179,37.811078],[140.690729,37.81157],[140.690529,37.811845],[140.690242,37.812403],[140.689992,37.812628],[140.689892,37.812787],[140.689817,37.813011],[140.689842,37.81317],[140.689792,37.813236],[140.689567,37.813236],[140.689417,37.813095],[140.689242,37.813053],[140.688792,37.813003],[140.688554,37.813095],[140.688229,37.813228],[140.687454,37.813695],[140.686242,37.814653],[140.686142,37.814719],[140.685704,37.815144],[140.685454,37.815619],[140.685479,37.815778],[140.685604,37.816203],[140.685367,37.816719],[140.685267,37.817561],[140.685329,37.817802],[140.685479,37.818077],[140.686329,37.819186],[140.686317,37.819252],[140.686442,37.819436],[140.686517,37.819777],[140.686492,37.820186],[140.686392,37.820519],[140.686204,37.820702],[140.686129,37.820744],[140.685829,37.820969],[140.685754,37.821077],[140.685954,37.821619],[140.686104,37.821894],[140.686292,37.82246],[140.686192,37.82266],[140.685279,37.823127],[140.684904,37.823535],[140.684754,37.823777],[140.684692,37.824368],[140.684742,37.824835],[140.684979,37.826102],[140.684954,37.826352],[140.684517,37.827277],[140.683604,37.828376],[140.683954,37.82921],[140.684029,37.829326],[140.684392,37.830201],[140.684442,37.830451],[140.684342,37.830743],[140.684154,37.830993],[140.683904,37.831259],[140.683779,37.831534],[140.683704,37.831801],[140.683366,37.832634],[140.682779,37.833376],[140.682604,37.833484],[140.682504,37.833576],[140.679692,37.835067],[140.679504,37.835201],[140.679304,37.835584],[140.679204,37.836217],[140.679188,37.836346],[140.679204,37.836501],[140.679391,37.836801],[140.679654,37.836992],[140.680616,37.83745],[140.682366,37.838109],[140.683091,37.838559],[140.683804,37.838842],[140.684179,37.839534],[140.684504,37.840775],[140.684816,37.841317],[140.685416,37.841834],[140.686891,37.842225],[140.686878,37.842459],[140.686416,37.843583],[140.685866,37.84405],[140.685816,37.844467],[140.685916,37.845167],[140.685616,37.846766],[140.685678,37.847],[140.687841,37.847533],[140.688403,37.848475],[140.689041,37.848858],[140.689291,37.848891],[140.690466,37.849391],[140.691578,37.849675],[140.69174,37.850383],[140.691965,37.850991],[140.691703,37.85155],[140.691103,37.851974],[140.690815,37.852308],[140.690753,37.852508],[140.690778,37.853016],[140.691028,37.853591],[140.691965,37.855132],[140.692215,37.855724],[140.692315,37.856157],[140.692653,37.856632],[140.69294,37.857299],[140.692378,37.857916],[140.69234,37.858041],[140.692365,37.858682],[140.692103,37.859265],[140.691728,37.859965],[140.691478,37.861015],[140.691215,37.861707],[140.690478,37.862615],[140.690315,37.862665],[140.689278,37.86274],[140.689015,37.86284],[140.68864,37.863265],[140.687853,37.864831],[140.687528,37.86509],[140.686353,37.866306],[140.68629,37.866565],[140.686215,37.867381],[140.68594,37.867973],[140.68624,37.868314],[140.686503,37.868423],[140.686815,37.868831],[140.686515,37.870014],[140.687065,37.870531],[140.687528,37.871039],[140.687565,37.871164],[140.68734,37.871772],[140.686878,37.872397],[140.685728,37.872664],[140.684528,37.872981],[140.683328,37.873655],[140.682865,37.874147],[140.681953,37.875822],[140.68189,37.876055],[140.682515,37.876905],[140.682803,37.877905],[140.683015,37.879613],[140.683802,37.879955],[140.684602,37.880188],[140.685302,37.880421],[140.688265,37.882155],[140.689015,37.882813],[140.69044,37.883463],[140.690965,37.884013],[140.690952,37.884471],[140.690577,37.885038],[140.68964,37.885921],[140.690115,37.887421],[140.690152,37.888104],[140.689402,37.888646],[140.68849,37.889154],[140.687665,37.889371],[140.68519,37.889854],[140.68359,37.890295],[140.682377,37.89067],[140.680602,37.891653],[140.67849,37.892237],[140.677027,37.89237],[140.676052,37.89262],[140.674977,37.892737],[140.67379,37.892745],[140.672128,37.893278],[140.671453,37.893736],[140.670665,37.89417],[140.66964,37.894661],[140.66694,37.895169],[140.66664,37.895628],[140.666365,37.896244],[140.665315,37.896294],[140.665153,37.896444],[140.665165,37.897003],[140.665115,37.897511],[140.664415,37.897752],[140.664203,37.898102],[140.66409,37.898869],[140.663353,37.899211],[140.66289,37.899535],[140.662415,37.900335],[140.661953,37.900285],[140.661065,37.900477],[140.660441,37.90091],[140.659591,37.900894],[140.657128,37.900335],[140.655503,37.900193],[140.652716,37.900002],[140.651241,37.899693],[140.649754,37.899168],[140.648317,37.898927],[140.646554,37.898468],[140.645729,37.897735],[140.645142,37.896802],[140.644667,37.895593],[140.644592,37.895552],[140.644167,37.895618],[140.641717,37.896135],[140.638643,37.896943],[140.637493,37.897151],[140.633168,37.898076],[140.629944,37.898651],[140.628631,37.898851],[140.627419,37.899142],[140.626207,37.899592],[140.624919,37.900159],[140.624069,37.900584],[140.623507,37.901017],[140.623319,37.901267],[140.622669,37.902492],[140.622432,37.903008],[140.622444,37.90355],[140.622394,37.9041],[140.622007,37.904916],[140.621682,37.905233],[140.621507,37.905725],[140.621207,37.906383],[140.620994,37.907016],[140.620857,37.907758],[140.620882,37.907891],[140.620807,37.908499],[140.619669,37.910291],[140.619332,37.910782],[140.618894,37.911641],[140.618594,37.912549],[140.618903,37.912699],[140.619657,37.913016],[140.619907,37.913191],[140.620519,37.913974],[140.621569,37.914032],[140.621608,37.913932],[140.621744,37.913991],[140.621857,37.914107],[140.621757,37.914424],[140.622194,37.915199],[140.622207,37.915582],[140.622094,37.915857],[140.621832,37.916032],[140.621608,37.91614],[140.621269,37.916532],[140.621082,37.916965],[140.621144,37.917232],[140.621257,37.91739],[140.621608,37.917532],[140.622169,37.91754],[140.622444,37.917599],[140.622744,37.917732],[140.623119,37.918082],[140.623644,37.918849],[140.623994,37.91894],[140.624419,37.918807],[140.624881,37.918715],[140.625069,37.918732],[140.625481,37.918832],[140.626019,37.918832],[140.626544,37.918965],[140.626894,37.919124],[140.627793,37.91964],[140.627843,37.919665],[140.628268,37.919957],[140.629568,37.921615],[140.630006,37.923357],[140.629956,37.923607],[140.629118,37.923582],[140.628843,37.923648],[140.627981,37.924432],[140.627231,37.925198],[140.626194,37.927615],[140.626069,37.928181],[140.625619,37.928265],[140.624556,37.928373],[140.623844,37.928781],[140.623731,37.929139],[140.623931,37.929798],[140.624656,37.930998],[140.624681,37.931539],[140.624418,37.932014],[140.624868,37.932897],[140.624893,37.933556],[140.624606,37.934339],[140.624856,37.934889],[140.625481,37.935022],[140.626831,37.934755],[140.627081,37.934805],[140.627593,37.935572],[140.627705,37.936255],[140.627405,37.937289],[140.627543,37.937972],[140.62783,37.938038],[140.628593,37.938038],[140.62948,37.938522],[140.62973,37.938747],[140.63038,37.939563],[140.630692,37.939855],[140.63163,37.940363],[140.63228,37.941221],[140.633305,37.941405],[140.633792,37.941388],[140.636267,37.94153],[140.636442,37.941621],[140.636604,37.94208],[140.636667,37.942505],[140.636742,37.942555],[140.637692,37.942805],[140.638679,37.943013],[140.639592,37.943013],[140.640366,37.943355],[140.641154,37.94338],[140.641466,37.943721],[140.641804,37.944446],[140.642229,37.944788],[140.643404,37.944954],[140.643854,37.944979],[140.645204,37.944805],[140.646478,37.944921],[140.646878,37.945513],[140.647103,37.946029],[140.647353,37.946413],[140.647403,37.946554],[140.647803,37.946463],[140.649916,37.946088],[140.650553,37.945754],[140.651628,37.945963],[140.65209,37.945963],[140.653003,37.945671],[140.653765,37.945563],[140.65414,37.945746],[140.65494,37.945929],[140.65519,37.946179],[140.655953,37.946696],[140.657152,37.946863],[140.659177,37.946646],[140.659602,37.946763],[140.660515,37.946879],[140.662589,37.947338],[140.663414,37.947638],[140.664414,37.948113],[140.665527,37.947963],[140.666102,37.948013],[140.666402,37.948754],[140.667114,37.949188],[140.667401,37.949304],[140.667764,37.949779],[140.668414,37.950279],[140.669126,37.950688],[140.669751,37.950938],[140.670176,37.951554],[140.670401,37.951754],[140.670801,37.952462],[140.671001,37.952712],[140.671539,37.952079],[140.672664,37.951129],[140.673576,37.950304],[140.675013,37.949338],[140.675926,37.948913],[140.676576,37.949746],[140.677026,37.950471],[140.677563,37.952054],[140.678238,37.953054],[140.679175,37.953763],[140.68,37.954213],[140.680163,37.954421],[140.680338,37.955163],[140.681238,37.956638],[140.68225,37.957771],[140.683163,37.958679],[140.683813,37.959046],[140.68435,37.959571],[140.68455,37.960812],[140.68485,37.961896],[140.684937,37.963079],[140.685275,37.96382],[140.685612,37.964137],[140.686374,37.965029],[140.686624,37.965954],[140.686424,37.967103],[140.685849,37.967512],[140.685962,37.967962],[140.686099,37.968162],[140.686637,37.968462],[140.687549,37.968553],[140.689286,37.96917],[140.689449,37.96967],[140.690161,37.970261],[140.690586,37.970445],[140.691361,37.971036],[140.691898,37.971628],[140.692523,37.972078],[140.692686,37.972236],[140.691173,37.972711],[140.690836,37.972861],[140.690086,37.973994],[140.689648,37.974802],[140.689248,37.975752],[140.689523,37.977785],[140.689373,37.978644],[140.688535,37.979977],[140.68861,37.981401],[140.68841,37.982051],[140.688635,37.982435],[140.689285,37.983185],[140.689673,37.984451],[140.690622,37.984976],[140.69081,37.985384],[140.691547,37.986184],[140.691835,37.986634],[140.692085,37.987292],[140.69291,37.987951],[140.693197,37.987951],[140.694672,37.988184],[140.695134,37.988476],[140.694722,37.988909],[140.693872,37.989242],[140.693247,37.9896],[140.692947,37.990075],[140.693459,37.990825],[140.693947,37.991817],[140.694084,37.992675],[140.694072,37.993608],[140.694209,37.994533],[140.694209,37.995208],[140.693634,37.995708],[140.692884,37.996066],[140.692422,37.996916],[140.692222,37.997508],[140.691909,37.998249],[140.691559,37.998541],[140.690472,37.999124],[140.689909,37.999191],[140.689647,37.999599],[140.689672,38.000207],[140.690297,38.001274],[140.690147,38.001774],[140.690234,38.00209],[140.690597,38.002132],[140.691421,38.002024],[140.692059,38.002115],[140.692884,38.002457],[140.693759,38.002665],[140.694534,38.00299],[140.694609,38.003015],[140.694884,38.003424],[140.695333,38.003874],[140.695746,38.004032],[140.696233,38.004099],[140.696621,38.004299],[140.696946,38.004657],[140.697721,38.004882],[140.698296,38.004707],[140.699096,38.004365],[140.699733,38.00434],[140.699958,38.00459],[140.699995,38.004749],[140.699808,38.004932],[140.699396,38.005199],[140.699171,38.005465],[140.699483,38.006099],[140.699758,38.00644],[140.700045,38.006965],[140.700045,38.007773],[140.700008,38.008515],[140.70022,38.009082],[140.70072,38.009398],[140.70152,38.009715],[140.70182,38.009957],[140.70202,38.010773],[140.702282,38.011198],[140.702445,38.011873],[140.703082,38.01229],[140.70377,38.012515],[140.70462,38.013181],[140.704482,38.013731],[140.70427,38.01429],[140.703857,38.01469],[140.703995,38.015123],[140.704345,38.015848],[140.704244,38.016364],[140.704269,38.016523],[140.704519,38.016948],[140.705232,38.017323],[140.705732,38.017831],[140.705869,38.018389],[140.705657,38.018956],[140.705732,38.019697],[140.705657,38.020397],[140.705482,38.020556],[140.705369,38.021006],[140.705732,38.021664],[140.705681,38.021972],[140.705956,38.02248]]]},"type":"Feature"}]}