{"features":[{"type":"Feature","geometry":{"coordinates":[[[140.426781,40.721632],[140.426868,40.721524],[140.427056,40.720832],[140.427406,40.718408],[140.427593,40.717666],[140.427943,40.716974],[140.428331,40.716433],[140.429193,40.715475],[140.430256,40.714308],[140.431031,40.71355],[140.433168,40.711692],[140.434318,40.710458],[140.434681,40.709925],[140.435268,40.708734],[140.435718,40.708017],[140.436155,40.707617],[140.43678,40.707309],[140.438143,40.706925],[140.438943,40.706767],[140.440455,40.706284],[140.441068,40.705992],[140.441668,40.705567],[140.442055,40.705051],[140.44238,40.704534],[140.44368,40.701309],[140.443855,40.700659],[140.444605,40.699426],[140.444993,40.69896],[140.445668,40.698285],[140.44608,40.697976],[140.446555,40.697701],[140.446593,40.69766],[140.447805,40.69721],[140.448067,40.697193],[140.449867,40.696835],[140.450855,40.696568],[140.451617,40.69626],[140.452417,40.695785],[140.45343,40.694918],[140.453755,40.694493],[140.454105,40.693569],[140.454405,40.692402],[140.454467,40.69196],[140.454467,40.691377],[140.454792,40.689561],[140.455155,40.688661],[140.455392,40.688261],[140.456242,40.687477],[140.457192,40.686961],[140.458229,40.686428],[140.458904,40.686136],[140.461342,40.685244],[140.461992,40.684795],[140.462379,40.684345],[140.462517,40.683945],[140.462229,40.68282],[140.462292,40.682686],[140.463317,40.682695],[140.465566,40.682895],[140.466966,40.683103],[140.467341,40.683053],[140.467529,40.682837],[140.468416,40.681378],[140.468116,40.681178],[140.467229,40.680928],[140.466191,40.68052],[140.465754,40.68032],[140.464129,40.67942],[140.463629,40.679145],[140.463479,40.679012],[140.463417,40.678637],[140.463567,40.676387],[140.463654,40.676012],[140.463392,40.675071],[140.463542,40.674862],[140.463542,40.674462],[140.463429,40.674146],[140.463542,40.673787],[140.464841,40.671463],[140.465504,40.670546],[140.465379,40.670229],[140.465229,40.670004],[140.464879,40.669713],[140.464141,40.669346],[140.463929,40.669246],[140.463492,40.669221],[140.462942,40.669246],[140.462754,40.669221],[140.462554,40.669038],[140.461979,40.66823],[140.461479,40.666988],[140.461042,40.66548],[140.461104,40.66548],[140.461229,40.665397],[140.461267,40.66528],[140.461229,40.664922],[140.460954,40.663655],[140.460842,40.662597],[140.460542,40.661747],[140.460567,40.661405],[140.460654,40.66138],[140.464116,40.661647],[140.464691,40.661539],[140.464866,40.661472],[140.465191,40.661197],[140.465491,40.660639],[140.465767,40.659914],[140.465954,40.658881],[140.466554,40.656756],[140.466867,40.656131],[140.467054,40.65554],[140.467379,40.65514],[140.468017,40.654615],[140.469304,40.653823],[140.469804,40.65329],[140.470242,40.652723],[140.470729,40.652182],[140.471667,40.650965],[140.471804,40.65094],[140.472329,40.651074],[140.472679,40.651232],[140.473092,40.65159],[140.473617,40.651957],[140.474304,40.651299],[140.474779,40.650649],[140.475042,40.650124],[140.475217,40.649382],[140.475542,40.649116],[140.476092,40.648799],[140.476204,40.648666],[140.476442,40.648099],[140.476367,40.647491],[140.476417,40.646749],[140.476504,40.646474],[140.477054,40.646249],[140.477517,40.645999],[140.477767,40.645733],[140.477904,40.645641],[140.478454,40.645574],[140.478704,40.645508],[140.479442,40.645524],[140.480017,40.645658],[140.480454,40.645908],[140.480792,40.646316],[140.481117,40.646924],[140.481341,40.647666],[140.481566,40.648766],[140.481754,40.649466],[140.482116,40.65014],[140.482529,40.650615],[140.482741,40.65104],[140.482754,40.651424],[140.482916,40.651674],[140.483541,40.651715],[140.484404,40.651849],[140.484641,40.65194],[140.485141,40.652257],[140.485441,40.652324],[140.486291,40.65239],[140.486628,40.652365],[140.487503,40.652232],[140.490553,40.651599],[140.491741,40.651282],[140.492478,40.651124],[140.493503,40.650849],[140.494241,40.650424],[140.494628,40.649841],[140.494703,40.649616],[140.494816,40.648957],[140.495028,40.645849],[140.495191,40.645199],[140.495466,40.64445],[140.495828,40.643866],[140.496478,40.643366],[140.496513,40.643221],[140.496628,40.64315],[140.496753,40.642966],[140.497078,40.642608],[140.498303,40.640884],[140.498816,40.640009],[140.499253,40.638542],[140.499303,40.637976],[140.499241,40.637367],[140.499041,40.636576],[140.498529,40.635426],[140.498866,40.634634],[140.498891,40.634276],[140.498966,40.633918],[140.499204,40.633418],[140.499766,40.632343],[140.500091,40.631935],[140.500516,40.631577],[140.500979,40.63131],[140.501329,40.631002],[140.501579,40.630435],[140.501679,40.630327],[140.502266,40.630327],[140.502991,40.630402],[140.504241,40.630369],[140.504991,40.630277],[140.505728,40.629786],[140.506103,40.629361],[140.506203,40.629069],[140.505791,40.627469],[140.505254,40.626944],[140.504679,40.626236],[140.504429,40.625761],[140.504366,40.625128],[140.504466,40.624636],[140.504804,40.624053],[140.505454,40.623536],[140.506716,40.622912],[140.507516,40.622628],[140.508254,40.622453],[140.509503,40.622012],[140.510166,40.621654],[140.511116,40.621254],[140.511566,40.62092],[140.511653,40.620354],[140.511566,40.618754],[140.511628,40.617396],[140.511916,40.616546],[140.512166,40.616138],[140.512491,40.61583],[140.513103,40.615471],[140.513828,40.615246],[140.513903,40.615205],[140.513616,40.614688],[140.513191,40.614271],[140.512666,40.61418],[140.511766,40.614155],[140.510866,40.614013],[140.508941,40.613205],[140.510441,40.610689],[140.510641,40.611388],[140.510779,40.611663],[140.511079,40.611872],[140.511504,40.61203],[140.511879,40.612097],[140.512354,40.612355],[140.512704,40.612463],[140.513453,40.613013],[140.514116,40.613872],[140.514841,40.614463],[140.515391,40.614497],[140.516616,40.614363],[140.519653,40.614188],[140.520378,40.614172],[140.521478,40.614247],[140.523015,40.613939],[140.524065,40.61363],[140.524602,40.613339],[140.524752,40.613206],[140.525127,40.612531],[140.52534,40.611789],[140.525402,40.610864],[140.525602,40.610164],[140.526365,40.608615],[140.526477,40.607623],[140.526615,40.606998],[140.526615,40.606223],[140.52634,40.60589],[140.526202,40.60539],[140.526227,40.604648],[140.52619,40.603765],[140.526128,40.602932],[140.526153,40.60194],[140.526215,40.600966],[140.526165,40.600699],[140.526015,40.598957],[140.525965,40.598082],[140.526028,40.597174],[140.526128,40.596433],[140.526778,40.594924],[140.527166,40.593708],[140.527266,40.59315],[140.527328,40.592],[140.527303,40.591908],[140.527366,40.591008],[140.527291,40.590417],[140.527328,40.589925],[140.528091,40.588392],[140.528166,40.588034],[140.528129,40.586817],[140.527904,40.586025],[140.527841,40.585984],[140.527679,40.585225],[140.527591,40.584184],[140.527516,40.582867],[140.527266,40.582267],[140.526929,40.581601],[140.526067,40.580151],[140.525904,40.579218],[140.526017,40.578643],[140.526229,40.577968],[140.527304,40.576235],[140.529179,40.573077],[140.529292,40.57306],[140.530117,40.573227],[140.530604,40.573368],[140.530704,40.573518],[140.530767,40.57406],[140.533479,40.576052],[140.533304,40.576293],[140.533804,40.576668],[140.534154,40.576485],[140.534266,40.576577],[140.534616,40.57636],[140.535541,40.576902],[140.535741,40.576843],[140.537266,40.575677],[140.538728,40.57431],[140.533941,40.571202],[140.533391,40.571594],[140.532829,40.571785],[140.532566,40.571844],[140.531892,40.571885],[140.531329,40.571827],[140.530904,40.57166],[140.530342,40.571152],[140.530129,40.570652],[140.530167,40.570235],[140.530592,40.569719],[140.530929,40.569494],[140.531679,40.568802],[140.532367,40.567969],[140.533029,40.567261],[140.533479,40.566486],[140.534417,40.564211],[140.534917,40.563411],[140.535567,40.562703],[140.536204,40.56217],[140.537342,40.561403],[140.537654,40.56097],[140.538029,40.559703],[140.538404,40.558912],[140.539017,40.558337],[140.540129,40.557762],[140.540904,40.557479],[140.541766,40.557479],[140.542891,40.556821],[140.543091,40.556921],[140.543541,40.557296],[140.543741,40.557421],[140.543866,40.557354],[140.544978,40.556396],[140.545303,40.556187],[140.545516,40.556112],[140.545628,40.556271],[140.546716,40.556062],[140.547153,40.555946],[140.546928,40.555279],[140.547053,40.555163],[140.548116,40.554871],[140.548353,40.555771],[140.550815,40.555296],[140.552615,40.560679],[140.557514,40.559729],[140.557477,40.560579],[140.557577,40.560704],[140.558014,40.560737],[140.558477,40.560696],[140.559564,40.563987],[140.560777,40.563762],[140.561276,40.565354],[140.562626,40.565596],[140.561739,40.563462],[140.561801,40.563204],[140.562076,40.562996],[140.562476,40.563237],[140.563564,40.563037],[140.564339,40.563771],[140.569663,40.562688],[140.569651,40.562404],[140.569938,40.562371],[140.570088,40.562854],[140.570663,40.562854],[140.570863,40.563321],[140.570988,40.563804],[140.571125,40.564196],[140.571488,40.564254],[140.571838,40.564388],[140.572138,40.564371],[140.572725,40.564296],[140.57295,40.564163],[140.574138,40.562738],[140.5742,40.56273],[140.5747,40.563396],[140.574938,40.563596],[140.5752,40.563463],[140.57565,40.56343],[140.575888,40.563438],[140.575913,40.563321],[140.576125,40.56293],[140.57645,40.562605],[140.576937,40.562746],[140.577762,40.562855],[140.578712,40.563088],[140.579375,40.563513],[140.580775,40.562388],[140.580912,40.561655],[140.581325,40.560955],[140.5823,40.559705],[140.582887,40.55918],[140.583849,40.558406],[140.584862,40.558156],[140.585974,40.557814],[140.587312,40.557164],[140.588612,40.556889],[140.589824,40.556706],[140.590774,40.556406],[140.591486,40.555923],[140.592086,40.555406],[140.592386,40.554873],[140.592499,40.554006],[140.592661,40.553465],[140.592961,40.552981],[140.593174,40.552398],[140.593186,40.551898],[140.593261,40.551732],[140.593286,40.551282],[140.593374,40.55079],[140.593849,40.550498],[140.594549,40.550165],[140.595036,40.54974],[140.595686,40.549507],[140.596761,40.549649],[140.597524,40.549624],[140.597936,40.549365],[140.598449,40.548749],[140.598761,40.548141],[140.598524,40.547307],[140.598474,40.546882],[140.598199,40.546541],[140.597999,40.545999],[140.598011,40.545457],[140.598249,40.545124],[140.598449,40.544733],[140.598261,40.544058],[140.598249,40.543674],[140.598111,40.542849],[140.598186,40.542841],[140.597236,40.542566],[140.596774,40.542499],[140.596411,40.542308],[140.596086,40.541916],[140.595724,40.541791],[140.595649,40.541849],[140.594924,40.542074],[140.594299,40.542108],[140.593636,40.541741],[140.592936,40.541458],[140.591662,40.541933],[140.591037,40.542124],[140.590712,40.542066],[140.590199,40.541566],[140.589587,40.541116],[140.588824,40.540866],[140.587812,40.540758],[140.587299,40.540957],[140.587012,40.541024],[140.586249,40.541116],[140.585624,40.541399],[140.585137,40.541407],[140.584812,40.541116],[140.584637,40.540724],[140.584362,40.540474],[140.583662,40.540207],[140.58325,40.539691],[140.583125,40.538408],[140.582875,40.538274],[140.5829,40.538308],[140.582675,40.538158],[140.5807,40.537766],[140.579063,40.537274],[140.5782,40.537149],[140.577888,40.537174],[140.57695,40.537332],[140.576301,40.537616],[140.575801,40.538107],[140.575301,40.538907],[140.574838,40.539457],[140.574276,40.54004],[140.572876,40.54189],[140.572001,40.542615],[140.571063,40.543332],[140.570438,40.543723],[140.569863,40.54399],[140.569351,40.544165],[140.568439,40.544006],[140.567676,40.543831],[140.567401,40.54354],[140.567164,40.543056],[140.566889,40.542806],[140.566326,40.542831],[140.566176,40.542898],[140.565264,40.542681],[140.564302,40.542873],[140.563814,40.543065],[140.563552,40.543515],[140.562827,40.544198],[140.562439,40.544473],[140.561714,40.544806],[140.560464,40.545164],[140.56024,40.545356],[140.560052,40.545931],[140.560002,40.546772],[140.559827,40.547547],[140.559465,40.548322],[140.559477,40.548672],[140.559565,40.548955],[140.558227,40.54923],[140.558552,40.549589],[140.55749,40.549755],[140.557427,40.549722],[140.557302,40.54943],[140.557165,40.549405],[140.556552,40.54953],[140.55379,40.549972],[140.55354,40.54903],[140.553965,40.54813],[140.554728,40.545697],[140.555328,40.545189],[140.555378,40.545089],[140.553865,40.545347],[140.55364,40.545181],[140.553603,40.544756],[140.55369,40.544581],[140.553715,40.544697],[140.553853,40.544639],[140.553878,40.543797],[140.55399,40.543606],[140.55404,40.543606],[140.554178,40.542231],[140.554178,40.541781],[140.554015,40.541531],[140.553678,40.541464],[140.553678,40.541273],[140.553528,40.541131],[140.553528,40.540839],[140.554315,40.539431],[140.554428,40.53874],[140.553315,40.53844],[140.55359,40.53699],[140.553428,40.536998],[140.552766,40.536906],[140.551141,40.536098],[140.551016,40.536065],[140.550378,40.537798],[140.549941,40.538748],[140.549128,40.540173],[140.548216,40.541047],[140.547579,40.541597],[140.547029,40.542181],[140.546066,40.543439],[140.546079,40.543889],[140.546391,40.54718],[140.546329,40.547288],[140.544904,40.54728],[140.544291,40.54718],[140.543841,40.546838],[140.543391,40.54638],[140.542654,40.546238],[140.541804,40.545863],[140.541367,40.545438],[140.541217,40.54503],[140.541579,40.54378],[140.541342,40.543264],[140.541442,40.542455],[140.541804,40.541047],[140.541667,40.540847],[140.541504,40.540464],[140.541542,40.540047],[140.541417,40.539589],[140.540892,40.539081],[140.540142,40.538881],[140.539255,40.538572],[140.539055,40.538056],[140.538667,40.537289],[140.538367,40.536464],[140.538167,40.535581],[140.537355,40.534548],[140.536817,40.532773],[140.53628,40.53159],[140.535105,40.529857],[140.534743,40.529365],[140.533693,40.528765],[140.533368,40.527982],[140.532856,40.52744],[140.531943,40.527023],[140.530856,40.526857],[140.529868,40.527015],[140.529131,40.527398],[140.528406,40.527681],[140.528131,40.527598],[140.527631,40.526807],[140.527394,40.526165],[140.526969,40.525265],[140.526581,40.525115],[140.525569,40.524915],[140.524319,40.524148],[140.523957,40.523823],[140.523082,40.52359],[140.521844,40.523398],[140.520844,40.52304],[140.520045,40.52279],[140.51922,40.522932],[140.518432,40.523098],[140.517357,40.523198],[140.515957,40.523265],[140.514883,40.52299],[140.513608,40.521998],[140.512758,40.521923],[140.512383,40.52199],[140.51172,40.52234],[140.51147,40.52304],[140.511295,40.523698],[140.510958,40.523956],[140.510483,40.524181],[140.510071,40.524223],[140.509333,40.524048],[140.508733,40.523781],[140.508133,40.52369],[140.507196,40.52379],[140.506096,40.523581],[140.505059,40.523323],[140.504009,40.523106],[140.502384,40.522698],[140.501209,40.522256],[140.500347,40.522131],[140.499609,40.521965],[140.499147,40.521765],[140.498784,40.521415],[140.498234,40.521048],[140.497797,40.520873],[140.49731,40.520823],[140.49676,40.520831],[140.49652,40.520894],[140.496385,40.520956],[140.495097,40.52149],[140.494447,40.521623],[140.493772,40.521881],[140.492672,40.521731],[140.492322,40.521648],[140.490198,40.520448],[140.489198,40.51989],[140.488648,40.519715],[140.48756,40.519765],[140.48641,40.519565],[140.485498,40.519331],[140.485035,40.519031],[140.48456,40.518673],[140.484336,40.518423],[140.484073,40.517998],[140.483898,40.517773],[140.483673,40.517123],[140.483386,40.51664],[140.482273,40.515357],[140.481823,40.514648],[140.482136,40.513774],[140.482273,40.51359],[140.482786,40.51344],[140.483011,40.513424],[140.484823,40.512057],[140.484911,40.511949],[140.484873,40.511191],[140.484561,40.510082],[140.483911,40.508741],[140.483911,40.508349],[140.483948,40.508074],[140.483774,40.507874],[140.483336,40.507583],[140.482211,40.507108],[140.481886,40.507058],[140.481336,40.507049],[140.480849,40.506949],[140.479736,40.506183],[140.479261,40.506024],[140.478811,40.505658],[140.478486,40.505333],[140.477924,40.504941],[140.477187,40.504525],[140.476699,40.504358],[140.475987,40.504374],[140.475724,40.504324],[140.474887,40.504074],[140.474212,40.504041],[140.473674,40.503908],[140.473287,40.503891],[140.472687,40.504058],[140.472012,40.504291],[140.471787,40.504266],[140.471075,40.504033],[140.470337,40.503833],[140.469675,40.503733],[140.46875,40.503758],[140.467962,40.503749],[140.46715,40.503699],[140.465288,40.503699],[140.464525,40.503541],[140.463925,40.503366],[140.463313,40.503349],[140.463,40.503232],[140.46265,40.502957],[140.462176,40.502699],[140.462013,40.502441],[140.461963,40.502149],[140.462076,40.501516],[140.462076,40.501024],[140.462013,40.500524],[140.462038,40.500033],[140.462126,40.499916],[140.462313,40.499266],[140.462588,40.498741],[140.462701,40.498358],[140.462476,40.497591],[140.461301,40.496017],[140.460639,40.4953],[140.460001,40.494758],[140.458489,40.493683],[140.458676,40.49305],[140.458926,40.492734],[140.459839,40.492167],[140.460876,40.491467],[140.461214,40.49115],[140.461451,40.490567],[140.461951,40.489734],[140.462714,40.489101],[140.463214,40.488559],[140.463901,40.487726],[140.464363,40.487318],[140.464751,40.486826],[140.464701,40.486759],[140.464639,40.485768],[140.464589,40.48556],[140.464314,40.485043],[140.464526,40.484143],[140.464139,40.483468],[140.464026,40.483377],[140.463314,40.483018],[140.462989,40.482885],[140.462551,40.482568],[140.462101,40.482002],[140.461639,40.481102],[140.461227,40.480652],[140.460452,40.480385],[140.459602,40.480294],[140.458614,40.480435],[140.457102,40.480993],[140.456689,40.481085],[140.454352,40.481202],[140.452952,40.480618],[140.451965,40.480485],[140.451378,40.480143],[140.450803,40.479627],[140.449928,40.478394],[140.449403,40.47801],[140.448965,40.477802],[140.448491,40.477919],[140.448241,40.478144],[140.447691,40.478502],[140.446928,40.478935],[140.446403,40.479135],[140.445641,40.479585],[140.445141,40.479952],[140.444366,40.480218],[140.444066,40.480218],[140.442991,40.48011],[140.441654,40.479885],[140.441104,40.479618],[140.440241,40.478735],[140.439666,40.478602],[140.438379,40.478468],[140.437354,40.478293],[140.437217,40.47831],[140.437004,40.478743],[140.436917,40.478785],[140.436204,40.479618],[140.435604,40.480026],[140.434754,40.480385],[140.433892,40.480543],[140.432467,40.480476],[140.432304,40.480526],[140.431867,40.481068],[140.431317,40.481584],[140.431117,40.481676],[140.429667,40.481634],[140.428817,40.481809],[140.42848,40.481968],[140.427267,40.482651],[140.426642,40.482584],[140.425517,40.482218],[140.425018,40.482018],[140.423643,40.481634],[140.422218,40.481484],[140.421393,40.481459],[140.421305,40.481434],[140.420918,40.481009],[140.420568,40.480809],[140.419468,40.480451],[140.417543,40.479951],[140.416793,40.479551],[140.416194,40.478984],[140.414619,40.477976],[140.413244,40.477251],[140.412231,40.476643],[140.411544,40.476576],[140.410719,40.476285],[140.409732,40.475543],[140.408519,40.474935],[140.406957,40.474576],[140.406457,40.47456],[140.40552,40.474943],[140.40407,40.475235],[140.403682,40.475076],[140.40252,40.474901],[140.402057,40.475209],[140.401945,40.475618],[140.40187,40.476501],[140.401707,40.477126],[140.40157,40.477426],[140.40137,40.477509],[140.400745,40.477584],[140.399258,40.477676],[140.398133,40.477809],[140.396995,40.478101],[140.39662,40.478284],[140.396595,40.478642],[140.397008,40.479592],[140.396733,40.479992],[140.395933,40.48085],[140.395708,40.481442],[140.395658,40.481933],[140.395458,40.482067],[140.394633,40.482408],[140.39412,40.482725],[140.394033,40.4832],[140.394033,40.484641],[140.39392,40.485158],[140.39332,40.485183],[140.392658,40.484933],[140.392245,40.484733],[140.39172,40.48485],[140.391483,40.484958],[140.391095,40.485274],[140.390321,40.485408],[140.389746,40.485591],[140.389446,40.485949],[140.389008,40.486358],[140.388558,40.486674],[140.388458,40.486833],[140.388071,40.487099],[140.387271,40.487107],[140.386721,40.487057],[140.386496,40.486807],[140.386146,40.486499],[140.385458,40.486066],[140.383834,40.485258],[140.383559,40.484899],[140.383471,40.484358],[140.383334,40.483908],[140.382209,40.482108],[140.381884,40.481275],[140.381634,40.480283],[140.381084,40.479242],[140.380897,40.479042],[140.380209,40.478708],[140.379272,40.478408],[140.378472,40.477892],[140.37831,40.477625],[140.377835,40.476609],[140.37726,40.476475],[140.37586,40.476384],[140.374647,40.476408],[140.37226,40.4763],[140.371533,40.476429],[140.371448,40.476475],[140.37101,40.4765],[140.37071,40.476475],[140.370298,40.4765],[140.37016,40.476475],[140.369548,40.476925],[140.369473,40.477042],[140.368998,40.477267],[140.368423,40.477242],[140.36796,40.477133],[140.367436,40.477067],[140.367298,40.477083],[140.366861,40.477241],[140.366286,40.477608],[140.366036,40.4779],[140.365598,40.478033],[140.365186,40.478283],[140.364936,40.478483],[140.364661,40.478533],[140.364023,40.478416],[140.362686,40.478483],[140.362161,40.478483],[140.361386,40.478375],[140.360749,40.478016],[140.360286,40.477675],[140.359986,40.477366],[140.359899,40.476958],[140.359961,40.47635],[140.359874,40.475966],[140.359024,40.475383],[140.358361,40.474975],[140.358086,40.474867],[140.357424,40.474733],[140.356962,40.474708],[140.356137,40.4741],[140.355524,40.473758],[140.353924,40.472433],[140.353787,40.471958],[140.353762,40.471575],[140.353575,40.471059],[140.353325,40.47],[140.353187,40.469734],[140.3525,40.468942],[140.352162,40.468717],[140.349663,40.46845],[140.349088,40.468317],[140.34845,40.467934],[140.347925,40.467525],[140.348125,40.466626],[140.348038,40.466109],[140.348038,40.465659],[140.348363,40.464784],[140.3482,40.464193],[140.347925,40.462643],[140.347675,40.462368],[140.347351,40.462126],[140.346963,40.461559],[140.345938,40.461651],[140.345313,40.461784],[140.344713,40.461851],[140.344326,40.461784],[140.343851,40.461743],[140.343388,40.461743],[140.343363,40.461718],[140.342888,40.460726],[140.342863,40.460434],[140.343326,40.458951],[140.343526,40.458068],[140.343576,40.457643],[140.343464,40.457218],[140.343826,40.456627],[140.343789,40.456202],[140.343514,40.455927],[140.342826,40.454918],[140.342751,40.454493],[140.343651,40.453135],[140.343926,40.452502],[140.343876,40.45221],[140.343514,40.451944],[140.342851,40.451519],[140.342189,40.450752],[140.341664,40.450527],[140.341227,40.450211],[140.341114,40.449644],[140.341364,40.449127],[140.341389,40.448477],[140.341502,40.447911],[140.341689,40.447236],[140.341689,40.447011],[140.341527,40.446603],[140.340702,40.446111],[140.340677,40.445794],[140.340752,40.445386],[140.340477,40.444936],[140.340014,40.444553],[140.339852,40.444286],[140.339852,40.444195],[140.340589,40.443478],[140.340677,40.443095],[140.340314,40.442711],[140.339352,40.442236],[140.339215,40.44127],[140.33899,40.440978],[140.337927,40.440912],[140.337677,40.440845],[140.336965,40.440528],[140.336027,40.439945],[140.335365,40.43942],[140.335115,40.439353],[140.33404,40.439828],[140.333553,40.439961],[140.332865,40.440036],[140.332178,40.440036],[140.332065,40.439986],[140.331215,40.439361],[140.330666,40.43927],[140.328391,40.439203],[140.327116,40.439045],[140.326466,40.439203],[140.326191,40.439203],[140.324016,40.439345],[140.323079,40.43932],[140.322141,40.439211],[140.321954,40.438936],[140.321454,40.43867],[140.321016,40.438511],[140.320229,40.438553],[140.319404,40.438803],[140.319154,40.438919],[140.318417,40.439369],[140.317829,40.439619],[140.317754,40.439594],[140.317204,40.439211],[140.316817,40.438653],[140.315804,40.437703],[140.31533,40.437386],[140.314367,40.437319],[140.313567,40.437344],[140.313242,40.437303],[140.312505,40.436986],[140.311455,40.436336],[140.310993,40.436194],[140.310243,40.436311],[140.309668,40.436469],[140.308743,40.437261],[140.30813,40.437644],[140.307968,40.437869],[140.308355,40.439152],[140.308493,40.439852],[140.308268,40.440252],[140.308055,40.440777],[140.307918,40.44136],[140.307718,40.441702],[140.30723,40.44206],[140.30588,40.442693],[140.30498,40.44276],[140.303443,40.442827],[140.302481,40.442718],[140.302281,40.442785],[140.301493,40.443327],[140.300743,40.444001],[140.300331,40.444585],[140.300056,40.445351],[140.299568,40.445718],[140.298768,40.446209],[140.298581,40.446259],[140.296043,40.446418],[140.295144,40.446393],[140.294731,40.446351],[140.293031,40.445901],[140.292069,40.446309],[140.291381,40.446509],[140.291106,40.446534],[140.290494,40.446401],[140.289757,40.445951],[140.289457,40.445609],[140.289232,40.445276],[140.288744,40.444959],[140.288132,40.444893],[140.287607,40.445143],[140.286757,40.445834],[140.286294,40.445909],[140.285632,40.445859],[140.285057,40.445726],[140.284732,40.445409],[140.284557,40.445343],[140.283795,40.445393],[140.283045,40.445726],[140.282395,40.445909],[140.281207,40.445867],[140.279445,40.445959],[140.278895,40.445867],[140.278207,40.445526],[140.277395,40.444784],[140.27662,40.444359],[140.275133,40.443326],[140.27437,40.442893],[140.273733,40.442693],[140.273158,40.442443],[140.272446,40.442334],[140.271596,40.442243],[140.269971,40.441976],[140.269633,40.441859],[140.268921,40.441459],[140.268233,40.441209],[140.267658,40.440943],[140.267083,40.440718],[140.265934,40.440668],[140.263046,40.440768],[140.261721,40.441009],[140.261234,40.441376],[140.261121,40.441509],[140.260709,40.441801],[140.260571,40.441826],[140.260109,40.441734],[140.259422,40.441467],[140.258622,40.441334],[140.257334,40.441426],[140.256234,40.441442],[140.255272,40.441517],[140.25431,40.441492],[140.253347,40.441517],[140.252822,40.441692],[140.252572,40.441742],[140.251835,40.441767],[140.25136,40.441992],[140.250485,40.442709],[140.250185,40.442917],[140.24996,40.442984],[140.249585,40.442625],[140.249223,40.442017],[140.248035,40.440817],[140.247598,40.440509],[140.246835,40.440075],[140.246546,40.439829],[140.246135,40.43965],[140.245885,40.439467],[140.245748,40.439275],[140.245698,40.438417],[140.245373,40.438176],[140.243973,40.437676],[140.243198,40.437351],[140.242573,40.437276],[140.241436,40.437576],[140.239274,40.437451],[140.238199,40.437259],[140.235187,40.436326],[140.234199,40.435701],[140.233374,40.435042],[140.232537,40.434592],[140.231775,40.434326],[140.230537,40.434109],[140.229162,40.433942],[140.227875,40.433684],[140.22655,40.433142],[140.22515,40.432634],[140.224475,40.432284],[140.223888,40.431792],[140.223063,40.431517],[140.222313,40.431534],[140.221376,40.431309],[140.220226,40.431167],[140.219301,40.431342],[140.218414,40.431667],[140.218039,40.432184],[140.217664,40.432817],[140.217151,40.433234],[140.216851,40.433417],[140.214251,40.434283],[140.212814,40.435133],[140.211627,40.435942],[140.211427,40.436191],[140.211102,40.437016],[140.210677,40.437691],[140.210202,40.438241],[140.210152,40.438366],[140.209377,40.438574],[140.208427,40.438266],[140.206452,40.437066],[140.205702,40.436575],[140.205065,40.4365],[140.204427,40.436533],[140.203415,40.436424],[140.20019,40.435608],[140.198366,40.435058],[140.196616,40.434641],[140.195953,40.434574],[140.194153,40.434791],[140.193891,40.434891],[140.193254,40.435533],[140.192166,40.436516],[140.191316,40.437091],[140.190579,40.437641],[140.190129,40.438099],[140.189454,40.438465],[140.189116,40.438599],[140.187404,40.43954],[140.185941,40.441748],[140.185629,40.442457],[140.185578,40.443123],[140.185603,40.443281],[140.184966,40.443223],[140.183891,40.44284],[140.182866,40.442515],[140.182004,40.442157],[140.180841,40.441415],[140.180004,40.440973],[140.178942,40.440582],[140.177242,40.440265],[140.175742,40.440273],[140.174754,40.440381],[140.173867,40.440156],[140.172867,40.439498],[140.171392,40.438282],[140.17098,40.438123],[140.170455,40.438648],[140.169705,40.439223],[140.16898,40.43969],[140.168242,40.439881],[140.167105,40.43989],[140.16548,40.439698],[140.163168,40.439481],[140.162168,40.439298],[140.159918,40.438481],[140.158831,40.437906],[140.157706,40.437481],[140.156656,40.436856],[140.155756,40.43624],[140.155331,40.436056],[140.153356,40.435448],[140.152919,40.435223],[140.151956,40.434923],[140.151331,40.435081],[140.149519,40.435723],[140.148194,40.436764],[140.147707,40.437298],[140.147344,40.437931],[140.147119,40.438106],[140.146819,40.438114],[140.146219,40.438047],[140.145994,40.437981],[140.145169,40.437897],[140.144357,40.437922],[140.143095,40.437847],[140.142145,40.437756],[140.141782,40.437906],[140.14137,40.438397],[140.139982,40.439297],[140.139257,40.439472],[140.13727,40.439572],[140.136507,40.439514],[140.135845,40.439347],[140.135245,40.439005],[140.13462,40.438472],[140.133958,40.438106],[140.13317,40.437947],[140.13192,40.438155],[140.131208,40.438189],[140.130596,40.437955],[140.129783,40.437447],[140.129046,40.437155],[140.128796,40.437097],[140.127396,40.437172],[140.126359,40.437164],[140.125859,40.437089],[140.125471,40.43693],[140.124696,40.436747],[140.123634,40.436639],[140.122622,40.436614],[140.121934,40.436547],[140.121559,40.436447],[140.121558,40.436467],[140.121372,40.436397],[140.120697,40.436289],[140.120184,40.43608],[140.119784,40.435797],[140.119384,40.43558],[140.118847,40.435464],[140.117872,40.434914],[140.117172,40.43518],[140.115422,40.43603],[140.114522,40.436205],[140.113247,40.435972],[140.112323,40.435597],[140.111485,40.435488],[140.109448,40.435847],[140.107648,40.435897],[140.107298,40.436438],[140.106848,40.437463],[140.105498,40.440196],[140.104835,40.440946],[140.104423,40.441221],[140.10316,40.441771],[140.102523,40.442271],[140.101823,40.442912],[140.100648,40.443329],[140.099898,40.44382],[140.099198,40.444004],[140.099311,40.444387],[140.099848,40.445329],[140.099548,40.446037],[140.098973,40.446937],[140.09836,40.448037],[140.097448,40.449161],[140.097485,40.449803],[140.097898,40.450653],[140.098348,40.45102],[140.098985,40.451828],[140.099585,40.453053],[140.099185,40.453428],[140.098873,40.453911],[140.098123,40.454603],[140.097348,40.455169],[140.09656,40.455877],[140.095573,40.456636],[140.09471,40.457485],[140.093873,40.458394],[140.09296,40.459094],[140.09141,40.459468],[140.090473,40.459943],[140.089898,40.46056],[140.089048,40.460877],[140.088261,40.461576],[140.087198,40.46226],[140.085898,40.46251],[140.083574,40.462284],[140.083524,40.462601],[140.083324,40.463334],[140.083199,40.463626],[140.082374,40.464534],[140.081161,40.465309],[140.080286,40.465817],[140.079099,40.466734],[140.078299,40.466651],[140.077461,40.465992],[140.076561,40.465351],[140.075349,40.464859],[140.074212,40.464709],[140.073787,40.464767],[140.072162,40.46535],[140.071312,40.466117],[140.071062,40.466442],[140.070724,40.46765],[140.070224,40.468417],[140.068724,40.468833],[140.068224,40.468825],[140.068237,40.46905],[140.068199,40.469816],[140.068487,40.470875],[140.068962,40.471808],[140.070287,40.473574],[140.070699,40.474458],[140.071161,40.475058],[140.071411,40.475691],[140.072086,40.476332],[140.073811,40.477424],[140.074511,40.477791],[140.074748,40.478291],[140.074686,40.478782],[140.074448,40.478841],[140.073686,40.479349],[140.073998,40.480007],[140.074761,40.480657],[140.075123,40.480832],[140.076011,40.481424],[140.076361,40.482032],[140.075761,40.483215],[140.075561,40.484015],[140.075248,40.484473],[140.075448,40.48499],[140.075598,40.485548],[140.075773,40.48659],[140.075198,40.486673],[140.074898,40.486631],[140.074323,40.486698],[140.074148,40.487798],[140.074086,40.488514],[140.073773,40.488956],[140.073623,40.489014],[140.072961,40.488973],[140.073061,40.489698],[140.073311,40.490522],[140.073186,40.491322],[140.072985,40.492131],[140.07341,40.492656],[140.074285,40.493889],[140.07471,40.494922],[140.075035,40.496064],[140.075335,40.497472],[140.07606,40.498247],[140.076722,40.49903],[140.077347,40.499896],[140.078185,40.500788],[140.079085,40.501021],[140.079685,40.501346],[140.08031,40.501813],[140.080838,40.502457],[140.080984,40.502688],[140.081247,40.503255],[140.081709,40.504096],[140.081947,40.504413],[140.082409,40.504596],[140.082997,40.505071],[140.083672,40.505754],[140.084172,40.506138],[140.084047,40.506771],[140.083572,40.507337],[140.083384,40.508462],[140.083709,40.509529],[140.083996,40.509687],[140.084884,40.50987],[140.085384,40.510329],[140.085471,40.511029],[140.085521,40.512095],[140.085946,40.513495],[140.086271,40.514195],[140.086471,40.514878],[140.086821,40.515353],[140.086846,40.515711],[140.086521,40.516386],[140.086208,40.517245],[140.086083,40.518353],[140.086071,40.519553],[140.086208,40.520752],[140.086233,40.521361],[140.086058,40.521877],[140.086408,40.522511],[140.086471,40.522561],[140.086862,40.523287],[140.089407,40.524295],[140.09286,40.527179],[140.097034,40.531916],[140.100707,40.536989],[140.104108,40.54116],[140.108952,40.544764],[140.112507,40.546772],[140.114878,40.548986],[140.118176,40.55223],[140.120878,40.553998],[140.129535,40.556882],[140.136992,40.55833],[140.141509,40.559986],[140.145897,40.560961],[140.148178,40.560971],[140.152241,40.56062],[140.15797,40.560795],[140.161563,40.561082],[140.161586,40.5613],[140.161586,40.562267],[140.161949,40.5636],[140.162061,40.564892],[140.161749,40.56595],[140.161236,40.566875],[140.161036,40.567175],[140.159236,40.5679],[140.158286,40.568533],[140.157361,40.568958],[140.156861,40.569416],[140.156449,40.570199],[140.156036,40.570882],[140.155861,40.571041],[140.155236,40.571332],[140.155036,40.571849],[140.155186,40.572707],[140.155449,40.57364],[140.155449,40.574807],[140.155361,40.576032],[140.155249,40.576507],[140.155099,40.57779],[140.155399,40.578632],[140.155549,40.579415],[140.156286,40.580798],[140.157211,40.581898],[140.157148,40.582081],[140.156798,40.582598],[140.155973,40.583956],[140.155436,40.584706],[140.154898,40.585339],[140.154698,40.585672],[140.154786,40.585881],[140.154936,40.585964],[140.155161,40.586014],[140.155186,40.586047],[140.156311,40.586956],[140.156936,40.587381],[140.157135,40.587472],[140.157523,40.587514],[140.158973,40.587564],[140.161273,40.587772],[140.162048,40.587914],[140.16486,40.587398],[140.165597,40.587648],[140.166035,40.587764],[140.167372,40.588306],[140.167685,40.588531],[140.167984,40.588889],[140.168334,40.589431],[140.168634,40.589706],[140.169159,40.590022],[140.171197,40.591056],[140.171322,40.591147],[140.171672,40.591797],[140.171871,40.591889],[140.172146,40.591889],[140.172284,40.591822],[140.172609,40.591872],[140.172934,40.592047],[140.173384,40.592572],[140.173346,40.592797],[140.173196,40.593014],[140.173284,40.59333],[140.173521,40.593514],[140.173734,40.593739],[140.173884,40.593989],[140.174109,40.594055],[140.174471,40.59408],[140.175121,40.593697],[140.175596,40.593564],[140.176071,40.593497],[140.176596,40.593722],[140.177133,40.594131],[140.177871,40.594331],[140.178633,40.594714],[140.178871,40.594739],[140.179521,40.594539],[140.179733,40.594539],[140.180208,40.594364],[140.180796,40.594389],[140.181121,40.594497],[140.181571,40.594722],[140.181883,40.595064],[140.182271,40.595647],[140.182333,40.595806],[140.182708,40.595872],[140.18342,40.595722],[140.18357,40.595472],[140.18372,40.594914],[140.184083,40.594622],[140.184195,40.594256],[140.18447,40.593923],[140.185033,40.594239],[140.185445,40.594264],[140.186533,40.594131],[140.186958,40.593839],[140.187633,40.593598],[140.187983,40.593614],[140.188408,40.593756],[140.188733,40.593823],[140.189232,40.593598],[140.18947,40.593173],[140.189882,40.592856],[140.190332,40.592881],[140.190657,40.593081],[140.190832,40.593423],[140.190707,40.594273],[140.190732,40.594656],[140.19112,40.594839],[140.191182,40.594998],[140.191345,40.596547],[140.191582,40.597714],[140.19167,40.598597],[140.191932,40.599022],[140.192632,40.599605],[140.192894,40.600122],[140.193019,40.600714],[140.193069,40.601247],[140.192857,40.601989],[140.192182,40.603247],[140.191644,40.603655],[140.190807,40.604346],[140.190332,40.604505],[140.190219,40.604571],[140.189807,40.604946],[140.189294,40.605621],[140.190919,40.606096],[140.192757,40.606463],[140.193519,40.606646],[140.193794,40.606646],[140.194969,40.606513],[140.195506,40.606405],[140.196506,40.606138],[140.196606,40.606138],[140.196831,40.606272],[140.197481,40.606813],[140.197843,40.606996],[140.198493,40.607155],[140.199193,40.607247],[140.199581,40.607355],[140.200381,40.607763],[140.201118,40.607813],[140.201768,40.607813],[140.202505,40.607972],[140.203193,40.608263],[140.20328,40.608355],[140.204605,40.609013],[140.20478,40.60928],[140.20498,40.610588],[140.204955,40.611013],[140.204893,40.611105],[140.204742,40.612004],[140.20498,40.612696],[140.20538,40.613488],[140.206055,40.614654],[140.20638,40.615087],[140.206467,40.615687],[140.206442,40.615937],[140.206467,40.616654],[140.206667,40.617154],[140.207029,40.617562],[140.207554,40.618054],[140.207854,40.618479],[140.207967,40.619045],[140.208204,40.61947],[140.208617,40.619679],[140.209179,40.620012],[140.209616,40.620354],[140.209704,40.620379],[140.210154,40.620329],[140.211216,40.620562],[140.211566,40.620804],[140.211916,40.621187],[140.212066,40.621304],[140.212541,40.621954],[140.212866,40.621912],[140.213216,40.622029],[140.213341,40.622112],[140.213603,40.622162],[140.213603,40.622112],[140.213866,40.621979],[140.214041,40.621937],[140.214878,40.62187],[140.215528,40.621787],[140.215591,40.621854],[140.215528,40.621895],[140.215641,40.622095],[140.215966,40.622012],[140.216378,40.621829],[140.216591,40.621895],[140.216566,40.621945],[140.216053,40.622395],[140.216028,40.622479],[140.216141,40.622462],[140.217328,40.622687],[140.217591,40.622887],[140.21744,40.623204],[140.217615,40.623653],[140.217878,40.624037],[140.21829,40.624237],[140.218478,40.624245],[140.218853,40.624378],[140.218915,40.624353],[140.21924,40.624537],[140.219328,40.62492],[140.21939,40.625703],[140.218828,40.62577],[140.21864,40.625837],[140.21859,40.625928],[140.218615,40.626178],[140.218553,40.626695],[140.218578,40.626711],[140.218528,40.626711],[140.218165,40.62687],[140.217728,40.627136],[140.21754,40.627428],[140.217278,40.628078],[140.216828,40.62837],[140.216003,40.628661],[140.215553,40.628953],[140.215528,40.629219],[140.215878,40.629561],[140.216615,40.629986],[140.216878,40.630303],[140.216815,40.630803],[140.21644,40.631069],[140.21599,40.630978],[140.215365,40.630753],[140.214928,40.630819],[140.214665,40.630953],[140.214415,40.631377],[140.214115,40.632611],[140.214053,40.633785],[140.21414,40.63416],[140.21444,40.634319],[140.214915,40.634277],[140.216003,40.634352],[140.217102,40.634552],[140.217365,40.635277],[140.216702,40.637044],[140.216765,40.637543],[140.216965,40.637793],[140.217677,40.637793],[140.21839,40.637835],[140.219389,40.638243],[140.219689,40.638718],[140.219777,40.639193],[140.219914,40.640851],[140.220002,40.640993],[140.220539,40.640902],[140.221064,40.640635],[140.221664,40.640435],[140.222102,40.640568],[140.222251,40.640793],[140.221951,40.641377],[140.221539,40.64176],[140.221476,40.642251],[140.221589,40.642343],[140.222101,40.64246],[140.222539,40.642635],[140.223226,40.642776],[140.224339,40.642751],[140.225176,40.642826],[140.225826,40.643001],[140.226501,40.643235],[140.227326,40.643368],[140.228426,40.643485],[140.230638,40.644726],[140.231313,40.64491],[140.232175,40.645043],[140.232913,40.645001],[140.2344,40.64456],[140.236587,40.644718],[140.237175,40.64481],[140.239987,40.645043],[140.240487,40.645201],[140.240962,40.645493],[140.241637,40.645993],[140.242674,40.646643],[140.243824,40.647301],[140.245124,40.64816],[140.246061,40.648859],[140.246535,40.648888],[140.246611,40.648876],[140.246936,40.648876],[140.249011,40.648518],[140.249848,40.648451],[140.250523,40.648443],[140.250698,40.648485],[140.251086,40.648493],[140.251886,40.64861],[140.251948,40.648501],[140.252261,40.648551],[140.252948,40.64871],[140.254273,40.648885],[140.256135,40.648835],[140.256398,40.649018],[140.257098,40.649318],[140.257573,40.649593],[140.258272,40.649751],[140.259097,40.649743],[140.259422,40.649835],[140.260072,40.650176],[140.260572,40.650226],[140.261072,40.650618],[140.261535,40.650893],[140.262622,40.651376],[140.262859,40.651401],[140.264034,40.651385],[140.265747,40.651651],[140.266197,40.65166],[140.266522,40.651593],[140.266584,40.651435],[140.266709,40.65076],[140.266897,40.650626],[140.267709,40.650885],[140.268484,40.651026],[140.268946,40.651143],[140.268946,40.65126],[140.268996,40.652043],[140.268834,40.652876],[140.268821,40.653326],[140.268946,40.653301],[140.269171,40.653376],[140.269621,40.653443],[140.270409,40.653634],[140.271584,40.654026],[140.273059,40.654359],[140.273971,40.654484],[140.275246,40.654584],[140.276221,40.654551],[140.277171,40.654601],[140.278846,40.654776],[140.279446,40.654718],[140.27827,40.662375],[140.290307,40.667042],[140.288732,40.669341],[140.289382,40.669716],[140.290244,40.670274],[140.292731,40.671674],[140.295818,40.673524],[140.298831,40.675441],[140.300255,40.676183],[140.302268,40.677399],[140.302893,40.677808],[140.305292,40.678308],[140.30793,40.679008],[140.309617,40.679433],[140.310004,40.679508],[140.310367,40.679641],[140.313417,40.680408],[140.315216,40.680908],[140.316079,40.681466],[140.316166,40.681558],[140.317116,40.682216],[140.317853,40.682891],[140.318516,40.683633],[140.319841,40.685233],[140.320765,40.686241],[140.32139,40.687058],[140.322128,40.687799],[140.32284,40.688274],[140.323553,40.688499],[140.32429,40.688832],[140.32509,40.689491],[140.32604,40.690166],[140.326515,40.690166],[140.327902,40.691424],[140.328402,40.691791],[140.328877,40.691874],[140.329302,40.692032],[140.329652,40.692574],[140.330427,40.69289],[140.331139,40.693074],[140.331591,40.692979],[140.331935,40.692883],[140.331964,40.692965],[140.332501,40.69359],[140.332939,40.69429],[140.333026,40.694357],[140.333414,40.694965],[140.333689,40.695615],[140.334014,40.696224],[140.334276,40.696499],[140.334363,40.696515],[140.334813,40.696898],[140.335313,40.697423],[140.336238,40.698182],[140.336413,40.698548],[140.336476,40.69904],[140.336826,40.699515],[140.336501,40.699607],[140.335313,40.69969],[140.333888,40.699956],[140.333688,40.700023],[140.329264,40.70094],[140.327764,40.701098],[140.327376,40.701098],[140.325802,40.701181],[140.324352,40.701314],[140.322339,40.701289],[140.321215,40.701314],[140.320502,40.701264],[140.318715,40.701356],[140.31439,40.701664],[140.313915,40.701772],[140.313178,40.701997],[140.312915,40.702106],[140.31259,40.702331],[140.311703,40.703256],[140.311341,40.703456],[140.310778,40.703497],[140.310578,40.703456],[140.310366,40.703497],[140.309566,40.70383],[140.308766,40.704014],[140.308228,40.70388],[140.306604,40.702614],[140.305654,40.701714],[140.305591,40.701689],[140.304079,40.700539],[140.301917,40.699214],[140.300554,40.698264],[140.299605,40.697547],[140.298505,40.696889],[140.295493,40.694839],[140.294805,40.694298],[140.294305,40.694006],[140.292793,40.693214],[140.29223,40.692989],[140.292205,40.693281],[140.29238,40.693889],[140.292493,40.694164],[140.29243,40.694547],[140.292705,40.694922],[140.292618,40.695397],[140.29273,40.696114],[140.292668,40.696589],[140.292768,40.697039],[140.292818,40.697106],[140.292705,40.697305],[140.292668,40.697755],[140.29223,40.698497],[140.291905,40.69893],[140.29163,40.699447],[140.291493,40.69958],[140.291305,40.699964],[140.291305,40.700347],[140.291105,40.70088],[140.290718,40.701422],[140.290693,40.701755],[140.290605,40.701872],[140.290693,40.702722],[140.290393,40.703105],[140.29018,40.703221],[140.289468,40.703288],[140.289293,40.70333],[140.28888,40.703555],[140.288768,40.703713],[140.288555,40.704321],[140.288768,40.704946],[140.28843,40.705755],[140.288493,40.705963],[140.288555,40.706479],[140.288493,40.706771],[140.288293,40.707196],[140.288468,40.707938],[140.288193,40.708188],[140.28808,40.708479],[140.288343,40.709154],[140.288493,40.709379],[140.28853,40.709671],[140.288493,40.709921],[140.28838,40.710187],[140.288018,40.710521],[140.288318,40.711196],[140.288255,40.711579],[140.288318,40.712121],[140.288255,40.712637],[140.288318,40.713087],[140.288468,40.71367],[140.288468,40.713854],[140.288293,40.714754],[140.288343,40.714928],[140.28823,40.715295],[140.288105,40.715362],[140.28778,40.715762],[140.28763,40.716412],[140.287667,40.717045],[140.287492,40.717153],[140.287018,40.717603],[140.28678,40.717986],[140.286805,40.718103],[140.287017,40.718278],[140.287105,40.718503],[140.287105,40.718928],[140.28698,40.719203],[140.286867,40.719311],[140.286417,40.720344],[140.286592,40.720594],[140.286717,40.720844],[140.286917,40.721944],[140.287042,40.722061],[140.287492,40.722327],[140.28763,40.722619],[140.28773,40.722977],[140.28773,40.723294],[140.28758,40.724011],[140.28758,40.724311],[140.287955,40.725069],[140.287955,40.72541],[140.287867,40.725744],[140.287904,40.72631],[140.288142,40.727002],[140.288317,40.72721],[140.289179,40.727818],[140.289417,40.728202],[140.289804,40.728585],[140.290004,40.728693],[140.290217,40.72901],[140.290654,40.729435],[140.291541,40.72996],[140.291666,40.730093],[140.292291,40.730518],[140.293029,40.730702],[140.293804,40.730952],[140.294629,40.731268],[140.295279,40.731668],[140.295691,40.732102],[140.296053,40.732777],[140.296641,40.732885],[140.297953,40.733068],[140.300203,40.73316],[140.301328,40.733302],[140.301715,40.73346],[140.301915,40.733752],[140.30219,40.734002],[140.30234,40.734468],[140.302728,40.734652],[140.30269,40.734902],[140.30284,40.735552],[140.30334,40.736202],[140.303553,40.736343],[140.304327,40.736968],[140.304615,40.73706],[140.30474,40.737127],[140.304915,40.737377],[140.305177,40.738052],[140.304977,40.738343],[140.305415,40.738543],[140.30569,40.738568],[140.30589,40.738702],[140.306165,40.739152],[140.306215,40.739518],[140.30664,40.739693],[140.306752,40.739693],[140.307402,40.740143],[140.307552,40.740668],[140.307352,40.740935],[140.307464,40.741226],[140.307489,40.74136],[140.307252,40.741543],[140.307314,40.741635],[140.307377,40.741901],[140.307139,40.742101],[140.307227,40.742418],[140.307114,40.742393],[140.306927,40.742618],[140.307027,40.742735],[140.307489,40.74271],[140.307789,40.742843],[140.307764,40.743185],[140.308302,40.743926],[140.309102,40.743993],[140.309389,40.744218],[140.309927,40.744468],[140.310901,40.744268],[140.311076,40.744085],[140.311351,40.743685],[140.312026,40.743576],[140.312801,40.743735],[140.313689,40.744743],[140.314164,40.744901],[140.314251,40.744543],[140.314164,40.744185],[140.314289,40.744052],[140.314701,40.74376],[140.314901,40.743777],[140.315351,40.744002],[140.315888,40.74376],[140.315976,40.74376],[140.316926,40.74401],[140.317076,40.744368],[140.316713,40.744593],[140.316688,40.74466],[140.316976,40.745177],[140.316688,40.745601],[140.316451,40.745876],[140.316126,40.74641],[140.315976,40.74691],[140.316001,40.747018],[140.316238,40.747401],[140.316326,40.748101],[140.316451,40.748193],[140.316776,40.748351],[140.317163,40.748843],[140.317251,40.749268],[140.317726,40.749743],[140.318051,40.750101],[140.318588,40.750351],[140.319263,40.750601],[140.31965,40.75056],[140.320038,40.750985],[140.320188,40.751093],[140.320513,40.751618],[140.320513,40.751768],[140.320775,40.752334],[140.321125,40.752668],[140.3214,40.752876],[140.321813,40.753276],[140.322138,40.753526],[140.3228,40.753976],[140.323837,40.754534],[140.324162,40.754776],[140.325175,40.755426],[140.325325,40.755501],[140.326037,40.755876],[140.326312,40.756193],[140.326662,40.756393],[140.327175,40.756459],[140.328087,40.756526],[140.328537,40.756634],[140.328774,40.756768],[140.329424,40.756976],[140.329574,40.757059],[140.329962,40.757443],[140.330287,40.757551],[140.330649,40.757618],[140.330674,40.757893],[140.330912,40.758451],[140.330774,40.758743],[140.330862,40.759126],[140.330924,40.759243],[140.330862,40.759376],[140.330624,40.759509],[140.330512,40.759734],[140.330862,40.760001],[140.331287,40.760067],[140.331636,40.759976],[140.331786,40.759976],[140.331761,40.760067],[140.331849,40.760292],[140.331761,40.760317],[140.331699,40.760426],[140.331811,40.760492],[140.332086,40.760492],[140.332349,40.760609],[140.332649,40.761009],[140.333099,40.761367],[140.333724,40.761076],[140.334224,40.760959],[140.334424,40.760734],[140.334424,40.760493],[140.334549,40.760243],[140.334811,40.759951],[140.335111,40.759793],[140.336024,40.759543],[140.336499,40.759634],[140.337186,40.759651],[140.337573,40.759701],[140.337961,40.760034],[140.338336,40.760034],[140.338611,40.759784],[140.338811,40.759493],[140.339223,40.759401],[140.339798,40.759359],[140.340211,40.759068],[140.340448,40.758993],[140.340773,40.759043],[140.341836,40.75926],[140.342373,40.75931],[140.342935,40.759285],[140.34386,40.759168],[140.344598,40.758985],[140.34561,40.75881],[140.346673,40.758668],[140.347798,40.758376],[140.349872,40.757677],[140.350047,40.757543],[140.35111,40.757068],[140.351997,40.756818],[140.353222,40.756368],[140.355022,40.755935],[140.356097,40.755794],[140.356747,40.755619],[140.356209,40.755419],[140.355109,40.754902],[140.354897,40.754385],[140.354722,40.753819],[140.354535,40.753552],[140.354272,40.75326],[140.354122,40.752944],[140.35401,40.752569],[140.354135,40.752011],[140.354597,40.750502],[140.355047,40.749694],[140.35576,40.749153],[140.35671,40.748769],[140.357947,40.748911],[140.358547,40.748819],[140.359222,40.748578],[140.359909,40.748419],[140.360147,40.748303],[140.361059,40.748378],[140.361922,40.748628],[140.362134,40.748786],[140.362672,40.749078],[140.363022,40.749478],[140.363796,40.749703],[140.364034,40.749661],[140.364596,40.749436],[140.364984,40.74892],[140.365396,40.748586],[140.365684,40.748495],[140.366309,40.748428],[140.366871,40.74832],[140.367796,40.748203],[140.370221,40.74832],[140.370783,40.748278],[140.371512,40.74801],[140.371633,40.748003],[140.373083,40.747628],[140.373108,40.74742],[140.372996,40.747195],[140.372758,40.747062],[140.372583,40.747087],[140.372371,40.746995],[140.372221,40.746612],[140.372371,40.746462],[140.372821,40.746303],[140.373083,40.746103],[140.373208,40.745828],[140.374808,40.74577],[140.376633,40.745745],[140.376721,40.745728],[140.376783,40.745662],[140.376996,40.744895],[140.377058,40.74492],[140.377558,40.744854],[140.377883,40.745079],[140.378321,40.745553],[140.378646,40.745712],[140.37892,40.746112],[140.379358,40.746537],[140.379808,40.746895],[140.380158,40.747078],[140.38057,40.747195],[140.381045,40.74737],[140.38137,40.747553],[140.383083,40.747528],[140.383145,40.747512],[140.383295,40.747245],[140.38332,40.747037],[140.383083,40.74657],[140.38297,40.746162],[140.383033,40.745937],[140.383383,40.74587],[140.383508,40.745804],[140.384333,40.745762],[140.384958,40.745762],[140.385108,40.745695],[140.38507,40.745679],[140.385195,40.745429],[140.38537,40.745187],[140.385933,40.745054],[140.386045,40.744912],[140.386195,40.744579],[140.386408,40.74447],[140.386583,40.744087],[140.387083,40.743995],[140.38742,40.743862],[140.387208,40.743704],[140.38712,40.743687],[140.387245,40.742879],[140.386733,40.742471],[140.386033,40.742179],[140.385883,40.742046],[140.385845,40.741979],[140.385995,40.741621],[140.38612,40.741554],[140.38677,40.741396],[140.387033,40.741379],[140.387895,40.741671],[140.388545,40.742121],[140.388982,40.742187],[140.38922,40.742296],[140.389307,40.742612],[140.38952,40.742837],[140.389995,40.743171],[140.390557,40.743404],[140.391295,40.744054],[140.39167,40.744229],[140.392095,40.744229],[140.392382,40.744321],[140.392532,40.744679],[140.39277,40.744729],[140.393032,40.744662],[140.393332,40.744837],[140.393682,40.745445],[140.394157,40.745787],[140.394507,40.746095],[140.394932,40.746837],[140.395107,40.747804],[140.395157,40.747979],[140.395369,40.747987],[140.396494,40.747762],[140.397057,40.747562],[140.397232,40.747445],[140.396932,40.747154],[140.396882,40.746929],[140.396907,40.746887],[140.397169,40.74682],[140.398532,40.746687],[140.398857,40.746712],[140.399369,40.746621],[140.399394,40.746512],[140.399332,40.746129],[140.399132,40.745954],[140.398544,40.745571],[140.398482,40.745504],[140.400232,40.745571],[140.400319,40.745596],[140.400457,40.745729],[140.400607,40.745929],[140.400932,40.745996],[140.401381,40.745996],[140.401357,40.745329],[140.401057,40.744946],[140.401144,40.744746],[140.401532,40.744429],[140.402007,40.744187],[140.402007,40.743913],[140.401769,40.742771],[140.401807,40.742546],[140.402244,40.741946],[140.402607,40.741338],[140.402744,40.741179],[140.402957,40.740846],[140.402982,40.740713],[140.402669,40.73993],[140.402219,40.739096],[140.401932,40.738446],[140.401894,40.738355],[140.401957,40.738113],[140.403082,40.738405],[140.403407,40.738513],[140.403582,40.738088],[140.403882,40.737638],[140.403907,40.737555],[140.403819,40.737505],[140.402757,40.736363],[140.402669,40.736313],[140.403182,40.735288],[140.403507,40.734863],[140.403832,40.73493],[140.404832,40.735222],[140.40514,40.735277],[140.405157,40.735272],[140.405694,40.73453],[140.406457,40.735405],[140.406582,40.735588],[140.406632,40.735605],[140.407169,40.735472],[140.407257,40.73543],[140.407406,40.735788],[140.407406,40.736172],[140.407906,40.73698],[140.408381,40.73783],[140.408556,40.737988],[140.409094,40.73803],[140.409144,40.738013],[140.409356,40.737472],[140.409481,40.737455],[140.409569,40.737563],[140.409619,40.738013],[140.409706,40.73828],[140.409894,40.738347],[140.409894,40.73833],[140.410569,40.738213],[140.410656,40.738172],[140.410744,40.737947],[140.410981,40.737722],[140.411344,40.737497],[140.411719,40.737638],[140.411906,40.737655],[140.412344,40.737613],[140.412906,40.737455],[140.413406,40.737255],[140.414006,40.737105],[140.415543,40.736947],[140.416431,40.73688],[140.418181,40.736905],[140.419831,40.736639],[140.420043,40.736531],[140.419831,40.735989],[140.419693,40.734756],[140.419993,40.732739],[140.420056,40.732073],[140.419931,40.730681],[140.419756,40.730006],[140.419281,40.72904],[140.418819,40.72839],[140.417931,40.726931],[140.417844,40.726506],[140.417931,40.726098],[140.418144,40.725498],[140.418431,40.725023],[140.418881,40.724623],[140.419644,40.724157],[140.420631,40.723865],[140.424268,40.723332],[140.425156,40.723065],[140.425568,40.722865],[140.426131,40.722466],[140.426781,40.721632]]],"type":"Polygon"},"properties":{"id":"G31007","kuni":"陸奥","kuni_url":"/kg/resource/K31.html","id_url":"G31007.html","kuni_id":"K31","pref":"青森県","name":"中津軽","yomi":"なかつがる"}}],"type":"FeatureCollection"}