{"features":[{"type":"Feature","geometry":{"coordinates":[[[139.843024,38.824277],[139.843624,38.824369],[139.843974,38.824477],[139.843911,38.824752],[139.843511,38.825494],[139.843161,38.825943],[139.843249,38.825943],[139.843761,38.826077],[139.844111,38.826143],[139.844599,38.826277],[139.844599,38.826302],[139.845324,38.826418],[139.845899,38.82646],[139.846499,38.826468],[139.846761,38.82626],[139.846986,38.82586],[139.846886,38.824894],[139.846911,38.824485],[139.847374,38.824485],[139.848099,38.82451],[139.849586,38.824519],[139.850423,38.824544],[139.851348,38.824744],[139.851636,38.824769],[139.852698,38.824752],[139.853761,38.824777],[139.854048,38.824819],[139.854086,38.825094],[139.85411,38.825544],[139.855223,38.826194],[139.855373,38.826327],[139.856285,38.826802],[139.856985,38.826985],[139.857148,38.826968],[139.857323,38.82701],[139.85736,38.826985],[139.857273,38.825927],[139.85731,38.825102],[139.85736,38.824894],[139.85756,38.824802],[139.85826,38.82481],[139.85866,38.824877],[139.858748,38.824852],[139.85871,38.825369],[139.858885,38.825552],[139.859123,38.825552],[139.86021,38.825577],[139.860272,38.825644],[139.860547,38.82646],[139.860635,38.826527],[139.862597,38.826127],[139.86326,38.82606],[139.863635,38.82716],[139.863972,38.828018],[139.864259,38.828893],[139.864434,38.829343],[139.864197,38.82946],[139.863672,38.829843],[139.863334,38.829993],[139.86261,38.829835],[139.86256,38.829593],[139.862647,38.828935],[139.86106,38.829268],[139.860947,38.829385],[139.86086,38.829702],[139.860885,38.830893],[139.860822,38.830976],[139.860797,38.831318],[139.860622,38.831726],[139.860385,38.832468],[139.86006,38.832934],[139.859922,38.833093],[139.85966,38.833276],[139.859397,38.833318],[139.858997,38.833334],[139.858847,38.833543],[139.858822,38.833876],[139.859022,38.834418],[139.859572,38.835026],[139.859622,38.835143],[139.859597,38.835434],[139.859385,38.836017],[139.85946,38.836209],[139.858935,38.836884],[139.85766,38.837759],[139.85581,38.838809],[139.855435,38.8391],[139.854797,38.83975],[139.85416,38.841142],[139.853985,38.841792],[139.853585,38.842775],[139.853323,38.843566],[139.853198,38.8441],[139.853372,38.845475],[139.853335,38.846083],[139.853247,38.846483],[139.852847,38.847183],[139.852847,38.847383],[139.853222,38.847583],[139.853535,38.847499],[139.853885,38.847074],[139.854485,38.846758],[139.854572,38.846558],[139.854372,38.846466],[139.854085,38.846466],[139.854172,38.846399],[139.85446,38.845858],[139.854497,38.845525],[139.85421,38.845158],[139.854122,38.844733],[139.854147,38.844266],[139.854272,38.843816],[139.855335,38.842917],[139.85531,38.842717],[139.854797,38.842267],[139.855135,38.84215],[139.855897,38.842017],[139.856435,38.841975],[139.856697,38.842133],[139.85661,38.843708],[139.857185,38.843983],[139.858359,38.844616],[139.859022,38.845066],[139.859222,38.845266],[139.859447,38.847133],[139.857747,38.847399],[139.858234,38.848708],[139.857597,38.849016],[139.856847,38.849216],[139.856247,38.849441],[139.85586,38.849641],[139.856035,38.849932],[139.856472,38.850382],[139.857359,38.850882],[139.857822,38.851824],[139.857909,38.852207],[139.857759,38.852907],[139.857522,38.853332],[139.857209,38.853649],[139.856659,38.853915],[139.855335,38.854265],[139.854497,38.85404],[139.853797,38.853974],[139.853485,38.85404],[139.853135,38.854665],[139.852735,38.855157],[139.852272,38.855565],[139.85201,38.855698],[139.851372,38.856123],[139.849698,38.85699],[139.84846,38.857456],[139.84811,38.857773],[139.847935,38.857973],[139.847673,38.858515],[139.84756,38.859048],[139.847585,38.859256],[139.847548,38.859973],[139.847498,38.860156],[139.847523,38.860781],[139.84746,38.861523],[139.847485,38.861706],[139.84746,38.862197],[139.847685,38.862622],[139.848322,38.863506],[139.848722,38.863772],[139.84881,38.863772],[139.850747,38.862906],[139.852822,38.861789],[139.855859,38.861173],[139.856959,38.860814],[139.857909,38.860548],[139.860296,38.859948],[139.861196,38.859798],[139.862059,38.859748],[139.862896,38.859623],[139.864521,38.859398],[139.865146,38.859265],[139.865233,38.859223],[139.865408,38.858931],[139.865671,38.857632],[139.866046,38.857432],[139.866633,38.857407],[139.866883,38.857432],[139.867433,38.857232],[139.867871,38.856873],[139.869021,38.856157],[139.87027,38.855215],[139.871133,38.854407],[139.87137,38.85394],[139.871483,38.853782],[139.87157,38.85374],[139.871618,38.853662],[139.873995,38.850774],[139.874845,38.850558],[139.876382,38.849916],[139.877157,38.849649],[139.877845,38.849333],[139.877895,38.849066],[139.87807,38.848591],[139.878495,38.848233],[139.879157,38.847858],[139.879232,38.847858],[139.879307,38.848175],[139.879545,38.848425],[139.87987,38.848925],[139.88017,38.849083],[139.880895,38.849091],[139.881819,38.849025],[139.883307,38.848991],[139.883519,38.849441],[139.883619,38.849491],[139.884494,38.849675],[139.885419,38.84975],[139.885469,38.850133],[139.885669,38.850291],[139.885744,38.850183],[139.886169,38.850208],[139.886269,38.850458],[139.886769,38.850641],[139.886819,38.850983],[139.888119,38.851258],[139.890694,38.851708],[139.891344,38.851866],[139.891319,38.8521],[139.890494,38.851999],[139.890731,38.852474],[139.890406,38.852566],[139.890069,38.852041],[139.889831,38.852041],[139.889644,38.851674],[139.889369,38.851674],[139.889244,38.851741],[139.889606,38.852783],[139.890119,38.853533],[139.890506,38.853241],[139.890606,38.853358],[139.891119,38.853716],[139.891793,38.854108],[139.891718,38.854824],[139.891493,38.854982],[139.891106,38.855391],[139.891131,38.856091],[139.891106,38.856107],[139.890731,38.856066],[139.888619,38.855866],[139.887819,38.855816],[139.887369,38.855882],[139.886944,38.855991],[139.886394,38.856415],[139.885906,38.856932],[139.885656,38.857332],[139.885394,38.85799],[139.884194,38.865698],[139.884144,38.865764],[139.883619,38.865889],[139.883094,38.866114],[139.883031,38.866564],[139.883256,38.867039],[139.883556,38.867497],[139.884094,38.868081],[139.884644,38.868472],[139.885193,38.868564],[139.886356,38.867714],[139.887443,38.866798],[139.887793,38.866398],[139.888231,38.865564],[139.888556,38.865323],[139.889381,38.865481],[139.888943,38.866514],[139.900142,38.869639],[139.899779,38.870473],[139.901742,38.871006],[139.900579,38.871498],[139.901517,38.871439],[139.901779,38.873922],[139.903454,38.873972],[139.903829,38.873931],[139.903966,38.875739],[139.904016,38.875806],[139.905466,38.875731],[139.905516,38.876089],[139.905291,38.87658],[139.904579,38.877347],[139.904379,38.877614],[139.903541,38.87853],[139.902804,38.879455],[139.902654,38.879563],[139.900754,38.881855],[139.900679,38.881871],[139.900604,38.882005],[139.900354,38.882188],[139.899567,38.88263],[139.899917,38.883155],[139.899404,38.883446],[139.898079,38.884313],[139.897867,38.884471],[139.897917,38.884563],[139.898842,38.885379],[139.899979,38.884754],[139.900592,38.885279],[139.900817,38.885171],[139.903641,38.883563],[139.904116,38.884038],[139.905479,38.883288],[139.905329,38.882896],[139.905179,38.882672],[139.905604,38.882447],[139.905554,38.882363],[139.905191,38.881863],[139.905516,38.881838],[139.906016,38.881888],[139.906416,38.882097],[139.906791,38.882547],[139.906628,38.882705],[139.906803,38.882997],[139.907128,38.883247],[139.906853,38.88343],[139.906903,38.883538],[139.907816,38.884405],[139.908391,38.885038],[139.908491,38.884955],[139.909503,38.884438],[139.91649,38.88483],[139.916665,38.883947],[139.917228,38.883822],[139.917678,38.883689],[139.917478,38.883297],[139.916928,38.883389],[139.916853,38.883322],[139.916678,38.882639],[139.916315,38.881289],[139.916165,38.880922],[139.916178,38.880722],[139.917778,38.880572],[139.91954,38.880289],[139.920515,38.880006],[139.921552,38.879497],[139.922352,38.878956],[139.92319,38.878514],[139.924765,38.877664],[139.926502,38.876915],[139.926852,38.876806],[139.927565,38.87674],[139.930802,38.876015],[139.931952,38.87564],[139.932814,38.875332],[139.933489,38.875115],[139.934577,38.874582],[139.935552,38.874132],[139.936939,38.873465],[139.937539,38.873132],[139.937839,38.87284],[139.939039,38.871432],[139.939614,38.870874],[139.941314,38.868941],[139.941539,38.868741],[139.942801,38.867349],[139.943939,38.866191],[139.945076,38.864975],[139.946014,38.864733],[139.946438,38.864675],[139.946588,38.864583],[139.945626,38.863541],[139.945051,38.862791],[139.944439,38.861858],[139.943027,38.860183],[139.942327,38.85905],[139.941389,38.857734],[139.940352,38.856509],[139.940427,38.856484],[139.939377,38.856384],[139.939352,38.856317],[139.939552,38.856167],[139.938902,38.856067],[139.938427,38.85595],[139.938377,38.855842],[139.937927,38.855767],[139.937028,38.855675],[139.936903,38.855509],[139.936578,38.8554],[139.936578,38.854859],[139.936378,38.854717],[139.936315,38.854292],[139.935815,38.854201],[139.93549,38.854059],[139.935215,38.854009],[139.93519,38.853942],[139.935253,38.852909],[139.935428,38.852367],[139.936116,38.851426],[139.936141,38.851334],[139.936516,38.851359],[139.936816,38.850909],[139.937165,38.850984],[139.937365,38.850776],[139.93739,38.850693],[139.936953,38.850459],[139.936628,38.850259],[139.936678,38.850168],[139.936978,38.849918],[139.937178,38.849534],[139.93874,38.848918],[139.939853,38.84841],[139.940453,38.848185],[139.940953,38.848035],[139.942915,38.847818],[139.94369,38.847668],[139.944415,38.847443],[139.945264,38.84761],[139.946389,38.848001],[139.946589,38.847776],[139.947027,38.847018],[139.947764,38.845893],[139.947964,38.845418],[139.948064,38.845127],[139.947414,38.844785],[139.945352,38.84371],[139.945202,38.843594],[139.944952,38.843252],[139.944265,38.842277],[139.94384,38.841802],[139.94314,38.841169],[139.943603,38.840627],[139.943953,38.840477],[139.946102,38.838486],[139.945402,38.837961],[139.947227,38.836211],[139.948065,38.835428],[139.946827,38.834594],[139.949052,38.832586],[139.951314,38.834111],[139.951602,38.834061],[139.952439,38.834078],[139.952552,38.834103],[139.953539,38.83412],[139.953964,38.833945],[139.954452,38.833603],[139.954914,38.83342],[139.955689,38.833236],[139.963913,38.830487],[139.964113,38.830487],[139.964926,38.830979],[139.965651,38.831495],[139.965763,38.831445],[139.966588,38.830612],[139.966913,38.830279],[139.966738,38.830054],[139.967338,38.829304],[139.967413,38.829237],[139.967301,38.829079],[139.967563,38.828746],[139.967613,38.828721],[139.967788,38.828312],[139.967926,38.827662],[139.967951,38.826971],[139.967651,38.82283],[139.967626,38.822721],[139.967651,38.822605],[139.967526,38.821013],[139.967089,38.817555],[139.967089,38.816839],[139.967001,38.816047],[139.973463,38.814431],[139.973913,38.815347],[139.978513,38.814206],[139.978775,38.814589],[139.976275,38.815522],[139.976013,38.815589],[139.976038,38.815631],[139.976475,38.815831],[139.977088,38.816014],[139.9787,38.816747],[139.979588,38.816206],[139.9818,38.814689],[139.98355,38.813514],[139.984837,38.812698],[139.987825,38.81134],[139.988312,38.811165],[139.989112,38.810798],[139.991987,38.809082],[139.992524,38.808565],[139.993124,38.807282],[139.993312,38.806624],[139.99345,38.805591],[139.9936,38.802891],[139.993675,38.800874],[139.99375,38.799841],[139.993975,38.798508],[139.994137,38.797791],[139.994812,38.795725],[139.995037,38.794934],[139.9958,38.793584],[139.996175,38.793109],[139.99655,38.792884],[139.996635,38.792805],[139.997012,38.792576],[139.997925,38.791926],[139.998525,38.791776],[139.9995,38.791826],[140.000824,38.791992],[140.001724,38.792176],[140.003274,38.792909],[140.004224,38.793142],[140.005474,38.793309],[140.006624,38.793592],[140.007374,38.794067],[140.007924,38.794234],[140.008849,38.794376],[140.010223,38.794517],[140.012948,38.794692],[140.014311,38.794751],[140.014736,38.794734],[140.01596,38.794534],[140.017548,38.794184],[140.018448,38.793876],[140.019235,38.793409],[140.020735,38.792876],[140.02421,38.791568],[140.024935,38.791152],[140.025947,38.790318],[140.027372,38.788727],[140.027647,38.788077],[140.028272,38.786077],[140.028735,38.784794],[140.029247,38.783844],[140.029672,38.783169],[140.029747,38.782794],[140.02981,38.781794],[140.030022,38.780878],[140.031047,38.778945],[140.031547,38.778087],[140.032184,38.777104],[140.032034,38.776987],[140.031472,38.776145],[140.030922,38.775487],[140.030647,38.775262],[140.029972,38.774854],[140.029635,38.77417],[140.029272,38.772412],[140.02901,38.771621],[140.02881,38.770871],[140.028772,38.770221],[140.029585,38.769071],[140.02991,38.768238],[140.030672,38.767188],[140.031785,38.765838],[140.03306,38.764022],[140.033722,38.763347],[140.034535,38.762405],[140.034685,38.76203],[140.03511,38.761214],[140.035447,38.760339],[140.036022,38.758339],[140.036235,38.757364],[140.036673,38.755681],[140.036948,38.755006],[140.037235,38.754623],[140.03761,38.754398],[140.037935,38.754265],[140.03856,38.75409],[140.038635,38.753981],[140.038546,38.752992],[140.038547,38.75289],[140.037748,38.752665],[140.037273,38.752331],[140.036835,38.752157],[140.036073,38.752048],[140.035535,38.751898],[140.035373,38.751723],[140.035123,38.750848],[140.034935,38.750523],[140.034698,38.750265],[140.034098,38.749448],[140.033998,38.749257],[140.034111,38.749099],[140.034411,38.748957],[140.034686,38.748982],[140.035648,38.749199],[140.035985,38.749107],[140.03686,38.748774],[140.037423,38.748474],[140.03811,38.748365],[140.038773,38.748482],[140.039248,38.748357],[140.039973,38.748057],[140.040173,38.747924],[140.04011,38.747749],[140.03971,38.747074],[140.03981,38.746799],[140.04011,38.746457],[140.040235,38.746382],[140.041098,38.746216],[140.041835,38.745857],[140.042635,38.745557],[140.04311,38.745082],[140.043473,38.744191],[140.04366,38.743899],[140.044235,38.743699],[140.04496,38.743599],[140.04496,38.743566],[140.044785,38.743433],[140.044122,38.743266],[140.043823,38.743133],[140.043685,38.743008],[140.043673,38.742525],[140.043973,38.741525],[140.043773,38.741241],[140.043073,38.740716],[140.042923,38.740467],[140.04351,38.739842],[140.043473,38.739242],[140.043348,38.738558],[140.043598,38.737584],[140.04401,38.737117],[140.044648,38.736476],[140.04516,38.735751],[140.045747,38.735117],[140.04596,38.734351],[140.046347,38.733659],[140.04651,38.733268],[140.046697,38.732376],[140.046397,38.730652],[140.047072,38.730527],[140.048435,38.730443],[140.049272,38.730177],[140.04986,38.729835],[140.05001,38.729602],[140.050285,38.72871],[140.05036,38.727894],[140.050597,38.727427],[140.051384,38.727111],[140.052709,38.727077],[140.053534,38.727169],[140.053959,38.726411],[140.055134,38.726319],[140.055371,38.726244],[140.055784,38.726161],[140.056059,38.726169],[140.056221,38.726203],[140.055759,38.725061],[140.055721,38.72452],[140.056096,38.723236],[140.056146,38.722478],[140.055946,38.722103],[140.055272,38.721553],[140.054922,38.72132],[140.054009,38.720612],[140.052597,38.719403],[140.052197,38.718945],[140.052185,38.718337],[140.052435,38.716795],[140.052647,38.715787],[140.05276,38.715004],[140.052497,38.714254],[140.05191,38.713454],[140.051372,38.712579],[140.050997,38.711838],[140.050472,38.710971],[140.050223,38.709796],[140.049923,38.709121],[140.049598,38.70818],[140.04961,38.707946],[140.04971,38.707746],[140.049848,38.707588],[140.04966,38.707505],[140.049023,38.707088],[140.048448,38.70663],[140.047735,38.706197],[140.047061,38.705397],[140.046148,38.704763],[140.045686,38.704688],[140.045261,38.704697],[140.044948,38.704638],[140.044573,38.704038],[140.043786,38.703155],[140.042336,38.702205],[140.041499,38.701805],[140.040236,38.701447],[140.040012,38.701347],[140.039349,38.700539],[140.039062,38.70033],[140.038912,38.700139],[140.039049,38.699739],[140.040012,38.698781],[140.040574,38.698239],[140.041661,38.697456],[140.042286,38.697089],[140.042699,38.696798],[140.042711,38.696573],[140.042174,38.696073],[140.041936,38.695589],[140.041686,38.693631],[140.041986,38.69224],[140.041886,38.692148],[140.040774,38.691598],[140.040724,38.691557],[140.041124,38.691098],[140.041687,38.68949],[140.041974,38.688849],[140.041937,38.688307],[140.041724,38.687699],[140.041649,38.687032],[140.041599,38.686882],[140.041562,38.686457],[140.041637,38.685991],[140.041524,38.685449],[140.041737,38.684982],[140.041737,38.684858],[140.041587,38.684516],[140.041574,38.684108],[140.042287,38.683741],[140.042599,38.683483],[140.042187,38.683099],[140.041249,38.682541],[140.040987,38.68215],[140.039649,38.681066],[140.038487,38.68065],[140.037387,38.680458],[140.035962,38.680525],[140.0351,38.680441],[140.03335,38.67955],[140.032688,38.679266],[140.0325,38.679233],[140.031975,38.679241],[140.032238,38.678791],[140.032513,38.67815],[140.033175,38.677508],[140.033313,38.6769],[140.032975,38.676483],[140.0328,38.676133],[140.033338,38.674975],[140.033575,38.674125],[140.034075,38.674134],[140.035637,38.674442],[140.036512,38.674575],[140.037012,38.674167],[140.037675,38.673475],[140.038625,38.672851],[140.039325,38.672259],[140.039575,38.671984],[140.039912,38.671551],[140.039762,38.670792],[140.03995,38.670376],[140.040237,38.670109],[140.04035,38.670042],[140.041277,38.669718],[140.041474,38.669551],[140.041612,38.669376],[140.041824,38.669193],[140.041874,38.668659],[140.042037,38.668226],[140.042512,38.667734],[140.042687,38.667326],[140.042837,38.666793],[140.043162,38.666201],[140.043287,38.66566],[140.042575,38.664401],[140.042612,38.663893],[140.042987,38.663085],[140.042975,38.66291],[140.043487,38.662102],[140.043275,38.661718],[140.042912,38.660585],[140.0429,38.660293],[140.043287,38.659935],[140.043787,38.659627],[140.044337,38.659644],[140.044512,38.659602],[140.044853,38.659075],[140.0451,38.658694],[140.045662,38.658402],[140.046262,38.657944],[140.047299,38.65751],[140.048162,38.657252],[140.048787,38.657294],[140.049087,38.657644],[140.049312,38.658135],[140.049562,38.658427],[140.050162,38.658702],[140.050524,38.659177],[140.050837,38.659469],[140.051749,38.659619],[140.052599,38.659577],[140.053411,38.659444],[140.054186,38.659386],[140.054774,38.659144],[140.055111,38.658794],[140.054961,38.658302],[140.055024,38.657727],[140.055149,38.657527],[140.056511,38.656744],[140.057561,38.655528],[140.058298,38.654869],[140.059361,38.653778],[140.059411,38.653153],[140.059886,38.652311],[140.060461,38.65182],[140.060686,38.651137],[140.060798,38.650395],[140.061098,38.649695],[140.061623,38.648904],[140.062811,38.647887],[140.062836,38.647795],[140.062648,38.647145],[140.062423,38.645554],[140.062386,38.644679],[140.062473,38.643888],[140.062898,38.642729],[140.063261,38.641471],[140.063623,38.640796],[140.064323,38.640096],[140.064798,38.640296],[140.065586,38.640371],[140.066561,38.640571],[140.067535,38.640913],[140.068398,38.641071],[140.068935,38.641055],[140.069123,38.641021],[140.06936,38.640546],[140.069335,38.640113],[140.06921,38.639663],[140.06956,38.638438],[140.069685,38.637713],[140.069635,38.637297],[140.069648,38.636922],[140.070085,38.636489],[140.070273,38.636397],[140.07076,38.635997],[140.071635,38.634314],[140.071923,38.633856],[140.072323,38.633772],[140.073298,38.633906],[140.074348,38.633989],[140.07466,38.633964],[140.075222,38.633981],[140.07596,38.634239],[140.077072,38.634414],[140.078435,38.634381],[140.080122,38.634006],[140.080385,38.633864],[140.080422,38.633739],[140.08036,38.633089],[140.080035,38.632073],[140.080047,38.631681],[140.080647,38.630781],[140.081072,38.62984],[140.08161,38.629623],[140.08231,38.629598],[140.082997,38.629482],[140.084072,38.629923],[140.084997,38.629982],[140.085322,38.62944],[140.085559,38.628923],[140.085672,38.628824],[140.086134,38.628649],[140.086884,38.628449],[140.087597,38.628382],[140.087859,38.628432],[140.088772,38.628715],[140.089259,38.628649],[140.089559,38.628265],[140.089834,38.628007],[140.089934,38.627965],[140.090447,38.628049],[140.090746,38.628207],[140.091521,38.628141],[140.091784,38.627941],[140.092434,38.627166],[140.093234,38.626416],[140.093484,38.625924],[140.094309,38.625599],[140.094634,38.625291],[140.094871,38.624616],[140.094946,38.624],[140.094759,38.623425],[140.094884,38.623141],[140.095296,38.622708],[140.096571,38.621967],[140.097409,38.621792],[140.098259,38.621725],[140.099021,38.6218],[140.099646,38.621633],[140.099934,38.621592],[140.100996,38.621234],[140.101846,38.621217],[140.102446,38.621359],[140.102883,38.621434],[140.103433,38.621267],[140.104383,38.620825],[140.105808,38.620326],[140.106246,38.619959],[140.106483,38.619667],[140.107108,38.619501],[140.107683,38.619542],[140.108258,38.619409],[140.108733,38.619126],[140.108958,38.617884],[140.109046,38.617243],[140.109283,38.616668],[140.109821,38.616335],[140.111133,38.61591],[140.111183,38.615901],[140.111533,38.615643],[140.111758,38.615343],[140.111795,38.61521],[140.111421,38.613377],[140.111546,38.612768],[140.111296,38.612444],[140.110458,38.612502],[140.110233,38.61256],[140.109533,38.61211],[140.109033,38.611619],[140.108396,38.611235],[140.108221,38.610735],[140.108558,38.61031],[140.109058,38.609161],[140.109033,38.608761],[140.108296,38.608127],[140.107608,38.607819],[140.106808,38.607702],[140.106509,38.607694],[140.106471,38.607502],[140.106759,38.606319],[140.106796,38.605819],[140.106546,38.605336],[140.106534,38.604636],[140.106784,38.604369],[140.107321,38.604261],[140.107396,38.604186],[140.107471,38.603811],[140.107259,38.603178],[140.106971,38.602636],[140.106496,38.602386],[140.105996,38.602178],[140.105434,38.602045],[140.105009,38.601461],[140.105271,38.600186],[140.105684,38.59962],[140.106396,38.59937],[140.107109,38.598895],[140.107546,38.598487],[140.107484,38.597887],[140.107821,38.596345],[140.107796,38.595054],[140.108046,38.594404],[140.108496,38.593787],[140.109059,38.593321],[140.109459,38.592704],[140.109559,38.591988],[140.109584,38.591146],[140.109896,38.590671],[140.110034,38.590155],[140.110446,38.589755],[140.111109,38.589405],[140.111646,38.589188],[140.111846,38.588896],[140.111734,38.588463],[140.111421,38.587913],[140.111371,38.587463],[140.111534,38.587072],[140.111796,38.586805],[140.112284,38.586513],[140.112521,38.586247],[140.112671,38.585914],[140.112484,38.585439],[140.112396,38.584922],[140.112346,38.584139],[140.112371,38.583614],[140.112446,38.583097],[140.112896,38.582581],[140.113409,38.582306],[140.113909,38.581856],[140.114321,38.581389],[140.114758,38.581022],[140.115446,38.580997],[140.115671,38.581023],[140.116108,38.580956],[140.116521,38.580456],[140.116708,38.580281],[140.117371,38.579356],[140.117421,38.578473],[140.117371,38.578023],[140.117233,38.577956],[140.116546,38.577848],[140.115358,38.57749],[140.114759,38.577506],[140.113684,38.578048],[140.112946,38.578281],[140.111921,38.578439],[140.111071,38.578481],[140.110109,38.578214],[140.109446,38.577739],[140.108122,38.576206],[140.107959,38.575914],[140.107797,38.575289],[140.107659,38.574364],[140.107622,38.573081],[140.107597,38.572806],[140.106659,38.572223],[140.105697,38.571865],[140.105072,38.571506],[140.104709,38.570831],[140.103522,38.570173],[140.102697,38.56959],[140.10141,38.569615],[140.10111,38.569706],[140.10061,38.569956],[140.099872,38.569906],[140.099122,38.569506],[140.098797,38.568781],[140.098247,38.567998],[140.097747,38.567115],[140.09766,38.566781],[140.097822,38.566131],[140.09821,38.565382],[140.09826,38.564665],[140.09846,38.563807],[140.098947,38.562857],[140.09911,38.561957],[140.09911,38.561665],[140.098672,38.560649],[140.09821,38.559707],[140.097922,38.558832],[140.09776,38.558041],[140.097235,38.557249],[140.096573,38.556866],[140.096385,38.556849],[140.095723,38.556916],[140.09476,38.557116],[140.09391,38.557207],[140.092673,38.556941],[140.091823,38.556849],[140.09116,38.556849],[140.090973,38.556874],[140.09026,38.556832],[140.089923,38.556849],[140.089211,38.557015],[140.088886,38.557124],[140.088061,38.557124],[140.087036,38.556857],[140.085998,38.556724],[140.085523,38.556632],[140.084286,38.556315],[140.084036,38.556224],[140.083298,38.555865],[140.082911,38.555349],[140.082424,38.554874],[140.081236,38.554066],[140.080361,38.553366],[140.079861,38.552832],[140.079636,38.552674],[140.078761,38.552399],[140.077911,38.552041],[140.077087,38.551274],[140.076949,38.550808],[140.076974,38.550624],[140.077549,38.549249],[140.077762,38.548958],[140.078074,38.5483],[140.078512,38.546458],[140.078262,38.545642],[140.077487,38.54445],[140.076849,38.54375],[140.076574,38.543508],[140.075862,38.543008],[140.075787,38.543075],[140.074987,38.542942],[140.074687,38.542917],[140.074137,38.542559],[140.073337,38.54105],[140.073275,38.540892],[140.07355,38.540175],[140.073475,38.540175],[140.073112,38.540042],[140.07245,38.539884],[140.071275,38.539501],[140.07025,38.539476],[140.068938,38.538692],[140.068413,38.537926],[140.068,38.536976],[140.067663,38.536526],[140.066763,38.536284],[140.063826,38.536101],[140.063001,38.535767],[140.062176,38.535159],[140.061764,38.535001],[140.060689,38.534709],[140.059914,38.534393],[140.059639,38.534193],[140.059039,38.533626],[140.058052,38.533201],[140.057852,38.533159],[140.057164,38.532726],[140.056752,38.532193],[140.056152,38.531968],[140.055164,38.531309],[140.054689,38.530793],[140.054639,38.53061],[140.055152,38.52931],[140.055152,38.528835],[140.054989,38.528626],[140.05444,38.528318],[140.053815,38.528268],[140.052965,38.528385],[140.051177,38.528001],[140.05049,38.528093],[140.049877,38.527868],[140.049303,38.527868],[140.04859,38.527935],[140.047653,38.527776],[140.046665,38.527918],[140.045565,38.527851],[140.044028,38.52751],[140.043253,38.527651],[140.042653,38.528101],[140.042403,38.528368],[140.041716,38.529001],[140.040453,38.529451],[140.039828,38.529859],[140.039141,38.530784],[140.038316,38.531509],[140.037628,38.53205],[140.037028,38.53245],[140.036828,38.532542],[140.035816,38.532767],[140.035816,38.532834],[140.035591,38.533283],[140.035291,38.534125],[140.034578,38.535791],[140.033229,38.538108],[140.032816,38.538924],[140.032266,38.539733],[140.030929,38.541424],[140.030379,38.542032],[140.029716,38.542557],[140.028866,38.54334],[140.027579,38.544857],[140.027104,38.545532],[140.026454,38.546298],[140.026204,38.546723],[140.025979,38.54679],[140.024879,38.54659],[140.024004,38.546365],[140.022879,38.546032],[140.02188,38.545873],[140.02103,38.545515],[140.019967,38.545131],[140.018967,38.544931],[140.01818,38.544998],[140.017155,38.54484],[140.016768,38.544731],[140.01598,38.54439],[140.015255,38.54414],[140.014543,38.54374],[140.013418,38.543398],[140.01238,38.543023],[140.012205,38.542906],[140.012105,38.542881],[140.012105,38.542706],[140.012018,38.542481],[140.01163,38.541848],[140.010618,38.541282],[140.009043,38.539957],[140.007868,38.539465],[140.007531,38.539373],[140.007293,38.539715],[140.006743,38.540165],[140.004544,38.54109],[140.003744,38.541356],[140.003169,38.541406],[140.002756,38.541273],[140.002181,38.540865],[140.000394,38.539515],[139.999344,38.53949],[139.998632,38.539356],[139.997369,38.538798],[139.996819,38.538656],[139.996643,38.538677],[139.996557,38.53859],[139.996057,38.538231],[139.995719,38.538048],[139.995219,38.537923],[139.994519,38.53794],[139.993545,38.538115],[139.993195,38.538148],[139.993045,38.537731],[139.992995,38.537356],[139.993007,38.536906],[139.992407,38.536631],[139.991457,38.535923],[139.99117,38.53584],[139.989832,38.53519],[139.989045,38.53484],[139.988532,38.53399],[139.987883,38.533507],[139.987345,38.532832],[139.98702,38.532207],[139.986308,38.531748],[139.985133,38.531165],[139.98477,38.530832],[139.984645,38.53064],[139.983795,38.530348],[139.983133,38.529982],[139.983058,38.529673],[139.982746,38.529174],[139.981858,38.528274],[139.980708,38.527332],[139.979896,38.526732],[139.979246,38.526407],[139.977521,38.525666],[139.976809,38.525166],[139.976196,38.524691],[139.975471,38.524191],[139.974984,38.523699],[139.974459,38.523324],[139.973884,38.523241],[139.973271,38.523049],[139.972371,38.522624],[139.970922,38.522341],[139.970109,38.521724],[139.969472,38.521458],[139.968547,38.521266],[139.967647,38.521166],[139.966997,38.520941],[139.966535,38.520499],[139.966097,38.519758],[139.965672,38.519183],[139.96491,38.518533],[139.964372,38.518241],[139.963497,38.517949],[139.961123,38.517508],[139.95996,38.517208],[139.95896,38.516891],[139.958173,38.516774],[139.957786,38.516774],[139.957048,38.516558],[139.956598,38.516108],[139.956186,38.515774],[139.955261,38.515524],[139.954336,38.515424],[139.954086,38.515274],[139.954011,38.515149],[139.953824,38.514541],[139.953586,38.513308],[139.953374,38.513216],[139.950986,38.513074],[139.950836,38.513024],[139.950161,38.511966],[139.950099,38.511675],[139.950549,38.51125],[139.950986,38.510958],[139.951411,38.510591],[139.951686,38.510241],[139.951736,38.510075],[139.951536,38.509725],[139.951074,38.509433],[139.949912,38.509116],[139.949562,38.508733],[139.948949,38.508433],[139.948237,38.508141],[139.947887,38.50775],[139.947662,38.506525],[139.947524,38.50645],[139.946737,38.506367],[139.946175,38.506375],[139.945712,38.506192],[139.945237,38.506192],[139.9448,38.506458],[139.944425,38.5066],[139.944,38.506666],[139.9438,38.506791],[139.943687,38.506975],[139.943462,38.507058],[139.942987,38.506975],[139.942825,38.506683],[139.9426,38.506441],[139.942162,38.506341],[139.94175,38.506175],[139.941387,38.505833],[139.940725,38.504825],[139.940475,38.504592],[139.940375,38.504583],[139.9394,38.504842],[139.939188,38.504683],[139.93895,38.504417],[139.938625,38.504267],[139.937475,38.504183],[139.937025,38.5042],[139.9366,38.504425],[139.936275,38.504716],[139.935988,38.504875],[139.935763,38.5049],[139.934638,38.504491],[139.934313,38.504291],[139.933713,38.503483],[139.933426,38.503241],[139.932976,38.503083],[139.932676,38.503016],[139.932551,38.502941],[139.932338,38.502675],[139.931963,38.502216],[139.932051,38.502016],[139.932788,38.50195],[139.932976,38.501758],[139.932613,38.500908],[139.932676,38.500533],[139.933256,38.499809],[139.933364,38.499674],[139.933431,38.499545],[139.933563,38.499292],[139.933601,38.4989],[139.933501,38.498617],[139.933476,38.498317],[139.933938,38.497767],[139.934263,38.497525],[139.934663,38.497525],[139.934876,38.497292],[139.935126,38.496534],[139.934538,38.495692],[139.934351,38.495242],[139.934526,38.49485],[139.935001,38.494434],[139.935588,38.494134],[139.936426,38.494017],[139.936951,38.494042],[139.937238,38.493776],[139.937326,38.493534],[139.937625,38.492967],[139.938263,38.492459],[139.9394,38.491976],[139.93995,38.491426],[139.940325,38.490901],[139.941238,38.490401],[139.941813,38.490043],[139.942088,38.489576],[139.94215,38.488993],[139.941563,38.488584],[139.941125,38.487759],[139.941,38.487601],[139.940638,38.486843],[139.939888,38.486301],[139.939213,38.486026],[139.938363,38.485868],[139.937388,38.485834],[139.937051,38.485668],[139.936876,38.485351],[139.936476,38.485093],[139.935088,38.485384],[139.934451,38.485301],[139.933463,38.484701],[139.932676,38.484709],[139.932176,38.484409],[139.931739,38.483835],[139.930939,38.482401],[139.930676,38.481918],[139.930351,38.481793],[139.929926,38.481818],[139.929214,38.481176],[139.928776,38.480885],[139.928326,38.480843],[139.927814,38.480885],[139.927426,38.480718],[139.926752,38.480268],[139.926177,38.479835],[139.926339,38.479518],[139.928451,38.477693],[139.928551,38.477402],[139.928151,38.47671],[139.927902,38.475835],[139.928139,38.47541],[139.928277,38.475052],[139.928064,38.47466],[139.927914,38.474494],[139.927764,38.474102],[139.928077,38.47401],[139.928889,38.474135],[139.929276,38.474044],[139.929264,38.473352],[139.929414,38.47256],[139.929652,38.471877],[139.929914,38.471569],[139.930476,38.471411],[139.931076,38.471127],[139.931739,38.470927],[139.932126,38.470536],[139.932251,38.470144],[139.932539,38.469627],[139.932376,38.469527],[139.931439,38.469144],[139.929602,38.467336],[139.928327,38.466136],[139.927889,38.465636],[139.927627,38.465211],[139.927802,38.464853],[139.928577,38.464478],[139.928677,38.464403],[139.928664,38.463461],[139.928764,38.463145],[139.928464,38.462795],[139.928077,38.462428],[139.927889,38.46212],[139.928464,38.460745],[139.929102,38.460045],[139.929089,38.45987],[139.928652,38.458895],[139.928427,38.458603],[139.927739,38.458078],[139.927239,38.457737],[139.926902,38.457428],[139.926302,38.45637],[139.925465,38.455354],[139.924952,38.455229],[139.924727,38.455037],[139.92499,38.454612],[139.925015,38.454204],[139.924865,38.453745],[139.92479,38.453296],[139.924677,38.452904],[139.924277,38.452579],[139.924127,38.452196],[139.924315,38.451696],[139.924702,38.450929],[139.924877,38.450396],[139.925202,38.449938],[139.926565,38.449196],[139.927477,38.448921],[139.929064,38.448546],[139.930027,38.448388],[139.931952,38.448529],[139.932639,38.448429],[139.933252,38.448263],[139.933427,38.448188],[139.933477,38.447996],[139.933264,38.44748],[139.933064,38.446813],[139.933127,38.446371],[139.933452,38.446005],[139.933539,38.445605],[139.933339,38.444946],[139.933402,38.44473],[139.933702,38.44433],[139.933602,38.443822],[139.933664,38.443313],[139.933802,38.44313],[139.934089,38.442555],[139.934139,38.44203],[139.933952,38.441622],[139.933614,38.441255],[139.933264,38.440572],[139.933127,38.439239],[139.933152,38.438822],[139.933539,38.438572],[139.933727,38.438322],[139.933377,38.437889],[139.934214,38.437106],[139.934289,38.436139],[139.934389,38.435689],[139.934239,38.435223],[139.933789,38.434589],[139.933539,38.434298],[139.933639,38.434106],[139.934764,38.433873],[139.935052,38.433773],[139.935089,38.433631],[139.934877,38.433523],[139.934427,38.433514],[139.933964,38.433414],[139.933727,38.433198],[139.933639,38.432898],[139.933402,38.432606],[139.932152,38.431723],[139.931515,38.429656],[139.931177,38.428832],[139.930752,38.428232],[139.92979,38.427157],[139.929502,38.426648],[139.929715,38.425207],[139.929577,38.424532],[139.929702,38.423424],[139.929427,38.423007],[139.928278,38.422399],[139.927865,38.421941],[139.92754,38.421391],[139.927228,38.420407],[139.926515,38.420141],[139.925615,38.419999],[139.924703,38.419991],[139.923916,38.419857],[139.923391,38.419641],[139.923153,38.419282],[139.922766,38.418999],[139.922416,38.418782],[139.922028,38.418624],[139.921841,38.418624],[139.920678,38.418882],[139.920228,38.418882],[139.919816,38.418757],[139.919129,38.418666],[139.918354,38.418824],[139.917904,38.418682],[139.917204,38.418382],[139.917166,38.418266],[139.917191,38.417674],[139.917091,38.417249],[139.916616,38.416883],[139.916116,38.416424],[139.916166,38.41395],[139.916141,38.413091],[139.915916,38.412375],[139.915417,38.4118],[139.914842,38.411216],[139.914704,38.410975],[139.914467,38.4104],[139.914617,38.409875],[139.915092,38.409425],[139.915529,38.408742],[139.916092,38.408025],[139.916904,38.406492],[139.916967,38.405817],[139.916679,38.404751],[139.916554,38.403692],[139.916917,38.402843],[139.917079,38.402209],[139.917879,38.401276],[139.918367,38.40031],[139.918817,38.398576],[139.919367,38.397668],[139.919792,38.396827],[139.920229,38.395802],[139.920392,38.39556],[139.920504,38.39451],[139.921217,38.393719],[139.921129,38.393369],[139.920554,38.392327],[139.920079,38.391352],[139.919267,38.390386],[139.918605,38.389786],[139.91808,38.389494],[139.917567,38.389278],[139.91713,38.388769],[139.916655,38.387953],[139.916367,38.387578],[139.91528,38.387011],[139.914693,38.386995],[139.913893,38.38702],[139.913155,38.386795],[139.912993,38.386636],[139.912268,38.385578],[139.911981,38.384928],[139.911893,38.384403],[139.911406,38.383745],[139.910768,38.383228],[139.910356,38.382812],[139.910243,38.382353],[139.910343,38.381787],[139.910606,38.38127],[139.910743,38.380912],[139.910793,38.380879],[139.910218,38.37992],[139.910131,38.379437],[139.910318,38.37892],[139.910918,38.377729],[139.911618,38.377021],[139.911743,38.376346],[139.912106,38.375763],[139.912506,38.374754],[139.912443,38.374371],[139.912456,38.374271],[139.912156,38.37363],[139.911856,38.373155],[139.912143,38.37283],[139.912906,38.372405],[139.913793,38.371355],[139.914368,38.370497],[139.915506,38.369472],[139.916031,38.368788],[139.916993,38.367922],[139.917518,38.367172],[139.917431,38.366889],[139.916931,38.366414],[139.916043,38.365805],[139.915031,38.365189],[139.914981,38.364881],[139.914694,38.364431],[139.914281,38.363889],[139.914119,38.363472],[139.913881,38.363139],[139.913519,38.362722],[139.913581,38.362747],[139.914456,38.362139],[139.914669,38.361981],[139.913244,38.360006],[139.912631,38.359331],[139.912344,38.359156],[139.911819,38.358648],[139.911507,38.35814],[139.911007,38.357531],[139.910732,38.357106],[139.910557,38.356607],[139.910507,38.355998],[139.910432,38.355632],[139.910269,38.35524],[139.909432,38.354673],[139.908657,38.354257],[139.906895,38.353132],[139.906457,38.35249],[139.90597,38.352024],[139.90567,38.35184],[139.90507,38.35139],[139.904607,38.350882],[139.904232,38.350357],[139.902995,38.349182],[139.902645,38.348732],[139.90272,38.348274],[139.90317,38.347724],[139.903783,38.347183],[139.90467,38.346049],[139.904745,38.345916],[139.904783,38.345691],[139.904495,38.345399],[139.904145,38.344725],[139.903883,38.343866],[139.90357,38.343091],[139.903096,38.34245],[139.902871,38.341558],[139.902908,38.340917],[139.903108,38.339967],[139.902783,38.3396],[139.902246,38.339108],[139.902071,38.338609],[139.901784,38.33805],[139.901421,38.337609],[139.900871,38.337225],[139.900309,38.336992],[139.899721,38.336684],[139.899421,38.336467],[139.899221,38.336275],[139.899284,38.336267],[139.899159,38.336075],[139.899046,38.335759],[139.898609,38.3351],[139.898297,38.334451],[139.897934,38.332692],[139.897959,38.332351],[139.897934,38.332192],[139.897697,38.331951],[139.897259,38.331634],[139.896835,38.331226],[139.896422,38.330934],[139.896185,38.330843],[139.89561,38.330768],[139.89491,38.330793],[139.893947,38.331284],[139.892685,38.331842],[139.892285,38.331884],[139.891473,38.331476],[139.890798,38.331184],[139.890023,38.330368],[139.889348,38.330101],[139.889148,38.329943],[139.888661,38.329351],[139.888073,38.328493],[139.887823,38.328226],[139.886823,38.327951],[139.886049,38.327634],[139.885961,38.327634],[139.884999,38.327268],[139.883986,38.326701],[139.883399,38.326343],[139.882961,38.326026],[139.882761,38.325551],[139.882599,38.324943],[139.882012,38.32391],[139.880999,38.323318],[139.880537,38.322843],[139.879987,38.321968],[139.879462,38.321468],[139.877587,38.320002],[139.877062,38.31946],[139.875875,38.318077],[139.875588,38.317627],[139.875213,38.316885],[139.875063,38.316702],[139.874888,38.316794],[139.874663,38.31686],[139.873838,38.317152],[139.873225,38.317327],[139.872738,38.31751],[139.871913,38.31791],[139.871613,38.318127],[139.870988,38.31861],[139.870338,38.319068],[139.8702,38.319335],[139.870113,38.319651],[139.869963,38.319901],[139.869225,38.320243],[139.868713,38.320435],[139.867738,38.320893],[139.867,38.321485],[139.866713,38.321776],[139.8665,38.322184],[139.866425,38.322818],[139.8663,38.322976],[139.866013,38.323093],[139.865775,38.323251],[139.86575,38.323526],[139.865775,38.323951],[139.865638,38.324992],[139.865438,38.325309],[139.8653,38.325692],[139.865025,38.326076],[139.864675,38.326351],[139.864263,38.326759],[139.863913,38.326926],[139.86305,38.327042],[139.862725,38.327201],[139.862425,38.32745],[139.861875,38.328584],[139.860863,38.3292],[139.860126,38.3295],[139.858913,38.3301],[139.858413,38.330458],[139.858001,38.330825],[139.857401,38.331258],[139.857088,38.331717],[139.856913,38.332167],[139.856588,38.332442],[139.856088,38.33265],[139.855938,38.332741],[139.855276,38.3329],[139.854363,38.333083],[139.853501,38.333],[139.853138,38.332891],[139.852663,38.33285],[139.852388,38.33315],[139.852126,38.333641],[139.851513,38.333941],[139.850651,38.334716],[139.850239,38.334966],[139.849764,38.335199],[139.849001,38.335658],[139.848314,38.336174],[139.848289,38.336266],[139.848176,38.336366],[139.848001,38.336449],[139.847739,38.336607],[139.847539,38.336807],[139.847414,38.337399],[139.847176,38.337891],[139.847201,38.338299],[139.847651,38.338682],[139.848039,38.339565],[139.848089,38.339924],[139.847939,38.34049],[139.847851,38.34114],[139.848051,38.341507],[139.848526,38.342165],[139.848788,38.342707],[139.848888,38.342973],[139.848488,38.342948],[139.847614,38.34299],[139.846076,38.343315],[139.845326,38.343423],[139.844326,38.343323],[139.843151,38.343315],[139.840502,38.343207],[139.839477,38.343023],[139.838439,38.343015],[139.838039,38.343123],[139.837039,38.343881],[139.836502,38.34399],[139.834077,38.344065],[139.832802,38.34419],[139.83144,38.344273],[139.830415,38.344265],[139.829915,38.344215],[139.829115,38.344348],[139.828415,38.344523],[139.827503,38.344873],[139.826953,38.345273],[139.826815,38.346039],[139.826303,38.347506],[139.826252,38.348048],[139.825665,38.349031],[139.82559,38.349572],[139.825627,38.349914],[139.825977,38.350281],[139.825877,38.350456],[139.825702,38.350414],[139.825053,38.350364],[139.824453,38.350406],[139.823778,38.350556],[139.82304,38.351072],[139.822265,38.35138],[139.821478,38.351489],[139.820453,38.351747],[139.819528,38.352172],[139.81909,38.352572],[139.818616,38.353113],[139.818328,38.353605],[139.818128,38.354097],[139.817778,38.354613],[139.817316,38.355155],[139.816866,38.35558],[139.816628,38.355963],[139.816178,38.35603],[139.815403,38.355705],[139.814678,38.355655],[139.813878,38.355446],[139.812953,38.355413],[139.812203,38.355571],[139.810829,38.355713],[139.809716,38.355596],[139.808704,38.355321],[139.807879,38.354996],[139.806704,38.354855],[139.806067,38.35483],[139.805417,38.354688],[139.804567,38.355021],[139.803717,38.355146],[139.802842,38.354713],[139.802017,38.354163],[139.801567,38.353755],[139.801092,38.353596],[139.80063,38.353363],[139.800105,38.352913],[139.79888,38.35198],[139.798305,38.35168],[139.796405,38.351396],[139.795205,38.351046],[139.794205,38.35068],[139.793493,38.35015],[139.792918,38.349721],[139.791693,38.349463],[139.791043,38.348897],[139.790943,38.348872],[139.789768,38.348821],[139.789668,38.348771],[139.789568,38.349113],[139.789256,38.350305],[139.789018,38.350913],[139.788743,38.351071],[139.788043,38.351379],[139.785831,38.352088],[139.785556,38.352404],[139.785418,38.352763],[139.785193,38.352779],[139.784318,38.352954],[139.783369,38.352946],[139.782219,38.352712],[139.780944,38.352929],[139.780031,38.353037],[139.779306,38.353212],[139.778856,38.353504],[139.778469,38.353796],[139.778144,38.353812],[139.777706,38.353562],[139.777231,38.353446],[139.776832,38.353287],[139.776069,38.353462],[139.775469,38.35382],[139.774844,38.354062],[139.774044,38.353987],[139.773244,38.353687],[139.771694,38.353245],[139.771244,38.353087],[139.770795,38.35302],[139.77032,38.353212],[139.769807,38.353754],[139.769457,38.354312],[139.76922,38.354562],[139.76847,38.355004],[139.767632,38.355453],[139.766707,38.356037],[139.76642,38.356437],[139.766295,38.35707],[139.765957,38.357695],[139.765607,38.35817],[139.76502,38.358753],[139.76442,38.359036],[139.763157,38.359911],[139.76212,38.360761],[139.76162,38.361028],[139.76097,38.361111],[139.759045,38.360719],[139.75722,38.360161],[139.756395,38.359928],[139.75562,38.359811],[139.754495,38.359778],[139.753746,38.359911],[139.753121,38.359611],[139.752946,38.359453],[139.752546,38.358911],[139.752271,38.358928],[139.751096,38.359169],[139.750408,38.359411],[139.749758,38.359728],[139.749308,38.360061],[139.748921,38.360511],[139.748496,38.360869],[139.748021,38.361136],[139.747159,38.361511],[139.746709,38.361644],[139.746667,38.361682],[139.746359,38.361744],[139.745959,38.362036],[139.745159,38.362935],[139.744934,38.36311],[139.744646,38.363702],[139.744396,38.364077],[139.743996,38.36446],[139.743484,38.364669],[139.742909,38.364669],[139.742109,38.364619],[139.741246,38.364827],[139.740734,38.365002],[139.740396,38.365502],[139.739821,38.366627],[139.739596,38.366918],[139.738772,38.36746],[139.737972,38.367843],[139.737222,38.368293],[139.736622,38.368785],[139.735484,38.369509],[139.735084,38.369868],[139.734772,38.370651],[139.734684,38.371018],[139.734397,38.371151],[139.734022,38.371243],[139.732934,38.371376],[139.732459,38.371601],[139.732197,38.371826],[139.732059,38.372076],[139.731459,38.373334],[139.730834,38.374009],[139.730572,38.374184],[139.730397,38.374776],[139.730122,38.375559],[139.729747,38.376075],[139.729284,38.376484],[139.728834,38.377134],[139.728922,38.377609],[139.729172,38.3779],[139.729347,38.378217],[139.729409,38.378525],[139.729297,38.379025],[139.731097,38.381425],[139.730672,38.381925],[139.730334,38.382175],[139.729334,38.383208],[139.729297,38.383725],[139.729509,38.384374],[139.729272,38.384641],[139.728272,38.384866],[139.726734,38.386624],[139.726197,38.387724],[139.725647,38.388624],[139.725509,38.389124],[139.725759,38.389616],[139.725972,38.390315],[139.725934,38.390715],[139.725684,38.39119],[139.725772,38.391524],[139.725659,38.391665],[139.725484,38.391707],[139.725197,38.391732],[139.724109,38.39209],[139.723709,38.392565],[139.723372,38.393173],[139.722859,38.39369],[139.722372,38.393982],[139.721372,38.394007],[139.721109,38.393848],[139.720709,38.393415],[139.719822,38.39279],[139.719222,38.392432],[139.718847,38.391957],[139.717647,38.39144],[139.717047,38.391107],[139.71641,38.390232],[139.715473,38.389624],[139.714748,38.389015],[139.714298,38.388432],[139.713748,38.38794],[139.713123,38.38764],[139.71226,38.386815],[139.711423,38.386632],[139.710598,38.38654],[139.710173,38.386632],[139.709773,38.386882],[139.709548,38.38744],[139.705998,38.391606],[139.705523,38.392531],[139.705036,38.392998],[139.704773,38.393698],[139.704686,38.394465],[139.704323,38.395023],[139.704373,38.395314],[139.704698,38.395723],[139.704898,38.396056],[139.704835,38.396531],[139.704498,38.396848],[139.704035,38.397156],[139.703698,38.398056],[139.703385,38.399789],[139.703635,38.400556],[139.70401,38.401164],[139.704135,38.401655],[139.70401,38.402372],[139.704048,38.403164],[139.704223,38.40438],[139.704735,38.405613],[139.705047,38.406472],[139.705485,38.407188],[139.705972,38.407588],[139.706397,38.40788],[139.70766,38.408621],[139.708485,38.409138],[139.709235,38.409863],[139.710472,38.411346],[139.711072,38.411863],[139.711897,38.412446],[139.712047,38.412829],[139.711847,38.413213],[139.711934,38.413904],[139.712359,38.414404],[139.712397,38.414763],[139.712509,38.415163],[139.712909,38.415438],[139.713134,38.415821],[139.713596,38.416871],[139.713934,38.416962],[139.714309,38.417462],[139.714509,38.418021],[139.714684,38.418337],[139.715121,38.418446],[139.715346,38.418629],[139.715396,38.418987],[139.715196,38.419171],[139.714996,38.419437],[139.714934,38.419587],[139.714984,38.419762],[139.715134,38.42012],[139.715309,38.42042],[139.715659,38.420737],[139.716409,38.420945],[139.716484,38.420945],[139.716983,38.421037],[139.717133,38.421287],[139.717221,38.421787],[139.717121,38.42217],[139.716946,38.422479],[139.716708,38.423045],[139.716783,38.423179],[139.716958,38.423404],[139.717033,38.423454],[139.717208,38.423637],[139.717733,38.424312],[139.717946,38.425153],[139.717971,38.425537],[139.717846,38.425737],[139.717733,38.426095],[139.717833,38.42637],[139.718008,38.426595],[139.718283,38.427112],[139.718246,38.427795],[139.718146,38.428103],[139.718246,38.428286],[139.718445,38.428445],[139.718595,38.42867],[139.718558,38.429036],[139.718458,38.429395],[139.718408,38.429686],[139.718208,38.43002],[139.717795,38.430428],[139.717345,38.430603],[139.717145,38.430803],[139.71697,38.431094],[139.716583,38.432336],[139.716645,38.432694],[139.71677,38.432853],[139.71687,38.433286],[139.716845,38.433511],[139.716745,38.433711],[139.71662,38.433827],[139.716483,38.434044],[139.716508,38.434202],[139.716833,38.434594],[139.717008,38.434727],[139.717008,38.434911],[139.716808,38.435269],[139.71682,38.435452],[139.716945,38.435769],[139.71782,38.436519],[139.718045,38.436994],[139.718108,38.43726],[139.718232,38.437602],[139.718432,38.438235],[139.718045,38.438752],[139.71787,38.439177],[139.71782,38.43956],[139.717907,38.440235],[139.718057,38.44071],[139.718057,38.440985],[139.71792,38.442335],[139.717882,38.443101],[139.718045,38.444235],[139.71837,38.445001],[139.718345,38.445409],[139.718057,38.445926],[139.717907,38.446284],[139.717882,38.446526],[139.717744,38.446909],[139.717744,38.447609],[139.717994,38.448151],[139.718307,38.448634],[139.719032,38.449401],[139.719107,38.449717],[139.719319,38.450167],[139.719444,38.450284],[139.719944,38.4506],[139.720044,38.450742],[139.720019,38.450759],[139.719994,38.4511],[139.719819,38.451484],[139.719207,38.452042],[139.719082,38.452084],[139.718557,38.452558],[139.718344,38.452892],[139.717994,38.453608],[139.717632,38.454017],[139.717457,38.454308],[139.717457,38.454533],[139.717607,38.455075],[139.717644,38.455575],[139.717594,38.456133],[139.717519,38.456425],[139.717231,38.457191],[139.717081,38.457391],[139.716956,38.457574],[139.716731,38.457666],[139.716469,38.457841],[139.715794,38.458108],[139.715569,38.458266],[139.715444,38.458441],[139.715331,38.458916],[139.715181,38.459274],[139.715131,38.459657],[139.715306,38.460024],[139.715294,38.460541],[139.715219,38.460949],[139.715244,38.461374],[139.715431,38.462165],[139.715406,38.46239],[139.715094,38.463065],[139.715069,38.463449],[139.715169,38.463715],[139.715669,38.464332],[139.716781,38.465057],[139.717131,38.465223],[139.717856,38.465657],[139.718431,38.465882],[139.719006,38.466248],[139.719081,38.46634],[139.718881,38.466448],[139.718681,38.466498],[139.718606,38.46654],[139.718118,38.466673],[139.718018,38.466715],[139.717168,38.466957],[139.716168,38.467265],[139.715943,38.467381],[139.715681,38.46744],[139.715556,38.467506],[139.714756,38.468181],[139.714393,38.468739],[139.714343,38.469081],[139.714243,38.469348],[139.714043,38.469464],[139.713593,38.469573],[139.713306,38.469814],[139.713231,38.469998],[139.713156,38.470473],[139.713168,38.471081],[139.712943,38.471347],[139.712593,38.471547],[139.712018,38.471839],[139.712231,38.472739],[139.712343,38.473822],[139.712181,38.474955],[139.712181,38.475264],[139.712231,38.475722],[139.712156,38.476055],[139.711943,38.47628],[139.711618,38.476614],[139.711468,38.476839],[139.711418,38.477022],[139.711931,38.477613],[139.712181,38.478113],[139.712393,38.479397],[139.712568,38.479555],[139.712943,38.479763],[139.713243,38.479738],[139.713568,38.479655],[139.714706,38.478963],[139.715031,38.478855],[139.715156,38.478855],[139.715855,38.479013],[139.71633,38.479247],[139.71678,38.479747],[139.717355,38.480088],[139.717405,38.480197],[139.717605,38.48038],[139.717768,38.480605],[139.718093,38.48108],[139.718293,38.481222],[139.718468,38.481422],[139.718718,38.48163],[139.719143,38.482038],[139.719243,38.482105],[139.719418,38.482313],[139.719655,38.482447],[139.720043,38.482513],[139.720568,38.482655],[139.720855,38.482863],[139.72113,38.483513],[139.721305,38.483655],[139.721655,38.483772],[139.722055,38.483813],[139.722705,38.483863],[139.72308,38.483963],[139.72438,38.48453],[139.72463,38.484738],[139.72503,38.485305],[139.725267,38.486005],[139.725492,38.486321],[139.725617,38.486571],[139.725667,38.486821],[139.725555,38.487088],[139.725305,38.487355],[139.725205,38.487563],[139.725255,38.487605],[139.725205,38.487721],[139.725105,38.488013],[139.724942,38.488146],[139.724917,38.488254],[139.725217,38.488646],[139.725317,38.488871],[139.725267,38.489138],[139.724755,38.489654],[139.724705,38.489996],[139.724655,38.490221],[139.72448,38.490421],[139.724105,38.490596],[139.723792,38.490954],[139.723342,38.491271],[139.722642,38.491646],[139.72243,38.491687],[139.72183,38.491954],[139.72098,38.492246],[139.720705,38.492379],[139.72068,38.492537],[139.720592,38.492896],[139.720342,38.493346],[139.720267,38.493662],[139.720355,38.493979],[139.720805,38.494795],[139.720805,38.494904],[139.72093,38.49522],[139.72108,38.495404],[139.721192,38.495695],[139.721317,38.495854],[139.721617,38.496062],[139.721742,38.496195],[139.721767,38.496287],[139.721817,38.496329],[139.722117,38.49672],[139.722504,38.497379],[139.722804,38.497645],[139.723029,38.497829],[139.723329,38.497987],[139.723754,38.49817],[139.723979,38.498195],[139.724504,38.498404],[139.724554,38.498495],[139.724779,38.498679],[139.725229,38.498862],[139.726004,38.49902],[139.726704,38.499229],[139.727704,38.499304],[139.728054,38.499395],[139.728429,38.499537],[139.728829,38.499945],[139.729129,38.500129],[139.729404,38.500195],[139.729829,38.500154],[139.730104,38.500045],[139.731616,38.499804],[139.732841,38.499412],[139.733091,38.499412],[139.733166,38.49957],[139.733241,38.499612],[139.734179,38.501179],[139.734479,38.501853],[139.734804,38.502912],[139.734966,38.50382],[139.735229,38.50417],[139.735854,38.504528],[139.736266,38.504853],[139.736303,38.505353],[139.736416,38.505995],[139.736891,38.506512],[139.737216,38.506795],[139.737116,38.506912],[139.736841,38.507062],[139.736453,38.507037],[139.735678,38.507136],[139.734891,38.507386],[139.734204,38.507528],[139.733441,38.50807],[139.732904,38.50837],[139.732441,38.508986],[139.731779,38.509261],[139.731391,38.509778],[139.731254,38.510036],[139.730654,38.510953],[139.730454,38.511086],[139.730104,38.511603],[139.729841,38.512144],[139.730179,38.513161],[139.730254,38.513736],[139.730591,38.514452],[139.730654,38.515186],[139.730191,38.515811],[139.729654,38.516302],[139.729566,38.516977],[139.729254,38.517277],[139.729004,38.517319],[139.728854,38.518127],[139.728666,38.518485],[139.728154,38.518719],[139.727716,38.519127],[139.727429,38.519452],[139.727579,38.519877],[139.728041,38.520527],[139.728304,38.520785],[139.728904,38.521135],[139.729479,38.521768],[139.730079,38.52266],[139.730679,38.523427],[139.731641,38.525751],[139.731491,38.526343],[139.731141,38.52706],[139.730641,38.527584],[139.730466,38.528076],[139.730828,38.528859],[139.731091,38.529551],[139.731016,38.529768],[139.730878,38.530459],[139.731003,38.531176],[139.730891,38.531534],[139.730428,38.531959],[139.730016,38.532984],[139.729978,38.53325],[139.730141,38.534025],[139.730391,38.53485],[139.730653,38.537017],[139.731041,38.5377],[139.731003,38.53825],[139.731128,38.538891],[139.731703,38.539566],[139.732078,38.540366],[139.732428,38.541266],[139.733053,38.541441],[139.733216,38.541533],[139.733403,38.542083],[139.733603,38.542891],[139.734103,38.543358],[139.734691,38.543766],[139.736016,38.545024],[139.737416,38.546682],[139.738066,38.547224],[139.738653,38.547482],[139.739165,38.547807],[139.73994,38.548599],[139.740653,38.548982],[139.742353,38.549624],[139.74294,38.550049],[139.74359,38.550365],[139.74404,38.550732],[139.744428,38.551315],[139.745015,38.551882],[139.745603,38.552382],[139.74624,38.552849],[139.746553,38.553032],[139.74666,38.552986],[139.746728,38.553024],[139.747165,38.553407],[139.747715,38.554107],[139.748178,38.554573],[139.74879,38.555282],[139.749053,38.555723],[139.749227,38.556431],[139.74954,38.557065],[139.750027,38.557606],[139.750152,38.557673],[139.751465,38.55809],[139.75169,38.558198],[139.752565,38.559189],[139.752827,38.559706],[139.752965,38.560189],[139.752915,38.560664],[139.75269,38.561214],[139.75269,38.561664],[139.752827,38.562239],[139.752665,38.562672],[139.752602,38.563205],[139.753115,38.564347],[139.75409,38.56578],[139.753952,38.566355],[139.753652,38.566947],[139.753577,38.567422],[139.754015,38.568305],[139.754452,38.568888],[139.754577,38.568946],[139.754989,38.569013],[139.754902,38.569746],[139.754714,38.570329],[139.754702,38.570496],[139.754877,38.571021],[139.755439,38.571813],[139.755952,38.572229],[139.756139,38.572479],[139.756839,38.572937],[139.757252,38.573304],[139.757589,38.574062],[139.757752,38.574321],[139.758389,38.574921],[139.759264,38.575412],[139.759851,38.57587],[139.760301,38.576345],[139.760539,38.57707],[139.761251,38.577962],[139.762726,38.579578],[139.763264,38.57997],[139.764114,38.580278],[139.764863,38.580803],[139.765038,38.581037],[139.765726,38.58147],[139.766588,38.581753],[139.767988,38.58247],[139.768526,38.582953],[139.768851,38.583578],[139.769551,38.584111],[139.771038,38.584644],[139.771388,38.584919],[139.771363,38.585378],[139.771163,38.585619],[139.771025,38.585719],[139.770063,38.586111],[139.769888,38.586236],[139.769488,38.586428],[139.768763,38.586936],[139.767838,38.587336],[139.767751,38.587452],[139.768026,38.587861],[139.768113,38.588152],[139.768138,38.588469],[139.767988,38.589027],[139.76745,38.590152],[139.767125,38.591094],[139.766975,38.591294],[139.7668,38.591719],[139.7665,38.59271],[139.7665,38.59311],[139.766713,38.593677],[139.766625,38.593768],[139.766338,38.593943],[139.7662,38.594168],[139.7661,38.594777],[139.7661,38.595176],[139.766463,38.595726],[139.767113,38.596468],[139.767625,38.596701],[139.768175,38.59686],[139.768713,38.597185],[139.769712,38.598001],[139.77025,38.598293],[139.7707,38.598726],[139.7721,38.599793],[139.772562,38.600093],[139.772587,38.600226],[139.772425,38.601101],[139.772425,38.601284],[139.772712,38.601667],[139.772812,38.602234],[139.773187,38.602817],[139.7739,38.603434],[139.774175,38.603776],[139.774862,38.604209],[139.775024,38.604475],[139.775049,38.604817],[139.775162,38.605017],[139.775487,38.605109],[139.776024,38.605117],[139.776887,38.605275],[139.777599,38.605534],[139.778724,38.605809],[139.778862,38.606084],[139.778887,38.606575],[139.779024,38.607117],[139.779137,38.607275],[139.779324,38.607775],[139.779324,38.607975],[139.779437,38.608384],[139.779662,38.608967],[139.779911,38.609375],[139.780361,38.609692],[139.780599,38.6099],[139.780624,38.609967],[139.780361,38.610433],[139.780174,38.611092],[139.780174,38.6112],[139.780024,38.611542],[139.779586,38.611875],[139.779274,38.612166],[139.779011,38.612608],[139.778711,38.613241],[139.778424,38.613708],[139.777924,38.613975],[139.777749,38.614175],[139.778036,38.614491],[139.778774,38.614991],[139.778836,38.615041],[139.778836,38.615199],[139.778486,38.615666],[139.778049,38.615958],[139.777636,38.616183],[139.777286,38.616516],[139.777174,38.616941],[139.777224,38.617349],[139.777336,38.617483],[139.777586,38.617841],[139.777961,38.618141],[139.778249,38.618432],[139.778361,38.618724],[139.778349,38.618932],[139.778236,38.619091],[139.778086,38.619224],[139.777974,38.619582],[139.777911,38.620191],[139.778136,38.620591],[139.778586,38.621091],[139.779061,38.62249],[139.779511,38.623057],[139.780361,38.623832],[139.780948,38.624649],[139.781123,38.62494],[139.781348,38.625707],[139.782098,38.626948],[139.781886,38.62794],[139.781936,38.628573],[139.782398,38.629115],[139.782598,38.629232],[139.782848,38.629548],[139.782923,38.63024],[139.783211,38.630715],[139.783548,38.631106],[139.783773,38.63169],[139.784135,38.632215],[139.784448,38.632731],[139.78481,38.633248],[139.785173,38.633931],[139.785573,38.634448],[139.785973,38.634906],[139.78611,38.634973],[139.786135,38.635039],[139.786098,38.635739],[139.785948,38.636348],[139.78591,38.636931],[139.786023,38.637472],[139.78641,38.638622],[139.786548,38.638847],[139.787097,38.639389],[139.787922,38.640047],[139.788197,38.640639],[139.788372,38.640839],[139.78876,38.641497],[139.788985,38.642155],[139.789322,38.64258],[139.789272,38.64393],[139.78956,38.644455],[139.79036,38.64518],[139.791084,38.64638],[139.791309,38.646605],[139.791459,38.646563],[139.791947,38.64623],[139.792497,38.64578],[139.793109,38.645447],[139.793859,38.64523],[139.794522,38.645147],[139.795334,38.64508],[139.796134,38.644864],[139.797084,38.644714],[139.797922,38.644514],[139.798609,38.644414],[139.799359,38.644147],[139.800059,38.643772],[139.801584,38.643331],[139.802184,38.643422],[139.802496,38.643656],[139.802584,38.643856],[139.802609,38.644372],[139.801771,38.64513],[139.801759,38.645805],[139.802396,38.647414],[139.802559,38.64818],[139.802384,38.648555],[139.802409,38.648738],[139.802834,38.649397],[139.803546,38.649805],[139.804233,38.65013],[139.804833,38.65063],[139.805233,38.650763],[139.805921,38.650547],[139.806783,38.650413],[139.807846,38.650647],[139.809333,38.651022],[139.81017,38.651005],[139.81147,38.650588],[139.812395,38.650347],[139.813545,38.650314],[139.81392,38.649889],[139.814645,38.649622],[139.81557,38.649405],[139.81657,38.64948],[139.81792,38.649897],[139.81907,38.649947],[139.819982,38.65018],[139.820845,38.650139],[139.821882,38.649922],[139.822782,38.649597],[139.82327,38.64953],[139.827119,38.649381],[139.828007,38.649497],[139.828819,38.649506],[139.829819,38.649739],[139.830619,38.650039],[139.831394,38.649889],[139.832257,38.649664],[139.832694,38.649872],[139.833519,38.650739],[139.833544,38.651139],[139.833381,38.651881],[139.833531,38.651864],[139.833731,38.651889],[139.833906,38.652047],[139.833869,38.65218],[139.833894,38.652405],[139.834156,38.652789],[139.834831,38.653472],[139.835744,38.654514],[139.836019,38.654897],[139.836444,38.65533],[139.836906,38.65553],[139.837244,38.655647],[139.837193,38.655988],[139.838243,38.65613],[139.837206,38.661838],[139.836806,38.661479],[139.836781,38.661563],[139.836856,38.662154],[139.836706,38.662646],[139.836756,38.662829],[139.837018,38.663321],[139.835681,38.663762],[139.836281,38.664871],[139.833018,38.665996],[139.831768,38.664121],[139.829518,38.669562],[139.826193,38.677469],[139.825853,38.677847],[139.824831,38.678769],[139.825405,38.679469],[139.824543,38.679985],[139.82618,38.681693],[139.82658,38.681493],[139.82788,38.680685],[139.828168,38.68046],[139.828505,38.679944],[139.829055,38.679877],[139.829168,38.679902],[139.829143,38.68031],[139.829318,38.681002],[139.829368,38.681569],[139.829505,38.682335],[139.829968,38.683818],[139.830417,38.685035],[139.830567,38.685818],[139.830592,38.686851],[139.830505,38.687818],[139.83033,38.68861],[139.82998,38.690018],[139.829655,38.691034],[139.829567,38.691526],[139.829505,38.692267],[139.829567,38.692717],[139.830255,38.694317],[139.83068,38.695059],[139.831429,38.696275],[139.831792,38.69675],[139.832742,38.697742],[139.833404,38.698284],[139.833804,38.69855],[139.834267,38.698959],[139.836529,38.700533],[139.837104,38.701075],[139.837541,38.701667],[139.837616,38.701933],[139.837854,38.702967],[139.837904,38.704341],[139.837879,38.704725],[139.840279,38.706524],[139.840466,38.70385],[139.842966,38.703925],[139.843091,38.701992],[139.845503,38.702042],[139.845741,38.698401],[139.848191,38.698476],[139.848854,38.68791],[139.850154,38.687935],[139.850304,38.685669],[139.851541,38.685719],[139.851541,38.685519],[139.855103,38.685594],[139.855166,38.685277],[139.855141,38.684919],[139.854991,38.684511],[139.854879,38.683952],[139.856491,38.683661],[139.856316,38.683252],[139.856266,38.682961],[139.856354,38.682494],[139.856491,38.681994],[139.856641,38.681777],[139.856704,38.681778],[139.857641,38.682002],[139.858141,38.682044],[139.859753,38.681919],[139.859778,38.681936],[139.859866,38.681669],[139.859978,38.681561],[139.860041,38.681603],[139.860641,38.681669],[139.862016,38.682194],[139.862541,38.682511],[139.862541,38.682686],[139.862416,38.682961],[139.862416,38.683786],[139.862016,38.683969],[139.861666,38.684286],[139.861553,38.684869],[139.861316,38.685319],[139.861141,38.685944],[139.860541,38.68691],[139.860278,38.687402],[139.860215,38.689135],[139.860353,38.69071],[139.860328,38.69116],[139.860353,38.69156],[139.860465,38.691877],[139.86069,38.69231],[139.86089,38.692843],[139.862152,38.695726],[139.862377,38.696451],[139.862415,38.696876],[139.862527,38.697434],[139.862752,38.697934],[139.862865,38.698093],[139.86309,38.698559],[139.863265,38.699376],[139.863177,38.699376],[139.862827,38.699459],[139.862602,38.699684],[139.862515,38.700359],[139.862452,38.700492],[139.86229,38.700467],[139.86214,38.700517],[139.861827,38.700809],[139.861477,38.701325],[139.860865,38.702067],[139.860752,38.70215],[139.860465,38.702584],[139.85894,38.70435],[139.859077,38.705183],[139.859127,38.706017],[139.859277,38.707208],[139.85924,38.707366],[139.859327,38.707841],[139.859327,38.708441],[139.859264,38.708533],[139.859127,38.7091],[139.858802,38.710283],[139.858802,38.710824],[139.858714,38.711341],[139.858514,38.712624],[139.858364,38.713841],[139.858214,38.714757],[139.857889,38.716015],[139.857314,38.717324],[139.856702,38.718282],[139.856189,38.71889],[139.855327,38.719723],[139.854777,38.720373],[139.854339,38.720798],[139.853614,38.721423],[139.853014,38.722006],[139.852664,38.722406],[139.851489,38.723331],[139.851077,38.723798],[139.850964,38.723998],[139.850527,38.724447],[139.850214,38.724922],[139.849689,38.725889],[139.849139,38.72723],[139.848764,38.729347],[139.848789,38.731796],[139.849014,38.732896],[139.849839,38.733238],[139.850764,38.733463],[139.851714,38.733621],[139.852439,38.733788],[139.852664,38.73403],[139.852714,38.734305],[139.856688,38.734496],[139.856538,38.735171],[139.856576,38.735913],[139.856488,38.736363],[139.856513,38.736696],[139.856313,38.737079],[139.856138,38.737188],[139.854726,38.738354],[139.854288,38.738396],[139.853651,38.738396],[139.853451,38.738354],[139.852389,38.738262],[139.851676,38.738254],[139.849276,38.738454],[139.848277,38.738446],[139.846202,38.738554],[139.846064,38.73867],[139.846139,38.738937],[139.846464,38.739612],[139.846514,38.740037],[139.846489,38.740404],[139.846402,38.740737],[139.846364,38.741095],[139.846452,38.741228],[139.846851,38.741528],[139.847626,38.74202],[139.849476,38.743087],[139.849901,38.743153],[139.850651,38.743087],[139.851114,38.743087],[139.851776,38.742887],[139.852176,38.743003],[139.853301,38.74312],[139.853788,38.743028],[139.854276,38.743095],[139.854763,38.743253],[139.855076,38.743328],[139.855776,38.743553],[139.856488,38.743887],[139.857125,38.744278],[139.8577,38.744903],[139.857975,38.74572],[139.857975,38.746161],[139.857688,38.747353],[139.857113,38.748145],[139.856275,38.748744],[139.855413,38.749261],[139.855375,38.749303],[139.855175,38.749394],[139.854026,38.749728],[139.853388,38.749836],[139.852701,38.749861],[139.852188,38.750019],[139.851726,38.750194],[139.851113,38.750486],[139.849701,38.751311],[139.849276,38.751627],[139.849076,38.751869],[139.848751,38.752527],[139.848726,38.75266],[139.848751,38.752885],[139.848638,38.753319],[139.848576,38.753652],[139.848576,38.75406],[139.848888,38.754752],[139.849663,38.756268],[139.850026,38.756535],[139.850201,38.756627],[139.850751,38.757077],[139.850951,38.757485],[139.851113,38.758227],[139.851351,38.758743],[139.852063,38.759626],[139.852313,38.760143],[139.852513,38.76041],[139.852688,38.761068],[139.85315,38.761718],[139.853313,38.762059],[139.853575,38.763001],[139.8538,38.763451],[139.853963,38.764626],[139.854025,38.764809],[139.854025,38.764959],[139.853875,38.765592],[139.8539,38.766309],[139.853838,38.766626],[139.853813,38.767192],[139.853663,38.767642],[139.853463,38.768042],[139.8528,38.769167],[139.851838,38.770292],[139.851613,38.770625],[139.85115,38.77105],[139.850188,38.771842],[139.8497,38.77215],[139.849413,38.772308],[139.849238,38.772425],[139.848575,38.772758],[139.848001,38.773208],[139.847138,38.773875],[139.846126,38.774458],[139.845863,38.774683],[139.845513,38.774908],[139.845088,38.775333],[139.844851,38.775649],[139.844738,38.775716],[139.844326,38.776391],[139.843776,38.777849],[139.843663,38.778799],[139.843563,38.780307],[139.843413,38.780982],[139.843438,38.782649],[139.843263,38.78269],[139.842888,38.78269],[139.842313,38.78264],[139.841139,38.782615],[139.840676,38.782574],[139.840189,38.782857],[139.839876,38.782682],[139.839614,38.782632],[139.839351,38.782699],[139.839176,38.782565],[139.839126,38.782474],[139.839064,38.782157],[139.838901,38.781757],[139.838376,38.78094],[139.838326,38.780674],[139.838376,38.780632],[139.838389,38.780265],[139.838301,38.780157],[139.837576,38.78004],[139.837526,38.780082],[139.837426,38.781232],[139.837289,38.781299],[139.834927,38.781224],[139.834577,38.781249],[139.834289,38.78129],[139.834227,38.781899],[139.834177,38.782548],[139.834089,38.782957],[139.834002,38.782957],[139.833989,38.783448],[139.833902,38.783815],[139.833789,38.783832],[139.831752,38.78374],[139.831664,38.784215],[139.831627,38.784615],[139.829677,38.784523],[139.829015,38.784473],[139.827565,38.784448],[139.827227,38.784423],[139.82714,38.784673],[139.826965,38.784648],[139.826015,38.784715],[139.82509,38.784715],[139.824777,38.78469],[139.824552,38.784706],[139.82449,38.78444],[139.824515,38.784081],[139.82449,38.783948],[139.823715,38.783923],[139.823077,38.78394],[139.82279,38.783915],[139.822765,38.783873],[139.822478,38.783806],[139.821265,38.783781],[139.82084,38.783756],[139.820553,38.783756],[139.82049,38.783773],[139.820315,38.783956],[139.820115,38.78409],[139.820053,38.784698],[139.82009,38.784723],[139.819765,38.784723],[139.819278,38.784856],[139.818328,38.785323],[139.817915,38.785573],[139.817753,38.785723],[139.81769,38.785948],[139.81769,38.786423],[139.816878,38.786464],[139.816853,38.786623],[139.816878,38.786714],[139.816815,38.786964],[139.81679,38.787298],[139.815815,38.787298],[139.815065,38.787231],[139.81504,38.787248],[139.815015,38.786506],[139.814953,38.786414],[139.81464,38.786398],[139.814003,38.786439],[139.813915,38.786481],[139.813853,38.786731],[139.813566,38.786231],[139.813603,38.785989],[139.813716,38.785739],[139.813866,38.785515],[139.813866,38.785265],[139.813603,38.785106],[139.813116,38.784998],[139.812691,38.78484],[139.812191,38.784698],[139.811791,38.784656],[139.811528,38.78474],[139.811278,38.785031],[139.810953,38.785281],[139.811041,38.785481],[139.811703,38.785981],[139.812128,38.786231],[139.811753,38.786273],[139.811416,38.786206],[139.811353,38.786231],[139.811491,38.786764],[139.812003,38.788139],[139.812003,38.788231],[139.811053,38.788389],[139.810878,38.788389],[139.810391,38.788497],[139.809728,38.788606],[139.809891,38.790389],[139.810003,38.79088],[139.810165,38.79343],[139.81034,38.794397],[139.810503,38.794755],[139.810628,38.794913],[139.81074,38.79498],[139.812178,38.79503],[139.812465,38.795005],[139.812903,38.794805],[139.814203,38.793905],[139.81454,38.793614],[139.815153,38.793239],[139.815665,38.792989],[139.816165,38.79283],[139.816453,38.792814],[139.81699,38.792997],[139.817515,38.793247],[139.817715,38.793222],[139.817977,38.793039],[139.818402,38.793022],[139.818752,38.79313],[139.81889,38.793047],[139.81904,38.793089],[139.81909,38.793514],[139.81929,38.793697],[139.81964,38.793814],[139.82004,38.793989],[139.820215,38.794239],[139.820065,38.794488],[139.820065,38.794805],[139.820327,38.795072],[139.820615,38.795255],[139.820702,38.795572],[139.820577,38.795863],[139.82064,38.796247],[139.82084,38.796338],[139.821152,38.796422],[139.82149,38.797396],[139.821602,38.797688],[139.822102,38.798005],[139.823039,38.798955],[139.823264,38.799288],[139.823327,38.799563],[139.823264,38.799855],[139.823089,38.800163],[139.823002,38.800679],[139.821252,38.801088],[139.820989,38.801129],[139.821127,38.801513],[139.821302,38.801829],[139.820639,38.801963],[139.820577,38.802188],[139.820639,38.802612],[139.821064,38.803871],[139.821227,38.804212],[139.821489,38.804529],[139.821664,38.804571],[139.821952,38.804529],[139.822789,38.804237],[139.823052,38.804371],[139.823127,38.804687],[139.823127,38.804979],[139.823526,38.805362],[139.823526,38.805412],[139.823876,38.80577],[139.824189,38.806337],[139.824364,38.80672],[139.824276,38.806879],[139.824014,38.806962],[139.823839,38.806945],[139.823414,38.806762],[139.823064,38.806487],[139.822864,38.806395],[139.822489,38.806154],[139.822177,38.806154],[139.822114,38.80622],[139.822227,38.806462],[139.822489,38.806762],[139.823026,38.807229],[139.823439,38.80737],[139.823976,38.807529],[139.824301,38.807795],[139.824239,38.808087],[139.823926,38.808137],[139.823351,38.808045],[139.823139,38.807837],[139.823064,38.807545],[139.822889,38.807345],[139.822801,38.807345],[139.822451,38.807479],[139.822689,38.807745],[139.822914,38.808128],[139.823026,38.808445],[139.823401,38.808628],[139.823914,38.809012],[139.824489,38.809328],[139.824776,38.809645],[139.824751,38.80967],[139.824139,38.809687],[139.823564,38.809795],[139.823451,38.809795],[139.823451,38.809953],[139.823676,38.809953],[139.824714,38.809803],[139.824801,38.809845],[139.824864,38.810003],[139.824864,38.81032],[139.824689,38.811036],[139.824476,38.811445],[139.824364,38.811828],[139.824276,38.811961],[139.824051,38.812186],[139.823701,38.812386],[139.823439,38.812653],[139.823551,38.813153],[139.823864,38.813628],[139.823889,38.814028],[139.823314,38.814594],[139.82303,38.815148],[139.822789,38.816011],[139.822701,38.816319],[139.822764,38.816686],[139.823339,38.817177],[139.824113,38.817744],[139.824601,38.818169],[139.824626,38.818419],[139.824338,38.818511],[139.823838,38.818527],[139.823813,38.81865],[139.823731,38.818989],[139.823638,38.81941],[139.823288,38.819744],[139.822863,38.819927],[139.822426,38.819877],[139.822051,38.819985],[139.821789,38.820169],[139.821326,38.820302],[139.820089,38.820235],[139.819639,38.820094],[139.819089,38.820052],[139.818626,38.820069],[139.818226,38.820294],[139.817726,38.820719],[139.817414,38.820944],[139.816976,38.820919],[139.816664,38.820985],[139.815914,38.82146],[139.815277,38.822135],[139.815102,38.822443],[139.815164,38.822602],[139.815526,38.82281],[139.815989,38.822918],[139.816164,38.82306],[139.815964,38.82351],[139.815589,38.823735],[139.815014,38.82366],[139.814577,38.82366],[139.814377,38.823727],[139.814352,38.823976],[139.814601,38.824385],[139.815151,38.82501],[139.815051,38.82616],[139.815139,38.826518],[139.815514,38.826968],[139.815914,38.827376],[139.816139,38.827809],[139.816164,38.828101],[139.816139,38.828209],[139.815676,38.828551],[139.815189,38.828793],[139.815076,38.828951],[139.814901,38.829559],[139.814864,38.829559],[139.814689,38.830076],[139.814514,38.830792],[139.814489,38.831109],[139.814364,38.831492],[139.814339,38.832434],[139.814214,38.833609],[139.814376,38.83545],[139.814514,38.836058],[139.814614,38.836208],[139.814776,38.837458],[139.814639,38.838225],[139.814464,38.838692],[139.814051,38.839166],[139.813564,38.839525],[139.813151,38.8399],[139.812664,38.840533],[139.812801,38.8408],[139.813326,38.840758],[139.814914,38.840491],[139.815889,38.840358],[139.818401,38.83985],[139.819413,38.839608],[139.820288,38.8393],[139.820776,38.839183],[139.821551,38.838942],[139.822388,38.838492],[139.822713,38.838183],[139.822938,38.837417],[139.823126,38.836542],[139.823263,38.836209],[139.823276,38.836125],[139.823213,38.836059],[139.823338,38.835817],[139.823426,38.835542],[139.823738,38.835075],[139.824025,38.834734],[139.824925,38.833951],[139.825675,38.833501],[139.8268,38.833101],[139.828075,38.832784],[139.828238,38.832717],[139.82965,38.832434],[139.830375,38.832184],[139.8311,38.831851],[139.83245,38.831468],[139.832862,38.831243],[139.833575,38.830709],[139.8341,38.830376],[139.835112,38.829743],[139.836325,38.829051],[139.838749,38.827527],[139.838924,38.827343],[139.839699,38.82681],[139.839899,38.826627],[139.840799,38.825393],[139.840924,38.825127],[139.840949,38.824877],[139.841037,38.824719],[139.841437,38.824677],[139.842674,38.824452],[139.842824,38.82441],[139.842824,38.824344],[139.843024,38.824277]]],"type":"Polygon"},"properties":{"yomi":"ひがしたがわ","name":"東田川","pref":"山形県","kuni_id":"K32","id_url":"G32004.html","kuni_url":"/kg/resource/K32.html","id":"G32004","kuni":"羽前"}}],"type":"FeatureCollection"}