{"features":[{"type":"Feature","geometry":{"coordinates":[[[136.707943,36.76194],[136.713315,36.759671],[136.72085,36.757633],[136.731577,36.755329],[136.736808,36.754532],[136.744899,36.753333],[136.748422,36.751774],[136.751492,36.748958],[136.754511,36.746042],[136.758034,36.743829],[136.760901,36.742409],[136.764682,36.740287],[136.767153,36.738512],[136.768109,36.737679],[136.769475,36.736735],[136.7705,36.735752],[136.773042,36.73018],[136.776327,36.725213],[136.780263,36.721771],[136.784609,36.719559],[136.789624,36.717547],[136.789999,36.717347],[136.790611,36.717106],[136.791574,36.716631],[136.792086,36.715931],[136.792424,36.715664],[136.793261,36.715598],[136.793323,36.715581],[136.793548,36.715239],[136.793973,36.714315],[136.793898,36.713815],[136.794036,36.713748],[136.794348,36.713681],[136.794936,36.713373],[136.795386,36.713331],[136.795898,36.713173],[136.796373,36.71284],[136.796598,36.712723],[136.796886,36.712407],[136.797223,36.712115],[136.797586,36.71164],[136.797761,36.711257],[136.797898,36.711082],[136.797848,36.711057],[136.798548,36.710199],[136.798811,36.70984],[136.799798,36.709507],[136.801148,36.708974],[136.801873,36.708749],[136.802948,36.708599],[136.803873,36.708557],[136.804048,36.707899],[136.80436,36.707433],[136.804723,36.706958],[136.805485,36.706149],[136.806898,36.705025],[136.807773,36.704508],[136.80831,36.704283],[136.808985,36.704133],[136.80966,36.704017],[136.810585,36.703958],[136.811622,36.703508],[136.812685,36.703383],[136.813847,36.702009],[136.814222,36.701509],[136.814584,36.701109],[136.815547,36.700476],[136.815659,36.700276],[136.815359,36.699801],[136.814822,36.699092],[136.814409,36.698734],[136.81396,36.698801],[136.813735,36.698792],[136.813135,36.696851],[136.813047,36.696284],[136.812685,36.695734],[136.81216,36.695234],[136.811497,36.694459],[136.811247,36.693984],[136.811222,36.69331],[136.811785,36.692568],[136.812322,36.692001],[136.811772,36.691343],[136.81136,36.690502],[136.81116,36.689602],[136.811085,36.688785],[136.810985,36.688152],[136.810397,36.687402],[136.810035,36.686994],[136.809947,36.686719],[136.81006,36.686452],[136.810685,36.685435],[136.810972,36.685052],[136.811422,36.684786],[136.812097,36.684652],[136.814572,36.684502],[136.81501,36.684644],[136.816272,36.685461],[136.816922,36.685561],[136.817197,36.685536],[136.817734,36.685336],[136.818684,36.684644],[136.819247,36.684328],[136.820122,36.684153],[136.820572,36.683953],[136.820659,36.683886],[136.821171,36.682578],[136.821396,36.682103],[136.821546,36.681945],[136.822109,36.681586],[136.822584,36.68107],[136.822584,36.680728],[136.822471,36.68057],[136.821584,36.679703],[136.821509,36.679228],[136.821759,36.678395],[136.821771,36.677828],[136.821709,36.677645],[136.821434,36.677129],[136.821072,36.676854],[136.820734,36.676445],[136.820609,36.675787],[136.820559,36.675062],[136.820609,36.674704],[136.820809,36.674404],[136.821122,36.674162],[136.821572,36.674004],[136.822384,36.673987],[136.822746,36.673896],[136.822884,36.673721],[136.823071,36.672521],[136.823184,36.672388],[136.823721,36.670738],[136.823784,36.670288],[136.823759,36.669713],[136.823796,36.669655],[136.823771,36.669196],[136.823497,36.668946],[136.822509,36.668271],[136.821959,36.667971],[136.821484,36.667771],[136.820722,36.667588],[136.819972,36.667563],[136.818935,36.667696],[136.818822,36.667671],[136.81851,36.667513],[136.818372,36.667171],[136.817872,36.666313],[136.817535,36.665388],[136.817085,36.664955],[136.816585,36.664547],[136.815885,36.663705],[136.815772,36.663305],[136.815972,36.662847],[136.81646,36.662222],[136.816485,36.661947],[136.816322,36.661589],[136.815947,36.661222],[136.815423,36.660905],[136.814973,36.660497],[136.814673,36.659955],[136.814273,36.659414],[136.814085,36.65923],[136.81391,36.659205],[136.813635,36.659272],[136.81316,36.659314],[136.812685,36.659222],[136.812398,36.658997],[136.811923,36.658814],[136.811473,36.658789],[136.811285,36.658722],[136.810448,36.658064],[136.810336,36.657814],[136.810311,36.657389],[136.810061,36.656956],[136.809223,36.655756],[136.808298,36.654672],[136.807398,36.653897],[136.807261,36.653106],[136.807298,36.652864],[136.807636,36.651939],[136.807886,36.651689],[136.808673,36.651806],[136.809173,36.651739],[136.809436,36.651648],[136.809461,36.651489],[136.809323,36.651198],[136.808536,36.650606],[136.808398,36.650473],[136.808011,36.64929],[136.807848,36.648481],[136.807398,36.647707],[136.807036,36.64739],[136.806611,36.647232],[136.805911,36.64719],[136.805136,36.647248],[136.804374,36.647456],[136.803899,36.647656],[136.803386,36.647606],[136.802499,36.647315],[136.802161,36.647156],[136.801712,36.647015],[136.801074,36.646698],[136.800624,36.64629],[136.800424,36.646015],[136.800287,36.645473],[136.799674,36.644432],[136.799762,36.643873],[136.799899,36.643507],[136.799737,36.642199],[136.799937,36.641857],[136.799974,36.641299],[136.799774,36.640232],[136.799724,36.639507],[136.799749,36.639057],[136.800087,36.638541],[136.800149,36.638224],[136.800299,36.636508],[136.799424,36.635849],[136.799012,36.635641],[136.798537,36.635533],[136.798,36.635508],[136.797725,36.635441],[136.797612,36.635349],[136.797612,36.635141],[136.797775,36.634741],[136.797725,36.634399],[136.79745,36.63395],[136.797087,36.633541],[136.796912,36.633425],[136.7961,36.633216],[136.79555,36.633016],[136.7951,36.632766],[136.794825,36.632516],[136.794788,36.632383],[136.794913,36.631725],[136.79485,36.631566],[136.794513,36.631183],[136.7941,36.631],[136.793625,36.630883],[136.79325,36.630925],[136.792325,36.631358],[136.791888,36.631308],[136.791188,36.631016],[136.790238,36.630533],[136.788801,36.629925],[136.788026,36.629783],[136.786001,36.629575],[136.785339,36.628875],[136.784976,36.628575],[136.784226,36.627441],[136.784251,36.626975],[136.784876,36.626067],[136.784989,36.625825],[136.784789,36.625417],[136.784126,36.624484],[136.784126,36.624192],[136.784289,36.623384],[136.784376,36.622859],[136.784377,36.622367],[136.784302,36.621892],[136.784389,36.621234],[136.784277,36.620759],[136.784139,36.620376],[136.784364,36.620017],[136.784614,36.619717],[136.784589,36.619359],[136.783952,36.618609],[136.783927,36.618209],[136.783977,36.617668],[136.783727,36.617393],[136.783339,36.617276],[136.783164,36.617118],[136.783089,36.616759],[136.783289,36.616468],[136.783539,36.616285],[136.783289,36.615493],[136.783452,36.614993],[136.783852,36.614568],[136.784777,36.613918],[136.785727,36.613577],[136.785852,36.613377],[136.785602,36.61281],[136.785652,36.612094],[136.785682,36.611696],[136.785664,36.610935],[136.785802,36.610419],[136.786202,36.609519],[136.786177,36.609019],[136.786227,36.608661],[136.786739,36.608436],[136.787376,36.608028],[136.787601,36.607711],[136.787664,36.607103],[136.787976,36.606744],[136.788564,36.606453],[136.789014,36.606111],[136.789289,36.605636],[136.789514,36.60537],[136.790026,36.604961],[136.790726,36.60422],[136.790926,36.603795],[136.790926,36.603412],[136.790839,36.60307],[136.790151,36.602595],[136.789726,36.602437],[136.788801,36.602412],[136.788526,36.602295],[136.788501,36.602045],[136.788726,36.601662],[136.788889,36.601462],[136.789114,36.601079],[136.789289,36.60042],[136.789264,36.600195],[136.789064,36.599562],[136.789014,36.59902],[136.789064,36.598521],[136.789214,36.598029],[136.789414,36.597779],[136.789526,36.597512],[136.789214,36.597054],[136.788689,36.596104],[136.788602,36.595813],[136.788552,36.594438],[136.788577,36.594163],[136.788364,36.592988],[136.788452,36.592713],[136.788789,36.592563],[136.789426,36.592446],[136.789901,36.592313],[136.790189,36.59198],[136.790251,36.591438],[136.790076,36.591138],[136.790251,36.591097],[136.790726,36.591055],[136.791951,36.590713],[136.792514,36.590538],[136.792826,36.590197],[136.793476,36.589997],[136.794089,36.589955],[136.794226,36.589755],[136.794014,36.588964],[136.794039,36.588647],[136.794176,36.588305],[136.794489,36.587856],[136.794689,36.587497],[136.794689,36.587131],[136.794576,36.586406],[136.794601,36.586389],[136.794589,36.586347],[136.795026,36.585614],[136.795276,36.585089],[136.795351,36.584423],[136.795239,36.583323],[136.795026,36.582748],[136.794701,36.582215],[136.794189,36.581806],[136.793664,36.581298],[136.793239,36.580698],[136.793064,36.58024],[136.793114,36.579948],[136.793301,36.57949],[136.793439,36.57879],[136.793939,36.576874],[136.794014,36.575749],[136.793801,36.575266],[136.793476,36.575099],[136.792889,36.574057],[136.792864,36.573583],[136.792664,36.573099],[136.791752,36.571824],[136.791352,36.571166],[136.791127,36.57055],[136.791002,36.56995],[136.791089,36.569491],[136.791514,36.56905],[136.792027,36.568858],[136.792289,36.568708],[136.792564,36.568375],[136.792714,36.568258],[136.793539,36.5686],[136.794464,36.568642],[136.795389,36.568775],[136.796239,36.568833],[136.796789,36.56895],[136.797076,36.569158],[136.797276,36.569458],[136.797576,36.569625],[136.798351,36.569875],[136.799151,36.569942],[136.799863,36.569833],[136.800501,36.5697],[136.801363,36.569475],[136.802001,36.569025],[136.802438,36.568809],[136.802551,36.568642],[136.802551,36.568317],[136.802663,36.567717],[136.802763,36.567542],[136.803126,36.567076],[136.8035,36.566709],[136.804288,36.566401],[136.804975,36.566051],[136.805213,36.565709],[136.805388,36.565184],[136.806063,36.564584],[136.806863,36.563451],[136.807488,36.56241],[136.807613,36.562268],[136.80785,36.562077],[136.808187,36.56201],[136.8086,36.561993],[136.809575,36.561452],[136.81025,36.561252],[136.810487,36.561227],[136.811062,36.561085],[136.811575,36.560752],[136.811775,36.56056],[136.811825,36.56006],[136.812112,36.559311],[136.81255,36.558652],[136.813599,36.557411],[136.814074,36.556903],[136.814924,36.556236],[136.815399,36.555878],[136.815512,36.555745],[136.815787,36.554703],[136.815999,36.554203],[136.816299,36.553687],[136.817137,36.552737],[136.817199,36.552354],[136.817149,36.551904],[136.816849,36.551237],[136.81665,36.550704],[136.8166,36.550271],[136.816712,36.548696],[136.816662,36.548154],[136.816587,36.547929],[136.816237,36.547488],[136.8158,36.547121],[136.815388,36.546571],[136.814975,36.545663],[136.814625,36.544688],[136.814213,36.544122],[136.81415,36.543605],[136.813113,36.541739],[136.812688,36.540747],[136.812576,36.540106],[136.812663,36.538872],[136.812776,36.538456],[136.812776,36.538264],[136.812664,36.537873],[136.812301,36.537498],[136.811951,36.537264],[136.811714,36.536406],[136.811589,36.536115],[136.810776,36.534698],[136.810377,36.533673],[136.809702,36.53299],[136.808902,36.53234],[136.808527,36.531881],[136.808289,36.531373],[136.808252,36.531206],[136.807589,36.530331],[136.807527,36.53019],[136.807502,36.529065],[136.807389,36.52849],[136.806352,36.527515],[136.805777,36.526323],[136.80549,36.525415],[136.805277,36.52499],[136.804402,36.52459],[136.804302,36.52444],[136.804102,36.523515],[136.804052,36.522915],[136.803877,36.52249],[136.80319,36.522032],[136.80244,36.521265],[136.80189,36.520865],[136.80134,36.520648],[136.800865,36.520698],[136.800415,36.520832],[136.800065,36.52099],[136.799803,36.521048],[136.799778,36.520532],[136.799965,36.518673],[136.799915,36.518265],[136.799503,36.517807],[136.799253,36.517398],[136.799115,36.516748],[136.799165,36.51624],[136.799265,36.515849],[136.799215,36.515649],[136.798178,36.51394],[136.797703,36.513407],[136.797203,36.51299],[136.79694,36.51284],[136.796128,36.512874],[136.796328,36.512399],[136.79634,36.512065],[136.796053,36.511582],[136.795378,36.511182],[136.795065,36.510957],[136.795003,36.510632],[136.795028,36.510107],[136.794778,36.509349],[136.794728,36.508857],[136.794815,36.508274],[136.794953,36.507899],[136.795465,36.507549],[136.795903,36.507283],[136.796178,36.507024],[136.796215,36.506641],[136.796078,36.506166],[136.795565,36.505608],[136.79564,36.504975],[136.795928,36.504433],[136.796165,36.504133],[136.796278,36.503883],[136.796315,36.503366],[136.796253,36.503066],[136.79629,36.503016],[136.79634,36.502566],[136.796815,36.50225],[136.796903,36.502117],[136.796878,36.501667],[136.796578,36.5009],[136.796515,36.500333],[136.796041,36.498734],[136.796041,36.497817],[136.795778,36.497592],[136.795303,36.497409],[136.794741,36.497317],[136.794066,36.497092],[136.793891,36.496984],[136.794541,36.496625],[136.795066,36.496059],[136.795328,36.495451],[136.795566,36.494592],[136.795616,36.494009],[136.795728,36.493542],[136.797178,36.492751],[136.797816,36.492326],[136.798203,36.491943],[136.798816,36.490968],[136.798841,36.490793],[136.799053,36.490343],[136.799253,36.490251],[136.799778,36.490384],[136.80029,36.490568],[136.80084,36.490584],[136.801515,36.490651],[136.802515,36.490293],[136.802553,36.490226],[136.802315,36.489143],[136.802365,36.488626],[136.80254,36.488226],[136.802565,36.488043],[136.80254,36.48786],[136.80224,36.487368],[136.801915,36.486652],[136.80189,36.48611],[136.80224,36.485743],[136.802715,36.48541],[136.802853,36.485185],[136.802765,36.484868],[136.802415,36.484619],[136.801765,36.484327],[136.801615,36.483969],[136.801415,36.483719],[136.800441,36.483519],[136.800028,36.483252],[136.799766,36.482935],[136.799503,36.482152],[136.799441,36.481494],[136.799316,36.481019],[136.798966,36.480569],[136.798491,36.480194],[136.798316,36.479944],[136.798253,36.479652],[136.797791,36.478911],[136.797516,36.477942],[136.796122,36.479486],[136.794287,36.48032],[136.791505,36.480375],[136.789447,36.480375],[136.786833,36.480486],[136.785053,36.481153],[136.783607,36.483321],[136.782105,36.485266],[136.780658,36.486267],[136.778322,36.487045],[136.775152,36.487267],[136.773094,36.487656],[136.770145,36.489435],[136.768644,36.491435],[136.768157,36.493137],[136.767323,36.494304],[136.765765,36.495138],[136.763039,36.495638],[136.759646,36.496305],[136.757978,36.497806],[136.75642,36.49914],[136.754251,36.499529],[136.751247,36.500529],[136.748466,36.502252],[136.746908,36.502308],[136.745406,36.501363],[136.744794,36.500752],[136.745518,36.499918],[136.746129,36.498751],[136.746129,36.497306],[136.745406,36.496528],[136.743571,36.496194],[136.740511,36.496528],[136.738231,36.497806],[136.735227,36.501419],[136.73328,36.504086],[136.732724,36.505865],[136.733002,36.506532],[136.733836,36.506587],[136.735283,36.505698],[136.736618,36.504531],[136.737508,36.50442],[136.737953,36.505198],[136.737953,36.506587],[136.736832,36.510959],[136.735664,36.514182],[136.73494,36.517406],[136.732437,36.518629],[136.730824,36.519129],[136.728933,36.520963],[136.728933,36.52163],[136.729322,36.522186],[136.729545,36.523242],[136.729155,36.524575],[136.727932,36.525631],[136.725807,36.528446],[136.722025,36.534004],[136.719633,36.540006],[136.719355,36.542785],[136.718743,36.545564],[136.717059,36.5476],[136.712664,36.551379],[136.710773,36.553324],[136.709271,36.555436],[136.707825,36.558548],[136.705656,36.56016],[136.70293,36.56155],[136.700872,36.561772],[136.699299,36.563691],[136.696741,36.565303],[136.692958,36.566637],[136.690288,36.56886],[136.688564,36.571027],[136.687512,36.5743],[136.686849,36.576551],[136.686761,36.578846],[136.686098,36.580833],[136.685568,36.58326],[136.685758,36.585511],[136.686207,36.588831],[136.685399,36.591164],[136.685399,36.594216],[136.684411,36.59628],[136.683513,36.599151],[136.683153,36.603549],[136.683872,36.605882],[136.685489,36.609741],[136.687195,36.612613],[136.688812,36.616831],[136.689081,36.619971],[136.688902,36.622125],[136.688363,36.623023],[136.687285,36.623471],[136.685309,36.622843],[136.682884,36.622215],[136.681627,36.620959],[136.679651,36.618266],[136.676507,36.614946],[136.673902,36.612702],[136.671208,36.611536],[136.669412,36.612164],[136.668334,36.61369],[136.666537,36.616292],[136.664292,36.619702],[136.632279,36.6526],[136.63284,36.652901],[136.63349,36.653643],[136.633952,36.654276],[136.634415,36.654692],[136.636115,36.657209],[136.63644,36.657576],[136.637027,36.658059],[136.63744,36.658484],[136.638314,36.65955],[136.638964,36.660542],[136.639177,36.661],[136.639639,36.661625],[136.641077,36.663333],[136.641564,36.663933],[136.642252,36.665],[136.642464,36.66525],[136.642952,36.665441],[136.643727,36.66605],[136.643779,36.666173],[136.643814,36.666308],[136.643789,36.666366],[136.643439,36.666666],[136.643239,36.666783],[136.643239,36.666825],[136.643364,36.666958],[136.643714,36.667141],[136.644314,36.667583],[136.644489,36.667866],[136.644614,36.668183],[136.644801,36.668491],[136.645076,36.668649],[136.645439,36.668924],[136.645826,36.669299],[136.646138,36.669559],[136.646465,36.669974],[136.64688,36.67038],[136.647393,36.671069],[136.647701,36.671507],[136.648039,36.672024],[136.648464,36.672557],[136.649101,36.673249],[136.649489,36.673566],[136.649776,36.673916],[136.650039,36.674457],[136.650223,36.674605],[136.650351,36.674724],[136.650955,36.67574],[136.651276,36.67629],[136.651651,36.676807],[136.651963,36.67739],[136.652638,36.678982],[136.653338,36.679715],[136.653913,36.680207],[136.654201,36.68059],[136.654226,36.680723],[136.654463,36.681173],[136.654713,36.681531],[136.655088,36.681906],[136.655351,36.682331],[136.655463,36.682598],[136.655776,36.68309],[136.656263,36.683565],[136.657176,36.684614],[136.657526,36.685148],[136.657588,36.685556],[136.657725,36.685823],[136.658725,36.686781],[136.659213,36.687289],[136.660375,36.688381],[136.660775,36.688872],[136.662325,36.691447],[136.663725,36.69333],[136.663987,36.69378],[136.664325,36.694197],[136.664812,36.694672],[136.665837,36.695713],[136.666924,36.697397],[136.667074,36.69778],[136.667449,36.698497],[136.668112,36.699413],[136.668349,36.699695],[136.668512,36.699905],[136.66862,36.700095],[136.668737,36.700305],[136.669287,36.701113],[136.669624,36.701659],[136.670013,36.702227],[136.670322,36.70273],[136.670861,36.703371],[136.671361,36.704446],[136.671899,36.705188],[136.672136,36.705679],[136.672399,36.706104],[136.673049,36.706771],[136.673673,36.707687],[136.673848,36.708112],[136.673948,36.708496],[136.674061,36.708721],[136.675061,36.709796],[136.675461,36.71037],[136.675836,36.71082],[136.676164,36.711385],[136.676635,36.712229],[136.677348,36.713129],[136.67761,36.713529],[136.678529,36.714788],[136.678985,36.715587],[136.679848,36.716662],[136.68016,36.717103],[136.680885,36.718495],[136.681122,36.719303],[136.68146,36.719795],[136.68191,36.720216],[136.682341,36.720819],[136.68301,36.721744],[136.683784,36.722653],[136.684072,36.723486],[136.684472,36.723936],[136.685109,36.724786],[136.685559,36.725569],[136.686009,36.726686],[136.686409,36.727402],[136.686896,36.727985],[136.688032,36.729457],[136.688277,36.729743],[136.688496,36.730019],[136.688871,36.730627],[136.689446,36.731702],[136.689822,36.732363],[136.690258,36.733176],[136.690908,36.733868],[136.691221,36.734343],[136.691546,36.734968],[136.692408,36.736126],[136.692783,36.736734],[136.693445,36.738076],[136.693845,36.738551],[136.694183,36.738859],[136.69462,36.739467],[136.695195,36.740517],[136.695507,36.741167],[136.696345,36.742709],[136.69672,36.743225],[136.69707,36.743609],[136.697645,36.74475],[136.697932,36.745175],[136.698244,36.745508],[136.698532,36.746],[136.698882,36.746741],[136.698944,36.74715],[136.699319,36.7478],[136.699982,36.748691],[136.700269,36.749274],[136.700789,36.750275],[136.701044,36.750733],[136.701569,36.751649],[136.701881,36.752099],[136.702969,36.753482],[136.703519,36.75454],[136.703906,36.755499],[136.704293,36.756132],[136.705043,36.756973],[136.706256,36.758948],[136.706918,36.760215],[136.707943,36.76194]]],"type":"Polygon"},"properties":{"kuni":"加賀","id":"G36003","id_url":"G36003.html","kuni_url":"/kg/resource/K36.html","pref":"石川県","kuni_id":"K36","yomi":"かほく","name":"河北"}}],"type":"FeatureCollection"}