{"type":"FeatureCollection","features":[{"type":"Feature","geometry":{"coordinates":[[[137.382272,36.800427],[137.382515,36.800101],[137.383134,36.799144],[137.383472,36.798786],[137.383472,36.798736],[137.384647,36.797453],[137.385209,36.796753],[137.386434,36.795328],[137.386634,36.795036],[137.387159,36.79447],[137.387697,36.793795],[137.388984,36.792578],[137.390434,36.79097],[137.391384,36.79007],[137.392334,36.789254],[137.392859,36.788737],[137.393221,36.78837],[137.394596,36.78727],[137.395521,36.786454],[137.395884,36.785754],[137.396884,36.784087],[137.397522,36.782779],[137.398034,36.781963],[137.398922,36.780313],[137.399697,36.77878],[137.400284,36.777722],[137.400647,36.776688],[137.401009,36.775872],[137.401759,36.77463],[137.402572,36.773572],[137.402684,36.77348],[137.402909,36.773139],[137.404247,36.771447],[137.405747,36.769639],[137.405809,36.769506],[137.406759,36.768315],[137.406759,36.768265],[137.407097,36.767881],[137.407959,36.766573],[137.408347,36.765915],[137.408822,36.764765],[137.409522,36.763573],[137.410359,36.762515],[137.411472,36.761407],[137.412059,36.760641],[137.412984,36.759599],[137.413309,36.759149],[137.414797,36.757541],[137.415322,36.757066],[137.415972,36.756658],[137.417034,36.7561],[137.417672,36.755625],[137.417922,36.755283],[137.418484,36.754741],[137.418934,36.7544],[137.419684,36.753633],[137.420184,36.75305],[137.421471,36.751634],[137.422059,36.751042],[137.423071,36.750275],[137.423334,36.7501],[137.424371,36.749176],[137.425883,36.747926],[137.426396,36.747342],[137.426508,36.747001],[137.426646,36.746801],[137.427046,36.746484],[137.427208,36.746209],[137.427746,36.744718],[137.427808,36.744401],[137.428333,36.74291],[137.428708,36.742393],[137.429271,36.741852],[137.430421,36.74101],[137.430846,36.740535],[137.431071,36.739994],[137.431096,36.739702],[137.431208,36.739319],[137.43172,36.738569],[137.432108,36.738052],[137.43262,36.736694],[137.432845,36.736336],[137.433295,36.735769],[137.43337,36.735294],[137.433383,36.734703],[137.433683,36.733569],[137.433745,36.733186],[137.43392,36.732828],[137.434445,36.731811],[137.434895,36.731178],[137.43557,36.730428],[137.436445,36.72932],[137.43687,36.728912],[137.437345,36.728329],[137.43847,36.727112],[137.439007,36.726679],[137.43962,36.726387],[137.440582,36.726071],[137.441082,36.725779],[137.44147,36.725487],[137.441894,36.725054],[137.442519,36.724104],[137.443282,36.72248],[137.444032,36.720488],[137.444144,36.720263],[137.444632,36.719788],[137.445982,36.718772],[137.446282,36.718388],[137.446507,36.717705],[137.446594,36.717372],[137.446769,36.717139],[137.446882,36.716914],[137.447069,36.716214],[137.447219,36.715855],[137.447606,36.715397],[137.447969,36.715039],[137.448231,36.714406],[137.448256,36.714047],[137.448169,36.713747],[137.448031,36.713547],[137.448197,36.713418],[137.448388,36.713281],[137.448731,36.713073],[137.449131,36.712873],[137.449744,36.712623],[137.449919,36.712306],[137.450106,36.711764],[137.450444,36.711106],[137.451406,36.70984],[137.451719,36.708782],[137.451919,36.70839],[137.452444,36.707598],[137.452669,36.707123],[137.453069,36.706648],[137.453269,36.706357],[137.453269,36.706015],[137.453069,36.705249],[137.453044,36.704999],[137.453206,36.70464],[137.454956,36.703124],[137.455256,36.702766],[137.455631,36.702424],[137.455656,36.702357],[137.456381,36.701816],[137.456493,36.701774],[137.456856,36.701699],[137.457281,36.701708],[137.45908,36.702049],[137.460055,36.702091],[137.46048,36.702049],[137.461455,36.701666],[137.461855,36.701708],[137.462105,36.701891],[137.462218,36.702274],[137.46213,36.703158],[137.462018,36.703566],[137.462043,36.703999],[137.461955,36.704791],[137.462068,36.705149],[137.462492,36.705491],[137.462855,36.705607],[137.463555,36.705674],[137.463692,36.705766],[137.463805,36.706466],[137.46398,36.706757],[137.464255,36.706899],[137.464592,36.706924],[137.464905,36.706874],[137.46518,36.706766],[137.46558,36.706449],[137.46563,36.706449],[137.466779,36.705932],[137.467429,36.705366],[137.467967,36.704366],[137.468829,36.703491],[137.469342,36.703125],[137.469617,36.702966],[137.469929,36.702966],[137.470017,36.703016],[137.470154,36.703216],[137.470179,36.703691],[137.470404,36.704283],[137.470879,36.705208],[137.471129,36.705774],[137.471241,36.706166],[137.471441,36.706574],[137.471691,36.707024],[137.471691,36.708016],[137.471829,36.708424],[137.472141,36.708741],[137.472804,36.709782],[137.473229,36.710824],[137.473504,36.711374],[137.473791,36.711782],[137.474041,36.712415],[137.474266,36.712865],[137.474566,36.713207],[137.474966,36.713774],[137.475716,36.714998],[137.475828,36.715265],[137.475491,36.715723],[137.475691,36.715965],[137.475941,36.716148],[137.476253,36.71629],[137.476441,36.716673],[137.476366,36.71699],[137.476103,36.717506],[137.476028,36.717965],[137.476141,36.718323],[137.476328,36.718573],[137.476366,36.718665],[137.476303,36.718981],[137.476441,36.719706],[137.476416,36.720039],[137.475853,36.721014],[137.475653,36.722056],[137.475491,36.722489],[137.47556,36.722941],[137.475853,36.723256],[137.476328,36.723389],[137.47689,36.723481],[137.477365,36.723481],[137.477865,36.723439],[137.478653,36.723439],[137.479215,36.723489],[137.482127,36.724081],[137.482665,36.724147],[137.483565,36.724147],[137.484152,36.724081],[137.484427,36.724081],[137.484965,36.723998],[137.485552,36.723814],[137.486027,36.723706],[137.487289,36.723681],[137.487777,36.723639],[137.488114,36.723573],[137.488452,36.723323],[137.488639,36.723048],[137.489564,36.722306],[137.490464,36.721898],[137.490939,36.721765],[137.491364,36.721698],[137.491839,36.721831],[137.492239,36.722065],[137.492939,36.722606],[137.493414,36.722881],[137.493801,36.722923],[137.494314,36.722815],[137.495964,36.72209],[137.496776,36.721707],[137.498376,36.720899],[137.499401,36.720632],[137.499938,36.720249],[137.500251,36.719807],[137.500563,36.718616],[137.501538,36.717382],[137.502388,36.716574],[137.502788,36.716083],[137.502938,36.715833],[137.503,36.715633],[137.502975,36.715208],[137.50315,36.714891],[137.503588,36.714441],[137.505425,36.713083],[137.507075,36.711767],[137.507612,36.711408],[137.508462,36.711025],[137.509162,36.710675],[137.509312,36.710384],[137.50935,36.709709],[137.509562,36.709192],[137.509837,36.708675],[137.509987,36.708109],[137.510212,36.707617],[137.51085,36.706542],[137.511062,36.706067],[137.511037,36.705909],[137.51015,36.704851],[137.510087,36.704668],[137.509762,36.704218],[137.509313,36.703726],[137.508963,36.703118],[137.5089,36.702909],[137.508875,36.702459],[137.5089,36.702301],[137.509313,36.700776],[137.50925,36.700526],[137.50875,36.700168],[137.508563,36.700076],[137.508175,36.69971],[137.507975,36.699285],[137.507888,36.699018],[137.508076,36.69841],[137.508251,36.698252],[137.508463,36.69776],[137.508476,36.697218],[137.508326,36.696702],[137.508001,36.696185],[137.507851,36.695752],[137.507826,36.695144],[137.507888,36.694877],[137.508138,36.694319],[137.509126,36.692569],[137.509188,36.692119],[137.509101,36.691911],[137.508651,36.691661],[137.508113,36.691502],[137.507214,36.691144],[137.506876,36.690844],[137.506939,36.690552],[137.507276,36.690311],[137.507976,36.689927],[137.508514,36.689552],[137.508976,36.689102],[137.509151,36.688853],[137.509376,36.688428],[137.509401,36.688094],[137.509076,36.687303],[137.509026,36.687036],[137.509026,36.686428],[137.509251,36.685778],[137.510001,36.685395],[137.511026,36.68482],[137.511176,36.68477],[137.511513,36.684412],[137.511788,36.683962],[137.512151,36.68347],[137.512888,36.683095],[137.51415,36.68272],[137.5143,36.682629],[137.514425,36.68227],[137.514463,36.681754],[137.514713,36.680962],[137.514713,36.680604],[137.514988,36.679846],[137.515563,36.679213],[137.516137,36.678746],[137.51665,36.678654],[137.517462,36.678796],[137.518699,36.679271],[137.519324,36.679413],[137.520612,36.680096],[137.523224,36.68033],[137.524186,36.680271],[137.525123,36.680338],[137.525967,36.680457],[137.526836,36.680505],[137.529848,36.679913],[137.530785,36.679622],[137.531535,36.679355],[137.532297,36.678864],[137.532722,36.678397],[137.53351,36.677431],[137.534484,36.676631],[137.535084,36.676339],[137.535747,36.676256],[137.536584,36.676389],[137.536797,36.676506],[137.537402,36.676908],[137.538253,36.677167],[137.539109,36.677256],[137.540521,36.677739],[137.541146,36.678014],[137.541683,36.678148],[137.542383,36.678014],[137.542921,36.677798],[137.54347,36.677481],[137.543958,36.677148],[137.544533,36.676923],[137.545245,36.676815],[137.545845,36.67684],[137.546333,36.676756],[137.546845,36.676506],[137.54727,36.67624],[137.54812,36.676173],[137.54872,36.676048],[137.549532,36.67614],[137.550282,36.676032],[137.550794,36.675807],[137.551369,36.67534],[137.551432,36.67534],[137.551819,36.674957],[137.552094,36.674557],[137.552281,36.674173],[137.552681,36.673923],[137.553156,36.673748],[137.554094,36.673865],[137.554843,36.674023],[137.555743,36.674507],[137.556181,36.67509],[137.556543,36.675223],[137.557143,36.675182],[137.558593,36.67519],[137.55943,36.675398],[137.56003,36.675607],[137.560755,36.675715],[137.561742,36.67579],[137.562492,36.675723],[137.563617,36.675532],[137.564179,36.675399],[137.564879,36.675357],[137.565479,36.675182],[137.566179,36.67489],[137.567141,36.674399],[137.567691,36.67404],[137.568866,36.673174],[137.569528,36.672949],[137.570428,36.672774],[137.571278,36.672682],[137.572515,36.672691],[137.573315,36.672857],[137.57494,36.673607],[137.575665,36.673807],[137.576352,36.673899],[137.577127,36.673949],[137.577977,36.673865],[137.578614,36.673599],[137.578977,36.673374],[137.579489,36.67324],[137.580477,36.673357],[137.581614,36.674198],[137.581851,36.674265],[137.582514,36.674382],[137.583326,36.674448],[137.584101,36.674565],[137.584639,36.674773],[137.585151,36.675207],[137.585751,36.675565],[137.587851,36.675981],[137.588451,36.676206],[137.588876,36.676481],[137.589268,36.676859],[137.589525,36.67714],[137.589788,36.677631],[137.590213,36.678148],[137.590513,36.678648],[137.590713,36.679098],[137.5908,36.679614],[137.590763,36.680048],[137.590525,36.680606],[137.590458,36.680922],[137.5904,36.681123],[137.590425,36.681239],[137.59066,36.681084],[137.591275,36.680231],[137.591613,36.679623],[137.592375,36.67859],[137.5925,36.678298],[137.592713,36.678006],[137.5931,36.677873],[137.593588,36.677831],[137.594,36.677631],[137.5944,36.677298],[137.59485,36.676756],[137.5958,36.676015],[137.596312,36.675507],[137.5965,36.675165],[137.596612,36.674807],[137.59725,36.674132],[137.597562,36.67389],[137.598462,36.673465],[137.599037,36.673157],[137.599225,36.672999],[137.599824,36.672282],[137.600187,36.672032],[137.600374,36.671674],[137.600612,36.671316],[137.601287,36.670866],[137.602312,36.669732],[137.602562,36.669482],[137.602937,36.669057],[137.603137,36.668924],[137.603512,36.668924],[137.603962,36.668791],[137.604674,36.668458],[137.605074,36.668033],[137.605611,36.667608],[137.606061,36.667391],[137.606386,36.667141],[137.606949,36.666674],[137.607224,36.665841],[137.607411,36.665458],[137.607561,36.664758],[137.607462,36.664441],[137.607262,36.6641],[137.607249,36.663875],[137.607374,36.6637],[137.607574,36.66345],[137.608174,36.662916],[137.608462,36.662758],[137.609161,36.662516],[137.609486,36.662066],[137.609874,36.661208],[137.610049,36.661008],[137.610549,36.660741],[137.610686,36.6607],[137.610886,36.660475],[137.610936,36.66025],[137.610586,36.659867],[137.610511,36.659658],[137.610636,36.659417],[137.611649,36.658333],[137.612161,36.657775],[137.612786,36.657259],[137.612924,36.657042],[137.613299,36.6567],[137.613449,36.656459],[137.613604,36.656175],[137.613783,36.655839],[137.613936,36.6556],[137.614161,36.655284],[137.614811,36.654975],[137.615349,36.654842],[137.615874,36.6548],[137.616549,36.654675],[137.617099,36.654476],[137.617549,36.654434],[137.619036,36.654509],[137.619486,36.654601],[137.619686,36.654534],[137.620586,36.653934],[137.620673,36.653592],[137.620498,36.653209],[137.620598,36.652876],[137.620873,36.652309],[137.620911,36.652176],[137.621136,36.651751],[137.621086,36.65125],[137.620893,36.650864],[137.620723,36.650551],[137.620751,36.650308],[137.621123,36.649926],[137.621561,36.649409],[137.621736,36.649093],[137.621953,36.648913],[137.622448,36.648543],[137.622573,36.648293],[137.622348,36.647485],[137.622311,36.647076],[137.622336,36.646851],[137.622273,36.646676],[137.622248,36.646318],[137.622298,36.646068],[137.622498,36.645843],[137.622636,36.64566],[137.622711,36.645235],[137.622923,36.644827],[137.623086,36.644627],[137.623373,36.644443],[137.623586,36.644352],[137.624148,36.643918],[137.624311,36.643693],[137.624498,36.643352],[137.624523,36.643127],[137.624411,36.64286],[137.624436,36.642677],[137.624661,36.642585],[137.624861,36.642569],[137.624914,36.642473],[137.624961,36.642344],[137.624761,36.642069],[137.624898,36.641869],[137.625036,36.641802],[137.625173,36.641644],[137.625648,36.641077],[137.625835,36.640869],[137.62606,36.640735],[137.626698,36.640594],[137.626898,36.640477],[137.626948,36.640394],[137.626923,36.640186],[137.626948,36.640102],[137.627248,36.639644],[137.627585,36.639619],[137.628223,36.639636],[137.62901,36.639611],[137.62946,36.639494],[137.63071,36.638894],[137.631297,36.638894],[137.632797,36.638703],[137.63361,36.638628],[137.634359,36.638711],[137.635084,36.638544],[137.635734,36.638469],[137.636372,36.638561],[137.637184,36.638569],[137.638109,36.638519],[137.638896,36.638711],[137.639571,36.639028],[137.640384,36.639061],[137.640796,36.639195],[137.642396,36.63952],[137.643958,36.639461],[137.644433,36.63932],[137.644796,36.638911],[137.645146,36.638395],[137.645283,36.637828],[137.645521,36.637087],[137.646021,36.636478],[137.646233,36.635912],[137.646671,36.635304],[137.647121,36.635254],[137.647933,36.635312],[137.648433,36.635487],[137.648908,36.635529],[137.649633,36.635479],[137.65062,36.63567],[137.651483,36.635795],[137.653695,36.635646],[137.65447,36.635546],[137.655482,36.635246],[137.655807,36.635221],[137.656457,36.635262],[137.657182,36.635387],[137.657606,36.635464],[137.658057,36.635471],[137.658807,36.635396],[137.659307,36.635571],[137.659757,36.635821],[137.660569,36.636104],[137.661282,36.636212],[137.662144,36.636204],[137.662806,36.636104],[137.663481,36.635829],[137.663844,36.635779],[137.664594,36.635554],[137.667906,36.635004],[137.668418,36.634979],[137.669031,36.635221],[137.669818,36.635488],[137.671193,36.635446],[137.67298,36.635571],[137.673955,36.63558],[137.674718,36.635738],[137.675005,36.636338],[137.675455,36.636921],[137.675967,36.637296],[137.676442,36.637446],[137.677142,36.63758],[137.677842,36.637821],[137.678292,36.638313],[137.678554,36.638713],[137.678779,36.638821],[137.679704,36.639038],[137.680879,36.639388],[137.681866,36.639405],[137.682179,36.639763],[137.682491,36.640363],[137.683004,36.641121],[137.683541,36.641771],[137.683829,36.642238],[137.684066,36.642863],[137.684703,36.644279],[137.685041,36.644854],[137.692153,36.643513],[137.692228,36.643354],[137.692403,36.643196],[137.692903,36.643013],[137.69329,36.642671],[137.69344,36.642205],[137.69394,36.641721],[137.694528,36.641696],[137.69509,36.641621],[137.695803,36.641213],[137.696228,36.641055],[137.696528,36.640646],[137.696965,36.640213],[137.697415,36.640013],[137.697628,36.63983],[137.698665,36.639438],[137.699102,36.639322],[137.699627,36.638822],[137.69994,36.638622],[137.69999,36.638638],[137.70019,36.638547],[137.700852,36.638322],[137.70149,36.637972],[137.701927,36.637413],[137.702315,36.63678],[137.702527,36.636305],[137.703115,36.635714],[137.703577,36.635014],[137.704152,36.63458],[137.704652,36.634305],[137.704965,36.634105],[137.705415,36.634255],[137.705665,36.63423],[137.706077,36.633889],[137.707852,36.63293],[137.708565,36.632497],[137.708977,36.631931],[137.70939,36.631572],[137.710177,36.631164],[137.710777,36.630889],[137.711477,36.630389],[137.711939,36.629864],[137.712414,36.629589],[137.713577,36.629106],[137.714077,36.629106],[137.715052,36.628289],[137.715714,36.627898],[137.716239,36.627423],[137.716564,36.626815],[137.716927,36.626365],[137.717614,36.626065],[137.718427,36.625881],[137.719127,36.625848],[137.719901,36.625573],[137.720764,36.625181],[137.721939,36.625065],[137.722739,36.62494],[137.724764,36.62409],[137.725326,36.623773],[137.726151,36.623432],[137.726714,36.623265],[137.727438,36.622965],[137.728101,36.622765],[137.729326,36.62264],[137.730426,36.622674],[137.731151,36.62289],[137.731713,36.623132],[137.732301,36.623532],[137.732875,36.623865],[137.735025,36.623915],[137.736,36.624015],[137.737063,36.62394],[137.7379,36.624115],[137.739725,36.62464],[137.740537,36.624765],[137.741387,36.625074],[137.7427,36.62549],[137.743875,36.625299],[137.745125,36.624724],[137.74565,36.624524],[137.746384,36.624555],[137.746583,36.624517],[137.746712,36.62444],[137.746587,36.62404],[137.746425,36.62379],[137.746275,36.623099],[137.746237,36.622674],[137.74595,36.622049],[137.74591,36.621924],[137.745862,36.621707],[137.745675,36.620857],[137.745475,36.620366],[137.745237,36.619624],[137.744975,36.618908],[137.744775,36.618616],[137.74455,36.618108],[137.744425,36.617475],[137.744425,36.617341],[137.744362,36.617233],[137.744387,36.616558],[137.74435,36.616425],[137.7444,36.616058],[137.744425,36.615816],[137.744362,36.6155],[137.74445,36.615025],[137.744412,36.614983],[137.744437,36.614867],[137.744387,36.614558],[137.744375,36.614442],[137.744287,36.6142],[137.744175,36.614042],[137.74415,36.613725],[137.744112,36.613658],[137.74415,36.613592],[137.744112,36.61355],[137.744325,36.612309],[137.744512,36.611767],[137.7448,36.610984],[137.745075,36.610617],[137.745012,36.610417],[137.745287,36.609767],[137.745425,36.609534],[137.745562,36.609401],[137.74575,36.608951],[137.745837,36.608859],[137.745962,36.608367],[137.746012,36.608051],[137.746062,36.607642],[137.746287,36.607192],[137.746337,36.606993],[137.746387,36.606859],[137.746475,36.606559],[137.746874,36.606018],[137.747162,36.605676],[137.747274,36.605159],[137.747299,36.604751],[137.747437,36.604118],[137.747687,36.603485],[137.748499,36.603143],[137.748862,36.602851],[137.749224,36.60186],[137.749612,36.60136],[137.750324,36.601035],[137.750774,36.600543],[137.751074,36.59991],[137.751124,36.599369],[137.751099,36.599235],[137.751149,36.598235],[137.751249,36.597785],[137.751449,36.597452],[137.751811,36.597044],[137.752199,36.596386],[137.752499,36.595261],[137.752636,36.595011],[137.752974,36.594169],[137.753086,36.593544],[137.752649,36.592728],[137.751886,36.592236],[137.751424,36.591953],[137.751149,36.591636],[137.750799,36.590711],[137.750874,36.590286],[137.751012,36.589903],[137.751037,36.589495],[137.751124,36.589111],[137.751124,36.588728],[137.750949,36.58837],[137.749987,36.587812],[137.748937,36.587545],[137.748649,36.587436],[137.748449,36.587186],[137.747937,36.586878],[137.747425,36.586745],[137.747037,36.586678],[137.74645,36.586795],[137.745812,36.587003],[137.745112,36.587145],[137.745087,36.58712],[137.744925,36.587145],[137.744662,36.587103],[137.74425,36.587086],[137.743438,36.587203],[137.743188,36.587245],[137.742663,36.587253],[137.7423,36.587345],[137.742275,36.587328],[137.741875,36.58742],[137.740625,36.587678],[137.73985,36.58777],[137.7391,36.587936],[137.738426,36.587986],[137.737951,36.587903],[137.737613,36.58777],[137.737301,36.587503],[137.737026,36.58737],[137.736626,36.587353],[137.736013,36.587536],[137.735463,36.587761],[137.734738,36.587995],[137.734376,36.58807],[137.733676,36.588095],[137.733426,36.588003],[137.733039,36.58792],[137.732639,36.587903],[137.732276,36.587928],[137.732064,36.587886],[137.731776,36.587886],[137.731726,36.587861],[137.731214,36.587844],[137.730889,36.587894],[137.730489,36.587853],[137.730039,36.587653],[137.729839,36.587453],[137.729727,36.587186],[137.729639,36.58712],[137.729452,36.587095],[137.729339,36.587053],[137.729139,36.587036],[137.728552,36.586745],[137.728302,36.586636],[137.728039,36.586545],[137.727677,36.586528],[137.726927,36.586645],[137.72629,36.586611],[137.72609,36.586545],[137.72604,36.586561],[137.72589,36.586545],[137.725227,36.586594],[137.724827,36.586528],[137.724577,36.586469],[137.724527,36.586411],[137.724165,36.585953],[137.723877,36.585686],[137.723452,36.585395],[137.723252,36.585178],[137.723227,36.585061],[137.723252,36.58472],[137.723327,36.584428],[137.72319,36.58432],[137.722528,36.584003],[137.722215,36.583403],[137.721903,36.583203],[137.721503,36.583228],[137.720553,36.583095],[137.719803,36.58267],[137.719553,36.58247],[137.719215,36.582228],[137.71904,36.582162],[137.718478,36.582137],[137.717941,36.582028],[137.717503,36.581487],[137.717028,36.581153],[137.716228,36.580487],[137.716141,36.580262],[137.716166,36.579879],[137.716103,36.579654],[137.715566,36.579095],[137.715303,36.578979],[137.714853,36.578895],[137.714691,36.578762],[137.714116,36.578195],[137.713916,36.578154],[137.713491,36.577979],[137.713291,36.577346],[137.71313,36.577054],[137.712812,36.576822],[137.712354,36.576654],[137.711804,36.576429],[137.711179,36.575987],[137.710679,36.575721],[137.710054,36.575521],[137.709294,36.57515],[137.708654,36.574721],[137.708004,36.574246],[137.707554,36.574046],[137.707204,36.573596],[137.706804,36.573329],[137.706242,36.573088],[137.705642,36.572729],[137.703005,36.571463],[137.701267,36.570596],[137.700817,36.570463],[137.69988,36.570396],[137.699455,36.570313],[137.698693,36.569729],[137.698043,36.569413],[137.697668,36.569329],[137.696705,36.569221],[137.695805,36.569046],[137.695293,36.568754],[137.694818,36.568779],[137.694531,36.568896],[137.694218,36.568946],[137.693943,36.568879],[137.693818,36.568679],[137.693731,36.568296],[137.693481,36.567954],[137.693356,36.567638],[137.693156,36.567438],[137.692931,36.567371],[137.692768,36.567171],[137.692556,36.566771],[137.692281,36.566388],[137.691993,36.566121],[137.690443,36.564188],[137.688819,36.562688],[137.688544,36.562372],[137.688081,36.562063],[137.687606,36.561905],[137.687544,36.561747],[137.687594,36.561205],[137.687581,36.560264],[137.687781,36.559789],[137.688106,36.558189],[137.688156,36.557622],[137.688531,36.555731],[137.688706,36.555273],[137.688919,36.554873],[137.689231,36.554531],[137.689281,36.554148],[137.689256,36.553606],[137.689131,36.553023],[137.688819,36.552348],[137.688669,36.551648],[137.688644,36.55124],[137.688231,36.55039],[137.688094,36.549982],[137.687831,36.54949],[137.687656,36.548907],[137.687569,36.548415],[137.687394,36.54794],[137.687107,36.547582],[137.686844,36.547173],[137.686819,36.546707],[137.686707,36.546299],[137.686182,36.54574],[137.685869,36.545399],[137.685582,36.544774],[137.685332,36.54464],[137.685219,36.544615],[137.684995,36.544507],[137.684907,36.544374],[137.684907,36.544282],[137.685095,36.543715],[137.685482,36.543307],[137.685707,36.542949],[137.685682,36.542582],[137.685395,36.542207],[137.68502,36.541174],[137.684745,36.539733],[137.684657,36.538916],[137.684682,36.538491],[137.684657,36.538199],[137.684588,36.538009],[137.684645,36.537768],[137.685157,36.537383],[137.685432,36.537225],[137.686195,36.537108],[137.686507,36.536791],[137.686807,36.536541],[137.687261,36.536397],[137.687794,36.536375],[137.688344,36.536508],[137.688869,36.536483],[137.689444,36.536591],[137.690432,36.536858],[137.691057,36.537166],[137.691619,36.537366],[137.692044,36.537391],[137.692381,36.537275],[137.693406,36.537267],[137.694781,36.537175],[137.695893,36.537325],[137.696118,36.537408],[137.696793,36.537792],[137.697056,36.537808],[137.697643,36.537783],[137.698131,36.537717],[137.698518,36.537692],[137.698743,36.537625],[137.698918,36.537483],[137.699056,36.537233],[137.699056,36.537167],[137.699218,36.537075],[137.699843,36.536917],[137.700543,36.536642],[137.701055,36.53655],[137.701555,36.536275],[137.702018,36.536225],[137.703343,36.536292],[137.703618,36.536334],[137.70393,36.536492],[137.704218,36.53655],[137.705792,36.536075],[137.707292,36.535842],[137.708142,36.535875],[137.70908,36.535984],[137.709492,36.536009],[137.709892,36.535959],[137.710479,36.53575],[137.710592,36.535592],[137.710592,36.5355],[137.710079,36.534492],[137.70968,36.534134],[137.70903,36.533801],[137.708055,36.532834],[137.707655,36.532501],[137.70708,36.531426],[137.706854,36.531026],[137.706591,36.530623],[137.706255,36.530193],[137.704818,36.527851],[137.704568,36.527543],[137.704443,36.52711],[137.70393,36.526735],[137.70373,36.526352],[137.703618,36.525785],[137.70298,36.524668],[137.702868,36.524352],[137.702943,36.523944],[137.70368,36.522969],[137.703755,36.52261],[137.703755,36.522427],[137.703693,36.522252],[137.703743,36.521819],[137.704218,36.520852],[137.70438,36.520336],[137.704805,36.519811],[137.705055,36.519628],[137.705105,36.519311],[137.705368,36.519111],[137.70548,36.518886],[137.705468,36.518369],[137.70558,36.517803],[137.70558,36.517669],[137.70543,36.517603],[137.705043,36.517694],[137.704618,36.517669],[137.704168,36.517536],[137.703743,36.517519],[137.703368,36.517269],[137.703056,36.517003],[137.702656,36.516869],[137.702181,36.516603],[137.701606,36.515753],[137.701206,36.51557],[137.700331,36.515511],[137.699619,36.515378],[137.698994,36.515161],[137.698406,36.51487],[137.697869,36.514695],[137.697356,36.514653],[137.697181,36.514561],[137.697044,36.513978],[137.696869,36.513728],[137.696469,36.513503],[137.696157,36.51312],[137.695494,36.512228],[137.694819,36.511687],[137.694582,36.511195],[137.694407,36.510562],[137.694044,36.51052],[137.693507,36.510612],[137.692994,36.510795],[137.692669,36.511162],[137.692244,36.511995],[137.691969,36.51247],[137.691519,36.513011],[137.691069,36.51322],[137.690282,36.51352],[137.689832,36.513586],[137.688932,36.51357],[137.688395,36.513661],[137.687857,36.513711],[137.686895,36.513628],[137.68627,36.513603],[137.685795,36.513636],[137.685482,36.513544],[137.685082,36.512844],[137.68502,36.512761],[137.684058,36.512653],[137.682895,36.512611],[137.682783,36.512703],[137.681858,36.512869],[137.681658,36.512936],[137.681295,36.513161],[137.68062,36.513344],[137.679608,36.513461],[137.67867,36.513653],[137.677496,36.514219],[137.677371,36.514194],[137.677283,36.513902],[137.676946,36.513302],[137.676858,36.513211],[137.676683,36.512786],[137.676458,36.512019],[137.675833,36.511611],[137.675508,36.511211],[137.674946,36.511103],[137.674696,36.510994],[137.674521,36.510836],[137.673359,36.510611],[137.672846,36.510369],[137.671546,36.510178],[137.671096,36.510311],[137.670509,36.510453],[137.670221,36.510428],[137.669684,36.510186],[137.669459,36.510003],[137.668884,36.509378],[137.668746,36.509086],[137.668746,36.508953],[137.668509,36.508161],[137.668421,36.50767],[137.668246,36.507128],[137.668022,36.50677],[137.667309,36.506611],[137.667134,36.50632],[137.667159,36.506078],[137.667409,36.505153],[137.667347,36.504245],[137.667309,36.503662],[137.667109,36.503087],[137.667034,36.502345],[137.667272,36.501445],[137.667309,36.50097],[137.667247,36.500479],[137.667034,36.499979],[137.667059,36.49937],[137.667234,36.498804],[137.667297,36.498487],[137.667172,36.497771],[137.667172,36.497254],[137.667297,36.496779],[137.667534,36.496254],[137.667622,36.495871],[137.666872,36.494179],[137.666359,36.493504],[137.666147,36.493396],[137.665847,36.493329],[137.665397,36.493421],[137.664472,36.493804],[137.663997,36.493846],[137.662497,36.493854],[137.661273,36.493787],[137.660485,36.493696],[137.659798,36.493521],[137.658598,36.493071],[137.65836,36.493071],[137.65776,36.493004],[137.657373,36.492846],[137.656836,36.492421],[137.655398,36.491771],[137.653961,36.490713],[137.653661,36.490396],[137.653086,36.489654],[137.652874,36.489154],[137.652574,36.488746],[137.652124,36.488346],[137.651949,36.488055],[137.651849,36.487555],[137.651849,36.486971],[137.651936,36.48643],[137.651886,36.485996],[137.651874,36.48548],[137.651824,36.485005],[137.651424,36.48388],[137.651549,36.483247],[137.651549,36.48268],[137.651274,36.481397],[137.650912,36.480455],[137.650787,36.48018],[137.650824,36.479664],[137.650874,36.479481],[137.651274,36.479614],[137.651687,36.479706],[137.651924,36.479547],[137.652049,36.479164],[137.652287,36.478781],[137.652587,36.477923],[137.652974,36.477739],[137.653062,36.477631],[137.653062,36.477089],[137.652999,36.476523],[137.653087,36.476048],[137.653387,36.475623],[137.653412,36.475398],[137.653299,36.475148],[137.653599,36.474856],[137.654074,36.474556],[137.654786,36.473815],[137.655149,36.473315],[137.655536,36.472215],[137.655562,36.47174],[137.656461,36.470699],[137.656461,36.470657],[137.656636,36.470407],[137.656636,36.47034],[137.656424,36.470065],[137.656099,36.469824],[137.655862,36.469524],[137.655887,36.468041],[137.655849,36.467591],[137.655674,36.467091],[137.655374,36.466682],[137.655099,36.466149],[137.654799,36.464924],[137.654862,36.463574],[137.655099,36.463099],[137.655062,36.462425],[137.65515,36.461925],[137.655187,36.461408],[137.655475,36.460733],[137.655387,36.4603],[137.65515,36.459175],[137.654962,36.458908],[137.654675,36.458683],[137.653862,36.458475],[137.652837,36.458417],[137.652213,36.458433],[137.65185,36.458525],[137.6517,36.458525],[137.651438,36.458142],[137.651138,36.457808],[137.650775,36.457492],[137.650263,36.4567],[137.650238,36.456592],[137.650175,36.456542],[137.649813,36.455758],[137.649338,36.4549],[137.648226,36.454767],[137.647813,36.454742],[137.647088,36.454592],[137.646846,36.454584],[137.646526,36.454592],[137.646039,36.454592],[137.645539,36.454542],[137.645201,36.45455],[137.645089,36.454325],[137.645051,36.453917],[137.644639,36.45315],[137.644089,36.452609],[137.643826,36.452159],[137.643739,36.451817],[137.643876,36.451234],[137.643851,36.450509],[137.643376,36.449676],[137.643276,36.449276],[137.642826,36.448417],[137.642414,36.448009],[137.640726,36.446701],[137.640276,36.446326],[137.639927,36.445959],[137.639839,36.445759],[137.639777,36.445484],[137.639802,36.444876],[137.639864,36.444451],[137.639827,36.444068],[137.639264,36.442626],[137.639139,36.442176],[137.638902,36.441768],[137.638777,36.441268],[137.638777,36.440485],[137.638839,36.43951],[137.638539,36.438726],[137.638589,36.43816],[137.638589,36.437618],[137.638477,36.43701],[137.638227,36.436893],[137.637664,36.436968],[137.637489,36.43676],[137.637277,36.435543],[137.637214,36.434935],[137.637239,36.43421],[137.637389,36.433669],[137.637952,36.432502],[137.637927,36.43196],[137.637689,36.431327],[137.636902,36.430244],[137.636577,36.429727],[137.63639,36.429386],[137.63639,36.429119],[137.636515,36.428711],[137.636515,36.428527],[137.635702,36.427928],[137.63544,36.427769],[137.633702,36.426436],[137.633602,36.426169],[137.633577,36.425653],[137.633427,36.425178],[137.633103,36.424903],[137.631778,36.424661],[137.631278,36.424436],[137.631003,36.424253],[137.630578,36.424078],[137.62999,36.423936],[137.629178,36.423803],[137.628366,36.423628],[137.627228,36.423653],[137.626516,36.423586],[137.626491,36.423561],[137.626066,36.423586],[137.625503,36.423561],[137.624928,36.423719],[137.624778,36.423794],[137.623916,36.423886],[137.623591,36.423953],[137.623141,36.423953],[137.622866,36.423836],[137.622691,36.423703],[137.622266,36.423211],[137.622029,36.423028],[137.621629,36.42277],[137.621404,36.42257],[137.621129,36.421953],[137.620766,36.421611],[137.620267,36.420986],[137.620017,36.420778],[137.619317,36.420386],[137.618879,36.419861],[137.618842,36.419761],[137.618667,36.419453],[137.618529,36.41927],[137.618304,36.419062],[137.617929,36.418837],[137.617429,36.418695],[137.616255,36.41857],[137.616155,36.418595],[137.615605,36.418561],[137.61498,36.41867],[137.613505,36.419495],[137.613042,36.419545],[137.612543,36.419645],[137.611693,36.419528],[137.60963,36.419419],[137.60818,36.419478],[137.608043,36.419319],[137.608131,36.418761],[137.608868,36.417945],[137.608581,36.41742],[137.608118,36.416911],[137.607881,36.416553],[137.607943,36.416195],[137.608468,36.415403],[137.608118,36.414937],[137.607881,36.414745],[137.607381,36.41442],[137.607043,36.414037],[137.607156,36.41352],[137.607393,36.413079],[137.607143,36.412895],[137.605781,36.412654],[137.605094,36.412462],[137.604469,36.412129],[137.604144,36.41187],[137.603869,36.41147],[137.603581,36.410912],[137.603569,36.410379],[137.603681,36.409787],[137.603656,36.408604],[137.604294,36.407871],[137.604444,36.407379],[137.604806,36.405663],[137.605244,36.404746],[137.605269,36.404488],[137.605131,36.403822],[137.605069,36.403188],[137.605181,36.402822],[137.604919,36.402447],[137.604506,36.402113],[137.604319,36.401988],[137.603869,36.401838],[137.603507,36.401663],[137.602882,36.401222],[137.602369,36.400947],[137.600282,36.399497],[137.599769,36.398855],[137.599082,36.397672],[137.598132,36.396664],[137.597582,36.395347],[137.59712,36.394814],[137.59642,36.394256],[137.595845,36.394089],[137.59502,36.393914],[137.594308,36.393672],[137.593883,36.393481],[137.59367,36.393231],[137.593695,36.392906],[137.593833,36.392614],[137.593483,36.391431],[137.593208,36.390956],[137.592645,36.390456],[137.592358,36.389681],[137.592133,36.38959],[137.591633,36.389556],[137.590883,36.389556],[137.589821,36.389623],[137.589558,36.389598],[137.589133,36.389623],[137.588133,36.389839],[137.587446,36.389781],[137.586796,36.389839],[137.586083,36.389831],[137.585634,36.389989],[137.584721,36.390514],[137.584309,36.390673],[137.583971,36.390698],[137.582996,36.390864],[137.580959,36.391147],[137.580796,36.391264],[137.580459,36.391422],[137.579984,36.391581],[137.579609,36.391806],[137.578734,36.392447],[137.578147,36.39283],[137.577572,36.39308],[137.576609,36.393122],[137.575834,36.393072],[137.57496,36.392897],[137.574097,36.392689],[137.573435,36.392489],[137.573035,36.392147],[137.57286,36.391889],[137.572322,36.391022],[137.571822,36.389856],[137.571285,36.389247],[137.570748,36.389239],[137.569385,36.389472],[137.568785,36.389622],[137.568385,36.389572],[137.568048,36.389431],[137.567348,36.389197],[137.564661,36.388356],[137.563061,36.388014],[137.562249,36.388014],[137.561624,36.388131],[137.561499,36.388122],[137.560786,36.387989],[137.560011,36.387614],[137.559274,36.387522],[137.558386,36.387939],[137.557637,36.388114],[137.556524,36.388222],[137.555312,36.388381],[137.553112,36.388872],[137.5517,36.389264],[137.55095,36.38958],[137.550337,36.389905],[137.549525,36.390164],[137.548725,36.390313],[137.547363,36.390263],[137.54655,36.390113],[137.545825,36.389922],[137.544863,36.390297],[137.544263,36.390388],[137.543525,36.390747],[137.543051,36.39103],[137.542501,36.391163],[137.542313,36.391155],[137.541763,36.391313],[137.541288,36.391338],[137.540851,36.39148],[137.540413,36.392213],[137.540147,36.392389],[137.539901,36.392521],[137.539901,36.393271],[137.539751,36.393613],[137.539313,36.394229],[137.539176,36.394338],[137.538788,36.394521],[137.538401,36.394796],[137.536464,36.396921],[137.536001,36.397346],[137.535114,36.397962],[137.534651,36.398221],[137.534439,36.398287],[137.533976,36.398512],[137.533126,36.398712],[137.532601,36.39902],[137.532439,36.39942],[137.532189,36.400429],[137.531951,36.400887],[137.531614,36.401295],[137.531439,36.401945],[137.531226,36.40242],[137.531076,36.402562],[137.530689,36.402745],[137.530326,36.402987],[137.530039,36.403262],[137.529764,36.403328],[137.529051,36.403437],[137.527989,36.403445],[137.527214,36.40337],[137.526701,36.40337],[137.526051,36.403478],[137.525451,36.40352],[137.525214,36.403712],[137.525126,36.403828],[137.524839,36.404753],[137.524564,36.405095],[137.524414,36.405195],[137.523852,36.405411],[137.523302,36.40557],[137.521739,36.405828],[137.521127,36.405803],[137.520527,36.405828],[137.520127,36.406086],[137.519627,36.406553],[137.518877,36.407519],[137.517389,36.409286],[137.516927,36.410177],[137.516477,36.410752],[137.51599,36.410986],[137.515465,36.411161],[137.51504,36.411477],[137.51504,36.412069],[137.515102,36.412577],[137.51509,36.41326],[137.515115,36.413352],[137.51509,36.41371],[137.515027,36.413885],[137.514802,36.414119],[137.514115,36.414344],[137.51404,36.414444],[137.513865,36.414843],[137.51344,36.415627],[137.512665,36.416193],[137.512503,36.416602],[137.512253,36.417726],[137.512203,36.418235],[137.51219,36.418993],[137.512053,36.419335],[137.512015,36.41976],[137.512128,36.420234],[137.51224,36.421368],[137.512078,36.422268],[137.511828,36.422834],[137.51179,36.423251],[137.511465,36.423676],[137.51119,36.423926],[137.51104,36.423992],[137.51074,36.424026],[137.510303,36.424126],[137.509678,36.424384],[137.509203,36.424451],[137.50879,36.424392],[137.508378,36.424384],[137.506053,36.424484],[137.505328,36.424701],[137.504878,36.424909],[137.504591,36.425142],[137.504328,36.42565],[137.504216,36.425692],[137.502316,36.425709],[137.499703,36.425625],[137.499528,36.425675],[137.499079,36.425875],[137.498366,36.426134],[137.497841,36.426167],[137.497341,36.426159],[137.496968,36.426096],[137.495341,36.425392],[137.494066,36.424759],[137.493691,36.424626],[137.493216,36.424376],[137.492554,36.423976],[137.491842,36.423634],[137.491354,36.423492],[137.490704,36.423392],[137.490179,36.423409],[137.489767,36.423501],[137.489429,36.423467],[137.489117,36.423367],[137.488004,36.423559],[137.487467,36.423601],[137.486429,36.423617],[137.485929,36.423626],[137.485417,36.423584],[137.484967,36.423642],[137.484317,36.423651],[137.483105,36.423584],[137.48273,36.423609],[137.480892,36.424059],[137.479418,36.424259],[137.479293,36.424267],[137.47878,36.424209],[137.478568,36.424234],[137.478305,36.424359],[137.47778,36.424675],[137.476905,36.424883],[137.474905,36.425267],[137.47448,36.425317],[137.474218,36.425292],[137.47403,36.424867],[137.473806,36.423892],[137.473656,36.4235],[137.473356,36.423092],[137.473343,36.422567],[137.473118,36.42225],[137.472393,36.421859],[137.471881,36.421534],[137.471343,36.420984],[137.471168,36.420692],[137.470668,36.420101],[137.470531,36.419884],[137.470431,36.419601],[137.470169,36.419067],[137.469431,36.418034],[137.469144,36.417392],[137.468944,36.417159],[137.468344,36.416659],[137.467781,36.416301],[137.466744,36.416026],[137.465532,36.415484],[137.464857,36.415059],[137.463569,36.414159],[137.462982,36.413568],[137.462545,36.413368],[137.461857,36.413209],[137.461395,36.413018],[137.461182,36.412759],[137.461107,36.412376],[137.46097,36.412143],[137.460707,36.412218],[137.458358,36.412609],[137.45807,36.412684],[137.456845,36.413143],[137.456295,36.413401],[137.454758,36.414267],[137.453708,36.414976],[137.453258,36.415342],[137.452896,36.415726],[137.452508,36.416042],[137.452396,36.416092],[137.452096,36.416159],[137.451646,36.416109],[137.450996,36.415934],[137.450559,36.415859],[137.450134,36.415892],[137.449934,36.416009],[137.449896,36.416392],[137.449834,36.416584],[137.449534,36.4167],[137.449234,36.416709],[137.448871,36.416559],[137.448271,36.416225],[137.447784,36.415884],[137.447009,36.415075],[137.446409,36.414209],[137.446072,36.413826],[137.445797,36.413417],[137.445409,36.412951],[137.445209,36.412942],[137.445122,36.413034],[137.444759,36.413617],[137.444522,36.413925],[137.444209,36.41415],[137.443809,36.414267],[137.443109,36.414267],[137.442447,36.4142],[137.44201,36.414267],[137.44191,36.414334],[137.441597,36.414717],[137.440897,36.415433],[137.44071,36.415567],[137.44031,36.415667],[137.439947,36.415808],[137.43981,36.416117],[137.439722,36.416625],[137.439735,36.417133],[137.439685,36.417492],[137.439535,36.417591],[137.438773,36.417558],[137.438223,36.417558],[137.438098,36.417575],[137.437835,36.417816],[137.43751,36.41825],[137.436935,36.418925],[137.436573,36.419724],[137.436248,36.420216],[137.436098,36.420358],[137.435885,36.420483],[137.435585,36.420583],[137.434985,36.420716],[137.433573,36.420766],[137.433248,36.420866],[137.432898,36.421107],[137.432561,36.421299],[137.432286,36.421382],[137.431936,36.421366],[137.431111,36.421191],[137.429899,36.420857],[137.428599,36.420649],[137.428436,36.420599],[137.428161,36.420432],[137.427874,36.420182],[137.427811,36.420091],[137.427411,36.419966],[137.427161,36.420016],[137.427062,36.420282],[137.427074,36.42094],[137.426887,36.421574],[137.426649,36.42194],[137.426449,36.422157],[137.425912,36.422432],[137.425399,36.422515],[137.424462,36.422557],[137.423137,36.422765],[137.42215,36.422682],[137.421162,36.422715],[137.420712,36.422848],[137.420387,36.423107],[137.41995,36.423673],[137.41975,36.423973],[137.419363,36.42439],[137.4189,36.424565],[137.418375,36.424648],[137.418088,36.424781],[137.417863,36.425031],[137.417588,36.425456],[137.417263,36.425631],[137.416488,36.425665],[137.415376,36.425548],[137.415038,36.425398],[137.414701,36.425306],[137.413676,36.425339],[137.411839,36.424964],[137.410839,36.424731],[137.410339,36.424639],[137.409851,36.424648],[137.409376,36.424814],[137.408877,36.425098],[137.408539,36.425348],[137.408202,36.425506],[137.407602,36.425581],[137.407164,36.425723],[137.405964,36.426231],[137.405764,36.426348],[137.404352,36.426839],[137.403802,36.427097],[137.403527,36.427372],[137.40354,36.428397],[137.40349,36.428855],[137.403302,36.42908],[137.40284,36.429472],[137.402665,36.429755],[137.402352,36.430047],[137.401765,36.430255],[137.40154,36.43048],[137.401028,36.431214],[137.400703,36.431638],[137.400478,36.432063],[137.400228,36.43238],[137.399953,36.432555],[137.399078,36.43288],[137.398753,36.433063],[137.398465,36.433413],[137.398303,36.433872],[137.398028,36.43408],[137.397391,36.434363],[137.397253,36.43443],[137.396978,36.43468],[137.396703,36.435088],[137.396341,36.43583],[137.396028,36.436021],[137.395641,36.436138],[137.395316,36.436313],[137.395178,36.436638],[137.395203,36.436854],[137.395478,36.437538],[137.395516,36.438479],[137.395416,36.439129],[137.395091,36.439629],[137.395053,36.439912],[137.395241,36.440696],[137.395191,36.440921],[137.394966,36.441296],[137.394916,36.441737],[137.395028,36.441962],[137.395166,36.442137],[137.395253,36.442412],[137.395278,36.442795],[137.395166,36.443695],[137.395191,36.444387],[137.395041,36.445028],[137.395016,36.445303],[137.395078,36.445953],[137.394778,36.447545],[137.394741,36.448011],[137.394778,36.448445],[137.394953,36.448711],[137.395366,36.448961],[137.395891,36.449836],[137.396078,36.450203],[137.396165,36.450528],[137.396103,36.450844],[137.39574,36.451594],[137.395341,36.452994],[137.395016,36.45471],[137.394903,36.455527],[137.394778,36.455785],[137.394628,36.456002],[137.394016,36.456335],[137.393666,36.45661],[137.393116,36.457335],[137.392903,36.45771],[137.392666,36.45801],[137.392203,36.458301],[137.391716,36.458443],[137.391253,36.458626],[137.390903,36.458876],[137.390316,36.459576],[137.389879,36.459934],[137.389779,36.459934],[137.389629,36.459043],[137.389516,36.45881],[137.389016,36.458235],[137.388954,36.457876],[137.389041,36.457576],[137.388891,36.457235],[137.388604,36.457035],[137.388166,36.456902],[137.387691,36.45671],[137.386904,36.456218],[137.385942,36.45576],[137.385817,36.455735],[137.385567,36.455827],[137.385242,36.456102],[137.384629,36.456543],[137.384242,36.45651],[137.383892,36.456276],[137.383517,36.455893],[137.383192,36.455493],[137.383029,36.455202],[137.382892,36.455135],[137.382529,36.455052],[137.381829,36.455052],[137.381517,36.45501],[137.381155,36.454793],[137.380755,36.454718],[137.38038,36.45476],[137.379705,36.45501],[137.379605,36.45501],[137.379217,36.454452],[137.378967,36.454002],[137.378842,36.453627],[137.378405,36.453093],[137.378005,36.452777],[137.377067,36.452485],[137.376918,36.452377],[137.376543,36.452344],[137.37598,36.452602],[137.375718,36.452935],[137.375418,36.453135],[137.375318,36.453168],[137.37443,36.453052],[137.37418,36.453035],[137.373605,36.45351],[137.373318,36.453618],[137.37288,36.453635],[137.372368,36.453535],[137.371981,36.453499],[137.371531,36.453402],[137.371081,36.453335],[137.370718,36.453335],[137.370693,36.453577],[137.370356,36.453535],[137.370306,36.453443],[137.370293,36.453243],[137.370093,36.453152],[137.369406,36.452952],[137.368406,36.452502],[137.367781,36.452052],[137.367031,36.451219],[137.366706,36.450952],[137.366156,36.450744],[137.365681,36.45066],[137.365169,36.45061],[137.364331,36.450477],[137.363731,36.450302],[137.362719,36.450119],[137.361669,36.450035],[137.361494,36.449985],[137.361457,36.449877],[137.361457,36.449085],[137.361369,36.448744],[137.360944,36.448119],[137.360819,36.447736],[137.360757,36.447169],[137.360707,36.447036],[137.360132,36.446677],[137.359807,36.446361],[137.359594,36.446002],[137.359344,36.445752],[137.358357,36.444944],[137.358182,36.444628],[137.357907,36.443744],[137.357732,36.443344],[137.357757,36.443028],[137.357957,36.44262],[137.358257,36.442211],[137.358619,36.441828],[137.359007,36.441486],[137.359219,36.441036],[137.359357,36.439728],[137.359144,36.438895],[137.359144,36.438354],[137.358869,36.437337],[137.358657,36.436887],[137.358182,36.436437],[137.357457,36.436104],[137.356857,36.435904],[137.354919,36.435496],[137.354769,36.435296],[137.354494,36.435046],[137.353957,36.434962],[137.353419,36.434962],[137.352607,36.434912],[137.352195,36.434779],[137.351745,36.434737],[137.35132,36.434779],[137.351207,36.434737],[137.351207,36.434287],[137.351295,36.434062],[137.351707,36.433721],[137.351732,36.433496],[137.35162,36.433296],[137.351345,36.433071],[137.350982,36.432938],[137.350507,36.432954],[137.350095,36.433029],[137.349582,36.433229],[137.34917,36.433454],[137.348632,36.433996],[137.348295,36.434246],[137.347607,36.433996],[137.347157,36.434087],[137.346445,36.434429],[137.346383,36.434429],[137.345433,36.433646],[137.345158,36.433371],[137.344558,36.433038],[137.344233,36.432988],[137.343895,36.433104],[137.343545,36.433287],[137.343008,36.433262],[137.340346,36.433312],[137.339746,36.433379],[137.339271,36.433562],[137.338671,36.433837],[137.338371,36.433787],[137.338133,36.433629],[137.336983,36.432529],[137.336421,36.432188],[137.336058,36.431854],[137.335733,36.431604],[137.335521,36.431338],[137.334946,36.430954],[137.334796,36.430746],[137.334834,36.430188],[137.334534,36.429896],[137.334109,36.42983],[137.333146,36.429805],[137.332709,36.429896],[137.332109,36.430104],[137.331596,36.430346],[137.331059,36.430688],[137.330821,36.430688],[137.330371,36.430529],[137.329897,36.430304],[137.329297,36.429971],[137.328659,36.429163],[137.328359,36.428955],[137.327947,36.42873],[137.327672,36.428663],[137.327134,36.428571],[137.326659,36.428463],[137.326422,36.428438],[137.325909,36.428463],[137.325397,36.42853],[137.32466,36.428513],[137.32451,36.428463],[137.324322,36.428038],[137.32411,36.427771],[137.323572,36.427363],[137.322885,36.426713],[137.32256,36.426505],[137.322135,36.426397],[137.32181,36.426238],[137.321447,36.425897],[137.321147,36.425672],[137.320523,36.42538],[137.320185,36.425138],[137.320035,36.424913],[137.319648,36.424597],[137.319085,36.424439],[137.318573,36.424397],[137.317998,36.424422],[137.31771,36.424489],[137.31741,36.424713],[137.31711,36.424872],[137.316748,36.424872],[137.316148,36.424805],[137.315761,36.42483],[137.315648,36.424805],[137.314898,36.42503],[137.314448,36.42503],[137.313998,36.424947],[137.313673,36.424947],[137.313373,36.425055],[137.312648,36.42553],[137.312299,36.425938],[137.311849,36.426347],[137.311724,36.426521],[137.311436,36.426771],[137.311011,36.426996],[137.310261,36.427521],[137.309699,36.428313],[137.309486,36.428763],[137.308899,36.429396],[137.308724,36.429821],[137.308686,36.430163],[137.308774,36.430496],[137.308661,36.431037],[137.308686,36.431421],[137.308749,36.431537],[137.308786,36.431762],[137.308661,36.431787],[137.308037,36.431671],[137.307799,36.431671],[137.307312,36.431854],[137.306962,36.432079],[137.306599,36.432379],[137.306362,36.432645],[137.306249,36.43287],[137.306187,36.433229],[137.306274,36.433704],[137.306612,36.434562],[137.306249,36.434853],[137.305174,36.435487],[137.305087,36.435787],[137.305087,36.436078],[137.305387,36.436436],[137.305749,36.436595],[137.306499,36.43702],[137.306949,36.437695],[137.307212,36.437853],[137.307637,36.437895],[137.308199,36.437895],[137.308324,36.438103],[137.308112,36.438553],[137.308112,36.438803],[137.308474,36.439494],[137.308774,36.439861],[137.309049,36.440061],[137.309849,36.440036],[137.310274,36.440086],[137.310486,36.440219],[137.310836,36.440894],[137.310936,36.440919],[137.311674,36.440828],[137.312099,36.440711],[137.312211,36.440736],[137.312311,36.441119],[137.312311,36.441427],[137.312424,36.441569],[137.312849,36.441544],[137.313561,36.441586],[137.313811,36.441561],[137.313836,36.441586],[137.313686,36.441944],[137.313061,36.443119],[137.312886,36.443844],[137.312674,36.444119],[137.312436,36.444319],[137.312111,36.444677],[137.312111,36.444969],[137.312286,36.445285],[137.313011,36.445668],[137.313311,36.445877],[137.313524,36.446143],[137.313673,36.446593],[137.313736,36.447043],[137.313736,36.447426],[137.313674,36.447943],[137.313499,36.44826],[137.313349,36.448851],[137.313524,36.449168],[137.314398,36.449476],[137.314698,36.449843],[137.314998,36.450084],[137.315361,36.450309],[137.315798,36.450443],[137.316698,36.450443],[137.317061,36.450509],[137.317573,36.450876],[137.317748,36.451101],[137.317786,36.451276],[137.317573,36.452092],[137.317223,36.453109],[137.317186,36.453334],[137.316686,36.454959],[137.316598,36.455517],[137.316511,36.456733],[137.316361,36.457891],[137.316398,36.458341],[137.316611,36.458725],[137.317211,36.459491],[137.317361,36.459824],[137.317361,36.460166],[137.317298,36.460299],[137.316849,36.460908],[137.316436,36.461041],[137.315561,36.461116],[137.314961,36.461091],[137.314524,36.461049],[137.313711,36.461074],[137.313236,36.461141],[137.311374,36.461982],[137.310899,36.46209],[137.310337,36.462299],[137.309824,36.46254],[137.309737,36.462565],[137.309312,36.462724],[137.308899,36.462948],[137.308812,36.463065],[137.308662,36.463715],[137.308324,36.46379],[137.307549,36.463723],[137.30665,36.463857],[137.306262,36.463765],[137.305812,36.463523],[137.3051,36.463023],[137.3044,36.462257],[137.303562,36.461765],[137.303325,36.461765],[137.302638,36.46199],[137.30225,36.461974],[137.301325,36.461657],[137.300988,36.461499],[137.300688,36.460799],[137.300325,36.460482],[137.3,36.460057],[137.299825,36.459649],[137.299638,36.458866],[137.299338,36.458549],[137.299163,36.458433],[137.298825,36.458324],[137.298501,36.458299],[137.298026,36.458441],[137.295688,36.459299],[137.295663,36.459316],[137.295626,36.459324],[137.295001,36.459391],[137.294251,36.459574],[137.293901,36.459732],[137.293364,36.459907],[137.293214,36.460024],[137.292851,36.460141],[137.291089,36.459916],[137.290489,36.459916],[137.290039,36.459982],[137.289377,36.460232],[137.288664,36.460574],[137.288302,36.460824],[137.287915,36.461365],[137.287677,36.461549],[137.287202,36.461524],[137.286065,36.461324],[137.285915,36.461257],[137.285665,36.461257],[137.285277,36.461549],[137.284802,36.462157],[137.284415,36.462407],[137.28394,36.462473],[137.283753,36.46259],[137.283553,36.462973],[137.283165,36.463332],[137.282778,36.463832],[137.28254,36.46424],[137.282178,36.464531],[137.281703,36.46469],[137.28104,36.464715],[137.280503,36.464673],[137.280053,36.464673],[137.279328,36.46494],[137.279091,36.46499],[137.278891,36.46499],[137.277991,36.464856],[137.277478,36.464673],[137.275416,36.463507],[137.273854,36.46249],[137.273316,36.462265],[137.272679,36.462065],[137.272229,36.461957],[137.271304,36.46189],[137.270704,36.461757],[137.269717,36.461399],[137.269029,36.461032],[137.268579,36.46074],[137.268192,36.46054],[137.267592,36.460315],[137.267054,36.460066],[137.266279,36.459599],[137.26553,36.458899],[137.265467,36.458807],[137.265105,36.458649],[137.264505,36.458491],[137.264267,36.458491],[137.263792,36.458316],[137.263492,36.457974],[137.263342,36.4564],[137.26313,36.455883],[137.26283,36.455475],[137.261992,36.454841],[137.261992,36.4548],[137.261742,36.4546],[137.260818,36.454017],[137.260193,36.4537],[137.259705,36.453542],[137.258543,36.453275],[137.258305,36.453133],[137.258118,36.4526],[137.257855,36.452458],[137.257406,36.45215],[137.256868,36.451559],[137.256506,36.451242],[137.256206,36.451109],[137.256081,36.451109],[137.256031,36.4512],[137.255993,36.45165],[137.255968,36.451942],[137.255556,36.452533],[137.255193,36.453233],[137.255068,36.453683],[137.254868,36.454158],[137.254656,36.4545],[137.254206,36.4549],[137.253518,36.455375],[137.252593,36.45585],[137.252268,36.4561],[137.252056,36.456399],[137.251969,36.456666],[137.252293,36.457116],[137.252293,36.457391],[137.252206,36.457791],[137.251968,36.458358],[137.251606,36.458674],[137.251519,36.458807],[137.250269,36.459582],[137.249606,36.460032],[137.249006,36.460282],[137.248681,36.460507],[137.248444,36.460865],[137.248294,36.461274],[137.248231,36.461724],[137.248144,36.461932],[137.248401,36.4622],[137.248531,36.462515],[137.248869,36.46344],[137.248919,36.463865],[137.248869,36.46454],[137.248806,36.464682],[137.248569,36.464948],[137.248119,36.465356],[137.246831,36.46629],[137.246035,36.467162],[137.245209,36.46795],[137.243457,36.469197],[137.242794,36.469581],[137.24162,36.470597],[137.24137,36.471114],[137.24102,36.472147],[137.24082,36.473163],[137.240545,36.473613],[137.239645,36.474513],[137.239182,36.474813],[137.238633,36.475038],[137.238108,36.475171],[137.236783,36.475221],[137.23607,36.47538],[137.235358,36.475738],[137.235058,36.476055],[137.234758,36.476463],[137.234671,36.476638],[137.234533,36.477204],[137.234596,36.477679],[137.234646,36.477813],[137.234758,36.478463],[137.235008,36.478938],[137.235445,36.479612],[137.235745,36.480196],[137.236495,36.48182],[137.236683,36.482379],[137.236933,36.482787],[137.23892,36.484745],[137.23952,36.485353],[137.240045,36.485936],[137.240545,36.486411],[137.241095,36.486811],[137.24167,36.487128],[137.242282,36.487603],[137.242832,36.488319],[137.24297,36.488661],[137.24297,36.489311],[137.242807,36.490169],[137.24292,36.492177],[137.242807,36.492785],[137.24262,36.493027],[137.242345,36.493302],[137.241682,36.493752],[137.240907,36.494069],[137.240057,36.494269],[137.239258,36.49441],[137.238658,36.49466],[137.238295,36.494927],[137.238245,36.49506],[137.238445,36.495352],[137.238683,36.495493],[137.239645,36.495643],[137.240307,36.49571],[137.241195,36.495935],[137.241845,36.496185],[137.24237,36.496477],[137.242869,36.49686],[137.243532,36.497218],[137.243744,36.49731],[137.245207,36.497535],[137.246219,36.497826],[137.246982,36.498004],[137.247689,36.498328],[137.248251,36.498468],[137.248581,36.498535],[137.249906,36.498868],[137.250468,36.499076],[137.250681,36.499118],[137.251493,36.499476],[137.252218,36.500243],[137.252606,36.500943],[137.253206,36.502268],[137.253206,36.503076],[137.252943,36.504759],[137.252793,36.505367],[137.252668,36.506334],[137.252518,36.506892],[137.252306,36.507409],[137.251968,36.507875],[137.251656,36.508142],[137.251181,36.508317],[137.248894,36.508333],[137.247994,36.508417],[137.247569,36.508392],[137.247294,36.508342],[137.246993,36.508223],[137.246799,36.508158],[137.246544,36.508075],[137.246044,36.5079],[137.245294,36.507542],[137.244094,36.506775],[137.243732,36.506592],[137.243413,36.506436],[137.242982,36.506217],[137.24217,36.505767],[137.24172,36.50545],[137.239982,36.504575],[137.239207,36.504367],[137.23882,36.504509],[137.238395,36.50475],[137.23807,36.505025],[137.23807,36.505067],[137.237483,36.505634],[137.23697,36.505859],[137.236733,36.506067],[137.236583,36.506134],[137.236258,36.5062],[137.235833,36.506334],[137.235083,36.50665],[137.234283,36.50715],[137.233896,36.507283],[137.233233,36.507583],[137.232221,36.508217],[137.231896,36.508625],[137.231896,36.508825],[137.232283,36.509591],[137.232683,36.510516],[137.232833,36.511033],[137.232858,36.51155],[137.232896,36.511575],[137.232896,36.512116],[137.232746,36.512608],[137.232483,36.513108],[137.231883,36.513808],[137.231109,36.514532],[137.230721,36.514716],[137.229109,36.515366],[137.228459,36.515799],[137.228209,36.516024],[137.227922,36.516449],[137.227709,36.516974],[137.227684,36.517465],[137.227834,36.518215],[137.228109,36.519157],[137.228134,36.519657],[137.228059,36.52184],[137.228446,36.523898],[137.228696,36.524656],[137.229059,36.525131],[137.230408,36.526689],[137.230496,36.526864],[137.230833,36.527314],[137.231246,36.528222],[137.231546,36.528755],[137.232358,36.529889],[137.23332,36.530789],[137.233983,36.531555],[137.23432,36.532522],[137.234558,36.53293],[137.234858,36.533313],[137.235457,36.534188],[137.236157,36.535155],[137.236307,36.535588],[137.236007,36.536104],[137.236604,36.537893],[137.236695,36.540694],[137.236333,36.544581],[137.234604,36.549791],[137.231438,36.553677],[137.228905,36.557382],[137.228091,36.560636],[137.226372,36.564613],[137.22393,36.567957],[137.223026,36.57121],[137.223206,36.57365],[137.224834,36.576956],[137.226643,36.580029],[137.22809,36.582379],[137.228362,36.585904],[137.22791,36.589971],[137.226915,36.594399],[137.224653,36.597834],[137.220019,36.601859],[137.215496,36.6071],[137.213687,36.611077],[137.212511,36.615054],[137.21224,36.619934],[137.212684,36.627033],[137.212412,36.632636],[137.210694,36.634715],[137.2059,36.636252],[137.200111,36.637065],[137.194774,36.638149],[137.191156,36.638692],[137.186904,36.640409],[137.180078,36.643931],[137.179526,36.64451],[137.17788,36.646423],[137.175727,36.65136],[137.1756,36.657815],[137.17712,36.663765],[137.181428,36.669968],[137.196251,36.679209],[137.207201,36.685903],[137.209085,36.686866],[137.21185,36.688121],[137.214823,36.68946],[137.217043,36.691636],[137.217713,36.693143],[137.217713,36.694816],[137.217252,36.69603],[137.216205,36.697704],[137.21318,36.701881],[137.211714,36.705145],[137.211337,36.708074],[137.211714,36.710376],[137.212217,36.712426],[137.214274,36.715135],[137.21641,36.717102],[137.218378,36.717897],[137.21976,36.718859],[137.220514,36.720533],[137.220682,36.721663],[137.220556,36.722668],[137.219509,36.723504],[137.218001,36.723756],[137.215421,36.724414],[137.212919,36.726171],[137.210078,36.728333],[137.20832,36.731441],[137.2069,36.734955],[137.2069,36.737725],[137.2069,36.741239],[137.207441,36.744482],[137.210048,36.759584],[137.210477,36.759602],[137.211015,36.759552],[137.21154,36.75961],[137.21179,36.75956],[137.212015,36.759577],[137.212552,36.759668],[137.212277,36.760118],[137.213177,36.760318],[137.21344,36.760168],[137.213615,36.760152],[137.213965,36.760268],[137.21439,36.760518],[137.21474,36.760785],[137.21519,36.76086],[137.215727,36.760868],[137.21609,36.760785],[137.216252,36.760719],[137.216465,36.760719],[137.218452,36.761035],[137.218789,36.76111],[137.218889,36.761177],[137.219152,36.76126],[137.219439,36.761252],[137.219789,36.761344],[137.220081,36.761408],[137.220281,36.761391],[137.224689,36.762386],[137.226203,36.762012],[137.228152,36.761486],[137.228302,36.761486],[137.229197,36.764028],[137.229614,36.764228],[137.230176,36.764119],[137.230626,36.764286],[137.231076,36.764653],[137.231676,36.764744],[137.232364,36.765078],[137.232764,36.765169],[137.232951,36.765086],[137.233014,36.764753],[137.232864,36.764461],[137.232789,36.764336],[137.233826,36.764411],[137.233976,36.765303],[137.234576,36.765294],[137.234589,36.765711],[137.231026,36.766202],[137.230951,36.766444],[137.234701,36.765953],[137.234901,36.764811],[137.235076,36.764811],[137.235226,36.764803],[137.235751,36.764878],[137.236239,36.764953],[137.236926,36.764928],[137.237451,36.764928],[137.238014,36.765003],[137.238314,36.764903],[137.238589,36.764753],[137.239039,36.76472],[137.239538,36.764903],[137.239963,36.764945],[137.240463,36.764803],[137.240938,36.76487],[137.241488,36.764978],[137.241851,36.764962],[137.242463,36.764928],[137.243276,36.764937],[137.243726,36.765037],[137.244038,36.765062],[137.244551,36.764879],[137.244988,36.764795],[137.245438,36.764745],[137.245951,36.764729],[137.246451,36.764737],[137.246801,36.764729],[137.248363,36.764412],[137.249713,36.764187],[137.250413,36.76417],[137.251313,36.76397],[137.253137,36.763645],[137.2553,36.763062],[137.257612,36.762537],[137.258562,36.762379],[137.260449,36.762229],[137.262749,36.761995],[137.263961,36.761912],[137.266661,36.761562],[137.267698,36.761479],[137.268873,36.761504],[137.269185,36.761462],[137.269685,36.761487],[137.27056,36.76142],[137.271322,36.76142],[137.27191,36.761461],[137.272438,36.761476],[137.273202,36.761369],[137.273822,36.761162],[137.27421,36.761145],[137.274747,36.760962],[137.275422,36.760854],[137.276159,36.760654],[137.276797,36.76057],[137.277447,36.760387],[137.278147,36.760237],[137.278709,36.760171],[137.278859,36.760104],[137.280234,36.759771],[137.280734,36.759687],[137.281159,36.759479],[137.281784,36.759354],[137.282284,36.759171],[137.283046,36.759104],[137.283946,36.758954],[137.284533,36.758912],[137.285033,36.758912],[137.286421,36.758721],[137.287008,36.758446],[137.287683,36.758362],[137.288133,36.758162],[137.289058,36.757938],[137.29007,36.757896],[137.290808,36.757921],[137.292095,36.757729],[137.292795,36.757754],[137.29282,36.757779],[137.296595,36.757071],[137.296732,36.757029],[137.297182,36.757096],[137.29817,36.757188],[137.302119,36.757913],[137.302282,36.757955],[137.301832,36.758763],[137.301719,36.758912],[137.301582,36.759146],[137.301633,36.759252],[137.302144,36.759221],[137.302957,36.759246],[137.303569,36.759338],[137.304087,36.759539],[137.305194,36.759663],[137.306456,36.759696],[137.307669,36.75963],[137.310369,36.759571],[137.311856,36.759355],[137.313118,36.759138],[137.316068,36.758697],[137.316855,36.758547],[137.317143,36.758522],[137.31778,36.758597],[137.318518,36.758488],[137.318943,36.758305],[137.319018,36.758213],[137.31953,36.758263],[137.320318,36.758405],[137.320455,36.75863],[137.320343,36.758813],[137.320205,36.758805],[137.320118,36.759172],[137.320955,36.759222],[137.32229,36.759537],[137.322878,36.75966],[137.323209,36.759715],[137.323604,36.759808],[137.324017,36.759955],[137.325017,36.76023],[137.325805,36.76053],[137.327017,36.76083],[137.327967,36.761038],[137.330804,36.761747],[137.331804,36.761938],[137.332679,36.762213],[137.333429,36.762663],[137.333991,36.763147],[137.334441,36.763638],[137.334782,36.764096],[137.335034,36.764823],[137.335067,36.765305],[137.33515,36.765802],[137.3355,36.766255],[137.33619,36.766841],[137.336691,36.767313],[137.337703,36.768171],[137.338066,36.76838],[137.338853,36.768721],[137.339628,36.769196],[137.340165,36.769771],[137.34044,36.77013],[137.340865,36.770588],[137.34164,36.770946],[137.342403,36.771404],[137.342565,36.771538],[137.34304,36.772471],[137.34329,36.773371],[137.343565,36.774146],[137.34409,36.774887],[137.345039,36.775871],[137.345239,36.776571],[137.345177,36.777062],[137.345127,36.777129],[137.34414,36.777154],[137.344114,36.777396],[137.344527,36.777787],[137.344965,36.778623],[137.345114,36.778962],[137.345202,36.779079],[137.345614,36.779395],[137.346339,36.779845],[137.347264,36.780579],[137.348951,36.781737],[137.349926,36.78237],[137.351601,36.783212],[137.352188,36.783695],[137.352888,36.78437],[137.353451,36.784737],[137.354213,36.784987],[137.355163,36.785353],[137.357175,36.786812],[137.358125,36.787403],[137.359025,36.787878],[137.360262,36.788745],[137.361624,36.789928],[137.362187,36.790495],[137.363162,36.790969],[137.365411,36.791886],[137.366311,36.792319],[137.367123,36.792844],[137.367961,36.793319],[137.369498,36.793961],[137.371048,36.794536],[137.371928,36.794983],[137.372818,36.795374],[137.373485,36.795652],[137.374498,36.795944],[137.375222,36.796186],[137.376435,36.796519],[137.376622,36.796636],[137.377335,36.797194],[137.378147,36.797894],[137.378285,36.798119],[137.378372,36.798752],[137.378547,36.799269],[137.378997,36.799602],[137.379447,36.799802],[137.380372,36.800011],[137.381936,36.800427],[137.382272,36.800427]]],"type":"Polygon"},"properties":{"kuni_url":"/kg/resource/K38.html","id_url":"G38002.html","kuni":"越中","id":"G38002","name":"上新川","yomi":"かみにいかわ","kuni_id":"K38","pref":"富山県"}}]}