{"type":"FeatureCollection","features":[{"properties":{"kuni_id":"K39","pref":"新潟県","name":"東頸城","yomi":"ひがすくびき","kuni":"越後","id":"G39013","kuni_url":"/kg/resource/K39.html","id_url":"G39013.html"},"geometry":{"type":"Polygon","coordinates":[[[138.536455,37.198383],[138.536817,37.198458],[138.538517,37.19855],[138.539404,37.198667],[138.539792,37.1988],[138.540542,37.199167],[138.541129,37.1995],[138.541517,37.199683],[138.541992,37.199642],[138.542767,37.199775],[138.543442,37.199983],[138.544441,37.200417],[138.545879,37.200867],[138.547216,37.201417],[138.548416,37.201842],[138.548916,37.202158],[138.549628,37.203042],[138.550028,37.203425],[138.551241,37.203816],[138.551803,37.203925],[138.552303,37.203008],[138.553378,37.200842],[138.553878,37.200234],[138.554716,37.199584],[138.555353,37.199134],[138.555978,37.198617],[138.556278,37.198117],[138.556315,37.197759],[138.556165,37.197334],[138.55634,37.196701],[138.556565,37.196359],[138.556428,37.196117],[138.555653,37.195567],[138.555428,37.195459],[138.554816,37.195234],[138.554241,37.193759],[138.554041,37.193084],[138.553853,37.191643],[138.553853,37.191209],[138.553778,37.190651],[138.553866,37.190151],[138.554141,37.189726],[138.554591,37.189385],[138.555366,37.189026],[138.555791,37.188718],[138.556041,37.188268],[138.556203,37.187701],[138.556541,37.18736],[138.557803,37.18651],[138.559303,37.185543],[138.560116,37.185343],[138.560953,37.185252],[138.56329,37.185193],[138.563703,37.185077],[138.564215,37.184585],[138.564378,37.184069],[138.564465,37.183635],[138.564665,37.183144],[138.564803,37.182577],[138.565053,37.182152],[138.565478,37.181635],[138.56609,37.181227],[138.566928,37.180777],[138.56734,37.180444],[138.567678,37.179902],[138.568315,37.179411],[138.56879,37.179186],[138.568853,37.178911],[138.568803,37.178144],[138.568628,37.177469],[138.568353,37.176886],[138.568228,37.175119],[138.568091,37.174419],[138.568003,37.173703],[138.567791,37.173361],[138.566928,37.172369],[138.566566,37.171669],[138.566428,37.171261],[138.566341,37.170761],[138.566154,37.170494],[138.565766,37.170378],[138.566679,37.170111],[138.566991,37.169978],[138.567216,37.169703],[138.567554,37.169361],[138.567954,37.169145],[138.569053,37.168778],[138.570378,37.168436],[138.571203,37.168336],[138.572553,37.167978],[138.573341,37.167611],[138.573941,37.167428],[138.574316,37.16722],[138.574416,37.167062],[138.574628,37.166228],[138.574741,37.165945],[138.574916,37.165687],[138.575978,37.165212],[138.576303,37.165128],[138.576753,37.165295],[138.57739,37.16582],[138.577653,37.166003],[138.57784,37.16617],[138.578228,37.166445],[138.57869,37.166603],[138.57974,37.166695],[138.58034,37.166662],[138.580802,37.16667],[138.58144,37.166787],[138.581802,37.16672],[138.582352,37.166687],[138.58294,37.166704],[138.58399,37.166587],[138.58429,37.166562],[138.584602,37.166845],[138.585015,37.167137],[138.585402,37.167254],[138.585577,37.16727],[138.585789,37.167387],[138.586139,37.167678],[138.586652,37.16787],[138.587152,37.167937],[138.587639,37.167895],[138.588039,37.167829],[138.588502,37.167862],[138.589377,37.168179],[138.589739,37.168145],[138.591076,37.168462],[138.591226,37.168595],[138.591426,37.169003],[138.591426,37.169195],[138.591351,37.169453],[138.591339,37.169703],[138.591476,37.170303],[138.591701,37.170578],[138.591926,37.170687],[138.592539,37.170895],[138.593339,37.171103],[138.594039,37.171237],[138.595038,37.171328],[138.595513,37.171237],[138.596488,37.171262],[138.597738,37.17122],[138.599101,37.171495],[138.599688,37.171562],[138.600351,37.171412],[138.600688,37.171254],[138.600938,37.171029],[138.601026,37.170645],[138.601188,37.170445],[138.602138,37.170154],[138.60245,37.169879],[138.602775,37.169745],[138.60285,37.16962],[138.603125,37.169412],[138.603613,37.169162],[138.604463,37.168846],[138.604888,37.168796],[138.60565,37.169412],[138.60595,37.169596],[138.605975,37.169704],[138.606063,37.170204],[138.606038,37.170429],[138.605925,37.17072],[138.605975,37.17102],[138.6062,37.171287],[138.606588,37.171579],[138.60675,37.171787],[138.606888,37.172104],[138.607588,37.172645],[138.6077,37.173387],[138.6082,37.174495],[138.608925,37.174387],[138.60945,37.174362],[138.60995,37.174437],[138.610287,37.17457],[138.610362,37.174662],[138.610862,37.17552],[138.61095,37.175787],[138.610862,37.176012],[138.610612,37.176129],[138.609862,37.176129],[138.609612,37.176303],[138.6095,37.176553],[138.609437,37.177203],[138.6095,37.177795],[138.609687,37.178628],[138.6098,37.178828],[138.610162,37.178853],[138.61055,37.178628],[138.610912,37.178162],[138.611225,37.178045],[138.611475,37.178112],[138.611637,37.178228],[138.611712,37.178545],[138.611637,37.178795],[138.611412,37.179037],[138.611387,37.179312],[138.611574,37.179603],[138.611662,37.179803],[138.611437,37.180078],[138.610937,37.180303],[138.610462,37.180728],[138.609924,37.181203],[138.609899,37.181403],[138.609987,37.181586],[138.610487,37.181995],[138.610624,37.182245],[138.611012,37.182695],[138.611149,37.182736],[138.611624,37.182761],[138.612012,37.182828],[138.612262,37.183128],[138.612787,37.184436],[138.612874,37.185295],[138.612862,37.186011],[138.612949,37.186103],[138.613249,37.186153],[138.613562,37.186086],[138.613949,37.185861],[138.614262,37.185611],[138.614487,37.18557],[138.614849,37.185678],[138.615174,37.185836],[138.615424,37.18577],[138.615824,37.185503],[138.616074,37.185253],[138.616124,37.18422],[138.616274,37.183653],[138.616524,37.183045],[138.616886,37.18237],[138.617274,37.181853],[138.617811,37.181445],[138.618199,37.181245],[138.618424,37.180903],[138.618449,37.180428],[138.618262,37.179712],[138.618287,37.179528],[138.618062,37.178895],[138.618287,37.178495],[138.618624,37.178045],[138.619037,37.177929],[138.619624,37.178137],[138.621074,37.178862],[138.621833,37.179017],[138.622324,37.17932],[138.622799,37.179453],[138.623349,37.179503],[138.623974,37.179437],[138.624536,37.179312],[138.625086,37.179112],[138.625686,37.179004],[138.626236,37.178912],[138.626948,37.178379],[138.627348,37.178204],[138.627698,37.178362],[138.628798,37.17902],[138.629498,37.17912],[138.631623,37.17907],[138.631948,37.178887],[138.632161,37.178212],[138.632211,37.177804],[138.632098,37.177062],[138.632348,37.176745],[138.632773,37.176687],[138.633273,37.17657],[138.633548,37.176262],[138.634161,37.175812],[138.634511,37.175704],[138.635411,37.175529],[138.637123,37.174929],[138.638148,37.174779],[138.638623,37.174671],[138.639235,37.174679],[138.63976,37.174587],[138.640035,37.174346],[138.640473,37.173579],[138.640848,37.173338],[138.641723,37.173163],[138.642123,37.172913],[138.64246,37.172579],[138.642935,37.172379],[138.64316,37.172446],[138.643385,37.172613],[138.643535,37.172654],[138.644585,37.172779],[138.644785,37.172846],[138.64526,37.173138],[138.645822,37.174096],[138.645922,37.174479],[138.646047,37.174613],[138.646347,37.174704],[138.646922,37.174821],[138.647297,37.175071],[138.647535,37.175596],[138.647659,37.176021],[138.647909,37.176187],[138.648434,37.176212],[138.648859,37.176371],[138.649234,37.176671],[138.649472,37.177079],[138.649522,37.177529],[138.649447,37.178071],[138.649234,37.178829],[138.649284,37.179487],[138.649397,37.18032],[138.649572,37.180954],[138.649759,37.181454],[138.649684,37.181904],[138.649534,37.182129],[138.649559,37.182245],[138.649772,37.182603],[138.650122,37.183078],[138.651359,37.18442],[138.651809,37.18472],[138.652084,37.185037],[138.652209,37.185353],[138.652046,37.185895],[138.651409,37.187128],[138.651134,37.187803],[138.650996,37.188453],[138.650821,37.188903],[138.651684,37.189678],[138.652584,37.190703],[138.652596,37.191694],[138.652621,37.191786],[138.652921,37.191786],[138.653671,37.191836],[138.654146,37.192111],[138.654546,37.192386],[138.654746,37.192569],[138.654833,37.192994],[138.654783,37.193786],[138.654958,37.194144],[138.655621,37.194469],[138.656321,37.194694],[138.656608,37.194519],[138.656508,37.194178],[138.656333,37.193819],[138.656233,37.193411],[138.656321,37.193003],[138.656521,37.192786],[138.656821,37.192786],[138.656946,37.193053],[138.656996,37.193236],[138.657221,37.193236],[138.657346,37.193194],[138.657771,37.192928],[138.658071,37.192278],[138.658308,37.191936],[138.658583,37.191936],[138.658983,37.192211],[138.659358,37.192328],[138.659783,37.192311],[138.660083,37.192128],[138.660108,37.192045],[138.659108,37.191286],[138.658271,37.190378],[138.658146,37.190203],[138.658071,37.189811],[138.658258,37.18932],[138.658508,37.188845],[138.658921,37.187478],[138.659158,37.186303],[138.659208,37.185878],[138.659171,37.185153],[138.659246,37.184703],[138.659508,37.184295],[138.659908,37.18392],[138.660083,37.183537],[138.660096,37.183129],[138.659821,37.182312],[138.659133,37.181654],[138.658958,37.181295],[138.658708,37.180887],[138.658383,37.180704],[138.658258,37.18057],[138.658096,37.179795],[138.658296,37.179579],[138.658496,37.179396],[138.658521,37.179171],[138.658059,37.178329],[138.658059,37.178262],[138.658234,37.178087],[138.658408,37.177996],[138.658334,37.177704],[138.658371,37.177587],[138.658996,37.177237],[138.659171,37.176854],[138.659371,37.176671],[138.659833,37.176471],[138.660483,37.176388],[138.660733,37.176296],[138.661121,37.174813],[138.660771,37.174246],[138.660483,37.173954],[138.660283,37.173654],[138.660333,37.173363],[138.661108,37.173305],[138.661508,37.173238],[138.661833,37.17308],[138.661946,37.17288],[138.661646,37.171863],[138.661621,37.17168],[138.661808,37.171296],[138.661883,37.170938],[138.662008,37.17083],[138.662458,37.170697],[138.662871,37.17043],[138.662971,37.170313],[138.663083,37.169705],[138.662921,37.169413],[138.662233,37.16838],[138.661758,37.167655],[138.661534,37.16723],[138.661459,37.166964],[138.661459,37.166739],[138.662346,37.16633],[138.662771,37.166172],[138.664358,37.166355],[138.665021,37.166497],[138.665696,37.166764],[138.666108,37.16703],[138.666721,37.167372],[138.667758,37.167664],[138.66817,37.167664],[138.668145,37.167597],[138.667983,37.167439],[138.667558,37.167147],[138.667395,37.166722],[138.667458,37.166431],[138.667845,37.165531],[138.66787,37.165372],[138.667683,37.165014],[138.667183,37.164872],[138.666508,37.164581],[138.666008,37.163864],[138.665671,37.163722],[138.665171,37.163706],[138.664696,37.163522],[138.664308,37.163256],[138.663896,37.163072],[138.663421,37.162556],[138.663058,37.162056],[138.663008,37.161698],[138.665321,37.160639],[138.666083,37.160264],[138.667058,37.159698],[138.667508,37.159473],[138.667283,37.159273],[138.666058,37.158915],[138.665471,37.15864],[138.665108,37.158306],[138.664946,37.157873],[138.664946,37.157173],[138.665083,37.156257],[138.665258,37.155623],[138.665958,37.154165],[138.666633,37.153199],[138.666908,37.152857],[138.667358,37.152682],[138.669896,37.152682],[138.67042,37.152574],[138.670508,37.152482],[138.671233,37.152149],[138.67177,37.151941],[138.671933,37.151924],[138.672245,37.151966],[138.672358,37.152099],[138.672408,37.15239],[138.672233,37.152707],[138.67227,37.152799],[138.67257,37.152957],[138.672995,37.152999],[138.673245,37.152932],[138.67372,37.152732],[138.67422,37.152599],[138.674695,37.15264],[138.675195,37.152874],[138.675645,37.153165],[138.67592,37.153482],[138.67622,37.154174],[138.676507,37.154465],[138.676757,37.154582],[138.677195,37.154649],[138.677395,37.154649],[138.677895,37.154474],[138.678482,37.15409],[138.67882,37.153774],[138.678907,37.153599],[138.67927,37.153124],[138.679695,37.152674],[138.67997,37.152316],[138.68022,37.151866],[138.680607,37.151282],[138.682369,37.150183],[138.682932,37.149483],[138.683469,37.149008],[138.683882,37.148849],[138.684382,37.148808],[138.685057,37.148266],[138.685444,37.147999],[138.686094,37.14775],[138.686957,37.147233],[138.687382,37.14715],[138.688519,37.147033],[138.689306,37.146883],[138.689806,37.146675],[138.690331,37.146408],[138.690781,37.146116],[138.691344,37.145642],[138.691794,37.145175],[138.691681,37.145175],[138.691044,37.145017],[138.690619,37.144967],[138.689331,37.145033],[138.688894,37.145008],[138.688032,37.144558],[138.687669,37.144267],[138.687307,37.144158],[138.686719,37.144108],[138.686382,37.143883],[138.685682,37.143167],[138.685244,37.142667],[138.685044,37.142508],[138.684857,37.142258],[138.684744,37.14195],[138.684719,37.141475],[138.684632,37.1412],[138.684432,37.141],[138.684132,37.140775],[138.683607,37.140575],[138.683295,37.14055],[138.682907,37.140417],[138.682595,37.140234],[138.681682,37.139534],[138.68107,37.13915],[138.680732,37.139059],[138.680507,37.138925],[138.680057,37.138809],[138.679195,37.138767],[138.678945,37.138717],[138.678895,37.138609],[138.678832,37.1382],[138.678732,37.137892],[138.678445,37.137617],[138.67812,37.137392],[138.677758,37.137234],[138.67747,37.136917],[138.67737,37.136534],[138.676695,37.135834],[138.676558,37.135634],[138.676508,37.135301],[138.676333,37.134867],[138.675945,37.134759],[138.675308,37.134617],[138.674833,37.134417],[138.674358,37.134126],[138.673883,37.133626],[138.673721,37.133243],[138.673808,37.132951],[138.673995,37.132551],[138.674195,37.131084],[138.674095,37.130168],[138.674145,37.129735],[138.674395,37.12931],[138.674658,37.129043],[138.67487,37.128726],[138.67502,37.128226],[138.675183,37.127193],[138.675558,37.126385],[138.675608,37.126052],[138.675558,37.125735],[138.675383,37.125285],[138.675308,37.124719],[138.675358,37.124252],[138.67547,37.123752],[138.675483,37.123352],[138.67542,37.123119],[138.675195,37.122877],[138.674508,37.122494],[138.674146,37.122244],[138.673671,37.121977],[138.673471,37.121927],[138.673083,37.121744],[138.672783,37.121436],[138.672496,37.121252],[138.672196,37.121136],[138.671183,37.121119],[138.670658,37.121111],[138.670383,37.121002],[138.670383,37.120661],[138.670658,37.119677],[138.670633,37.119336],[138.670746,37.119069],[138.671133,37.118911],[138.671671,37.118819],[138.671758,37.118553],[138.671621,37.118236],[138.671396,37.117894],[138.670833,37.117603],[138.669946,37.117286],[138.669521,37.117111],[138.669309,37.116928],[138.669221,37.116794],[138.669284,37.116478],[138.669421,37.116161],[138.669696,37.115803],[138.669896,37.115445],[138.669921,37.115036],[138.669758,37.114186],[138.669846,37.113886],[138.670321,37.112945],[138.670458,37.11247],[138.670408,37.111887],[138.670321,37.111487],[138.670046,37.111078],[138.669296,37.110404],[138.668271,37.109229],[138.667959,37.108754],[138.667821,37.108379],[138.667859,37.107471],[138.667796,37.107179],[138.667634,37.106796],[138.667521,37.106237],[138.667546,37.105896],[138.667696,37.105537],[138.667921,37.105246],[138.668034,37.104888],[138.668109,37.104121],[138.667896,37.103721],[138.667534,37.103379],[138.667146,37.102796],[138.666896,37.102346],[138.666809,37.102055],[138.666921,37.10158],[138.667146,37.101421],[138.668571,37.100638],[138.668959,37.100388],[138.669384,37.09998],[138.669496,37.099713],[138.669359,37.098838],[138.669471,37.098205],[138.669671,37.097872],[138.670371,37.097172],[138.670984,37.096747],[138.671571,37.096364],[138.671209,37.095872],[138.671046,37.095439],[138.671271,37.094814],[138.671709,37.094314],[138.671996,37.093731],[138.672384,37.093281],[138.672421,37.092698],[138.672609,37.092498],[138.672834,37.092339],[138.673059,37.091956],[138.673196,37.091306],[138.673458,37.09074],[138.673508,37.090248],[138.673509,37.089815],[138.673434,37.089232],[138.673259,37.08874],[138.673009,37.088382],[138.672909,37.087857],[138.672709,37.087407],[138.672546,37.08714],[138.672521,37.08689],[138.672271,37.086382],[138.672059,37.086232],[138.671946,37.086115],[138.671859,37.086007],[138.671796,37.085815],[138.671796,37.085624],[138.671896,37.085382],[138.671909,37.085174],[138.671946,37.085007],[138.672059,37.084615],[138.672121,37.084391],[138.672134,37.084232],[138.672159,37.084091],[138.672121,37.083741],[138.672084,37.083591],[138.672134,37.083441],[138.672234,37.083266],[138.672321,37.083082],[138.672359,37.082674],[138.672359,37.082424],[138.672446,37.082307],[138.672634,37.082124],[138.672809,37.081958],[138.672896,37.081841],[138.672871,37.081699],[138.672821,37.081558],[138.672746,37.081449],[138.672571,37.081299],[138.672334,37.081049],[138.672171,37.080808],[138.672084,37.080641],[138.672021,37.080499],[138.671759,37.080149],[138.671534,37.079924],[138.671396,37.079708],[138.671271,37.079558],[138.671109,37.079475],[138.671009,37.079416],[138.670959,37.079316],[138.670984,37.079208],[138.671134,37.079041],[138.671196,37.078966],[138.671234,37.078833],[138.671271,37.078691],[138.671321,37.07855],[138.671384,37.078308],[138.671421,37.078108],[138.671421,37.077866],[138.671396,37.077741],[138.671346,37.077583],[138.671184,37.077458],[138.671096,37.077341],[138.671084,37.077216],[138.671109,37.077067],[138.671084,37.076883],[138.671059,37.0767],[138.671109,37.076542],[138.671234,37.076292],[138.671271,37.076117],[138.671284,37.075867],[138.671284,37.0757],[138.671259,37.075525],[138.671171,37.075175],[138.671134,37.07505],[138.671059,37.074875],[138.671021,37.074692],[138.670934,37.07445],[138.670821,37.074225],[138.670659,37.074025],[138.670584,37.073875],[138.670521,37.073725],[138.670459,37.07355],[138.670334,37.073342],[138.670296,37.073234],[138.670284,37.073034],[138.670309,37.072717],[138.670321,37.072442],[138.670334,37.072051],[138.670334,37.071859],[138.670321,37.071726],[138.670296,37.071551],[138.670259,37.071417],[138.670209,37.071284],[138.670184,37.071076],[138.670246,37.070884],[138.670321,37.070759],[138.670371,37.070609],[138.670321,37.070134],[138.670284,37.069967],[138.670234,37.069801],[138.670046,37.069309],[138.669959,37.069093],[138.669847,37.068943],[138.669759,37.068801],[138.669609,37.068676],[138.669447,37.068559],[138.669197,37.068443],[138.668897,37.068243],[138.668747,37.068143],[138.668522,37.067893],[138.668334,37.067651],[138.667984,37.067293],[138.667872,37.067126],[138.667747,37.066893],[138.667647,37.066709],[138.667434,37.066601],[138.667272,37.066534],[138.667059,37.066318],[138.667147,37.066084],[138.667222,37.065976],[138.667259,37.065835],[138.667309,37.065685],[138.667322,37.065526],[138.667334,37.065376],[138.667309,37.065318],[138.667247,37.065076],[138.667147,37.064835],[138.667034,37.064701],[138.666947,37.06461],[138.666684,37.064268],[138.666522,37.06406],[138.666385,37.063993],[138.66611,37.063943],[138.665972,37.063876],[138.665785,37.06381],[138.665397,37.06371],[138.665347,37.06371],[138.665135,37.06366],[138.664972,37.063585],[138.664935,37.063543],[138.664822,37.06341],[138.664772,37.063318],[138.664635,37.063151],[138.664497,37.063035],[138.66436,37.062943],[138.663985,37.062593],[138.663922,37.062543],[138.663797,37.062268],[138.663647,37.062126],[138.663635,37.062077],[138.663397,37.06206],[138.663147,37.062076],[138.662997,37.06206],[138.662672,37.06211],[138.662297,37.062176],[138.662172,37.062193],[138.662072,37.062218],[138.66186,37.062276],[138.661298,37.062335],[138.661173,37.062351],[138.66106,37.062368],[138.660848,37.062376],[138.660598,37.062443],[138.660473,37.062476],[138.660385,37.062501],[138.660223,37.062518],[138.660073,37.062526],[138.659973,37.06251],[138.659785,37.062451],[138.658785,37.06216],[138.658685,37.06221],[138.658435,37.062251],[138.658148,37.062285],[138.657898,37.062293],[138.65776,37.062268],[138.657485,37.062251],[138.65741,37.062268],[138.65721,37.062251],[138.657023,37.062176],[138.656823,37.062001],[138.656798,37.061951],[138.656673,37.061843],[138.656286,37.06166],[138.655736,37.061443],[138.655011,37.061201],[138.654411,37.061085],[138.654311,37.06106],[138.654086,37.06101],[138.653673,37.06081],[138.652998,37.060443],[138.652698,37.060268],[138.652111,37.059985],[138.651799,37.059802],[138.651286,37.05931],[138.651111,37.059193],[138.650436,37.05871],[138.650311,37.058627],[138.649961,37.058485],[138.649824,37.058527],[138.649661,37.05856],[138.649061,37.058577],[138.648874,37.058585],[138.648674,37.05856],[138.648424,37.058477],[138.647912,37.05826],[138.647712,37.058168],[138.647362,37.057802],[138.646787,37.057352],[138.646462,37.057177],[138.646262,37.057102],[138.646224,37.057085],[138.645487,37.056885],[138.645199,37.05686],[138.644849,37.056735],[138.644637,37.056643],[138.644474,37.056527],[138.644449,37.056352],[138.644299,37.055835],[138.644212,37.055319],[138.644175,37.054719],[138.6442,37.054519],[138.644237,37.054235],[138.644225,37.053977],[138.643675,37.053485],[138.643537,37.053311],[138.64345,37.053002],[138.643412,37.052494],[138.64365,37.051819],[138.64375,37.051602],[138.643775,37.051402],[138.643687,37.051252],[138.643487,37.051002],[138.643262,37.050619],[138.643212,37.050319],[138.6432,37.050044],[138.643175,37.049819],[138.643137,37.049611],[138.643037,37.049478],[138.642525,37.049186],[138.6424,37.049128],[138.642187,37.049003],[138.6419,37.048828],[138.6414,37.048611],[138.641225,37.048544],[138.640438,37.048319],[138.6402,37.048328],[138.639813,37.048461],[138.639663,37.048428],[138.639213,37.048228],[138.639175,37.048219],[138.639075,37.048211],[138.639,37.048278],[138.638825,37.048378],[138.638638,37.048553],[138.638513,37.048653],[138.63825,37.048844],[138.6379,37.049069],[138.637563,37.049302],[138.637338,37.049419],[138.637263,37.049469],[138.637013,37.049544],[138.636725,37.049594],[138.6366,37.049569],[138.63645,37.049452],[138.636351,37.049211],[138.636251,37.049069],[138.636076,37.048736],[138.635913,37.048494],[138.635801,37.048294],[138.635701,37.048086],[138.635626,37.047944],[138.635251,37.047444],[138.635163,37.047336],[138.635113,37.047236],[138.634851,37.046986],[138.634676,37.046786],[138.634613,37.046594],[138.634676,37.046228],[138.634726,37.046036],[138.634776,37.045911],[138.634776,37.04572],[138.634776,37.045611],[138.634776,37.045528],[138.634701,37.04542],[138.634563,37.04527],[138.634451,37.045136],[138.634288,37.045036],[138.633813,37.044645],[138.633351,37.044086],[138.633176,37.043945],[138.633101,37.043903],[138.632864,37.043811],[138.632689,37.04377],[138.632489,37.043745],[138.632151,37.043628],[138.631889,37.043545],[138.631589,37.043386],[138.631514,37.043353],[138.631426,37.043303],[138.631339,37.04327],[138.631176,37.043136],[138.631101,37.04307],[138.630914,37.042886],[138.630814,37.042803],[138.630726,37.042778],[138.630426,37.042711],[138.630251,37.042628],[138.630189,37.042586],[138.629951,37.042486],[138.629851,37.04247],[138.629664,37.042411],[138.629439,37.042403],[138.629189,37.042411],[138.628889,37.042328],[138.628764,37.042295],[138.628439,37.042136],[138.628202,37.04207],[138.628027,37.042003],[138.627277,37.04177],[138.626002,37.041528],[138.625852,37.041536],[138.625652,37.041595],[138.625389,37.041578],[138.625252,37.041628],[138.625077,37.041845],[138.62484,37.04207],[138.624552,37.042561],[138.624452,37.042661],[138.624302,37.04272],[138.623652,37.043095],[138.623377,37.043261],[138.623065,37.043436],[138.622902,37.043461],[138.622802,37.043461],[138.622577,37.043403],[138.62249,37.043378],[138.62229,37.04332],[138.622177,37.043278],[138.621815,37.043236],[138.620478,37.043419],[138.62004,37.043536],[138.619528,37.043736],[138.619203,37.043828],[138.618828,37.043853],[138.617965,37.043994],[138.617816,37.043969],[138.617553,37.043453],[138.616966,37.042503],[138.616728,37.042236],[138.615891,37.041603],[138.615103,37.041111],[138.614141,37.040011],[138.613616,37.039561],[138.613066,37.03927],[138.612566,37.039153],[138.612104,37.039136],[138.611179,37.039336],[138.610541,37.039545],[138.609617,37.039545],[138.608692,37.039728],[138.608229,37.039845],[138.607817,37.039845],[138.607242,37.039736],[138.606692,37.039761],[138.606192,37.039853],[138.605467,37.039828],[138.604917,37.039736],[138.60393,37.039719],[138.603067,37.039944],[138.602917,37.040019],[138.60263,37.040244],[138.602255,37.040019],[138.601492,37.039436],[138.600943,37.039253],[138.599718,37.039103],[138.598568,37.038836],[138.598418,37.038761],[138.59748,37.038003],[138.596993,37.037778],[138.596581,37.037661],[138.596209,37.037605],[138.595968,37.037303],[138.595793,37.035995],[138.595681,37.03557],[138.595468,37.035278],[138.594981,37.035053],[138.593931,37.034945],[138.593531,37.034828],[138.593143,37.03467],[138.592244,37.034428],[138.591781,37.034403],[138.591169,37.034495],[138.591006,37.034495],[138.590919,37.034428],[138.590506,37.033662],[138.589919,37.032312],[138.589744,37.032128],[138.589369,37.031929],[138.588931,37.031454],[138.588607,37.031254],[138.588257,37.031095],[138.587932,37.030829],[138.587557,37.030579],[138.587157,37.030512],[138.586782,37.030629],[138.58507,37.030479],[138.584632,37.03057],[138.583045,37.031137],[138.582745,37.031178],[138.58237,37.031137],[138.581732,37.030937],[138.581182,37.030895],[138.580607,37.030803],[138.579932,37.030787],[138.579182,37.03067],[138.57872,37.030745],[138.57822,37.030945],[138.57802,37.031078],[138.577758,37.031153],[138.577583,37.031087],[138.57727,37.030837],[138.577008,37.030495],[138.576533,37.030112],[138.575695,37.029803],[138.575208,37.029537],[138.57482,37.028853],[138.574495,37.028587],[138.57392,37.028478],[138.57352,37.028503],[138.57322,37.028612],[138.572995,37.028137],[138.572908,37.02807],[138.572608,37.027962],[138.572296,37.027937],[138.572008,37.027845],[138.571796,37.027645],[138.571708,37.027395],[138.571421,37.027245],[138.570583,37.026887],[138.569933,37.026478],[138.569471,37.026228],[138.568696,37.026095],[138.568258,37.025945],[138.568196,37.025945],[138.567871,37.025762],[138.567346,37.024903],[138.567208,37.02452],[138.566621,37.02387],[138.566596,37.023645],[138.566621,37.022987],[138.566446,37.022654],[138.566233,37.022362],[138.565971,37.021795],[138.565859,37.021412],[138.565859,37.021229],[138.565796,37.021279],[138.565296,37.021095],[138.564196,37.020787],[138.563709,37.020762],[138.563246,37.02117],[138.562846,37.02167],[138.562496,37.022029],[138.562084,37.022279],[138.561621,37.022437],[138.560959,37.022579],[138.560521,37.022737],[138.559859,37.023028],[138.559134,37.023212],[138.558409,37.02322],[138.557459,37.023103],[138.556384,37.022887],[138.555484,37.022687],[138.555272,37.022687],[138.554722,37.022795],[138.554234,37.02307],[138.55346,37.023412],[138.553022,37.023545],[138.55256,37.023595],[138.55241,37.023553],[138.551772,37.02317],[138.551397,37.023053],[138.551197,37.022903],[138.550697,37.022378],[138.550372,37.022228],[138.549997,37.022112],[138.549597,37.021937],[138.549385,37.021687],[138.54921,37.021595],[138.548722,37.021437],[138.548223,37.02137],[138.548173,37.021395],[138.546573,37.02147],[138.545885,37.021537],[138.544923,37.021703],[138.54431,37.021837],[138.54231,37.021978],[138.541798,37.021953],[138.541586,37.021911],[138.541036,37.021895],[138.540811,37.021803],[138.540373,37.02117],[138.540161,37.02092],[138.539873,37.020812],[138.539436,37.020703],[138.539348,37.020745],[138.538711,37.020811],[138.538198,37.020953],[138.537498,37.021245],[138.536448,37.021095],[138.536023,37.021253],[138.535524,37.021503],[138.534549,37.021795],[138.533911,37.022045],[138.533274,37.022453],[138.532199,37.022861],[138.531711,37.023186],[138.531386,37.023478],[138.530461,37.024136],[138.528699,37.024769],[138.528299,37.025019],[138.528124,37.025294],[138.527899,37.025811],[138.527686,37.026061],[138.527224,37.026377],[138.526712,37.026852],[138.526474,37.027236],[138.526536,37.028227],[138.526424,37.028635],[138.526086,37.029244],[138.525999,37.029602],[138.525761,37.029902],[138.525361,37.030127],[138.524612,37.030352],[138.524149,37.030335],[138.523624,37.03036],[138.523249,37.030335],[138.521737,37.02996],[138.521037,37.029669],[138.520687,37.029377],[138.520424,37.02901],[138.520099,37.028227],[138.519899,37.02791],[138.519837,37.027885],[138.519437,37.027935],[138.517787,37.028435],[138.517262,37.02866],[138.515675,37.029344],[138.51515,37.029502],[138.514025,37.029685],[138.513875,37.02966],[138.513762,37.029577],[138.513562,37.02926],[138.513375,37.028602],[138.513112,37.028019],[138.512737,37.027844],[138.5119,37.027819],[138.511575,37.027686],[138.511312,37.027486],[138.511,37.027327],[138.510712,37.027236],[138.5103,37.027219],[138.509812,37.027311],[138.509262,37.027644],[138.508525,37.026811],[138.50775,37.026436],[138.507425,37.026319],[138.506875,37.026277],[138.506525,37.026302],[138.506,37.026461],[138.505863,37.026261],[138.5056,37.026036],[138.505188,37.025944],[138.504788,37.025969],[138.504638,37.026036],[138.504238,37.026086],[138.503913,37.026019],[138.502963,37.025452],[138.502525,37.025277],[138.501625,37.025077],[138.5015,37.025094],[138.501213,37.025277],[138.50075,37.025869],[138.500263,37.026119],[138.499825,37.026277],[138.499188,37.026436],[138.498325,37.026502],[138.497825,37.026511],[138.497425,37.026461],[138.49725,37.026394],[138.4971,37.026169],[138.497013,37.025852],[138.49685,37.025541],[138.496663,37.025444],[138.496338,37.025061],[138.495838,37.024677],[138.495188,37.024069],[138.494413,37.023436],[138.493851,37.023094],[138.493776,37.023003],[138.493463,37.022578],[138.493076,37.021928],[138.492888,37.021653],[138.492388,37.021094],[138.492076,37.020778],[138.491776,37.020553],[138.490801,37.020011],[138.490376,37.019944],[138.490101,37.020053],[138.490013,37.020119],[138.489763,37.020236],[138.489288,37.020211],[138.488426,37.020003],[138.487726,37.020094],[138.487226,37.020253],[138.486364,37.020503],[138.486139,37.020519],[138.485664,37.020344],[138.484826,37.020186],[138.483489,37.020003],[138.482964,37.019886],[138.482626,37.019861],[138.482489,37.020136],[138.482339,37.020627],[138.482001,37.021261],[138.481726,37.021486],[138.481426,37.021552],[138.481164,37.021502],[138.479977,37.021052],[138.478939,37.020561],[138.478552,37.020327],[138.477964,37.020169],[138.477489,37.020127],[138.47654,37.020127],[138.476265,37.020077],[138.476215,37.020236],[138.47629,37.020936],[138.476265,37.021136],[138.476315,37.022086],[138.476427,37.022419],[138.476789,37.023052],[138.476952,37.02346],[138.477089,37.024335],[138.476752,37.026202],[138.476689,37.027643],[138.476777,37.02841],[138.476127,37.029085],[138.475714,37.029377],[138.474952,37.029685],[138.474064,37.02991],[138.473452,37.029935],[138.472002,37.030093],[138.47164,37.030176],[138.470777,37.030293],[138.470327,37.030201],[138.469652,37.030151],[138.46924,37.030268],[138.46904,37.03051],[138.468703,37.030785],[138.468628,37.030801],[138.46739,37.031076],[138.466753,37.03116],[138.46474,37.031051],[138.464128,37.031043],[138.463691,37.031201],[138.463153,37.031559],[138.462703,37.031609],[138.462203,37.031676],[138.462091,37.031743],[138.461253,37.031943],[138.460591,37.032009],[138.459916,37.032034],[138.459416,37.032168],[138.459079,37.032393],[138.458404,37.033001],[138.458016,37.033201],[138.456204,37.033826],[138.455641,37.034392],[138.455254,37.034609],[138.454079,37.035084],[138.453742,37.035376],[138.453379,37.03585],[138.453517,37.036317],[138.453492,37.036392],[138.452904,37.036609],[138.451954,37.0367],[138.451479,37.036817],[138.451204,37.037059],[138.450979,37.037559],[138.450917,37.037892],[138.450779,37.038183],[138.450667,37.03825],[138.450329,37.038608],[138.449829,37.038858],[138.44883,37.03915],[138.448455,37.0394],[138.448205,37.039733],[138.447292,37.040316],[138.446955,37.040658],[138.446755,37.041016],[138.44633,37.04205],[138.44608,37.042458],[138.445467,37.043083],[138.445267,37.043441],[138.44518,37.044049],[138.444592,37.044908],[138.44418,37.045133],[138.443305,37.045507],[138.443117,37.045732],[138.443055,37.045957],[138.443192,37.046274],[138.443192,37.046499],[138.443117,37.046707],[138.442917,37.046791],[138.442167,37.046924],[138.441717,37.047066],[138.44118,37.047282],[138.440705,37.047624],[138.440205,37.048115],[138.440043,37.048365],[138.439618,37.048565],[138.439255,37.048699],[138.438668,37.049107],[138.438443,37.049732],[138.438468,37.05014],[138.437968,37.051148],[138.437793,37.051398],[138.437718,37.051807],[138.437543,37.05214],[138.43713,37.052815],[138.436955,37.05324],[138.436705,37.053673],[138.435955,37.054006],[138.434806,37.054723],[138.434306,37.054998],[138.433206,37.055464],[138.432818,37.055756],[138.432731,37.055889],[138.432681,37.056256],[138.432543,37.056656],[138.432568,37.056723],[138.432531,37.057464],[138.432481,37.057914],[138.432193,37.058322],[138.432143,37.058506],[138.431668,37.059264],[138.431468,37.059672],[138.431581,37.061089],[138.431406,37.061655],[138.431968,37.062172],[138.432106,37.063113],[138.432106,37.063388],[138.432043,37.063455],[138.431593,37.063697],[138.431518,37.064013],[138.431481,37.064513],[138.431568,37.065638],[138.431568,37.066171],[138.431393,37.066488],[138.431368,37.066829],[138.431618,37.067663],[138.431868,37.068021],[138.432893,37.068813],[138.433093,37.069079],[138.433231,37.069504],[138.433231,37.069887],[138.433393,37.070179],[138.433693,37.070404],[138.434005,37.070879],[138.434143,37.071287],[138.434443,37.071621],[138.434893,37.071962],[138.43578,37.072771],[138.436068,37.073245],[138.43653,37.073812],[138.43723,37.074262],[138.437755,37.075029],[138.437905,37.075112],[138.438817,37.075545],[138.439405,37.075904],[138.440042,37.076179],[138.440179,37.076853],[138.440292,37.07717],[138.440629,37.077462],[138.441042,37.077862],[138.441242,37.078203],[138.441354,37.078653],[138.441404,37.079128],[138.441517,37.079512],[138.441767,37.079753],[138.441842,37.079895],[138.442104,37.08012],[138.442404,37.08032],[138.442629,37.080545],[138.442604,37.080811],[138.442542,37.080886],[138.442129,37.081103],[138.441867,37.081645],[138.441867,37.082003],[138.442179,37.082661],[138.442454,37.083019],[138.442842,37.083361],[138.443179,37.083469],[138.443516,37.083628],[138.443729,37.084078],[138.443766,37.084394],[138.443479,37.084844],[138.442641,37.085919],[138.442504,37.086377],[138.442429,37.086511],[138.442341,37.086802],[138.442204,37.087044],[138.441892,37.087069],[138.441367,37.087336],[138.440692,37.08781],[138.440379,37.088219],[138.439942,37.08846],[138.439679,37.088527],[138.438542,37.08871],[138.437842,37.088885],[138.437279,37.089177],[138.436005,37.090118],[138.43558,37.090368],[138.435105,37.090368],[138.434992,37.090343],[138.434717,37.090143],[138.434605,37.090143],[138.434542,37.090368],[138.43463,37.090727],[138.434767,37.091135],[138.435355,37.091243],[138.43558,37.091427],[138.435655,37.091851],[138.435879,37.09201],[138.435967,37.092126],[138.435767,37.092485],[138.435879,37.092685],[138.436104,37.092893],[138.436017,37.093135],[138.435929,37.093185],[138.435854,37.093343],[138.435992,37.093501],[138.436429,37.09361],[138.436692,37.093768],[138.436742,37.093926],[138.436717,37.094193],[138.436492,37.094401],[138.436379,37.094626],[138.436454,37.094893],[138.436654,37.095159],[138.436592,37.095343],[138.436117,37.095676],[138.435817,37.095976],[138.435729,37.096126],[138.435617,37.096243],[138.435504,37.096509],[138.436067,37.096801],[138.436504,37.097884],[138.436817,37.098201],[138.437179,37.098401],[138.437429,37.098584],[138.437617,37.098834],[138.437642,37.099126],[138.437592,37.099392],[138.437454,37.099642],[138.437167,37.099776],[138.436804,37.099867],[138.435242,37.10065],[138.434792,37.100717],[138.433629,37.101059],[138.432642,37.101525],[138.431055,37.102108],[138.430917,37.1022],[138.430467,37.10265],[138.43013,37.103167],[138.43013,37.103342],[138.430242,37.103725],[138.430242,37.103908],[138.430192,37.103975],[138.429967,37.104042],[138.429717,37.104267],[138.429655,37.104491],[138.429817,37.10465],[138.43018,37.1049],[138.43058,37.104991],[138.431217,37.105033],[138.431517,37.105191],[138.431854,37.105441],[138.432354,37.105733],[138.432779,37.106116],[138.432992,37.106383],[138.433079,37.106658],[138.433279,37.106991],[138.433304,37.107241],[138.433242,37.107308],[138.432429,37.107808],[138.432154,37.108391],[138.431929,37.108549],[138.431767,37.109083],[138.431204,37.109824],[138.430867,37.110099],[138.430392,37.110391],[138.430054,37.110632],[138.429604,37.110774],[138.429192,37.110816],[138.428542,37.111016],[138.427605,37.110857],[138.427205,37.110591],[138.426992,37.110366],[138.426655,37.110274],[138.426267,37.110157],[138.42598,37.109957],[138.425005,37.109891],[138.424617,37.109682],[138.42428,37.109299],[138.423843,37.109007],[138.423343,37.108874],[138.422468,37.108874],[138.422005,37.109024],[138.42183,37.109116],[138.42163,37.109391],[138.421605,37.109791],[138.421493,37.110824],[138.421018,37.111682],[138.420955,37.112174],[138.421043,37.11274],[138.421005,37.113165],[138.420568,37.113615],[138.41978,37.114248],[138.419555,37.114357],[138.41888,37.114607],[138.41838,37.11469],[138.417493,37.11474],[138.416855,37.114715],[138.41668,37.114665],[138.416768,37.114582],[138.416818,37.11424],[138.416793,37.113723],[138.416606,37.113299],[138.416356,37.11309],[138.416081,37.112707],[138.415993,37.112415],[138.415493,37.11179],[138.415131,37.110749],[138.415081,37.110099],[138.414968,37.109716],[138.414693,37.109307],[138.414356,37.109174],[138.413219,37.108974],[138.412406,37.108674],[138.412294,37.108699],[138.411681,37.108966],[138.411344,37.109191],[138.411031,37.109332],[138.410531,37.10944],[138.410119,37.10944],[138.409281,37.109507],[138.408894,37.109599],[138.408519,37.109732],[138.407831,37.109932],[138.407769,37.109974],[138.406319,37.110265],[138.405957,37.110399],[138.405844,37.110557],[138.406119,37.111032],[138.406482,37.111907],[138.406681,37.11209],[138.406731,37.112223],[138.406931,37.112432],[138.407069,37.112698],[138.407094,37.112857],[138.407231,37.113173],[138.407681,37.113873],[138.407894,37.114007],[138.408231,37.11414],[138.408706,37.114415],[138.409181,37.114798],[138.409456,37.114973],[138.409519,37.115107],[138.409906,37.115715],[138.410094,37.115806],[138.410344,37.116031],[138.410406,37.116123],[138.410568,37.11624],[138.410793,37.116281],[138.410906,37.116348],[138.411068,37.116548],[138.411906,37.116915],[138.412156,37.117165],[138.412268,37.117181],[138.412768,37.117406],[138.413268,37.117931],[138.413293,37.118156],[138.413156,37.118606],[138.412931,37.119098],[138.412681,37.119348],[138.411893,37.119639],[138.410693,37.120198],[138.410168,37.120581],[138.409993,37.120781],[138.409518,37.121164],[138.408318,37.122556],[138.407893,37.122822],[138.407843,37.122914],[138.407281,37.123256],[138.406756,37.123455],[138.406081,37.123564],[138.405419,37.123589],[138.404806,37.123564],[138.404406,37.12368],[138.403956,37.124197],[138.403456,37.124439],[138.402481,37.124597],[138.402094,37.124772],[138.401781,37.125022],[138.401306,37.125605],[138.401281,37.126263],[138.401469,37.12768],[138.401444,37.12808],[138.401331,37.128396],[138.401131,37.128555],[138.400519,37.128805],[138.400206,37.128846],[138.398819,37.128913],[138.397719,37.129138],[138.397444,37.129271],[138.396857,37.12963],[138.396269,37.130038],[138.395682,37.130621],[138.395319,37.130821],[138.394394,37.130996],[138.393444,37.131221],[138.393257,37.131446],[138.393282,37.131721],[138.393144,37.132029],[138.392157,37.132371],[138.391682,37.132729],[138.390732,37.133696],[138.390594,37.133896],[138.390594,37.133962],[138.390282,37.134529],[138.389532,37.134995],[138.389332,37.135362],[138.389082,37.136012],[138.388945,37.136662],[138.388995,37.136887],[138.389132,37.137087],[138.389419,37.137228],[138.389807,37.137295],[138.390219,37.137495],[138.390469,37.137562],[138.390607,37.137562],[138.391144,37.137745],[138.391194,37.13772],[138.391869,37.13772],[138.392594,37.137862],[138.393182,37.137795],[138.393407,37.137862],[138.393682,37.137887],[138.394044,37.138087],[138.394157,37.138603],[138.394156,37.139053],[138.394206,37.139528],[138.394369,37.139953],[138.394506,37.140178],[138.394706,37.140628],[138.394731,37.14097],[138.394556,37.141461],[138.394056,37.143086],[138.393856,37.143553],[138.393606,37.143911],[138.393269,37.144228],[138.393069,37.144361],[138.392594,37.144494],[138.391682,37.144878],[138.391207,37.145036],[138.390557,37.145169],[138.390057,37.145352],[138.389469,37.145436],[138.388269,37.145461],[138.386032,37.145611],[138.384732,37.145661],[138.383832,37.145661],[138.381857,37.145744],[138.381207,37.14581],[138.380708,37.145919],[138.38012,37.146169],[138.38007,37.14646],[138.38012,37.147319],[138.37987,37.14806],[138.379558,37.148377],[138.378545,37.149118],[138.377433,37.149835],[138.376845,37.15026],[138.376283,37.150801],[138.37567,37.151568],[138.375445,37.151993],[138.37477,37.152959],[138.374045,37.153768],[138.373708,37.154326],[138.373595,37.154709],[138.373708,37.155251],[138.373895,37.155609],[138.374145,37.155976],[138.37442,37.156284],[138.37467,37.156717],[138.375083,37.157684],[138.37517,37.1582],[138.375358,37.159009],[138.375695,37.159775],[138.37567,37.159959],[138.375383,37.160092],[138.37497,37.160158],[138.374583,37.160292],[138.374183,37.160492],[138.373995,37.160742],[138.373733,37.161258],[138.373733,37.16135],[138.373845,37.162025],[138.374045,37.162633],[138.374095,37.162925],[138.374095,37.163283],[138.374257,37.163691],[138.374482,37.164025],[138.374645,37.164475],[138.374707,37.164908],[138.37462,37.16515],[138.374482,37.165333],[138.37417,37.165599],[138.373632,37.165983],[138.373195,37.166183],[138.372383,37.166458],[138.372133,37.166474],[138.37232,37.166699],[138.37297,37.167083],[138.37347,37.167291],[138.373832,37.167383],[138.37472,37.167449],[138.374782,37.167491],[138.374807,37.168324],[138.374945,37.168507],[138.375082,37.168824],[138.375107,37.169432],[138.37507,37.169741],[138.375045,37.169899],[138.375132,37.170782],[138.37527,37.171274],[138.375482,37.171499],[138.375682,37.171815],[138.375932,37.172015],[138.376232,37.172199],[138.376794,37.172399],[138.377207,37.172715],[138.377382,37.173032],[138.377432,37.173257],[138.377869,37.174382],[138.378019,37.174565],[138.378519,37.174273],[138.378794,37.174049],[138.379269,37.173707],[138.379632,37.173707],[138.379944,37.17389],[138.380244,37.174024],[138.380444,37.174024],[138.381694,37.174049],[138.381781,37.174099],[138.381894,37.17434],[138.381944,37.17484],[138.382106,37.175265],[138.382356,37.175582],[138.382756,37.175848],[138.382894,37.176098],[138.382944,37.176348],[138.382944,37.176665],[138.383106,37.177023],[138.383469,37.177273],[138.384081,37.177607],[138.384219,37.177657],[138.384556,37.177698],[138.384894,37.17759],[138.385456,37.177048],[138.386368,37.177023],[138.387381,37.176957],[138.387768,37.176982],[138.388181,37.177098],[138.388743,37.17719],[138.389493,37.17714],[138.390056,37.17714],[138.390643,37.177348],[138.391168,37.177507],[138.392455,37.17764],[138.393705,37.177715],[138.394405,37.177798],[138.394793,37.177823],[138.395293,37.177757],[138.395855,37.177624],[138.396355,37.177424],[138.397167,37.17729],[138.397867,37.17729],[138.398117,37.177265],[138.398692,37.17729],[138.399317,37.177249],[138.399567,37.177157],[138.400342,37.176774],[138.400705,37.176749],[138.401292,37.17689],[138.402017,37.176999],[138.402579,37.17689],[138.402629,37.176849],[138.403079,37.176757],[138.403917,37.176666],[138.404392,37.176716],[138.405479,37.176891],[138.406479,37.177099],[138.406929,37.177141],[138.407117,37.177124],[138.407592,37.176941],[138.408067,37.176674],[138.408404,37.176424],[138.408716,37.176424],[138.408879,37.176516],[138.409041,37.176766],[138.409854,37.177707],[138.410354,37.177982],[138.410441,37.177999],[138.410879,37.177932],[138.411241,37.177824],[138.411504,37.177799],[138.411754,37.177957],[138.412166,37.178499],[138.412504,37.178749],[138.412691,37.178791],[138.412941,37.178707],[138.413841,37.178191],[138.414366,37.177916],[138.414703,37.177832],[138.414841,37.177832],[138.415403,37.177941],[138.415766,37.177966],[138.416266,37.177924],[138.416853,37.178007],[138.417416,37.177941],[138.418303,37.178282],[138.418603,37.178349],[138.419165,37.178307],[138.42009,37.178466],[138.420565,37.178424],[138.421203,37.178199],[138.422128,37.178199],[138.423178,37.177949],[138.423653,37.177883],[138.424053,37.177933],[138.424415,37.178133],[138.424802,37.178474],[138.425265,37.178966],[138.425602,37.179124],[138.426077,37.179083],[138.426715,37.179108],[138.428002,37.179491],[138.42839,37.179508],[138.428727,37.179441],[138.429065,37.179291],[138.430652,37.177716],[138.430939,37.177508],[138.431239,37.177425],[138.431602,37.177558],[138.432139,37.177625],[138.432664,37.177608],[138.433527,37.17745],[138.434039,37.177316],[138.434614,37.177108],[138.435764,37.1768],[138.435927,37.176733],[138.436264,37.176508],[138.437026,37.176033],[138.437551,37.175875],[138.438139,37.175792],[138.439926,37.175658],[138.440564,37.175542],[138.440764,37.175475],[138.441539,37.175342],[138.442214,37.175234],[138.442739,37.175234],[138.443239,37.175167],[138.443664,37.175142],[138.444163,37.174984],[138.444501,37.174759],[138.444863,37.1744],[138.445251,37.173934],[138.446063,37.173192],[138.446626,37.172876],[138.447101,37.172759],[138.448101,37.172651],[138.448601,37.172626],[138.449026,37.172651],[138.450801,37.172967],[138.451276,37.173126],[138.451838,37.173376],[138.452313,37.173651],[138.453063,37.174234],[138.453475,37.174392],[138.45395,37.174684],[138.454763,37.175334],[138.456325,37.17595],[138.457762,37.176759],[138.458912,37.177234],[138.459462,37.177392],[138.459937,37.177417],[138.460387,37.177325],[138.460912,37.177167],[138.461475,37.177167],[138.463037,37.177309],[138.463962,37.177509],[138.464287,37.177534],[138.464487,37.177467],[138.464962,37.17735],[138.465374,37.177375],[138.465774,37.177559],[138.466524,37.177717],[138.466799,37.177651],[138.467224,37.177442],[138.467637,37.177309],[138.468924,37.177292],[138.469474,37.177334],[138.470061,37.177426],[138.470899,37.177609],[138.471436,37.177767],[138.472374,37.177926],[138.473073,37.177951],[138.473911,37.178242],[138.474998,37.178376],[138.475498,37.178467],[138.476136,37.178651],[138.476586,37.178876],[138.477148,37.179234],[138.47831,37.179909],[138.478785,37.180142],[138.479235,37.180434],[138.479673,37.180659],[138.48046,37.181175],[138.48101,37.18145],[138.481623,37.181809],[138.482047,37.182125],[138.482435,37.18235],[138.48321,37.182684],[138.483885,37.183092],[138.484585,37.1837],[138.485585,37.184667],[138.48591,37.184758],[138.486722,37.1849],[138.487034,37.184983],[138.487759,37.1853],[138.488084,37.185525],[138.488784,37.186225],[138.489484,37.186742],[138.489709,37.186767],[138.489984,37.1867],[138.490509,37.186367],[138.490872,37.186342],[138.491234,37.186275],[138.493309,37.185558],[138.494034,37.185267],[138.494946,37.18475],[138.495171,37.184659],[138.496209,37.184075],[138.496459,37.184034],[138.496844,37.184054],[138.497821,37.183975],[138.498521,37.183817],[138.499046,37.183434],[138.499996,37.182467],[138.500646,37.181951],[138.501696,37.181276],[138.502708,37.180876],[138.503121,37.180559],[138.503521,37.180018],[138.503746,37.179859],[138.503796,37.179859],[138.504271,37.180043],[138.505983,37.180993],[138.50702,37.181359],[138.508495,37.181993],[138.509683,37.182851],[138.510982,37.183417],[138.511907,37.183759],[138.512207,37.183942],[138.512957,37.184592],[138.513207,37.185026],[138.51312,37.185792],[138.513007,37.186017],[138.51287,37.186534],[138.51222,37.18775],[138.512195,37.187884],[138.51242,37.188292],[138.513557,37.188675],[138.514307,37.188992],[138.516894,37.189884],[138.517719,37.189884],[138.518144,37.189767],[138.518919,37.189709],[138.520031,37.189709],[138.520781,37.189825],[138.521706,37.190525],[138.522344,37.190909],[138.523169,37.1917],[138.523706,37.191992],[138.523894,37.192042],[138.524344,37.192225],[138.524418,37.19265],[138.524193,37.194117],[138.524356,37.19445],[138.524443,37.194542],[138.524993,37.194817],[138.526418,37.195042],[138.526968,37.195225],[138.527643,37.195342],[138.528531,37.195433],[138.530205,37.195458],[138.530893,37.1958],[138.53128,37.196525],[138.531668,37.196683],[138.532418,37.196775],[138.534755,37.197233],[138.535455,37.1975],[138.53623,37.197892],[138.53643,37.198183],[138.536455,37.198383]]]},"type":"Feature"}]}