{"features":[{"type":"Feature","geometry":{"type":"Polygon","coordinates":[[[138.892873,37.170651],[138.892998,37.170717],[138.893123,37.171076],[138.893473,37.171392],[138.894023,37.171559],[138.894573,37.171767],[138.89486,37.172034],[138.89506,37.172334],[138.895298,37.173709],[138.895423,37.17405],[138.895897,37.174575],[138.896597,37.174984],[138.896972,37.174967],[138.897647,37.174859],[138.897697,37.174809],[138.897647,37.17445],[138.897747,37.174109],[138.897972,37.174025],[138.898385,37.174067],[138.899335,37.174192],[138.899585,37.1739],[138.899785,37.173159],[138.899897,37.172976],[138.900172,37.173067],[138.90051,37.173276],[138.90106,37.173459],[138.901459,37.173526],[138.901984,37.173717],[138.902034,37.173692],[138.902297,37.172992],[138.902447,37.172726],[138.902797,37.172817],[138.903172,37.172726],[138.903547,37.172576],[138.903859,37.172009],[138.904059,37.171876],[138.904309,37.171901],[138.904634,37.171992],[138.905009,37.172292],[138.905034,37.172559],[138.904947,37.172967],[138.904922,37.173392],[138.904534,37.17425],[138.904684,37.174542],[138.905134,37.174867],[138.905159,37.175517],[138.905609,37.175525],[138.906759,37.175509],[138.907209,37.175334],[138.907609,37.175334],[138.907734,37.175425],[138.907659,37.175942],[138.907796,37.176309],[138.907721,37.176442],[138.907421,37.176617],[138.907096,37.176725],[138.907021,37.176975],[138.907659,37.177525],[138.907709,37.17775],[138.907509,37.177925],[138.907184,37.178058],[138.906884,37.178283],[138.906596,37.178642],[138.906571,37.178733],[138.906646,37.179225],[138.906796,37.1793],[138.908096,37.179508],[138.908646,37.179533],[138.908996,37.179583],[138.909671,37.180083],[138.910071,37.180267],[138.910196,37.180383],[138.910221,37.180633],[138.909958,37.180833],[138.909833,37.181008],[138.910108,37.181758],[138.910558,37.181941],[138.911333,37.1819],[138.911608,37.182083],[138.911633,37.182175],[138.91152,37.182425],[138.91162,37.182691],[138.91152,37.183033],[138.91132,37.18335],[138.911183,37.183683],[138.911208,37.184024],[138.91167,37.185066],[138.911645,37.185383],[138.91077,37.185983],[138.910308,37.186408],[138.910208,37.186582],[138.910358,37.186991],[138.910433,37.187041],[138.910545,37.187899],[138.910495,37.188441],[138.910333,37.188891],[138.910308,37.189249],[138.90977,37.19024],[138.90962,37.190415],[138.909395,37.190957],[138.909158,37.191274],[138.908758,37.19154],[138.908508,37.192007],[138.90842,37.192865],[138.908195,37.193298],[138.907633,37.194015],[138.907533,37.194415],[138.907583,37.194532],[138.907908,37.194665],[138.908408,37.194781],[138.909033,37.19479],[138.909682,37.194723],[138.910057,37.194732],[138.910332,37.194956],[138.910507,37.19534],[138.91077,37.195748],[138.91162,37.19594],[138.911995,37.196165],[138.912895,37.196265],[138.913194,37.19649],[138.913494,37.197215],[138.913519,37.197548],[138.913657,37.198048],[138.914007,37.198414],[138.914582,37.198689],[138.914907,37.198939],[138.914932,37.199164],[138.914594,37.199498],[138.914669,37.199948],[138.914982,37.200806],[138.915057,37.200923],[138.915682,37.201089],[138.916219,37.200823],[138.916769,37.200848],[138.916994,37.200889],[138.918431,37.201556],[138.919506,37.202447],[138.919881,37.202672],[138.921193,37.203697],[138.921793,37.203881],[138.922243,37.203747],[138.922906,37.203322],[138.923281,37.203172],[138.924031,37.203064],[138.924156,37.203089],[138.924331,37.203181],[138.924431,37.203539],[138.924431,37.203964],[138.924493,37.204347],[138.924743,37.204647],[138.925168,37.204764],[138.925618,37.204697],[138.925893,37.204722],[138.925993,37.204905],[138.925843,37.205264],[138.925893,37.205514],[138.926268,37.205872],[138.92688,37.206214],[138.927468,37.206289],[138.927805,37.206514],[138.92798,37.206522],[138.92843,37.206589],[138.92858,37.206655],[138.92933,37.207272],[138.92963,37.207389],[138.930205,37.207414],[138.930755,37.207505],[138.930905,37.207622],[138.93133,37.20783],[138.93178,37.207989],[138.932055,37.20833],[138.932455,37.208605],[138.934429,37.20873],[138.934679,37.208688],[138.935229,37.20853],[138.935679,37.208472],[138.936342,37.208497],[138.936542,37.208405],[138.936567,37.208339],[138.936167,37.207655],[138.936267,37.20728],[138.936254,37.206914],[138.936079,37.206597],[138.936029,37.206122],[138.936342,37.205631],[138.936167,37.204956],[138.936067,37.204389],[138.935954,37.204097],[138.935855,37.203781],[138.93583,37.203214],[138.936267,37.202881],[138.937092,37.202948],[138.937292,37.202931],[138.937892,37.202756],[138.938654,37.202198],[138.938929,37.201839],[138.939329,37.201589],[138.939704,37.201481],[138.940292,37.201148],[138.940767,37.200948],[138.941192,37.200906],[138.941517,37.200681],[138.942879,37.199473],[138.943891,37.198623],[138.943966,37.198598],[138.944241,37.198332],[138.944404,37.198132],[138.944279,37.19779],[138.944029,37.197448],[138.943529,37.196973],[138.942942,37.196157],[138.942117,37.195299],[138.941617,37.194749],[138.941454,37.194432],[138.941229,37.193957],[138.940954,37.193574],[138.940367,37.192915],[138.939442,37.191732],[138.939442,37.191691],[138.93858,37.190532],[138.93818,37.190124],[138.93768,37.189716],[138.937042,37.189349],[138.936568,37.189124],[138.936243,37.188824],[138.936068,37.188508],[138.935718,37.188099],[138.935318,37.187891],[138.934405,37.187074],[138.933156,37.1861],[138.931818,37.184958],[138.931343,37.184508],[138.930981,37.184025],[138.930406,37.183441],[138.929094,37.182208],[138.928494,37.181733],[138.928144,37.1813],[138.927894,37.1808],[138.928481,37.180042],[138.929869,37.17865],[138.931394,37.177267],[138.932544,37.176234],[138.934094,37.175026],[138.938881,37.17161],[138.939456,37.172018],[138.940081,37.171601],[138.946155,37.175184],[138.94823,37.172943],[138.951054,37.174634],[138.951429,37.174593],[138.953479,37.175168],[138.952616,37.178792],[138.952729,37.180192],[138.954579,37.18045],[138.954266,37.182034],[138.954841,37.18215],[138.954604,37.183317],[138.956228,37.183575],[138.956053,37.184233],[138.956041,37.184367],[138.955516,37.184883],[138.955516,37.185217],[138.955666,37.185442],[138.955916,37.185558],[138.956591,37.185675],[138.956866,37.185908],[138.956978,37.1864],[138.957153,37.186558],[138.957578,37.186766],[138.957853,37.187041],[138.958353,37.1872],[138.958728,37.187408],[138.959153,37.187841],[138.959703,37.187975],[138.959765,37.188025],[138.960065,37.1883],[138.960315,37.188725],[138.960365,37.188999],[138.96034,37.189266],[138.960228,37.189541],[138.960128,37.189849],[138.960278,37.189941],[138.960878,37.189974],[138.961227,37.190083],[138.962102,37.190724],[138.963127,37.191341],[138.963665,37.191774],[138.96384,37.191866],[138.965102,37.191941],[138.965852,37.191949],[138.966502,37.191858],[138.967002,37.191866],[138.967402,37.191683],[138.967777,37.191416],[138.968614,37.191266],[138.969439,37.191366],[138.970989,37.191824],[138.972464,37.192424],[138.973089,37.192608],[138.973426,37.192766],[138.974026,37.193332],[138.974126,37.193407],[138.974501,37.193516],[138.974851,37.193541],[138.975801,37.193574],[138.976426,37.193849],[138.976751,37.193941],[138.977963,37.193608],[138.978413,37.193749],[138.979126,37.194182],[138.979525,37.194499],[138.979825,37.194666],[138.98015,37.194666],[138.980475,37.194466],[138.980913,37.194333],[138.981463,37.194224],[138.983113,37.194033],[138.984125,37.193833],[138.984725,37.193683],[138.985625,37.193374],[138.98575,37.193399],[138.98715,37.193858],[138.98755,37.193791],[138.988075,37.193524],[138.988387,37.193483],[138.990562,37.193749],[138.990862,37.193749],[138.992162,37.193891],[138.992587,37.193874],[138.992811,37.19365],[138.993299,37.193066],[138.993624,37.19275],[138.993899,37.192391],[138.994486,37.19215],[138.994886,37.19215],[138.995536,37.191816],[138.996061,37.191775],[138.996536,37.191783],[138.996799,37.191806],[138.997111,37.191692],[138.997311,37.191542],[138.998173,37.191125],[138.998586,37.190708],[138.999061,37.190075],[138.999311,37.189817],[138.999948,37.189625],[139.000498,37.189533],[139.000848,37.189292],[139.001423,37.188534],[139.001848,37.188109],[139.002236,37.187784],[139.002823,37.187409],[139.003023,37.187334],[139.003473,37.187242],[139.004048,37.187184],[139.004598,37.187184],[139.004935,37.187242],[139.005598,37.187484],[139.006185,37.187609],[139.006798,37.18765],[139.00711,37.187609],[139.007785,37.187434],[139.008235,37.187467],[139.008648,37.187617],[139.008897,37.187651],[139.00921,37.187634],[139.009585,37.187717],[139.010422,37.187792],[139.011072,37.187709],[139.012622,37.187676],[139.014447,37.187917],[139.014822,37.187884],[139.015322,37.187692],[139.015872,37.187426],[139.016209,37.187351],[139.016584,37.187409],[139.017047,37.187609],[139.017247,37.187667],[139.017334,37.187667],[139.018884,37.187101],[139.020096,37.186942],[139.020659,37.186792],[139.021946,37.186342],[139.022671,37.185826],[139.023021,37.185693],[139.023309,37.185451],[139.023859,37.184801],[139.024246,37.184551],[139.024883,37.184409],[139.025258,37.184251],[139.025571,37.183993],[139.025746,37.183801],[139.025758,37.183668],[139.025583,37.183335],[139.024496,37.182243],[139.023734,37.18126],[139.023059,37.180593],[139.022896,37.180368],[139.022834,37.180127],[139.023059,37.179318],[139.022934,37.179235],[139.022534,37.179093],[139.022321,37.17891],[139.022209,37.178718],[139.022034,37.177818],[139.022121,37.17766],[139.022296,37.17756],[139.022321,37.177502],[139.022296,37.177252],[139.022197,37.176944],[139.021884,37.176135],[139.021847,37.17591],[139.021884,37.175727],[139.022159,37.17536],[139.022309,37.175244],[139.022747,37.174727],[139.022734,37.174527],[139.022622,37.174202],[139.022309,37.173527],[139.022159,37.172994],[139.022134,37.172786],[139.022322,37.171761],[139.022272,37.171553],[139.022159,37.171361],[139.021797,37.170486],[139.021459,37.169945],[139.021334,37.169711],[139.021147,37.16872],[139.020947,37.168378],[139.020922,37.168178],[139.021334,37.167878],[139.022147,37.16757],[139.022672,37.16727],[139.023172,37.16687],[139.023734,37.166662],[139.024934,37.166637],[139.025821,37.166545],[139.027634,37.165754],[139.027859,37.165445],[139.028046,37.164879],[139.028159,37.164312],[139.027959,37.163571],[139.027959,37.163212],[139.028159,37.162987],[139.028409,37.162604],[139.028321,37.162154],[139.027959,37.161429],[139.027284,37.15918],[139.027009,37.158946],[139.026471,37.158296],[139.026309,37.157871],[139.026134,37.157238],[139.025859,37.156588],[139.025697,37.156338],[139.025434,37.155822],[139.025272,37.155297],[139.025134,37.15408],[139.025097,37.151764],[139.025072,37.151105],[139.025259,37.150497],[139.026072,37.149797],[139.026547,37.149439],[139.026734,37.149322],[139.027684,37.148939],[139.028271,37.148831],[139.029271,37.148822],[139.030671,37.148348],[139.031421,37.148014],[139.032508,37.147723],[139.033896,37.147539],[139.03537,37.147264],[139.036095,37.146881],[139.036545,37.146473],[139.037183,37.146181],[139.038658,37.145615],[139.03902,37.145273],[139.03932,37.144648],[139.039933,37.14449],[139.040807,37.144531],[139.04167,37.144623],[139.042445,37.144573],[139.042945,37.144348],[139.04362,37.144098],[139.04507,37.143915],[139.045432,37.14394],[139.046257,37.144073],[139.047494,37.144365],[139.047657,37.144431],[139.048607,37.144248],[139.049794,37.143706],[139.049907,37.143731],[139.050244,37.143623],[139.050307,37.143548],[139.050557,37.14344],[139.050694,37.143481],[139.050944,37.143323],[139.051419,37.142873],[139.052031,37.142648],[139.052831,37.142465],[139.053756,37.142423],[139.054531,37.142423],[139.054731,37.14244],[139.054956,37.14224],[139.054981,37.141632],[139.054944,37.141132],[139.054806,37.140482],[139.054581,37.139782],[139.054419,37.13854],[139.054469,37.138224],[139.056144,37.137774],[139.056869,37.137365],[139.057669,37.137007],[139.058506,37.136757],[139.059206,37.136282],[139.059369,37.136124],[139.059531,37.135649],[139.060181,37.135015],[139.060756,37.134699],[139.061319,37.134632],[139.062181,37.134274],[139.063043,37.133816],[139.063381,37.133707],[139.063993,37.133682],[139.065493,37.133432],[139.066168,37.133391],[139.066918,37.133074],[139.067806,37.133091],[139.068256,37.133249],[139.068893,37.133382],[139.069343,37.133116],[139.069918,37.132891],[139.070705,37.132682],[139.072093,37.132432],[139.072768,37.132249],[139.072843,37.132207],[139.07293,37.132232],[139.074268,37.132182],[139.075018,37.132224],[139.07613,37.131974],[139.076967,37.131682],[139.077717,37.131457],[139.078242,37.131208],[139.078392,37.131183],[139.07828,37.130216],[139.078355,37.129766],[139.078517,37.129383],[139.07933,37.128633],[139.079517,37.128233],[139.079555,37.127866],[139.079517,37.127325],[139.079792,37.12665],[139.08018,37.12595],[139.079993,37.1253],[139.079793,37.124867],[139.078905,37.123925],[139.078793,37.1235],[139.07853,37.123317],[139.077893,37.123],[139.077343,37.122617],[139.076281,37.122392],[139.075781,37.122217],[139.075693,37.122058],[139.075718,37.121267],[139.075656,37.120767],[139.075331,37.120075],[139.075131,37.119284],[139.075269,37.118859],[139.076268,37.118042],[139.076856,37.117451],[139.077793,37.116684],[139.078131,37.115984],[139.078206,37.115268],[139.077868,37.112876],[139.077668,37.112018],[139.077531,37.110893],[139.077506,37.109969],[139.077581,37.109294],[139.077668,37.108952],[139.078056,37.10816],[139.078581,37.107327],[139.078781,37.107077],[139.079056,37.106536],[139.078993,37.106269],[139.078656,37.105794],[139.078493,37.105319],[139.078431,37.104553],[139.078569,37.103561],[139.078569,37.10302],[139.078956,37.101711],[139.078956,37.101536],[139.078794,37.10097],[139.078756,37.100403],[139.078919,37.09937],[139.078731,37.098579],[139.078869,37.098154],[139.079194,37.097587],[139.079231,37.097362],[139.079081,37.096687],[139.079194,37.095604],[139.079969,37.094246],[139.080331,37.093121],[139.080656,37.092263],[139.080832,37.091721],[139.080357,37.091271],[139.080132,37.090438],[139.079257,37.08888],[139.078869,37.088388],[139.078257,37.087938],[139.078095,37.08778],[139.07762,37.087505],[139.077082,37.087105],[139.076745,37.086672],[139.076607,37.086472],[139.07657,37.08638],[139.076645,37.086097],[139.076907,37.085772],[139.077157,37.085539],[139.077407,37.085364],[139.077595,37.085197],[139.07767,37.085039],[139.077645,37.084589],[139.077657,37.083989],[139.07747,37.082997],[139.077695,37.082356],[139.07772,37.081981],[139.077833,37.081723],[139.078032,37.081539],[139.078407,37.081373],[139.078657,37.081131],[139.078707,37.080823],[139.07867,37.080464],[139.079045,37.079573],[139.079745,37.079281],[139.08002,37.079065],[139.080507,37.078473],[139.080645,37.078123],[139.080707,37.07779],[139.080682,37.077773],[139.080732,37.077515],[139.081207,37.07679],[139.081795,37.076315],[139.082032,37.075998],[139.082132,37.075698],[139.08247,37.075315],[139.082795,37.075015],[139.083132,37.074782],[139.083445,37.074624],[139.08412,37.074532],[139.08472,37.074332],[139.085195,37.073699],[139.085507,37.073532],[139.085995,37.073115],[139.086795,37.072807],[139.087794,37.072366],[139.088282,37.072099],[139.088707,37.071932],[139.089132,37.071591],[139.089494,37.071466],[139.090494,37.071257],[139.090907,37.071249],[139.091482,37.071307],[139.092407,37.071224],[139.092794,37.071116],[139.093207,37.070907],[139.093532,37.070549],[139.093707,37.070024],[139.094044,37.069308],[139.094594,37.068758],[139.095581,37.068041],[139.096131,37.067716],[139.097356,37.067099],[139.097694,37.066775],[139.097869,37.066483],[139.097344,37.0654],[139.097157,37.064791],[139.097069,37.063267],[139.097044,37.062408],[139.096907,37.061667],[139.096807,37.061225],[139.096782,37.060625],[139.096544,37.059992],[139.096544,37.059717],[139.096669,37.059225],[139.096969,37.058651],[139.098194,37.058151],[139.098994,37.057934],[139.099569,37.057651],[139.100481,37.057434],[139.101631,37.057326],[139.102306,37.057226],[139.103031,37.057043],[139.103806,37.056818],[139.105318,37.056093],[139.105856,37.056001],[139.106531,37.055943],[139.107181,37.055801],[139.107781,37.055585],[139.108306,37.055468],[139.109055,37.05546],[139.110305,37.055218],[139.11108,37.055268],[139.111305,37.055168],[139.111805,37.05476],[139.112168,37.05421],[139.112455,37.053252],[139.112643,37.05276],[139.11308,37.051877],[139.113218,37.051444],[139.113318,37.05006],[139.113405,37.049727],[139.11363,37.049444],[139.114193,37.048952],[139.114668,37.048219],[139.11518,37.047669],[139.115492,37.047553],[139.115755,37.047528],[139.116805,37.047544],[139.117305,37.047511],[139.11773,37.047436],[139.118305,37.047386],[139.11918,37.047394],[139.121754,37.047478],[139.121792,37.0475],[139.121992,37.047578],[139.122304,37.047511],[139.122642,37.047344],[139.122954,37.047228],[139.123142,37.047119],[139.123842,37.04607],[139.124316,37.04557],[139.124829,37.04512],[139.125016,37.04487],[139.125029,37.04477],[139.124704,37.043653],[139.124616,37.043187],[139.124517,37.041595],[139.124542,37.041079],[139.124842,37.040679],[139.125279,37.040295],[139.125504,37.039887],[139.125704,37.039412],[139.125966,37.039121],[139.126441,37.038921],[139.127629,37.038612],[139.127816,37.038512],[139.127854,37.038279],[139.127666,37.037046],[139.127641,37.036571],[139.127691,37.036071],[139.125384,37.0341],[139.122451,37.031535],[139.120284,37.028452],[139.120284,37.025601],[139.120284,37.0226],[139.119683,37.020199],[139.11683,37.018249],[139.111274,37.015698],[139.106869,37.014386],[139.102806,37.012393],[139.096897,37.008113],[139.094615,37.00562],[139.094057,37.004319],[139.094057,37.003204],[139.093127,37.001996],[139.090895,37.000231],[139.088104,36.997907],[139.086895,36.995491],[139.086112,36.993963],[139.08473,36.9931],[139.083233,36.992467],[139.081793,36.990625],[139.079719,36.988554],[139.079431,36.987172],[139.079777,36.985331],[139.0805,36.98235],[139.080595,36.981437],[139.0805,36.979926],[139.080185,36.977912],[139.079502,36.973569],[139.079252,36.972072],[139.078353,36.970525],[139.077104,36.96798],[139.076193,36.966038],[139.076038,36.965266],[139.076255,36.963752],[139.076626,36.961866],[139.07686,36.958661],[139.077366,36.955782],[139.078106,36.954965],[139.079119,36.953914],[139.08176,36.950511],[139.083869,36.94713],[139.085328,36.943096],[139.086339,36.938746],[139.087116,36.934784],[139.089371,36.929424],[139.09129,36.924249],[139.094063,36.919939],[139.095912,36.917937],[139.098273,36.91437],[139.098177,36.914328],[139.093944,36.911684],[139.090416,36.909481],[139.085742,36.908072],[139.082303,36.907014],[139.079393,36.904283],[139.074983,36.902344],[139.070309,36.901992],[139.066341,36.902256],[139.063643,36.902422],[139.058264,36.901629],[139.054031,36.900131],[139.045829,36.897487],[139.03798,36.895461],[139.029338,36.893346],[139.023121,36.892817],[139.01977,36.892024],[139.017301,36.892729],[139.011921,36.893786],[139.005572,36.894579],[138.99819,36.894322],[138.993856,36.894541],[138.990048,36.89406],[138.985408,36.892398],[138.979035,36.890919],[138.978215,36.890679],[138.97786,36.89056],[138.977235,36.890435],[138.976798,36.890435],[138.976335,36.890352],[138.975298,36.889935],[138.974723,36.889511],[138.974298,36.889036],[138.973148,36.887986],[138.972286,36.887477],[138.971661,36.887186],[138.971536,36.887252],[138.970211,36.888069],[138.969186,36.888836],[138.967999,36.88981],[138.967649,36.890235],[138.967311,36.89086],[138.967211,36.890969],[138.966899,36.891177],[138.966449,36.891369],[138.965849,36.891544],[138.965336,36.891652],[138.962974,36.891919],[138.962499,36.892118],[138.961974,36.892427],[138.961399,36.89261],[138.960799,36.892652],[138.960324,36.892727],[138.959899,36.892902],[138.958649,36.893293],[138.958412,36.893443],[138.958312,36.893977],[138.958212,36.894268],[138.958074,36.89446],[138.957712,36.89456],[138.956662,36.894676],[138.956075,36.894801],[138.955062,36.895093],[138.954812,36.89531],[138.954587,36.895426],[138.954062,36.895368],[138.953587,36.895185],[138.953188,36.894951],[138.952938,36.89471],[138.9526,36.894293],[138.952325,36.894068],[138.951925,36.893843],[138.95105,36.893751],[138.950113,36.89346],[138.949563,36.893218],[138.9495,36.893243],[138.948813,36.893893],[138.948426,36.894168],[138.947938,36.894326],[138.947538,36.894393],[138.946838,36.894376],[138.946076,36.89461],[138.945613,36.894668],[138.944214,36.894768],[138.942626,36.894984],[138.942039,36.895151],[138.941526,36.895243],[138.941026,36.895259],[138.940214,36.895176],[138.939652,36.894976],[138.938564,36.894526],[138.937414,36.894143],[138.936839,36.893859],[138.936327,36.893676],[138.935777,36.893618],[138.935215,36.893676],[138.934502,36.893909],[138.934052,36.894084],[138.933577,36.894084],[138.932915,36.893893],[138.932178,36.893559],[138.932092,36.893403],[138.931615,36.892326],[138.931365,36.892026],[138.931078,36.891785],[138.931028,36.891676],[138.93119,36.891335],[138.93129,36.890993],[138.931303,36.889835],[138.931428,36.888935],[138.931365,36.888577],[138.93119,36.888318],[138.931128,36.888127],[138.930828,36.887802],[138.930428,36.887152],[138.930328,36.88706],[138.929965,36.886894],[138.929453,36.886519],[138.928628,36.886319],[138.928228,36.886185],[138.927741,36.885744],[138.927591,36.885652],[138.926978,36.885419],[138.926116,36.885277],[138.925016,36.885094],[138.924591,36.884902],[138.924316,36.884619],[138.924116,36.884535],[138.923379,36.883844],[138.923004,36.883352],[138.922579,36.882352],[138.921791,36.880744],[138.921629,36.880286],[138.921691,36.879844],[138.921916,36.879019],[138.921904,36.878678],[138.921679,36.878403],[138.920792,36.877678],[138.920479,36.877186],[138.919917,36.876636],[138.919604,36.876211],[138.919042,36.875178],[138.918429,36.874428],[138.918154,36.873962],[138.918042,36.873678],[138.917992,36.873345],[138.91808,36.87267],[138.918167,36.87227],[138.91803,36.871962],[138.917642,36.871604],[138.917292,36.871354],[138.917092,36.871079],[138.917117,36.870904],[138.917255,36.870495],[138.917642,36.869662],[138.918192,36.868654],[138.918505,36.868204],[138.919017,36.867646],[138.919305,36.867471],[138.919705,36.867021],[138.921117,36.865879],[138.921267,36.865863],[138.921717,36.865563],[138.922079,36.864588],[138.922292,36.864213],[138.922467,36.863555],[138.922379,36.862688],[138.922267,36.862163],[138.922092,36.861872],[138.922092,36.861522],[138.922192,36.861255],[138.92218,36.861022],[138.92203,36.86068],[138.921492,36.859997],[138.92053,36.859005],[138.919517,36.858097],[138.918968,36.857697],[138.91848,36.857264],[138.918105,36.856764],[138.917755,36.856206],[138.917418,36.855489],[138.917293,36.854847],[138.91728,36.854106],[138.917293,36.853648],[138.917155,36.852998],[138.91693,36.852756],[138.916568,36.852514],[138.91633,36.852298],[138.916243,36.851056],[138.916205,36.850906],[138.916343,36.850415],[138.91668,36.849531],[138.916918,36.84914],[138.917093,36.849056],[138.91778,36.848973],[138.917968,36.848973],[138.918555,36.848873],[138.91868,36.848815],[138.919293,36.848682],[138.919818,36.848498],[138.920405,36.848223],[138.92063,36.84809],[138.92138,36.847907],[138.923317,36.84754],[138.924105,36.847348],[138.924467,36.847198],[138.924892,36.846815],[138.925142,36.846282],[138.92523,36.845282],[138.925517,36.844865],[138.92633,36.843849],[138.926567,36.843299],[138.926567,36.843141],[138.92673,36.842582],[138.926955,36.842074],[138.92708,36.841682],[138.927142,36.841124],[138.92733,36.840607],[138.927655,36.840016],[138.92783,36.839499],[138.928155,36.839299],[138.928567,36.839108],[138.929055,36.838699],[138.929405,36.838358],[138.92983,36.837691],[138.930017,36.837316],[138.93008,36.837083],[138.930005,36.836791],[138.92988,36.836416],[138.92988,36.8352],[138.929792,36.835158],[138.92968,36.834933],[138.930017,36.834283],[138.929942,36.833766],[138.92983,36.833383],[138.929692,36.833158],[138.929442,36.833042],[138.929192,36.832525],[138.929055,36.832483],[138.928405,36.832458],[138.927743,36.832392],[138.927205,36.832275],[138.92673,36.832092],[138.926318,36.831892],[138.924843,36.831442],[138.923193,36.8311],[138.922018,36.831117],[138.919956,36.830642],[138.918368,36.830084],[138.917756,36.8299],[138.916619,36.829692],[138.915494,36.829692],[138.913381,36.829309],[138.912481,36.829192],[138.911982,36.828584],[138.911594,36.828292],[138.911294,36.828184],[138.910669,36.828025],[138.908969,36.827792],[138.908644,36.827725],[138.90657,36.827525],[138.904895,36.827542],[138.90362,36.827409],[138.903007,36.827159],[138.902507,36.827],[138.902307,36.826975],[138.90172,36.827025],[138.900945,36.827159],[138.900208,36.827242],[138.899708,36.827242],[138.898283,36.826975],[138.897058,36.826992],[138.896758,36.826767],[138.896108,36.826542],[138.895533,36.826425],[138.895058,36.826384],[138.894408,36.826425],[138.893183,36.826542],[138.892483,36.826517],[138.891146,36.826359],[138.890509,36.826309],[138.889921,36.8264],[138.889721,36.826375],[138.889134,36.826217],[138.888471,36.825992],[138.886959,36.825409],[138.886347,36.825359],[138.885847,36.825492],[138.884847,36.8261],[138.884597,36.826125],[138.883922,36.826075],[138.883284,36.825983],[138.881834,36.82565],[138.88066,36.825192],[138.879797,36.825017],[138.879597,36.824942],[138.879347,36.824567],[138.879235,36.824042],[138.879247,36.823509],[138.87916,36.823142],[138.87896,36.822809],[138.877348,36.8215],[138.877073,36.821092],[138.876273,36.819492],[138.876135,36.819067],[138.875823,36.818751],[138.875235,36.818684],[138.873923,36.818751],[138.873373,36.818751],[138.872811,36.818617],[138.872223,36.818392],[138.871821,36.818246],[138.871798,36.818267],[138.869686,36.817476],[138.869086,36.817417],[138.868473,36.817401],[138.867836,36.817334],[138.866461,36.816992],[138.865999,36.816759],[138.865461,36.816559],[138.864449,36.816426],[138.864099,36.816259],[138.863649,36.815942],[138.862486,36.815342],[138.862124,36.815042],[138.859974,36.813826],[138.859599,36.813526],[138.859374,36.813409],[138.858962,36.813384],[138.858524,36.813451],[138.858299,36.813384],[138.858099,36.813234],[138.857487,36.812476],[138.856725,36.811901],[138.856087,36.811784],[138.855475,36.811718],[138.854925,36.811818],[138.85415,36.812201],[138.853637,36.812309],[138.8522,36.812159],[138.851537,36.812159],[138.85085,36.812259],[138.850125,36.812651],[138.848688,36.813659],[138.846975,36.814367],[138.846238,36.814709],[138.84445,36.815367],[138.844025,36.815659],[138.842701,36.816275],[138.842263,36.816417],[138.841926,36.8165],[138.840951,36.816508],[138.840551,36.816542],[138.839463,36.817442],[138.839138,36.817358],[138.838276,36.816967],[138.837476,36.816642],[138.837263,36.816375],[138.836789,36.815992],[138.836639,36.8158],[138.836239,36.81555],[138.835551,36.815558],[138.834651,36.81575],[138.833064,36.816242],[138.832451,36.816533],[138.831101,36.817383],[138.830101,36.817866],[138.829414,36.817941],[138.827914,36.817908],[138.826064,36.817783],[138.824589,36.817758],[138.821827,36.817791],[138.82174,36.817808],[138.821465,36.816933],[138.82139,36.816125],[138.821652,36.814967],[138.821665,36.814425],[138.821527,36.813342],[138.821615,36.812884],[138.821777,36.812584],[138.822065,36.811859],[138.822227,36.811259],[138.822515,36.810734],[138.822965,36.810076],[138.823265,36.808984],[138.824252,36.807351],[138.82479,36.806593],[138.825765,36.805543],[138.82614,36.805035],[138.826327,36.804452],[138.826377,36.80391],[138.826577,36.803368],[138.82664,36.80291],[138.826977,36.802077],[138.82679,36.801544],[138.826502,36.801127],[138.826402,36.800577],[138.826565,36.799802],[138.82684,36.79936],[138.827115,36.799252],[138.827177,36.799111],[138.827152,36.798761],[138.82744,36.798144],[138.828077,36.797169],[138.828202,36.796602],[138.82839,36.796252],[138.828502,36.795836],[138.828765,36.795478],[138.829077,36.795244],[138.829852,36.794961],[138.830577,36.794786],[138.830977,36.794603],[138.831315,36.794269],[138.83149,36.793986],[138.831477,36.793819],[138.83134,36.793628],[138.830215,36.792978],[138.829552,36.792378],[138.829102,36.792028],[138.828815,36.791661],[138.828702,36.790845],[138.82874,36.790253],[138.828828,36.789695],[138.828803,36.788637],[138.828753,36.788179],[138.828878,36.787629],[138.829278,36.786962],[138.829365,36.786395],[138.829378,36.785695],[138.82919,36.784746],[138.829065,36.784404],[138.828803,36.782971],[138.828815,36.781921],[138.828615,36.781646],[138.82829,36.780871],[138.827228,36.779146],[138.826803,36.778671],[138.826491,36.778155],[138.826378,36.777796],[138.825766,36.777088],[138.824941,36.77593],[138.824866,36.775413],[138.825203,36.774297],[138.826741,36.77253],[138.826878,36.77233],[138.826091,36.771572],[138.825591,36.771155],[138.825241,36.770572],[138.824916,36.769939],[138.824641,36.769081],[138.824341,36.768789],[138.824166,36.768706],[138.823916,36.768472],[138.823729,36.768022],[138.823629,36.767939],[138.823079,36.766998],[138.822391,36.766281],[138.822104,36.765839],[138.821779,36.765115],[138.821679,36.76469],[138.821404,36.764265],[138.820954,36.763973],[138.818542,36.762773],[138.818267,36.762565],[138.818004,36.762232],[138.817767,36.761623],[138.817129,36.761548],[138.816279,36.761723],[138.814579,36.762331],[138.814229,36.76249],[138.813617,36.762865],[138.81338,36.763248],[138.81303,36.763698],[138.812467,36.764131],[138.811617,36.764639],[138.811017,36.764956],[138.810292,36.765198],[138.809905,36.765223],[138.808255,36.764973],[138.807342,36.764881],[138.806967,36.764806],[138.806417,36.764598],[138.806142,36.764356],[138.804843,36.762923],[138.804318,36.762506],[138.803693,36.76234],[138.802293,36.762431],[138.801655,36.762323],[138.801293,36.762048],[138.801218,36.761831],[138.800581,36.760515],[138.800318,36.760298],[138.799943,36.760198],[138.798743,36.760231],[138.798281,36.76004],[138.797168,36.759248],[138.796556,36.758865],[138.795881,36.758515],[138.795194,36.75809],[138.794731,36.757307],[138.794581,36.756965],[138.794519,36.756407],[138.794306,36.755748],[138.793944,36.755265],[138.793831,36.755165],[138.793669,36.754924],[138.793594,36.754482],[138.792907,36.75309],[138.792807,36.753015],[138.792682,36.752649],[138.792532,36.752032],[138.792582,36.751207],[138.792382,36.750107],[138.792519,36.748774],[138.792719,36.748041],[138.792419,36.747749],[138.791744,36.747183],[138.790807,36.746191],[138.789557,36.745083],[138.789426,36.744945],[138.789232,36.744925],[138.788732,36.744975],[138.787582,36.744999],[138.78737,36.745008],[138.786345,36.745208],[138.785883,36.745108],[138.785445,36.744958],[138.785033,36.744949],[138.784233,36.745166],[138.783533,36.745541],[138.78317,36.745958],[138.782358,36.747266],[138.782245,36.747257],[138.78152,36.747049],[138.781308,36.747024],[138.780708,36.747057],[138.780045,36.747207],[138.779033,36.747482],[138.778321,36.747641],[138.777646,36.747732],[138.777121,36.747716],[138.776683,36.747274],[138.776383,36.747174],[138.775983,36.747291],[138.775533,36.747332],[138.774908,36.747066],[138.773571,36.747124],[138.773146,36.746916],[138.772496,36.746557],[138.772096,36.746366],[138.771696,36.746299],[138.771209,36.746307],[138.770571,36.746232],[138.770146,36.746224],[138.769509,36.746382],[138.768946,36.746432],[138.767959,36.746441],[138.767246,36.746516],[138.766122,36.747141],[138.766009,36.747316],[138.765609,36.748265],[138.765147,36.749015],[138.764922,36.74909],[138.764347,36.74914],[138.762947,36.749124],[138.762472,36.748974],[138.761947,36.748899],[138.761547,36.748957],[138.761309,36.749074],[138.760847,36.74944],[138.760547,36.749782],[138.760272,36.750215],[138.760097,36.750323],[138.759497,36.750573],[138.758809,36.750723],[138.758147,36.750773],[138.757822,36.751007],[138.757385,36.751432],[138.756785,36.751648],[138.756372,36.751915],[138.756085,36.752165],[138.755872,36.752831],[138.755547,36.75309],[138.755522,36.753123],[138.75506,36.753373],[138.754685,36.753706],[138.75381,36.754689],[138.753285,36.755089],[138.752672,36.755431],[138.751272,36.755981],[138.750747,36.756289],[138.749947,36.756606],[138.74956,36.756889],[138.749123,36.757256],[138.748273,36.757822],[138.746836,36.758218],[138.745848,36.758589],[138.745035,36.758822],[138.744135,36.759005],[138.743285,36.759097],[138.740836,36.759272],[138.740536,36.759463],[138.740186,36.759797],[138.738811,36.761263],[138.738098,36.76183],[138.737623,36.762038],[138.736486,36.762279],[138.735336,36.762738],[138.735011,36.762746],[138.733336,36.762521],[138.732436,36.762463],[138.731736,36.762513],[138.730961,36.762538],[138.730274,36.762429],[138.729624,36.762363],[138.729174,36.762496],[138.728724,36.762754],[138.728249,36.763146],[138.727436,36.763929],[138.727099,36.764121],[138.726924,36.764137],[138.726549,36.763887],[138.726287,36.763671],[138.726062,36.763271],[138.725712,36.762929],[138.724337,36.762054],[138.723462,36.761404],[138.723299,36.761254],[138.7223,36.759863],[138.721937,36.759488],[138.721312,36.759229],[138.721462,36.758996],[138.721612,36.758304],[138.721637,36.757655],[138.721537,36.757013],[138.721362,36.756496],[138.720975,36.754997],[138.7208,36.75458],[138.720825,36.754547],[138.721662,36.754288],[138.721925,36.754072],[138.722075,36.753788],[138.722162,36.753405],[138.722162,36.753114],[138.722212,36.752922],[138.722275,36.752789],[138.722275,36.752514],[138.721887,36.751389],[138.721912,36.75123],[138.721912,36.749806],[138.721525,36.749381],[138.720337,36.748522],[138.7199,36.748139],[138.7196,36.747689],[138.718988,36.747131],[138.718638,36.746589],[138.718463,36.746181],[138.718063,36.746073],[138.7175,36.746164],[138.717013,36.746098],[138.716513,36.745898],[138.715938,36.745739],[138.715738,36.745623],[138.715201,36.744381],[138.714451,36.74339],[138.714263,36.742873],[138.714413,36.742356],[138.714326,36.741748],[138.713913,36.740798],[138.713413,36.739965],[138.713088,36.739224],[138.713026,36.738932],[138.712763,36.738815],[138.711926,36.738707],[138.710714,36.738774],[138.710189,36.738574],[138.709751,36.73819],[138.709164,36.73779],[138.707427,36.737407],[138.705764,36.73669],[138.70504,36.736515],[138.70449,36.736582],[138.703765,36.736515],[138.70319,36.73654],[138.702577,36.736765],[138.701652,36.737174],[138.70119,36.737174],[138.700953,36.737132],[138.700228,36.737157],[138.699765,36.737248],[138.69829,36.737323],[138.697653,36.737432],[138.697103,36.737707],[138.696491,36.738207],[138.695891,36.738473],[138.695766,36.738473],[138.695766,36.738615],[138.695978,36.73949],[138.695978,36.739856],[138.695241,36.741973],[138.694953,36.742523],[138.694828,36.743039],[138.694641,36.743922],[138.694353,36.744506],[138.693916,36.745022],[138.693253,36.745322],[138.692241,36.74553],[138.691916,36.745772],[138.691778,36.74623],[138.691841,36.74688],[138.691953,36.747422],[138.691991,36.747963],[138.691791,36.749705],[138.691828,36.750946],[138.692153,36.75153],[138.692115,36.751621],[138.691828,36.751913],[138.691603,36.752729],[138.691428,36.753046],[138.691353,36.753088],[138.690978,36.753729],[138.690991,36.753829],[138.691166,36.754229],[138.69119,36.754879],[138.69114,36.755437],[138.690978,36.756079],[138.691053,36.75642],[138.69129,36.75687],[138.691453,36.757429],[138.691503,36.757929],[138.69139,36.758454],[138.691115,36.75902],[138.69004,36.760611],[138.689828,36.761286],[138.689778,36.762303],[138.689678,36.762594],[138.689141,36.763144],[138.688928,36.763636],[138.688766,36.764277],[138.688566,36.764594],[138.688341,36.764802],[138.688216,36.765202],[138.687903,36.765719],[138.687166,36.765752],[138.686503,36.76596],[138.685741,36.766352],[138.685316,36.766444],[138.684341,36.766185],[138.683591,36.766085],[138.682716,36.765852],[138.681891,36.765935],[138.681117,36.765944],[138.680454,36.766093],[138.680017,36.766252],[138.678879,36.767235],[138.678342,36.767651],[138.677729,36.768035],[138.676567,36.768518],[138.675117,36.769309],[138.674742,36.769601],[138.674092,36.769801],[138.673492,36.769876],[138.672943,36.770084],[138.67228,36.770626],[138.671505,36.7715],[138.67053,36.772234],[138.670068,36.772925],[138.669905,36.773059],[138.669418,36.773592],[138.66933,36.77405],[138.66918,36.776217],[138.669193,36.776817],[138.66928,36.777533],[138.669143,36.778016],[138.668993,36.778358],[138.668868,36.778858],[138.668943,36.77925],[138.669718,36.780433],[138.67083,36.782366],[138.670905,36.782774],[138.671005,36.783058],[138.671405,36.783516],[138.672067,36.783849],[138.673005,36.783933],[138.67343,36.784174],[138.674142,36.784716],[138.674767,36.784933],[138.676004,36.785141],[138.676467,36.785358],[138.677279,36.785474],[138.677792,36.785416],[138.678141,36.785541],[138.678454,36.785833],[138.678804,36.786274],[138.679266,36.786658],[138.680141,36.786766],[138.680591,36.786858],[138.681179,36.787274],[138.681641,36.787499],[138.682279,36.787591],[138.682941,36.787616],[138.683528,36.787741],[138.683978,36.787933],[138.684303,36.788224],[138.684703,36.788691],[138.685153,36.789091],[138.686153,36.789849],[138.68719,36.790824],[138.687503,36.791316],[138.687753,36.792265],[138.68799,36.792424],[138.688415,36.792557],[138.68889,36.792807],[138.689378,36.793207],[138.689503,36.793524],[138.68889,36.794257],[138.688615,36.794824],[138.688328,36.796132],[138.688378,36.796532],[138.688553,36.796932],[138.689003,36.798323],[138.689577,36.799131],[138.690115,36.79954],[138.690602,36.79984],[138.690952,36.800281],[138.691215,36.800781],[138.69139,36.801348],[138.69154,36.802115],[138.692052,36.802723],[138.692327,36.803389],[138.692565,36.803739],[138.69299,36.803964],[138.693477,36.804073],[138.693602,36.804231],[138.693939,36.805223],[138.694264,36.805773],[138.695339,36.806897],[138.695614,36.807431],[138.695739,36.807822],[138.695852,36.808681],[138.695714,36.809014],[138.695327,36.809439],[138.694527,36.810414],[138.694214,36.810655],[138.693389,36.81108],[138.692139,36.812097],[138.691577,36.812347],[138.690115,36.812722],[138.68984,36.812872],[138.689202,36.813555],[138.688952,36.814013],[138.688815,36.814396],[138.68859,36.81478],[138.68779,36.815396],[138.68764,36.815813],[138.687715,36.816221],[138.687627,36.816538],[138.68729,36.816988],[138.687115,36.817396],[138.687127,36.817671],[138.687077,36.817888],[138.686465,36.818454],[138.685777,36.818813],[138.68454,36.819162],[138.683515,36.819371],[138.681378,36.819896],[138.680628,36.820029],[138.68014,36.820254],[138.67979,36.820637],[138.679678,36.821037],[138.679853,36.821495],[138.680203,36.822045],[138.680415,36.82267],[138.680753,36.82412],[138.681403,36.824903],[138.68184,36.825212],[138.682377,36.825337],[138.68274,36.825537],[138.683177,36.826287],[138.68359,36.826853],[138.684177,36.82747],[138.685102,36.828053],[138.68549,36.82852],[138.686702,36.82977],[138.687164,36.830136],[138.687702,36.830353],[138.688089,36.830678],[138.688189,36.830844],[138.688539,36.831228],[138.689189,36.831594],[138.689827,36.832044],[138.690264,36.832603],[138.690426,36.833169],[138.690389,36.836302],[138.690351,36.836411],[138.690451,36.837527],[138.690851,36.83861],[138.691376,36.839735],[138.691589,36.840752],[138.691576,36.84136],[138.691489,36.842168],[138.690776,36.844477],[138.690226,36.845918],[138.69049,36.845952],[138.690764,36.845893],[138.691389,36.845776],[138.691901,36.845801],[138.692464,36.845768],[138.693088,36.845585],[138.693738,36.845493],[138.694126,36.84536],[138.694551,36.845285],[138.695426,36.846185],[138.695701,36.84661],[138.695851,36.846993],[138.696188,36.847326],[138.696663,36.847618],[138.69685,36.847776],[138.697025,36.84811],[138.697409,36.849132],[138.697875,36.849209],[138.698263,36.848893],[138.698738,36.848685],[138.698913,36.848643],[138.699275,36.848776],[138.700862,36.849776],[138.701225,36.849843],[138.701675,36.849684],[138.702112,36.849568],[138.702625,36.849659],[138.70305,36.849943],[138.703287,36.850326],[138.703637,36.851276],[138.703937,36.852309],[138.704437,36.853392],[138.704774,36.854426],[138.705049,36.854984],[138.705412,36.855417],[138.705874,36.856242],[138.705937,36.856692],[138.705799,36.857167],[138.705712,36.857692],[138.705862,36.858183],[138.706199,36.858633],[138.706361,36.859133],[138.706424,36.85965],[138.706424,36.860141],[138.706111,36.860733],[138.705549,36.861166],[138.705249,36.861508],[138.705224,36.861908],[138.705299,36.862358],[138.705062,36.862766],[138.704624,36.863224],[138.704149,36.863424],[138.703874,36.863474],[138.703287,36.863749],[138.703049,36.864116],[138.702712,36.865399],[138.701049,36.866557],[138.700849,36.867082],[138.700612,36.86744],[138.700437,36.867915],[138.700537,36.86819],[138.700837,36.868274],[138.700987,36.868432],[138.701887,36.86854],[138.702474,36.868557],[138.703074,36.86849],[138.703911,36.868682],[138.704186,36.868774],[138.704899,36.869082],[138.705411,36.869149],[138.705761,36.869032],[138.706124,36.869007],[138.706811,36.869324],[138.707299,36.869657],[138.707986,36.870057],[138.708673,36.87039],[138.709161,36.870707],[138.709498,36.871248],[138.709773,36.87154],[138.709886,36.871607],[138.710873,36.871398],[138.711673,36.871457],[138.712423,36.87179],[138.712935,36.872173],[138.713098,36.872715],[138.71331,36.873165],[138.713735,36.873523],[138.71376,36.873815],[138.71336,36.874898],[138.713485,36.875348],[138.713548,36.875848],[138.71326,36.876365],[138.713273,36.876956],[138.713485,36.877631],[138.714035,36.878906],[138.714372,36.879356],[138.71441,36.879673],[138.71421,36.880056],[138.71421,36.880514],[138.714547,36.881656],[138.714885,36.882106],[138.715335,36.882464],[138.715647,36.882872],[138.716122,36.883272],[138.716635,36.883564],[138.71691,36.883922],[138.716972,36.884264],[138.717247,36.884689],[138.717859,36.886064],[138.718384,36.886805],[138.718809,36.887297],[138.719497,36.887855],[138.720159,36.888572],[138.721284,36.889988],[138.721646,36.890255],[138.722396,36.890638],[138.723209,36.891105],[138.723634,36.89153],[138.724034,36.892046],[138.725271,36.892963],[138.725533,36.893371],[138.725996,36.893863],[138.726508,36.89433],[138.728108,36.895679],[138.728558,36.896213],[138.72902,36.897138],[138.729295,36.897929],[138.729483,36.898604],[138.729495,36.899187],[138.729208,36.899729],[138.728783,36.899962],[138.728995,36.900071],[138.730283,36.900471],[138.731245,36.900937],[138.73192,36.901545],[138.732458,36.902129],[138.732857,36.90282],[138.732857,36.903162],[138.732183,36.903912],[138.731983,36.904495],[138.731845,36.905195],[138.731858,36.905945],[138.731795,36.906353],[138.731957,36.907228],[138.731757,36.907612],[138.731308,36.907953],[138.730783,36.90827],[138.730545,36.908953],[138.73252,36.915502],[138.732632,36.915752],[138.732882,36.915886],[138.733207,36.916136],[138.733182,36.916469],[138.733732,36.916852],[138.733882,36.916919],[138.733945,36.917102],[138.734057,36.917185],[138.734482,36.917094],[138.734657,36.917227],[138.73472,36.91741],[138.734895,36.917569],[138.73482,36.917819],[138.734845,36.91806],[138.734995,36.918285],[138.73507,36.918602],[138.735395,36.918852],[138.735819,36.919227],[138.735994,36.919294],[138.736057,36.919277],[138.736482,36.919319],[138.736632,36.919452],[138.736694,36.919735],[138.736757,36.919927],[138.736969,36.920019],[138.737244,36.920044],[138.737419,36.920127],[138.738269,36.92091],[138.738744,36.921185],[138.739044,36.921293],[138.739319,36.921243],[138.739344,36.921335],[138.739169,36.92156],[138.739082,36.921785],[138.739269,36.92201],[138.739769,36.922118],[138.740257,36.922118],[138.740494,36.922302],[138.740407,36.92266],[138.740619,36.923085],[138.741019,36.923652],[138.741406,36.923802],[138.741706,36.924002],[138.741744,36.924385],[138.741981,36.924568],[138.742131,36.92461],[138.742344,36.924726],[138.742556,36.924951],[138.742769,36.925035],[138.743031,36.925101],[138.743244,36.925218],[138.743431,36.92546],[138.743306,36.92571],[138.743406,36.92596],[138.743769,36.926135],[138.744094,36.926543],[138.744194,36.926993],[138.744194,36.927393],[138.744356,36.927759],[138.744369,36.928659],[138.744194,36.928859],[138.744256,36.929401],[138.744556,36.929718],[138.744444,36.929901],[138.744506,36.930151],[138.744831,36.930368],[138.745044,36.930643],[138.745081,36.930868],[138.744869,36.931026],[138.744731,36.931276],[138.744619,36.931817],[138.744656,36.932359],[138.744994,36.933326],[138.744969,36.933601],[138.744819,36.933759],[138.744744,36.934317],[138.744594,36.934501],[138.744394,36.9352],[138.744194,36.9357],[138.744019,36.935975],[138.743806,36.936134],[138.743456,36.936292],[138.743306,36.936425],[138.743069,36.936742],[138.742831,36.9369],[138.742331,36.936975],[138.742119,36.937092],[138.741919,36.937317],[138.741769,36.937383],[138.741594,36.937592],[138.741506,36.937925],[138.741781,36.938942],[138.741731,36.939208],[138.741256,36.939575],[138.741206,36.939825],[138.741469,36.940158],[138.741681,36.940225],[138.742006,36.940275],[138.742406,36.940475],[138.743093,36.94065],[138.743631,36.94105],[138.743881,36.941475],[138.744381,36.941592],[138.744656,36.941725],[138.745081,36.942216],[138.745656,36.9423],[138.745743,36.942391],[138.745743,36.942525],[138.745918,36.942591],[138.746431,36.942458],[138.746606,36.942525],[138.74683,36.942705],[138.769516,36.943725],[138.770629,36.944808],[138.771666,36.945683],[138.772191,36.946091],[138.772579,36.946275],[138.773029,36.946633],[138.773504,36.947266],[138.773916,36.948116],[138.773966,36.948408],[138.773941,36.948658],[138.774166,36.949158],[138.774103,36.949308],[138.774016,36.950008],[138.773903,36.950933],[138.773928,36.951199],[138.773991,36.951333],[138.774178,36.951566],[138.775291,36.952483],[138.775791,36.953499],[138.776466,36.954357],[138.776791,36.954466],[138.777603,36.954466],[138.778128,36.954607],[138.779003,36.954899],[138.779803,36.955082],[138.780303,36.955082],[138.780228,36.955282],[138.779965,36.955482],[138.779415,36.955824],[138.77894,36.956224],[138.778715,36.956499],[138.778603,36.957057],[138.77879,36.957624],[138.779015,36.957824],[138.779001,36.957932],[138.778703,36.958182],[138.778178,36.958274],[138.777503,36.958449],[138.777315,36.95859],[138.777028,36.958899],[138.776753,36.958949],[138.776078,36.958948],[138.775241,36.959123],[138.773378,36.959665],[138.772678,36.959973],[138.771841,36.96054],[138.771341,36.960807],[138.770753,36.960898],[138.770666,36.96119],[138.770416,36.961731],[138.770053,36.961956],[138.769316,36.962715],[138.768654,36.963215],[138.768366,36.963615],[138.768316,36.963773],[138.768279,36.964156],[138.768366,36.96454],[138.768303,36.965256],[138.768116,36.965689],[138.768028,36.966139],[138.768078,36.966814],[138.767691,36.967414],[138.767653,36.967598],[138.767741,36.968006],[138.767903,36.968406],[138.767853,36.968747],[138.767678,36.969039],[138.767378,36.969281],[138.767003,36.970097],[138.766616,36.970522],[138.765803,36.970764],[138.765441,36.971014],[138.765104,36.971489],[138.764941,36.971805],[138.765103,36.972255],[138.765103,36.972414],[138.764966,36.97268],[138.764991,36.972947],[138.765241,36.973314],[138.765266,36.973539],[138.765178,36.974138],[138.764791,36.976055],[138.764816,36.976505],[138.764778,36.97693],[138.764591,36.977405],[138.764616,36.97763],[138.764916,36.977921],[138.765416,36.978263],[138.765728,36.97858],[138.765978,36.978955],[138.766278,36.979746],[138.766616,36.980129],[138.767591,36.980579],[138.768003,36.980854],[138.768615,36.980988],[138.769315,36.981254],[138.769515,36.981254],[138.769565,36.981238],[138.769678,36.981488],[138.769953,36.982404],[138.770265,36.982788],[138.770628,36.983079],[138.77079,36.983171],[138.771065,36.983463],[138.771178,36.983979],[138.77204,36.985737],[138.772153,36.985804],[138.772515,36.985896],[138.77279,36.986121],[138.772978,36.986571],[138.773178,36.987204],[138.772953,36.98747],[138.772315,36.987904],[138.772165,36.988304],[138.772253,36.988804],[138.772215,36.989387],[138.771965,36.990153],[138.771853,36.990828],[138.771828,36.991453],[138.771678,36.992178],[138.771678,36.992803],[138.771815,36.993478],[138.772702,36.99422],[138.773127,36.994628],[138.773627,36.995236],[138.773877,36.995661],[138.773927,36.995845],[138.773927,36.996336],[138.773652,36.996928],[138.77354,36.997061],[138.773177,36.997669],[138.773052,36.998136],[138.773227,36.998969],[138.773527,37.000011],[138.773865,37.000527],[138.774277,37.000927],[138.775227,37.001744],[138.775589,37.001944],[138.775952,37.002102],[138.776227,37.002419],[138.776452,37.002736],[138.776739,37.00306],[138.776902,37.003402],[138.777264,37.003744],[138.777489,37.00401],[138.778052,37.004935],[138.778277,37.005185],[138.778452,37.005502],[138.778389,37.005927],[138.778227,37.006193],[138.777939,37.00651],[138.777802,37.006843],[138.777464,37.006985],[138.776989,37.007277],[138.776564,37.007585],[138.776027,37.008168],[138.775714,37.008643],[138.775439,37.009743],[138.775464,37.010018],[138.775852,37.009968],[138.776214,37.010243],[138.776702,37.010826],[138.776864,37.010876],[138.778464,37.010851],[138.778614,37.010943],[138.779001,37.011351],[138.779339,37.011534],[138.779514,37.011868],[138.779451,37.012634],[138.779539,37.012742],[138.779989,37.013151],[138.780489,37.013109],[138.781001,37.012859],[138.781201,37.012859],[138.781501,37.013084],[138.781451,37.013942],[138.781726,37.014975],[138.781751,37.015292],[138.781864,37.015475],[138.781526,37.016192],[138.781639,37.016459],[138.781951,37.016709],[138.782563,37.017],[138.782876,37.017317],[138.783013,37.017608],[138.783326,37.017683],[138.783776,37.017842],[138.783776,37.01815],[138.783663,37.018425],[138.783126,37.019183],[138.783126,37.0195],[138.783438,37.020042],[138.783776,37.020925],[138.784363,37.022],[138.784413,37.02225],[138.785538,37.024433],[138.785675,37.025133],[138.7859,37.025316],[138.786463,37.025266],[138.786438,37.025408],[138.7861,37.025741],[138.786125,37.026124],[138.78635,37.026374],[138.786613,37.026532],[138.786863,37.026849],[138.787025,37.027541],[138.787088,37.028532],[138.787337,37.028957],[138.787787,37.029657],[138.788037,37.029907],[138.78905,37.030024],[138.7897,37.030249],[138.790087,37.030115],[138.791099,37.029532],[138.791387,37.029532],[138.791837,37.030049],[138.792737,37.031873],[138.792812,37.03194],[138.793237,37.032098],[138.793487,37.032507],[138.793749,37.033023],[138.794024,37.033207],[138.794199,37.033248],[138.794224,37.033457],[138.793999,37.033832],[138.793886,37.034282],[138.793849,37.03469],[138.793736,37.035181],[138.793824,37.035698],[138.793799,37.035998],[138.793599,37.036265],[138.793961,37.036531],[138.794636,37.036781],[138.795761,37.037256],[138.796274,37.037689],[138.796723,37.038206],[138.796948,37.038614],[138.796973,37.039173],[138.797248,37.039381],[138.797586,37.039714],[138.798036,37.040706],[138.798573,37.041564],[138.798911,37.041898],[138.799973,37.042623],[138.800348,37.043139],[138.800486,37.043706],[138.800648,37.043997],[138.801298,37.044314],[138.801611,37.044564],[138.801636,37.044964],[138.801723,37.045556],[138.801861,37.045889],[138.802061,37.046206],[138.802286,37.046789],[138.802423,37.047672],[138.802448,37.048231],[138.802423,37.049089],[138.802198,37.049939],[138.80216,37.051114],[138.802585,37.052397],[138.802948,37.053072],[138.803235,37.053722],[138.803485,37.054063],[138.80396,37.054222],[138.804585,37.054355],[138.804773,37.054672],[138.804998,37.054922],[138.80506,37.054922],[138.806122,37.055888],[138.806385,37.056297],[138.807222,37.056705],[138.808097,37.057288],[138.80871,37.057588],[138.809535,37.057838],[138.81001,37.057905],[138.810285,37.05808],[138.810659,37.058538],[138.811222,37.058871],[138.811584,37.059163],[138.811634,37.059463],[138.811584,37.05998],[138.811522,37.060138],[138.811522,37.06063],[138.811584,37.061171],[138.811047,37.062271],[138.810509,37.062946],[138.810347,37.063054],[138.809772,37.063304],[138.809634,37.063504],[138.809634,37.063621],[138.809834,37.064021],[138.809922,37.064546],[138.810109,37.064946],[138.810372,37.065329],[138.810422,37.065512],[138.811009,37.066612],[138.811034,37.066904],[138.811122,37.066995],[138.812172,37.067295],[138.812446,37.067429],[138.812534,37.067762],[138.812734,37.068104],[138.813096,37.068579],[138.814184,37.069453],[138.814359,37.069703],[138.814784,37.069978],[138.815621,37.070087],[138.815933,37.07027],[138.816471,37.070678],[138.816783,37.071037],[138.817846,37.071562],[138.818471,37.072103],[138.818883,37.072328],[138.82057,37.072353],[138.821258,37.072311],[138.822095,37.072153],[138.822295,37.072153],[138.823133,37.072403],[138.823558,37.072628],[138.823958,37.072745],[138.824745,37.073236],[138.825445,37.073445],[138.82592,37.073486],[138.826432,37.073695],[138.827107,37.074261],[138.82747,37.074278],[138.827807,37.074211],[138.828457,37.07422],[138.828882,37.074486],[138.828932,37.07462],[138.828932,37.074869],[138.829069,37.075136],[138.829157,37.075228],[138.829519,37.075478],[138.829694,37.075528],[138.829857,37.075953],[138.829857,37.076469],[138.829657,37.077486],[138.829607,37.078136],[138.829382,37.078452],[138.829244,37.078536],[138.828682,37.079211],[138.828594,37.079461],[138.828732,37.079777],[138.828757,37.080177],[138.828732,37.080585],[138.828594,37.081127],[138.828594,37.081327],[138.828444,37.081685],[138.828032,37.082202],[138.827994,37.082319],[138.827769,37.082702],[138.827457,37.08306],[138.826594,37.083802],[138.826332,37.08461],[138.826057,37.084835],[138.825544,37.08506],[138.825119,37.085435],[138.824957,37.085777],[138.824845,37.085885],[138.82422,37.086335],[138.823545,37.086876],[138.82347,37.086993],[138.823457,37.087118],[138.823482,37.087268],[138.824045,37.088135],[138.824132,37.088351],[138.824244,37.088568],[138.824307,37.088818],[138.824457,37.089143],[138.824619,37.089468],[138.824632,37.089576],[138.824632,37.089676],[138.824582,37.089735],[138.824532,37.08981],[138.824432,37.089893],[138.824407,37.089993],[138.824407,37.090068],[138.824457,37.090184],[138.824469,37.090293],[138.824532,37.090501],[138.824544,37.090676],[138.824557,37.090726],[138.824594,37.090776],[138.824644,37.090801],[138.825019,37.090759],[138.825232,37.090759],[138.825594,37.090784],[138.825932,37.090834],[138.826369,37.090934],[138.826544,37.091026],[138.826682,37.091101],[138.826782,37.091168],[138.826932,37.091251],[138.827007,37.091309],[138.827057,37.091384],[138.827057,37.091476],[138.827069,37.091659],[138.827082,37.091884],[138.827157,37.091993],[138.827244,37.092043],[138.827344,37.092151],[138.827394,37.092268],[138.827444,37.092384],[138.827469,37.092526],[138.827556,37.092751],[138.827681,37.092934],[138.827794,37.093009],[138.827969,37.093101],[138.828181,37.093168],[138.828269,37.093193],[138.828506,37.093234],[138.828744,37.093301],[138.828906,37.093384],[138.828981,37.093526],[138.828981,37.093626],[138.828869,37.094201],[138.828781,37.094459],[138.828756,37.094517],[138.828719,37.094676],[138.828694,37.094751],[138.828694,37.094942],[138.828756,37.095126],[138.828819,37.095376],[138.828906,37.095584],[138.828944,37.095751],[138.829019,37.095976],[138.829081,37.096134],[138.829131,37.096309],[138.829156,37.096459],[138.829206,37.09655],[138.829269,37.096642],[138.829319,37.096775],[138.829331,37.096867],[138.829331,37.096967],[138.829269,37.097084],[138.829181,37.097192],[138.829044,37.0973],[138.828869,37.097492],[138.828819,37.097692],[138.828744,37.097884],[138.828731,37.09805],[138.828719,37.098234],[138.828756,37.098425],[138.828756,37.098525],[138.828731,37.098634],[138.828669,37.098775],[138.828669,37.098859],[138.828756,37.099034],[138.828806,37.099234],[138.828781,37.099433],[138.828756,37.099517],[138.828731,37.099592],[138.828719,37.099667],[138.828744,37.099808],[138.828844,37.099967],[138.828944,37.100125],[138.829056,37.100392],[138.829081,37.100517],[138.829094,37.100608],[138.829081,37.1007],[138.829069,37.100775],[138.829094,37.100942],[138.829181,37.1011],[138.829331,37.101367],[138.829381,37.10145],[138.829394,37.101575],[138.829431,37.101658],[138.829481,37.101742],[138.829644,37.101883],[138.829818,37.101992],[138.830006,37.102067],[138.830206,37.102116],[138.830431,37.102125],[138.830756,37.102125],[138.830981,37.102108],[138.831156,37.102075],[138.831406,37.102075],[138.831456,37.102075],[138.831718,37.102075],[138.831918,37.102141],[138.832218,37.102366],[138.832456,37.102583],[138.832818,37.102808],[138.832968,37.102941],[138.833181,37.10305],[138.833293,37.103091],[138.833681,37.103091],[138.833843,37.1031],[138.833956,37.103141],[138.834043,37.103175],[138.834106,37.103241],[138.834168,37.103291],[138.83428,37.103516],[138.834343,37.103591],[138.834405,37.103675],[138.834618,37.103833],[138.834643,37.103875],[138.834693,37.103941],[138.83473,37.104075],[138.834643,37.104258],[138.834568,37.104383],[138.83453,37.104491],[138.834505,37.104591],[138.834505,37.104708],[138.83453,37.104949],[138.834593,37.105174],[138.83463,37.105408],[138.83468,37.105558],[138.834705,37.105624],[138.834805,37.105708],[138.834918,37.105774],[138.834993,37.105824],[138.835055,37.105949],[138.835068,37.106041],[138.83508,37.106108],[138.835243,37.106374],[138.835355,37.106624],[138.835418,37.106799],[138.835568,37.107074],[138.835768,37.107424],[138.835843,37.107557],[138.835905,37.107699],[138.836168,37.108032],[138.83638,37.108382],[138.836505,37.108599],[138.836643,37.108766],[138.836793,37.108891],[138.836843,37.108966],[138.837192,37.109232],[138.83728,37.109307],[138.837367,37.109374],[138.83793,37.109724],[138.838105,37.109832],[138.838267,37.109932],[138.838505,37.110124],[138.838642,37.110232],[138.838692,37.110299],[138.838717,37.110449],[138.838842,37.110624],[138.839005,37.11084],[138.839092,37.11099],[138.839117,37.111115],[138.839167,37.111465],[138.839217,37.111665],[138.839467,37.112282],[138.839542,37.112424],[138.839605,37.112557],[138.839642,37.112649],[138.839667,37.11279],[138.839667,37.112965],[138.839642,37.113149],[138.839617,37.113299],[138.839605,37.113424],[138.839592,37.113598],[138.839555,37.113665],[138.839455,37.113832],[138.83938,37.113965],[138.83913,37.11429],[138.839092,37.114365],[138.839055,37.114465],[138.839042,37.114548],[138.839055,37.114765],[138.839092,37.114932],[138.839142,37.115073],[138.839205,37.115157],[138.839317,37.115248],[138.83953,37.115415],[138.839605,37.115473],[138.839667,37.11554],[138.839755,37.115665],[138.839767,37.115773],[138.839767,37.11589],[138.839767,37.115973],[138.839792,37.116148],[138.839755,37.116565],[138.839705,37.116781],[138.839717,37.116981],[138.83973,37.117073],[138.839792,37.11724],[138.839855,37.117356],[138.84003,37.117681],[138.840092,37.117873],[138.840192,37.11799],[138.840317,37.118081],[138.840367,37.118165],[138.840455,37.118306],[138.840542,37.118373],[138.840642,37.118431],[138.840792,37.118531],[138.841042,37.118606],[138.841254,37.118673],[138.842017,37.118931],[138.842242,37.118965],[138.842442,37.118965],[138.842604,37.118965],[138.843017,37.118965],[138.843129,37.118973],[138.843242,37.119023],[138.843467,37.119065],[138.843517,37.119065],[138.843704,37.119073],[138.844029,37.11909],[138.844079,37.119115],[138.844179,37.119148],[138.844342,37.119248],[138.844667,37.119481],[138.844967,37.119681],[138.845179,37.119765],[138.845417,37.119898],[138.845592,37.119956],[138.845854,37.120048],[138.845992,37.120081],[138.846204,37.120115],[138.846354,37.120115],[138.846566,37.120148],[138.846791,37.120165],[138.846879,37.120215],[138.846941,37.12029],[138.847004,37.120364],[138.847154,37.120481],[138.847291,37.120556],[138.847479,37.120598],[138.847704,37.120648],[138.848091,37.120606],[138.848554,37.120581],[138.848829,37.120531],[138.849029,37.120481],[138.849216,37.120406],[138.849466,37.120281],[138.849666,37.120198],[138.849741,37.120215],[138.849854,37.120273],[138.849979,37.12034],[138.850129,37.120448],[138.850291,37.120573],[138.850404,37.120648],[138.850441,37.120698],[138.850529,37.12079],[138.850579,37.120848],[138.850591,37.120948],[138.850616,37.121206],[138.850641,37.121381],[138.850804,37.121681],[138.850891,37.121873],[138.851066,37.122114],[138.851254,37.122248],[138.851403,37.122289],[138.851578,37.122298],[138.851916,37.122323],[138.852016,37.122348],[138.852078,37.122373],[138.852166,37.122439],[138.852366,37.122623],[138.852503,37.122756],[138.852666,37.122914],[138.852766,37.122998],[138.853041,37.123164],[138.853228,37.123206],[138.853703,37.123273],[138.853891,37.123273],[138.854103,37.123248],[138.854328,37.123256],[138.854541,37.123281],[138.854816,37.123298],[138.854928,37.123331],[138.855128,37.123364],[138.855291,37.123406],[138.855466,37.123498],[138.855628,37.123606],[138.855728,37.123714],[138.855791,37.123789],[138.855841,37.123898],[138.855891,37.124023],[138.855941,37.124173],[138.856116,37.124306],[138.856228,37.124348],[138.856453,37.124431],[138.856553,37.124514],[138.856628,37.124589],[138.85674,37.124664],[138.85709,37.124798],[138.857265,37.124881],[138.857478,37.124964],[138.857853,37.125181],[138.85779,37.125381],[138.85774,37.125589],[138.857703,37.125781],[138.857728,37.125847],[138.857803,37.125989],[138.857865,37.126056],[138.857978,37.126164],[138.858228,37.126356],[138.858303,37.126506],[138.85839,37.126656],[138.858428,37.126714],[138.858465,37.126781],[138.858503,37.126864],[138.85849,37.126922],[138.858453,37.126981],[138.858403,37.127047],[138.85829,37.127189],[138.858115,37.127464],[138.85809,37.127506],[138.85809,37.127656],[138.858015,37.127856],[138.857953,37.127981],[138.857828,37.128131],[138.857765,37.128297],[138.857628,37.128489],[138.857553,37.128747],[138.85749,37.129014],[138.857428,37.129189],[138.85744,37.129272],[138.857478,37.129322],[138.85764,37.129439],[138.85784,37.129497],[138.858165,37.129539],[138.85844,37.12958],[138.858615,37.129655],[138.858765,37.129789],[138.858828,37.129897],[138.858853,37.129989],[138.858903,37.130239],[138.858953,37.130439],[138.859015,37.130639],[138.859128,37.130805],[138.859228,37.130964],[138.859328,37.131164],[138.859465,37.131255],[138.859728,37.131388],[138.859828,37.13143],[138.859953,37.131455],[138.860053,37.131447],[138.860203,37.131447],[138.860602,37.131405],[138.861065,37.131397],[138.861265,37.131413],[138.86154,37.131438],[138.861752,37.131488],[138.861927,37.131555],[138.862102,37.131697],[138.86229,37.131863],[138.862402,37.131988],[138.862477,37.132038],[138.862677,37.132097],[138.862927,37.13218],[138.863152,37.132188],[138.863427,37.132147],[138.863502,37.132122],[138.863565,37.132072],[138.86369,37.131972],[138.86384,37.131938],[138.864002,37.131938],[138.864115,37.131963],[138.86419,37.131963],[138.86439,37.131972],[138.86464,37.132022],[138.86479,37.132063],[138.864927,37.132105],[138.86519,37.13223],[138.86539,37.132338],[138.865515,37.132488],[138.86559,37.132605],[138.865627,37.132722],[138.865702,37.132788],[138.86579,37.132797],[138.866014,37.13278],[138.866214,37.13273],[138.866427,37.13268],[138.866489,37.13268],[138.866589,37.132655],[138.866639,37.132655],[138.866789,37.132647],[138.866889,37.132663],[138.867127,37.132697],[138.867352,37.132755],[138.867627,37.132772],[138.867839,37.132797],[138.868202,37.132822],[138.868627,37.13288],[138.868977,37.132938],[138.869139,37.132972],[138.869289,37.13303],[138.869389,37.133063],[138.869664,37.133113],[138.870014,37.133163],[138.870139,37.133197],[138.870164,37.133288],[138.870089,37.133572],[138.869914,37.134005],[138.869864,37.134155],[138.869902,37.134246],[138.869952,37.134296],[138.870014,37.134313],[138.870127,37.13433],[138.870364,37.134346],[138.870452,37.13438],[138.870502,37.134413],[138.870514,37.134463],[138.870539,37.134555],[138.870589,37.134646],[138.870864,37.134921],[138.870914,37.135021],[138.870939,37.13508],[138.870964,37.13518],[138.870976,37.135313],[138.870951,37.13543],[138.870914,37.135563],[138.870864,37.135713],[138.870789,37.135971],[138.870751,37.136113],[138.870726,37.136213],[138.870739,37.136305],[138.870789,37.136405],[138.870926,37.136521],[138.871176,37.136721],[138.871289,37.136838],[138.871401,37.137004],[138.871389,37.137096],[138.871451,37.137179],[138.871813,37.137359],[138.871964,37.137454],[138.872551,37.137796],[138.872976,37.138029],[138.873101,37.138129],[138.873389,37.138329],[138.873589,37.138513],[138.873714,37.138563],[138.874001,37.138721],[138.874301,37.138954],[138.874426,37.139196],[138.874489,37.139304],[138.874539,37.139388],[138.874601,37.139704],[138.874738,37.140062],[138.874738,37.140412],[138.874713,37.140529],[138.874688,37.140646],[138.874601,37.140746],[138.874476,37.140912],[138.874313,37.141196],[138.874089,37.141521],[138.874001,37.141646],[138.873864,37.141787],[138.873614,37.142104],[138.873289,37.142595],[138.873251,37.142687],[138.873151,37.14297],[138.873139,37.143212],[138.873226,37.143887],[138.873164,37.143979],[138.872664,37.14427],[138.872551,37.14432],[138.872489,37.14442],[138.872289,37.144912],[138.872226,37.14507],[138.872164,37.145237],[138.872126,37.14537],[138.872101,37.145512],[138.872089,37.145595],[138.871951,37.145828],[138.871851,37.145903],[138.871813,37.145942],[138.871601,37.146128],[138.871339,37.146203],[138.871189,37.146245],[138.870976,37.146337],[138.870889,37.146428],[138.870826,37.146487],[138.870701,37.146695],[138.870601,37.146887],[138.870514,37.147003],[138.870426,37.14712],[138.870214,37.14747],[138.870114,37.147537],[138.869926,37.147611],[138.869789,37.147645],[138.869601,37.147661],[138.869514,37.147703],[138.869426,37.147761],[138.869326,37.147811],[138.869201,37.147895],[138.869101,37.148011],[138.869039,37.148086],[138.868989,37.148145],[138.868914,37.148211],[138.868789,37.148286],[138.868664,37.148386],[138.868614,37.148478],[138.868526,37.148603],[138.868451,37.148703],[138.868326,37.14877],[138.868251,37.14882],[138.868176,37.148911],[138.868114,37.148995],[138.868051,37.149036],[138.867926,37.149086],[138.867701,37.149153],[138.867476,37.14912],[138.867327,37.149086],[138.867052,37.149036],[138.866914,37.148986],[138.866802,37.148945],[138.866627,37.148886],[138.866464,37.148786],[138.866264,37.148653],[138.866102,37.148603],[138.865977,37.148578],[138.865852,37.148603],[138.865702,37.148653],[138.865227,37.148811],[138.864952,37.148828],[138.864589,37.14887],[138.864177,37.148878],[138.863952,37.148845],[138.863677,37.148786],[138.863464,37.148795],[138.863289,37.14877],[138.862952,37.148686],[138.86279,37.148578],[138.862577,37.148503],[138.86234,37.148445],[138.862215,37.14842],[138.862115,37.148411],[138.862002,37.148428],[138.861902,37.14847],[138.861702,37.148528],[138.861552,37.148545],[138.861177,37.148553],[138.860915,37.148561],[138.86079,37.14857],[138.860665,37.148603],[138.860477,37.148736],[138.860365,37.148828],[138.860227,37.14897],[138.860152,37.149103],[138.860115,37.149203],[138.860077,37.149345],[138.86009,37.149486],[138.860127,37.149661],[138.860215,37.149836],[138.860415,37.150136],[138.860515,37.150344],[138.86054,37.150453],[138.86054,37.150611],[138.860515,37.150736],[138.860452,37.150819],[138.860252,37.151136],[138.860102,37.151278],[138.85999,37.151428],[138.85984,37.151644],[138.859815,37.151711],[138.859815,37.151794],[138.85984,37.151836],[138.859877,37.151886],[138.859977,37.151936],[138.860115,37.152028],[138.860127,37.152111],[138.86009,37.152219],[138.86004,37.152344],[138.859977,37.152461],[138.859752,37.152711],[138.859752,37.152894],[138.859477,37.152977],[138.859327,37.153027],[138.859152,37.153119],[138.859102,37.153144],[138.859127,37.153594],[138.858902,37.153644],[138.85894,37.153802],[138.858965,37.153952],[138.858865,37.154069],[138.858602,37.154336],[138.85799,37.154536],[138.857327,37.154736],[138.856815,37.154927],[138.85709,37.15556],[138.856653,37.155694],[138.856553,37.155427],[138.856428,37.155477],[138.856103,37.155652],[138.855328,37.156019],[138.855565,37.156335],[138.855653,37.156469],[138.855865,37.156827],[138.85574,37.156927],[138.855553,37.157094],[138.855465,37.157202],[138.855078,37.15756],[138.85474,37.157893],[138.854503,37.158118],[138.854253,37.158368],[138.854203,37.158393],[138.854003,37.158452],[138.853303,37.158627],[138.853103,37.158677],[138.852803,37.158752],[138.852616,37.158785],[138.852441,37.158793],[138.852266,37.158818],[138.852091,37.158835],[138.851903,37.158868],[138.851628,37.158918],[138.851553,37.158943],[138.851441,37.158968],[138.851416,37.15901],[138.851391,37.159135],[138.851378,37.159293],[138.851366,37.159393],[138.851303,37.159527],[138.851191,37.159693],[138.851141,37.159768],[138.851053,37.159868],[138.850878,37.160018],[138.850803,37.16006],[138.850691,37.160085],[138.850541,37.16011],[138.850428,37.160118],[138.850166,37.160135],[138.849753,37.160201],[138.849541,37.16021],[138.849391,37.16021],[138.849266,37.160193],[138.849078,37.160176],[138.848966,37.160185],[138.848853,37.16021],[138.848703,37.160243],[138.848591,37.160243],[138.848441,37.160251],[138.848204,37.160293],[138.847929,37.16036],[138.847854,37.160385],[138.847766,37.160418],[138.847591,37.160501],[138.847516,37.160551],[138.847441,37.160643],[138.847391,37.160751],[138.847354,37.160835],[138.847279,37.161018],[138.847229,37.16116],[138.847191,37.16121],[138.847066,37.161301],[138.846879,37.161326],[138.846516,37.161376],[138.846354,37.161435],[138.846254,37.161476],[138.846191,37.161559],[138.846166,37.161576],[138.846104,37.161618],[138.845966,37.161701],[138.845779,37.161793],[138.845716,37.161834],[138.845716,37.161843],[138.845666,37.161884],[138.845629,37.161926],[138.845604,37.162018],[138.845579,37.162209],[138.845541,37.162393],[138.845466,37.162551],[138.845429,37.162734],[138.845429,37.162793],[138.845416,37.162884],[138.845429,37.162968],[138.845454,37.163118],[138.845529,37.163309],[138.845604,37.163634],[138.845616,37.163726],[138.845616,37.163809],[138.845591,37.163918],[138.845541,37.164034],[138.845504,37.164143],[138.845454,37.164293],[138.845429,37.164617],[138.845404,37.164717],[138.845329,37.164826],[138.845279,37.164867],[138.844991,37.165184],[138.844954,37.165301],[138.844879,37.165526],[138.844816,37.165667],[138.844754,37.165767],[138.844666,37.166067],[138.844591,37.166184],[138.844416,37.166317],[138.844266,37.166392],[138.844041,37.166484],[138.844004,37.166534],[138.843929,37.166676],[138.843891,37.166759],[138.843866,37.166859],[138.843854,37.167092],[138.843854,37.167242],[138.843879,37.167334],[138.843929,37.167492],[138.844029,37.167625],[138.844204,37.167709],[138.844454,37.167809],[138.844803,37.167992],[138.844966,37.168059],[138.845153,37.16815],[138.845278,37.168292],[138.845391,37.168467],[138.845466,37.168575],[138.845503,37.168692],[138.845578,37.168784],[138.845628,37.168834],[138.845716,37.168909],[138.845778,37.169017],[138.845803,37.169142],[138.845828,37.169225],[138.845853,37.169325],[138.845866,37.169517],[138.845928,37.169709],[138.845953,37.169725],[138.845941,37.169884],[138.846191,37.170509],[138.846216,37.171083],[138.846603,37.171758],[138.847128,37.172275],[138.847565,37.173042],[138.847703,37.173442],[138.847853,37.173708],[138.84939,37.174025],[138.85204,37.174692],[138.852627,37.174875],[138.85299,37.175075],[138.853052,37.175141],[138.853227,37.1752],[138.853615,37.175183],[138.854102,37.175208],[138.854465,37.175441],[138.854777,37.175875],[138.854952,37.176041],[138.855552,37.175966],[138.856514,37.176216],[138.856764,37.1764],[138.856752,37.176883],[138.856464,37.178066],[138.856189,37.178774],[138.856202,37.178908],[138.856289,37.179099],[138.856877,37.179583],[138.857251,37.179924],[138.857839,37.180666],[138.858214,37.180933],[138.858639,37.180841],[138.859026,37.180791],[138.859451,37.180866],[138.859989,37.180933],[138.860426,37.180783],[138.860489,37.180741],[138.860964,37.180583],[138.861388,37.180608],[138.862251,37.180608],[138.863163,37.180441],[138.863038,37.180824],[138.862963,37.181383],[138.863001,37.181883],[138.863126,37.182282],[138.863226,37.182416],[138.863538,37.182649],[138.863888,37.182841],[138.864113,37.183032],[138.864251,37.183224],[138.864363,37.183491],[138.86445,37.183907],[138.864588,37.184316],[138.864713,37.184499],[138.865588,37.184882],[138.866963,37.185565],[138.867075,37.18559],[138.867438,37.185982],[138.867638,37.186315],[138.867825,37.186707],[138.867625,37.18709],[138.86755,37.18759],[138.867687,37.188082],[138.867962,37.188732],[138.868062,37.19059],[138.868212,37.19214],[138.868437,37.192948],[138.868925,37.19354],[138.869125,37.193698],[138.869262,37.193756],[138.869699,37.193631],[138.870099,37.19364],[138.870399,37.193781],[138.870899,37.19389],[138.871749,37.194048],[138.872687,37.194398],[138.873412,37.193881],[138.873849,37.193656],[138.874949,37.193398],[138.876486,37.192615],[138.876861,37.192373],[138.877761,37.192265],[138.879074,37.191781],[138.879674,37.191756],[138.880249,37.191673],[138.880898,37.191431],[138.881261,37.191073],[138.881736,37.191123],[138.882136,37.191056],[138.882286,37.190715],[138.882498,37.190157],[138.883161,37.188715],[138.883286,37.188315],[138.883148,37.187907],[138.882998,37.187407],[138.882973,37.186615],[138.883036,37.18614],[138.883236,37.185582],[138.883348,37.184949],[138.883523,37.184524],[138.883873,37.184391],[138.884111,37.184141],[138.884111,37.183582],[138.884036,37.183149],[138.884198,37.182833],[138.885148,37.181983],[138.885336,37.181583],[138.885286,37.181016],[138.885111,37.180699],[138.884823,37.180358],[138.884798,37.180225],[138.884848,37.179841],[138.885098,37.179391],[138.885461,37.1791],[138.885611,37.178808],[138.885586,37.17845],[138.885473,37.177791],[138.885473,37.177517],[138.885548,37.177433],[138.885898,37.177183],[138.886223,37.176875],[138.886436,37.176508],[138.886461,37.17615],[138.886611,37.175725],[138.886923,37.175433],[138.887098,37.17505],[138.886986,37.173925],[138.887186,37.173542],[138.887673,37.172867],[138.887773,37.17255],[138.888048,37.172442],[138.888423,37.172575],[138.888648,37.172575],[138.889073,37.172109],[138.889436,37.171976],[138.889686,37.171642],[138.889861,37.171484],[138.890861,37.171667],[138.891411,37.171717],[138.891785,37.171542],[138.892648,37.170717],[138.892873,37.170651]]]},"properties":{"id_url":"G39011.html","kuni_url":"/kg/resource/K39.html","kuni":"越後","id":"G39011","yomi":"みなみうおぬま","name":"南魚沼","pref":"新潟県","kuni_id":"K39"}}],"type":"FeatureCollection"}