{"type":"FeatureCollection","features":[{"geometry":{"type":"Polygon","coordinates":[[[138.847104,37.607088],[138.853109,37.611623],[138.854534,37.612081],[138.855097,37.612198],[138.855809,37.612406],[138.855809,37.612564],[138.856634,37.612856],[138.857147,37.613023],[138.857371,37.612864],[138.858484,37.613164],[138.858571,37.613231],[138.858596,37.613414],[138.860709,37.614081],[138.860821,37.614123],[138.861109,37.613923],[138.862046,37.614106],[138.862008,37.614248],[138.862408,37.614406],[138.862921,37.614523],[138.862783,37.614764],[138.862783,37.614856],[138.863208,37.614931],[138.863971,37.615223],[138.864233,37.614956],[138.864683,37.615006],[138.866708,37.615673],[138.867333,37.615898],[138.868808,37.616314],[138.87172,37.617323],[138.871796,37.617259],[138.871882,37.617306],[138.87192,37.617289],[138.873845,37.617881],[138.875282,37.618273],[138.879919,37.619806],[138.880594,37.619989],[138.881706,37.620398],[138.881819,37.620398],[138.881906,37.620373],[138.881981,37.620398],[138.882381,37.620606],[138.882969,37.621239],[138.883331,37.621873],[138.883419,37.621956],[138.883931,37.621964],[138.884694,37.622031],[138.885293,37.622131],[138.885431,37.622173],[138.885343,37.622556],[138.885456,37.622781],[138.885543,37.623072],[138.885593,37.623097],[138.886131,37.623031],[138.888793,37.622931],[138.89033,37.622831],[138.895093,37.62274],[138.896305,37.622681],[138.898605,37.622715],[138.89908,37.623123],[138.899929,37.624073],[138.900179,37.624273],[138.901117,37.624481],[138.905304,37.625223],[138.906691,37.625573],[138.907516,37.625848],[138.908978,37.626481],[138.909891,37.626781],[138.910453,37.626898],[138.910653,37.62679],[138.911503,37.627331],[138.912853,37.628281],[138.913453,37.628756],[138.914378,37.629414],[138.914753,37.629039],[138.915715,37.629689],[138.916365,37.629989],[138.91729,37.630264],[138.91899,37.630881],[138.920377,37.630931],[138.921714,37.631073],[138.922702,37.631014],[138.924402,37.630956],[138.924489,37.630981],[138.925714,37.63094],[138.926676,37.631031],[138.927714,37.631173],[138.930101,37.631165],[138.932563,37.630973],[138.932713,37.631181],[138.934163,37.633998],[138.935213,37.635514],[138.934925,37.635673],[138.934325,37.635823],[138.933788,37.635864],[138.933813,37.636381],[138.9333,37.636581],[138.9333,37.636989],[138.933213,37.637122],[138.932538,37.637206],[138.932425,37.637256],[138.931988,37.637614],[138.930401,37.638747],[138.929738,37.639105],[138.928151,37.639955],[138.927326,37.640447],[138.927126,37.640847],[138.927101,37.641388],[138.927263,37.64193],[138.927201,37.642471],[138.926938,37.643055],[138.926851,37.643888],[138.926926,37.645571],[138.926863,37.647237],[138.926751,37.647712],[138.926513,37.648137],[138.925951,37.64892],[138.925463,37.649387],[138.925288,37.649479],[138.924463,37.650062],[138.923901,37.650553],[138.923188,37.65127],[138.922351,37.652186],[138.921901,37.652886],[138.921476,37.653445],[138.920901,37.654586],[138.920701,37.655153],[138.920751,37.655394],[138.921126,37.655286],[138.921801,37.655019],[138.923588,37.654061],[138.923763,37.654128],[138.924351,37.654603],[138.925488,37.655128],[138.926225,37.655269],[138.926625,37.655111],[138.926913,37.654778],[138.927413,37.654486],[138.930013,37.652412],[138.929513,37.650812],[138.931125,37.650454],[138.9313,37.65037],[138.931587,37.649737],[138.932125,37.64992],[138.9328,37.650087],[138.932912,37.650087],[138.933312,37.649612],[138.9334,37.649612],[138.933762,37.649729],[138.933937,37.649321],[138.9351,37.649537],[138.935474,37.648729],[138.935812,37.649087],[138.936062,37.649496],[138.936262,37.649087],[138.936349,37.648687],[138.936387,37.648254],[138.936362,37.648213],[138.937149,37.648146],[138.937974,37.648104],[138.938224,37.648129],[138.938962,37.648138],[138.939112,37.648179],[138.939474,37.648838],[138.939986,37.648438],[138.940286,37.649721],[138.940436,37.649746],[138.940974,37.649696],[138.941111,37.649654],[138.941311,37.649904],[138.941961,37.649837],[138.941961,37.649904],[138.942411,37.651504],[138.943573,37.651287],[138.943648,37.651604],[138.944673,37.651387],[138.944986,37.651346],[138.945011,37.651429],[138.945261,37.652421],[138.945998,37.652296],[138.946198,37.652837],[138.946485,37.652812],[138.947048,37.652587],[138.947048,37.652521],[138.947273,37.652454],[138.947248,37.652254],[138.947273,37.652229],[138.948435,37.652237],[138.948585,37.652262],[138.948635,37.652579],[138.949548,37.652354],[138.949635,37.652379],[138.949885,37.652587],[138.95011,37.652654],[138.950335,37.652654],[138.95036,37.653396],[138.949848,37.653487],[138.94976,37.654045],[138.949847,37.654587],[138.949935,37.654612],[138.950322,37.654612],[138.95036,37.654679],[138.950097,37.655462],[138.949672,37.656229],[138.949585,37.656545],[138.953797,37.657962],[138.955217,37.656749],[138.959327,37.654587],[138.963497,37.652589],[138.965812,37.651919],[138.972379,37.651357],[138.984105,37.651731],[138.993205,37.65145],[138.999115,37.650794],[139.002679,37.649482],[139.008683,37.650044],[139.012248,37.651919],[139.015156,37.65445],[139.018252,37.659418],[139.01882,37.661334],[139.018521,37.664122],[139.019119,37.668005],[139.022108,37.673083],[139.025596,37.677664],[139.028486,37.679157],[139.030696,37.682196],[139.035081,37.688568],[139.039764,37.693148],[139.042854,37.694841],[139.048235,37.696136],[139.050228,37.697629],[139.05262,37.698525],[139.055111,37.698027],[139.058698,37.696733],[139.062884,37.694841],[139.065574,37.694343],[139.06966,37.694941],[139.073148,37.695239],[139.077931,37.694542],[139.082814,37.693945],[139.089491,37.694144],[139.094434,37.693644],[139.099616,37.69215],[139.105894,37.689362],[139.111574,37.68528],[139.116956,37.681596],[139.120344,37.67841],[139.121042,37.675821],[139.120942,37.671739],[139.120244,37.667656],[139.11855,37.664072],[139.115062,37.660587],[139.107587,37.653168],[139.102305,37.647493],[139.097522,37.641618],[139.093336,37.635545],[139.089549,37.632358],[139.082661,37.62722],[139.077579,37.622043],[139.073294,37.616467],[139.069219,37.612877],[139.068794,37.612276],[139.069876,37.612868],[139.07016,37.612979],[139.071047,37.613088],[139.071785,37.612854],[139.072035,37.61263],[139.07251,37.612063],[139.07301,37.611863],[139.073822,37.611846],[139.074497,37.611563],[139.074859,37.611455],[139.075634,37.611121],[139.076109,37.610622],[139.076284,37.60988],[139.076597,37.60923],[139.077634,37.607372],[139.077659,37.60688],[139.077634,37.606314],[139.077659,37.606155],[139.076659,37.605706],[139.076235,37.605247],[139.07571,37.604406],[139.075072,37.604122],[139.07471,37.603722],[139.074897,37.603448],[139.075722,37.602814],[139.076447,37.602148],[139.075935,37.601539],[139.075672,37.600731],[139.075722,37.600456],[139.076222,37.59989],[139.07686,37.599773],[139.07776,37.59934],[139.07826,37.599256],[139.07961,37.598881],[139.079922,37.598881],[139.079985,37.598481],[139.080135,37.598056],[139.080447,37.597923],[139.081235,37.597481],[139.081684,37.597073],[139.082209,37.597207],[139.082872,37.597198],[139.083409,37.596632],[139.083747,37.595907],[139.084584,37.594715],[139.084784,37.594074],[139.085034,37.593607],[139.085597,37.593607],[139.086484,37.593732],[139.086834,37.593715],[139.087559,37.594099],[139.087734,37.594165],[139.088409,37.59384],[139.089559,37.59374],[139.089871,37.594065],[139.090421,37.59449],[139.090796,37.595065],[139.091421,37.595482],[139.092371,37.595557],[139.092859,37.595365],[139.093096,37.595065],[139.092834,37.594723],[139.092721,37.594424],[139.093384,37.594074],[139.093846,37.593932],[139.094834,37.593715],[139.095808,37.593774],[139.096896,37.594174],[139.097971,37.59434],[139.099196,37.594624],[139.099721,37.594615],[139.10067,37.59449],[139.100945,37.594199],[139.100946,37.59354],[139.101545,37.593282],[139.102333,37.593124],[139.102995,37.59284],[139.10322,37.592215],[139.103533,37.591965],[139.104983,37.591616],[139.105695,37.591307],[139.106983,37.590799],[139.107808,37.590591],[139.107945,37.590424],[139.107608,37.589924],[139.107333,37.589241],[139.107208,37.588716],[139.107295,37.588183],[139.107033,37.587349],[139.106983,37.586899],[139.10692,37.586691],[139.10692,37.586349],[139.107008,37.586333],[139.10702,37.586249],[139.106895,37.586008],[139.106858,37.585824],[139.10692,37.585666],[139.106971,37.58515],[139.106758,37.584158],[139.106758,37.583983],[139.106933,37.5836],[139.107321,37.583166],[139.107471,37.5826],[139.107708,37.582266],[139.107833,37.58215],[139.108583,37.58165],[139.109121,37.581492],[139.109733,37.581517],[139.10997,37.581558],[139.11027,37.581425],[139.11057,37.580967],[139.11072,37.580858],[139.111145,37.5807],[139.111508,37.580475],[139.11162,37.580425],[139.112295,37.580492],[139.113408,37.580758],[139.113595,37.580933],[139.113845,37.581742],[139.113995,37.581792],[139.114445,37.58165],[139.11472,37.581542],[139.115658,37.581517],[139.115782,37.581583],[139.11597,37.581958],[139.116245,37.582208],[139.116907,37.582475],[139.117395,37.582425],[139.117607,37.582358],[139.118445,37.581708],[139.11887,37.5815],[139.119232,37.581541],[139.119895,37.581516],[139.120595,37.5814],[139.121007,37.581225],[139.121707,37.580792],[139.121782,37.580608],[139.122107,37.580358],[139.122407,37.578508],[139.122657,37.577967],[139.122932,37.577492],[139.12332,37.577017],[139.124882,37.576142],[139.125295,37.5758],[139.125657,37.575392],[139.126045,37.575142],[139.126894,37.574759],[139.12722,37.574134],[139.127557,37.573767],[139.128019,37.573542],[139.128219,37.573409],[139.128157,37.572909],[139.128107,37.572826],[139.128245,37.572459],[139.128545,37.572301],[139.128707,37.571901],[139.12882,37.571267],[139.128795,37.570976],[139.128682,37.570567],[139.128895,37.570209],[139.129345,37.569984],[139.12997,37.570001],[139.130607,37.569959],[139.131482,37.569326],[139.131919,37.569143],[139.132507,37.568601],[139.133132,37.567001],[139.133357,37.566659],[139.133882,37.566593],[139.134732,37.566576],[139.135444,37.566259],[139.136269,37.566326],[139.136869,37.566618],[139.137119,37.56666],[139.137756,37.566926],[139.138106,37.566976],[139.138306,37.566751],[139.138794,37.565643],[139.138931,37.565485],[139.140556,37.564151],[139.141269,37.563952],[139.142069,37.563885],[139.142919,37.564018],[139.143494,37.563968],[139.144543,37.563702],[139.145368,37.563702],[139.146193,37.564102],[139.146693,37.564193],[139.147243,37.56401],[139.147818,37.56361],[139.148506,37.563335],[139.149268,37.56331],[139.149605,37.563202],[139.150618,37.562677],[139.15103,37.562277],[139.151355,37.561869],[139.151555,37.561511],[139.151943,37.561261],[139.152455,37.560986],[139.15328,37.560827],[139.154218,37.560469],[139.155205,37.560269],[139.156855,37.560019],[139.157955,37.559561],[139.15903,37.55902],[139.159255,37.558953],[139.160517,37.558978],[139.161204,37.559062],[139.161454,37.55902],[139.162104,37.558703],[139.162717,37.558362],[139.163367,37.558362],[139.164117,37.558587],[139.164329,37.558587],[139.165766,37.558204],[139.166341,37.558229],[139.167279,37.557729],[139.168104,37.557346],[139.168241,37.557321],[139.168754,37.557546],[139.168954,37.557504],[139.169754,37.557146],[139.170403,37.556938],[139.171641,37.557188],[139.172191,37.557029],[139.172778,37.556938],[139.173678,37.556196],[139.174366,37.555671],[139.175053,37.555513],[139.175628,37.555605],[139.176315,37.555946],[139.176478,37.555947],[139.177478,37.555313],[139.177753,37.555222],[139.178328,37.555238],[139.179065,37.555355],[139.179803,37.555105],[139.180165,37.55508],[139.180828,37.554989],[139.18154,37.554539],[139.182365,37.554114],[139.183277,37.553773],[139.18369,37.553681],[139.18464,37.553573],[139.185777,37.553073],[139.18619,37.553114],[139.186352,37.553206],[139.186815,37.553931],[139.187152,37.55458],[139.18739,37.554805],[139.188465,37.555163],[139.188602,37.555188],[139.189177,37.554847],[139.190002,37.554488],[139.190752,37.554397],[139.191302,37.554488],[139.191489,37.55458],[139.192014,37.55498],[139.192752,37.554846],[139.193202,37.554846],[139.194627,37.555071],[139.195752,37.554863],[139.196827,37.555046],[139.198089,37.555512],[139.199276,37.556171],[139.200564,37.557387],[139.201589,37.557787],[139.203589,37.55792],[139.204276,37.558187],[139.204964,37.55857],[139.205676,37.559178],[139.206501,37.559761],[139.206813,37.559811],[139.207388,37.560036],[139.208013,37.560436],[139.208788,37.560645],[139.209776,37.560845],[139.210738,37.560936],[139.211588,37.56082],[139.212201,37.560528],[139.212963,37.560228],[139.213925,37.560095],[139.214725,37.559845],[139.2156,37.55942],[139.216425,37.559128],[139.216738,37.559128],[139.2175,37.559195],[139.218275,37.559553],[139.219175,37.559911],[139.219538,37.559911],[139.221025,37.559478],[139.2213,37.559345],[139.222012,37.559187],[139.2224,37.55892],[139.222562,37.55817],[139.222587,37.557495],[139.222862,37.557095],[139.223112,37.556595],[139.2241,37.556237],[139.2252,37.556162],[139.22635,37.55637],[139.227425,37.55682],[139.228162,37.557087],[139.22905,37.557195],[139.229737,37.55747],[139.230087,37.557737],[139.230337,37.558187],[139.230862,37.558478],[139.232187,37.558978],[139.232349,37.559112],[139.232924,37.557512],[139.233799,37.556229],[139.234074,37.55492],[139.234787,37.554512],[139.235362,37.554062],[139.236162,37.552937],[139.236512,37.552796],[139.237037,37.553004],[139.237674,37.553204],[139.238112,37.553021],[139.238849,37.551621],[139.238937,37.551288],[139.239212,37.550563],[139.240137,37.549938],[139.240849,37.549638],[139.241511,37.549505],[139.242149,37.549438],[139.242311,37.549121],[139.242311,37.548963],[139.242449,37.548396],[139.242836,37.547813],[139.243049,37.547296],[139.243161,37.546846],[139.243599,37.546305],[139.244336,37.545722],[139.244674,37.54513],[139.244911,37.544547],[139.245661,37.54328],[139.245899,37.542272],[139.246087,37.54173],[139.246199,37.541572],[139.246699,37.540606],[139.247024,37.539514],[139.247262,37.539047],[139.247462,37.538522],[139.247674,37.538189],[139.248037,37.538031],[139.248974,37.538031],[139.249574,37.537873],[139.249661,37.537823],[139.250174,37.537689],[139.250999,37.537598],[139.252436,37.537306],[139.253199,37.537281],[139.253974,37.537189],[139.255561,37.537123],[139.256448,37.537231],[139.256998,37.537214],[139.257098,37.537139],[139.257711,37.536898],[139.258036,37.536598],[139.258173,37.536306],[139.258586,37.535765],[139.258173,37.534915],[139.257873,37.534281],[139.257786,37.533765],[139.257711,37.532698],[139.257436,37.53239],[139.256999,37.532048],[139.256799,37.531557],[139.256474,37.530582],[139.256386,37.530132],[139.256449,37.529932],[139.256249,37.528424],[139.256111,37.528082],[139.256311,37.527882],[139.255899,37.527207],[139.255699,37.526691],[139.255724,37.526391],[139.256386,37.525832],[139.256774,37.525291],[139.257074,37.525241],[139.257624,37.525266],[139.257711,37.525107],[139.257374,37.524274],[139.257299,37.523849],[139.257374,37.523416],[139.257599,37.522874],[139.257649,37.522383],[139.258036,37.52125],[139.258449,37.520533],[139.258774,37.520191],[139.259661,37.519583],[139.260099,37.519225],[139.260286,37.518866],[139.260236,37.518483],[139.260349,37.517308],[139.260211,37.51665],[139.259937,37.515975],[139.258974,37.514942],[139.258699,37.51445],[139.258637,37.514042],[139.258862,37.513567],[139.259574,37.512375],[139.259824,37.512075],[139.260837,37.511917],[139.261249,37.512034],[139.262349,37.512101],[139.263499,37.511917],[139.264436,37.512051],[139.265236,37.512301],[139.265924,37.512301],[139.266224,37.512434],[139.267461,37.512884],[139.268061,37.513201],[139.268636,37.514125],[139.269111,37.514325],[139.269461,37.5143],[139.270048,37.514209],[139.270511,37.5143],[139.271011,37.514642],[139.27166,37.514975],[139.271885,37.515159],[139.27271,37.515492],[139.274135,37.515809],[139.274523,37.515384],[139.274523,37.514776],[139.274685,37.514326],[139.275185,37.513826],[139.27526,37.513667],[139.275398,37.513084],[139.275598,37.512634],[139.27581,37.512317],[139.27581,37.512109],[139.275673,37.511751],[139.275785,37.511276],[139.275948,37.509834],[139.27611,37.509676],[139.27631,37.509118],[139.276272,37.50891],[139.27631,37.508435],[139.276472,37.508035],[139.276935,37.507443],[139.277235,37.507243],[139.277647,37.506818],[139.278172,37.506677],[139.278335,37.506677],[139.279022,37.506902],[139.27921,37.506902],[139.27996,37.50681],[139.280422,37.50686],[139.281172,37.507193],[139.282297,37.507852],[139.283222,37.508302],[139.284321,37.508543],[139.284934,37.508543],[139.285559,37.508343],[139.286446,37.508002],[139.287096,37.507685],[139.287596,37.507235],[139.287896,37.506827],[139.288008,37.506335],[139.288196,37.505994],[139.288471,37.50566],[139.288446,37.505227],[139.288221,37.504644],[139.288246,37.50401],[139.288558,37.503011],[139.288596,37.502961],[139.288621,37.502777],[139.288596,37.502669],[139.288709,37.502169],[139.288871,37.500752],[139.289259,37.499878],[139.289484,37.499019],[139.289921,37.498478],[139.290196,37.497778],[139.290608,37.49712],[139.291046,37.496561],[139.291671,37.495995],[139.291871,37.495678],[139.292558,37.495045],[139.293183,37.494528],[139.293546,37.493628],[139.294558,37.49302],[139.295521,37.49272],[139.295908,37.492295],[139.296895,37.48977],[139.297445,37.488712],[139.297945,37.488196],[139.298083,37.487496],[139.298021,37.486438],[139.298133,37.485529],[139.298346,37.484996],[139.298246,37.484946],[139.297746,37.484921],[139.296758,37.484771],[139.294059,37.483846],[139.292496,37.483754],[139.291146,37.483604],[139.290684,37.483579],[139.288859,37.483646],[139.287484,37.483813],[139.286147,37.483696],[139.284222,37.483879],[139.28386,37.483946],[139.28331,37.483771],[139.282847,37.483071],[139.282072,37.481604],[139.281635,37.480888],[139.28086,37.480213],[139.280373,37.479621],[139.27951,37.478946],[139.278748,37.478271],[139.278135,37.477622],[139.277648,37.476972],[139.277236,37.476063],[139.276436,37.475505],[139.273799,37.474647],[139.272611,37.47438],[139.271161,37.47418],[139.269786,37.47418],[139.269512,37.474088],[139.269124,37.473463],[139.268824,37.47238],[139.268349,37.471839],[139.266999,37.471139],[139.266349,37.470739],[139.265324,37.470039],[139.26445,37.469539],[139.26255,37.468264],[139.261475,37.467964],[139.260463,37.467881],[139.2601,37.46788],[139.259413,37.467722],[139.258763,37.466531],[139.2581,37.465581],[139.257438,37.464814],[139.25735,37.464481],[139.257413,37.464231],[139.2578,37.463264],[139.257963,37.462314],[139.257901,37.461414],[139.257851,37.461231],[139.257763,37.461164],[139.257688,37.461139],[139.257301,37.460848],[139.256701,37.460148],[139.255951,37.459681],[139.254051,37.458623],[139.253638,37.458465],[139.252989,37.458106],[139.252876,37.45779],[139.252489,37.457273],[139.252239,37.457065],[139.252001,37.456707],[139.251939,37.455715],[139.251914,37.454682],[139.251551,37.453374],[139.251614,37.453174],[139.251914,37.452715],[139.252351,37.452332],[139.251801,37.452424],[139.251551,37.452407],[139.251089,37.452249],[139.250426,37.451974],[139.249902,37.45184],[139.249189,37.45094],[139.248389,37.450757],[139.247877,37.450424],[139.246964,37.449141],[139.246763,37.449046],[139.246277,37.448799],[139.244965,37.448649],[139.24449,37.448524],[139.24394,37.448299],[139.243315,37.447966],[139.242165,37.447457],[139.24114,37.446899],[139.239865,37.445949],[139.238678,37.445941],[139.237378,37.445083],[139.236641,37.444916],[139.235766,37.444799],[139.234803,37.444824],[139.233091,37.445316],[139.232316,37.445499],[139.231691,37.445816],[139.231541,37.446007],[139.231241,37.446532],[139.230941,37.446957],[139.230491,37.447107],[139.230141,37.447165],[139.229029,37.447257],[139.228441,37.447349],[139.228016,37.447607],[139.227779,37.44769],[139.227566,37.447565],[139.227216,37.447249],[139.226979,37.44719],[139.226879,37.447249],[139.225929,37.448165],[139.225554,37.448199],[139.224942,37.448065],[139.224829,37.44809],[139.224092,37.448715],[139.223654,37.44914],[139.223454,37.449165],[139.223067,37.448782],[139.222817,37.448232],[139.222667,37.447749],[139.222392,37.44724],[139.222304,37.446749],[139.222317,37.44634],[139.222079,37.446007],[139.221942,37.445915],[139.221267,37.445799],[139.220392,37.445857],[139.22018,37.445765],[139.21988,37.445532],[139.218555,37.445282],[139.218067,37.44489],[139.216018,37.442832],[139.21533,37.442199],[139.214968,37.441641],[139.21483,37.440957],[139.215018,37.440083],[139.214755,37.439741],[139.21433,37.439358],[139.213156,37.439008],[139.213118,37.438883],[139.213081,37.438283],[139.213343,37.437591],[139.213518,37.436966],[139.213568,37.436575],[139.213293,37.436133],[139.212193,37.434816],[139.211418,37.4338],[139.211068,37.433108],[139.210831,37.432425],[139.210456,37.432033],[139.209906,37.431833],[139.209494,37.431625],[139.209444,37.431525],[139.209406,37.431042],[139.209206,37.430692],[139.207781,37.429292],[139.207656,37.429067],[139.207469,37.428434],[139.207382,37.427626],[139.206769,37.424559],[139.206769,37.424009],[139.206969,37.422768],[139.207007,37.421818],[139.207044,37.420651],[139.207132,37.420168],[139.207282,37.41971],[139.207308,37.419645],[139.207419,37.419185],[139.207832,37.418143],[139.208432,37.416927],[139.208357,37.416752],[139.208269,37.416702],[139.206707,37.416544],[139.205682,37.416344],[139.204782,37.41601],[139.204032,37.415427],[139.20337,37.414769],[139.203095,37.414569],[139.202307,37.414369],[139.201282,37.414252],[139.200408,37.413944],[139.198783,37.413177],[139.198395,37.412727],[139.198008,37.412052],[139.197483,37.411286],[139.197231,37.410919],[139.197133,37.410769],[139.196996,37.410744],[139.196133,37.410927],[139.195283,37.410994],[139.193933,37.410902],[139.192733,37.410611],[139.191546,37.410544],[139.190859,37.410794],[139.190534,37.410861],[139.189646,37.410977],[139.187696,37.411744],[139.186871,37.412177],[139.186459,37.412577],[139.185934,37.412285],[139.185447,37.411794],[139.184922,37.411635],[139.183872,37.411619],[139.182772,37.411635],[139.181897,37.411527],[139.180985,37.41126],[139.179747,37.411144],[139.17881,37.411102],[139.178097,37.411419],[139.177747,37.411527],[139.176722,37.411602],[139.175048,37.411485],[139.174198,37.411335],[139.173035,37.410727],[139.172185,37.41041],[139.171886,37.410369],[139.170736,37.410502],[139.169661,37.410777],[139.168398,37.411243],[139.167599,37.41161],[139.165924,37.41251],[139.164436,37.413051],[139.164111,37.413235],[139.163424,37.41346],[139.162562,37.413326],[139.162187,37.413235],[139.161112,37.413351],[139.159574,37.41376],[139.159262,37.413668],[139.158962,37.413401],[139.15855,37.412743],[139.158162,37.411935],[139.157787,37.41126],[139.157312,37.410535],[139.15685,37.410085],[139.155775,37.409618],[139.1542,37.408668],[139.153513,37.408152],[139.153,37.407227],[139.152275,37.406327],[139.1517,37.405927],[139.1503,37.40511],[139.149113,37.40466],[139.148263,37.404302],[139.147963,37.404127],[139.146663,37.402169],[139.146388,37.401827],[139.145901,37.401352],[139.145151,37.400994],[139.144601,37.400519],[139.144251,37.399894],[139.143314,37.398561],[139.142876,37.398161],[139.142189,37.398003],[139.140702,37.397886],[139.139877,37.397528],[139.139164,37.397553],[139.138152,37.397711],[139.13719,37.397761],[139.136577,37.397736],[139.135615,37.398186],[139.134715,37.398527],[139.133965,37.398636],[139.133302,37.398844],[139.132615,37.399361],[139.131902,37.399652],[139.130753,37.400194],[139.130278,37.400602],[139.129815,37.401102],[139.12929,37.40121],[139.12839,37.401302],[139.127665,37.401577],[139.12644,37.402344],[139.12624,37.40266],[139.126403,37.403585],[139.125715,37.404218],[139.125665,37.405002],[139.125003,37.405635],[139.12434,37.406826],[139.123928,37.407193],[139.12369,37.407643],[139.12349,37.408135],[139.123328,37.408726],[139.123278,37.409268],[139.123303,37.409759],[139.123353,37.410034],[139.123715,37.410501],[139.123878,37.410868],[139.123928,37.411093],[139.124378,37.412218],[139.124428,37.412601],[139.12434,37.412959],[139.124065,37.413617],[139.123578,37.414492],[139.123328,37.414784],[139.123278,37.415084],[139.123465,37.41695],[139.12344,37.417359],[139.123465,37.417534],[139.12379,37.418325],[139.123927,37.4188],[139.123927,37.419183],[139.123902,37.419683],[139.123902,37.419825],[139.123602,37.420525],[139.122677,37.4216],[139.122415,37.422091],[139.122327,37.422491],[139.121952,37.42335],[139.12199,37.423541],[139.122152,37.423891],[139.122427,37.425466],[139.122427,37.425933],[139.12234,37.426382],[139.122202,37.426699],[139.122027,37.427024],[139.121776,37.427196],[139.121677,37.427241],[139.12144,37.427541],[139.12114,37.427807],[139.12059,37.428332],[139.119515,37.42919],[139.118915,37.429799],[139.118403,37.430274],[139.118103,37.430457],[139.11729,37.430865],[139.11654,37.431315],[139.115915,37.431815],[139.115315,37.432423],[139.112903,37.434307],[139.112065,37.434873],[139.111315,37.435323],[139.11059,37.435598],[139.11044,37.435731],[139.11014,37.436181],[139.109753,37.436615],[139.109403,37.437406],[139.10904,37.438014],[139.108378,37.438398],[139.10759,37.438514],[139.106928,37.438698],[139.106441,37.438589],[139.106178,37.438631],[139.105903,37.439106],[139.105428,37.439423],[139.105166,37.440122],[139.105078,37.440706],[139.104741,37.441272],[139.104203,37.441864],[139.103366,37.442606],[139.102641,37.442922],[139.102066,37.44313],[139.101441,37.443764],[139.100328,37.444739],[139.099641,37.44503],[139.099403,37.445189],[139.098503,37.446138],[139.098016,37.446572],[139.096666,37.447022],[139.096241,37.447388],[139.096098,37.447561],[139.095791,37.44793],[139.092519,37.448287],[139.087547,37.450138],[139.078873,37.452347],[139.075203,37.453695],[139.070616,37.454396],[139.066136,37.454342],[139.061603,37.454019],[139.058311,37.454126],[139.055181,37.455906],[139.052591,37.456769],[139.048651,37.457847],[139.045521,37.459357],[139.040361,37.463772],[139.036421,37.467546],[139.033399,37.471806],[139.032427,37.473639],[139.031726,37.476659],[139.029943,37.481163],[139.028415,37.484765],[139.026827,37.486658],[139.023771,37.489284],[139.020532,37.491788],[139.016437,37.493986],[139.012037,37.496917],[139.005885,37.501265],[139.002402,37.503402],[138.999041,37.504562],[138.996046,37.504501],[138.992502,37.503585],[138.989996,37.501814],[138.986574,37.500899],[138.983212,37.501082],[138.979057,37.502547],[138.975512,37.504623],[138.972334,37.506028],[138.968871,37.506406],[138.964287,37.506895],[138.960498,37.50659],[138.957076,37.50659],[138.953959,37.507567],[138.950598,37.509704],[138.948765,37.510009],[138.945709,37.511047],[138.942653,37.511475],[138.939415,37.510925],[138.936359,37.509276],[138.933975,37.507933],[138.931837,37.50604],[138.930431,37.504269],[138.930511,37.502596],[138.930572,37.498749],[138.930145,37.49765],[138.928861,37.496795],[138.92715,37.496612],[138.924889,37.496551],[138.922811,37.495818],[138.918289,37.495635],[138.914072,37.496429],[138.910466,37.497833],[138.908377,37.499666],[138.908782,37.500138],[138.908907,37.500204],[138.909494,37.499846],[138.909757,37.500496],[138.909782,37.500971],[138.909219,37.501737],[138.908932,37.502212],[138.908682,37.502746],[138.908757,37.503004],[138.908507,37.503337],[138.909057,37.503829],[138.908919,37.503962],[138.909144,37.504412],[138.908532,37.504754],[138.908869,37.505229],[138.908569,37.505454],[138.908807,37.505812],[138.907607,37.506579],[138.908094,37.507212],[138.906257,37.507345],[138.906482,37.507212],[138.906944,37.506312],[138.906069,37.505929],[138.902582,37.510328],[138.902269,37.510395],[138.902219,37.510345],[138.901945,37.50927],[138.902107,37.508837],[138.902545,37.508295],[138.902957,37.50787],[138.903182,37.507578],[138.903182,37.507078],[138.902745,37.506087],[138.902432,37.505978],[138.90202,37.505887],[138.901782,37.505612],[138.901645,37.50532],[138.901645,37.504554],[138.901557,37.50417],[138.899057,37.504487],[138.899057,37.503904],[138.898095,37.503837],[138.897883,37.504512],[138.89782,37.50467],[138.89442,37.50517],[138.893233,37.504878],[138.893095,37.505303],[138.891608,37.505511],[138.887546,37.504653],[138.884084,37.503936],[138.883759,37.504928],[138.883284,37.504953],[138.882934,37.506261],[138.882271,37.506194],[138.881809,37.505378],[138.882434,37.503603],[138.880097,37.503036],[138.880134,37.503003],[138.880184,37.502903],[138.880634,37.50252],[138.880434,37.502361],[138.879447,37.50182],[138.879197,37.502203],[138.879109,37.502678],[138.879222,37.50302],[138.879447,37.503578],[138.879472,37.503761],[138.879447,37.503936],[138.879284,37.504011],[138.878185,37.504028],[138.877635,37.504119],[138.877085,37.504328],[138.876647,37.504528],[138.876235,37.505161],[138.875922,37.505811],[138.875735,37.505928],[138.87551,37.505903],[138.875047,37.505794],[138.87376,37.505028],[138.873348,37.504844],[138.873235,37.504736],[138.87326,37.504594],[138.873373,37.504511],[138.873673,37.504436],[138.873973,37.504419],[138.87436,37.504328],[138.874722,37.504194],[138.874997,37.503986],[138.875097,37.503761],[138.875135,37.503086],[138.875072,37.503003],[138.874897,37.502528],[138.874635,37.50237],[138.874273,37.502436],[138.87356,37.502978],[138.873485,37.503003],[138.87326,37.503136],[138.873098,37.503111],[138.872985,37.503003],[138.87286,37.502886],[138.872348,37.502545],[138.872085,37.502528],[138.871789,37.502645],[138.871585,37.503003],[138.871498,37.503361],[138.87141,37.503444],[138.87101,37.503653],[138.87016,37.504003],[138.869736,37.504294],[138.869623,37.504503],[138.869598,37.504794],[138.869685,37.505019],[138.87016,37.505486],[138.870298,37.505694],[138.869473,37.506611],[138.868286,37.507369],[138.868036,37.507752],[138.868235,37.508269],[138.868423,37.508427],[138.868935,37.50861],[138.867998,37.51061],[138.867548,37.511127],[138.866698,37.511843],[138.865873,37.512851],[138.864848,37.514335],[138.864623,37.514759],[138.864511,37.515143],[138.864536,37.515226],[138.864698,37.515409],[138.865323,37.515726],[138.865148,37.515793],[138.863961,37.515834],[138.863373,37.515768],[138.863198,37.515809],[138.862861,37.516034],[138.862498,37.516351],[138.861873,37.516976],[138.862861,37.517942],[138.862561,37.523625],[138.862498,37.523875],[138.862248,37.524167],[138.859099,37.527016],[138.859074,37.526966],[138.858899,37.526875],[138.858474,37.526808],[138.857849,37.526833],[138.856549,37.526758],[138.855724,37.526783],[138.854424,37.526999],[138.853912,37.527133],[138.853349,37.527633],[138.853062,37.527941],[138.852774,37.528366],[138.851674,37.529357],[138.851099,37.530207],[138.850849,37.530682],[138.850674,37.531282],[138.850449,37.532499],[138.850337,37.533399],[138.850249,37.533757],[138.850074,37.534048],[138.849649,37.534315],[138.848625,37.53494],[138.848312,37.535165],[138.847575,37.535748],[138.847375,37.53604],[138.8469,37.537006],[138.846437,37.537498],[138.846162,37.537681],[138.845562,37.537831],[138.845087,37.537881],[138.844775,37.537856],[138.844625,37.537765],[138.844487,37.537181],[138.843975,37.537356],[138.8435,37.537489],[138.8433,37.537581],[138.8429,37.537698],[138.84265,37.537581],[138.842388,37.537673],[138.841775,37.537781],[138.84035,37.537848],[138.8395,37.537823],[138.837951,37.537839],[138.836188,37.537698],[138.835563,37.537748],[138.834064,37.537714],[138.834039,37.537789],[138.831314,37.53998],[138.830326,37.540722],[138.827314,37.543163],[138.827114,37.54393],[138.826827,37.544646],[138.826714,37.544805],[138.826564,37.545296],[138.826377,37.545521],[138.826177,37.54588],[138.825914,37.546238],[138.825864,37.546396],[138.825464,37.546755],[138.824727,37.547313],[138.824189,37.547896],[138.823165,37.549421],[138.822302,37.550704],[138.822302,37.550771],[138.822077,37.551196],[138.82154,37.552987],[138.820902,37.554653],[138.82079,37.555078],[138.820252,37.556945],[138.820015,37.557928],[138.82004,37.55867],[138.820302,37.559036],[138.820415,37.55912],[138.822639,37.561669],[138.824302,37.563361],[138.824901,37.564052],[138.826201,37.565494],[138.826676,37.565927],[138.827751,37.566602],[138.828876,37.567277],[138.829101,37.567477],[138.829276,37.567844],[138.829438,37.568719],[138.829663,37.569552],[138.829913,37.570785],[138.829913,37.570968],[138.830001,37.571368],[138.830026,37.571935],[138.830001,37.572452],[138.829738,37.573726],[138.829738,37.574068],[138.829538,37.574451],[138.829138,37.575076],[138.829026,37.575701],[138.828851,37.577251],[138.828876,37.578068],[138.828851,37.578759],[138.828988,37.580292],[138.829001,37.582067],[138.829113,37.583259],[138.829163,37.583934],[138.82925,37.584242],[138.829225,37.584558],[138.829188,37.585883],[138.829138,37.586133],[138.829163,37.586292],[138.828963,37.589658],[138.8311,37.593732],[138.840449,37.604573],[138.841361,37.605073],[138.841436,37.605031],[138.842436,37.604881],[138.842361,37.604565],[138.841961,37.603723],[138.841936,37.603482],[138.842086,37.603365],[138.842223,37.60339],[138.842536,37.603548],[138.842873,37.603823],[138.843698,37.60439],[138.843961,37.604598],[138.844498,37.60514],[138.846273,37.60644],[138.846423,37.606573],[138.847104,37.607088]]]},"properties":{"yomi":"みなみかんばら","name":"南蒲原","pref":"新潟県","kuni_id":"K39","id_url":"G39008.html","kuni_url":"/kg/resource/K39.html","id":"G39008","kuni":"越後"},"type":"Feature"}]}