{"features":[{"type":"Feature","geometry":{"coordinates":[[[138.656321,37.194694],[138.657221,37.194994],[138.657596,37.195044],[138.65787,37.195119],[138.65817,37.196219],[138.658358,37.196652],[138.658783,37.196902],[138.659458,37.197019],[138.660983,37.197236],[138.661858,37.197286],[138.662033,37.197336],[138.662407,37.197678],[138.662607,37.198061],[138.662732,37.198644],[138.66272,37.199027],[138.662495,37.199436],[138.66247,37.199952],[138.66397,37.202177],[138.664195,37.202444],[138.664345,37.202519],[138.665395,37.202594],[138.66572,37.202527],[138.666644,37.202536],[138.667244,37.202736],[138.667694,37.202969],[138.667994,37.203336],[138.668094,37.203561],[138.669057,37.205185],[138.669619,37.206052],[138.670569,37.206552],[138.671194,37.206694],[138.671294,37.20676],[138.672519,37.207494],[138.672569,37.20776],[138.672431,37.20846],[138.672094,37.209335],[138.672094,37.209952],[138.671856,37.211076],[138.672006,37.211593],[138.672319,37.212701],[138.672693,37.213268],[138.672806,37.213768],[138.672856,37.214151],[138.672806,37.214509],[138.673068,37.215026],[138.673218,37.215209],[138.673268,37.215459],[138.673093,37.216067],[138.673106,37.216634],[138.673031,37.217192],[138.672668,37.218159],[138.673068,37.21855],[138.673706,37.218959],[138.674356,37.219525],[138.674731,37.22],[138.67523,37.220192],[138.675855,37.220234],[138.676255,37.220417],[138.676555,37.220875],[138.676993,37.221259],[138.677293,37.221575],[138.677418,37.221917],[138.677368,37.222167],[138.677105,37.222633],[138.67673,37.223175],[138.676455,37.223717],[138.676018,37.224141],[138.675468,37.224341],[138.674993,37.224408],[138.674893,37.22445],[138.674405,37.224833],[138.674005,37.225275],[138.67383,37.225725],[138.673968,37.226158],[138.673968,37.226608],[138.673918,37.226699],[138.67273,37.227391],[138.67218,37.227816],[138.671993,37.228216],[138.671568,37.228707],[138.671443,37.229024],[138.67168,37.229391],[138.67203,37.229616],[138.672855,37.229649],[138.673355,37.229874],[138.673755,37.230191],[138.674105,37.230757],[138.674155,37.230982],[138.674118,37.231482],[138.673993,37.23209],[138.674168,37.23254],[138.67503,37.233182],[138.67518,37.233515],[138.675155,37.233815],[138.674992,37.23424],[138.675017,37.234598],[138.675192,37.234915],[138.675317,37.23544],[138.67518,37.236273],[138.674955,37.236856],[138.674717,37.237148],[138.675192,37.237215],[138.67608,37.237181],[138.67698,37.236915],[138.67723,37.236782],[138.678142,37.236157],[138.678692,37.23569],[138.679404,37.234898],[138.679929,37.234457],[138.680642,37.23419],[138.681392,37.23399],[138.682192,37.233857],[138.682617,37.233957],[138.682867,37.234115],[138.683317,37.234524],[138.683766,37.23464],[138.684466,37.234574],[138.684816,37.234849],[138.684916,37.234982],[138.685141,37.235165],[138.685841,37.235282],[138.686591,37.235515],[138.686966,37.235565],[138.687641,37.235499],[138.688828,37.234765],[138.689953,37.234566],[138.690528,37.234616],[138.691128,37.234849],[138.691728,37.234966],[138.692228,37.234966],[138.692916,37.234682],[138.693665,37.234441],[138.694615,37.234374],[138.695015,37.234291],[138.695565,37.234341],[138.696278,37.234324],[138.696853,37.234366],[138.697503,37.234482],[138.698252,37.234782],[138.698552,37.234766],[138.698652,37.234724],[138.698977,37.234357],[138.699552,37.233983],[138.70024,37.233716],[138.70209,37.233299],[138.703052,37.233149],[138.703189,37.233716],[138.703314,37.233808],[138.703814,37.234058],[138.703914,37.234124],[138.704164,37.234691],[138.704227,37.235499],[138.704352,37.236091],[138.704552,37.236591],[138.704664,37.236766],[138.705064,37.237091],[138.705464,37.237207],[138.705839,37.237091],[138.706101,37.236824],[138.706102,37.236466],[138.706177,37.236174],[138.706027,37.235874],[138.705589,37.235441],[138.705364,37.235149],[138.705314,37.234966],[138.705714,37.234816],[138.706152,37.234116],[138.706652,37.233899],[138.707077,37.233874],[138.708076,37.234174],[138.708426,37.234224],[138.708651,37.233974],[138.708551,37.233799],[138.709264,37.233708],[138.709464,37.233733],[138.709839,37.234008],[138.710426,37.234691],[138.710551,37.234758],[138.710951,37.234516],[138.710989,37.234133],[138.711064,37.234041],[138.711464,37.233816],[138.711764,37.233683],[138.712163,37.233908],[138.712488,37.234341],[138.712838,37.234641],[138.713038,37.234591],[138.714313,37.234808],[138.714638,37.234716],[138.715338,37.234158],[138.715876,37.233891],[138.716425,37.233783],[138.71705,37.233833],[138.71725,37.2339],[138.717475,37.23415],[138.7175,37.234466],[138.717638,37.234941],[138.717938,37.235191],[138.718413,37.235016],[138.7187,37.234833],[138.719438,37.23385],[138.719838,37.232991],[138.720163,37.232816],[138.7205,37.23255],[138.72135,37.231633],[138.721788,37.23105],[138.72285,37.229792],[138.72325,37.229475],[138.72345,37.229409],[138.724062,37.229375],[138.724812,37.229509],[138.725212,37.229534],[138.725537,37.229109],[138.725687,37.228567],[138.725725,37.227942],[138.72585,37.227559],[138.726137,37.227134],[138.726287,37.226592],[138.726337,37.226184],[138.726287,37.225917],[138.725525,37.225526],[138.724825,37.225226],[138.72425,37.225043],[138.723725,37.225176],[138.723288,37.225126],[138.723013,37.225034],[138.7223,37.224626],[138.721726,37.224209],[138.720951,37.223459],[138.720501,37.223143],[138.721438,37.222885],[138.722088,37.222543],[138.722838,37.222526],[138.7241,37.222135],[138.72455,37.22211],[138.7252,37.222001],[138.725875,37.22181],[138.726413,37.22161],[138.726763,37.221293],[138.727013,37.22096],[138.7277,37.220602],[138.728175,37.220135],[138.729937,37.219177],[138.730537,37.218818],[138.731425,37.218393],[138.732,37.21806],[138.732325,37.217993],[138.733199,37.218293],[138.733799,37.21841],[138.734299,37.218368],[138.734774,37.21826],[138.735162,37.218243],[138.735712,37.218402],[138.736261,37.218518],[138.737061,37.21846],[138.737636,37.218527],[138.738136,37.218577],[138.739111,37.21861],[138.739336,37.218543],[138.739686,37.218185],[138.740024,37.218002],[138.740623,37.217894],[138.741273,37.217652],[138.741673,37.217427],[138.742061,37.217319],[138.742436,37.217277],[138.742936,37.21721],[138.743136,37.217144],[138.743636,37.217152],[138.744885,37.217269],[138.745235,37.217477],[138.745485,37.217752],[138.74586,37.217952],[138.746035,37.218002],[138.746685,37.218094],[138.747135,37.218202],[138.74741,37.218202],[138.747798,37.217777],[138.74801,37.217477],[138.748348,37.217252],[138.748835,37.217077],[138.749285,37.216877],[138.750097,37.216919],[138.75076,37.217085],[138.75096,37.217177],[138.751572,37.217352],[138.751997,37.21726],[138.752697,37.217019],[138.75316,37.216977],[138.753647,37.217135],[138.753859,37.217252],[138.754372,37.217402],[138.754972,37.217394],[138.755559,37.21726],[138.756934,37.216727],[138.757347,37.216485],[138.758097,37.216294],[138.758534,37.216119],[138.759434,37.215852],[138.759934,37.216002],[138.760584,37.216319],[138.761046,37.216435],[138.761684,37.21651],[138.761984,37.216419],[138.762384,37.216177],[138.762771,37.216044],[138.763196,37.216002],[138.763596,37.216002],[138.764083,37.21616],[138.764233,37.216344],[138.764258,37.216594],[138.764471,37.216627],[138.764796,37.216602],[138.765183,37.21666],[138.765583,37.216927],[138.765633,37.217385],[138.766333,37.217868],[138.766496,37.21811],[138.766933,37.218168],[138.766946,37.218193],[138.767595,37.218027],[138.767745,37.218027],[138.768045,37.218185],[138.768095,37.218268],[138.768133,37.21856],[138.768108,37.218693],[138.76817,37.218685],[138.768545,37.218468],[138.768958,37.218493],[138.769458,37.218743],[138.769645,37.218877],[138.77007,37.218985],[138.770633,37.218985],[138.771295,37.219102],[138.772282,37.219235],[138.772795,37.219385],[138.773257,37.219743],[138.773957,37.22041],[138.77422,37.220701],[138.774607,37.220626],[138.775907,37.220185],[138.777307,37.221726],[138.777869,37.222543],[138.777907,37.222818],[138.777994,37.222893],[138.779032,37.222735],[138.779082,37.222668],[138.779682,37.224084],[138.779819,37.224793],[138.780031,37.225526],[138.780269,37.225942],[138.780581,37.226809],[138.781181,37.228175],[138.781706,37.22925],[138.781894,37.229342],[138.782119,37.229342],[138.782256,37.229092],[138.782181,37.228775],[138.782231,37.228417],[138.782206,37.227775],[138.782256,37.227409],[138.782069,37.226992],[138.781506,37.226076],[138.781431,37.225509],[138.781444,37.224909],[138.781581,37.224659],[138.781581,37.224393],[138.781694,37.224209],[138.781994,37.224043],[138.782319,37.223968],[138.782794,37.223801],[138.782919,37.223676],[138.783006,37.223509],[138.782981,37.223293],[138.782706,37.222585],[138.782769,37.222326],[138.783169,37.222001],[138.783319,37.221701],[138.783319,37.221293],[138.783481,37.221085],[138.783744,37.220868],[138.783869,37.22066],[138.783719,37.220518],[138.783631,37.220485],[138.783519,37.220318],[138.783394,37.219868],[138.783419,37.219777],[138.783594,37.219602],[138.784181,37.21951],[138.784656,37.219502],[138.784969,37.219577],[138.785094,37.219402],[138.785106,37.219318],[138.785206,37.219202],[138.785656,37.219285],[138.786231,37.219302],[138.786431,37.219235],[138.786469,37.219168],[138.786444,37.218852],[138.786581,37.218702],[138.786744,37.218727],[138.787106,37.218902],[138.787644,37.219102],[138.787906,37.219277],[138.788243,37.21911],[138.788493,37.218843],[138.788593,37.218568],[138.788568,37.218244],[138.788593,37.218044],[138.788656,37.218019],[138.789131,37.218169],[138.789593,37.21826],[138.790218,37.218452],[138.790506,37.21851],[138.790568,37.218494],[138.791056,37.217919],[138.791243,37.217877],[138.791681,37.217894],[138.792106,37.217985],[138.792568,37.21756],[138.792831,37.217435],[138.793218,37.217344],[138.793693,37.217185],[138.794118,37.21706],[138.794256,37.217052],[138.794781,37.217202],[138.795056,37.217227],[138.795381,37.216919],[138.795618,37.216852],[138.795656,37.216869],[138.795893,37.217202],[138.795968,37.217252],[138.79618,37.217177],[138.796355,37.216852],[138.796443,37.216802],[138.797005,37.216769],[138.797668,37.216769],[138.798155,37.216894],[138.798468,37.217086],[138.798743,37.217311],[138.799068,37.217361],[138.799443,37.217302],[138.799855,37.217419],[138.800155,37.217669],[138.800468,37.217727],[138.801418,37.217436],[138.80198,37.217394],[138.802405,37.217286],[138.802892,37.217077],[138.803405,37.216761],[138.803817,37.216711],[138.804317,37.216744],[138.805655,37.216977],[138.80613,37.217019],[138.806605,37.217186],[138.80728,37.217327],[138.807755,37.217486],[138.808167,37.217444],[138.808742,37.217111],[138.809117,37.216853],[138.809517,37.216744],[138.810154,37.216494],[138.811029,37.216428],[138.811454,37.216244],[138.812329,37.216119],[138.812642,37.215994],[138.812967,37.215828],[138.813392,37.215719],[138.813892,37.215678],[138.814417,37.215703],[138.815054,37.215803],[138.815542,37.216244],[138.815779,37.216294],[138.816492,37.216095],[138.816929,37.21612],[138.817329,37.21607],[138.818829,37.215803],[138.819491,37.215561],[138.819766,37.21537],[138.820091,37.214745],[138.820354,37.214045],[138.820579,37.213778],[138.820679,37.21352],[138.820966,37.213228],[138.821479,37.212895],[138.822391,37.212137],[138.822879,37.211845],[138.823366,37.211629],[138.824354,37.211329],[138.824816,37.211029],[138.825578,37.21047],[138.825866,37.210179],[138.826853,37.209596],[138.827178,37.209329],[138.827541,37.208571],[138.827616,37.208479],[138.828128,37.208087],[138.828266,37.208012],[138.828803,37.207879],[138.829491,37.207654],[138.830003,37.207363],[138.830991,37.206638],[138.831216,37.206538],[138.831878,37.206363],[138.832428,37.206279],[138.832816,37.206171],[138.833678,37.205838],[138.833713,37.205808],[138.833753,37.205771],[138.83369,37.205746],[138.833441,37.20408],[138.833503,37.203663],[138.833578,37.203521],[138.833578,37.203138],[138.833103,37.20183],[138.833153,37.20148],[138.833391,37.201088],[138.834203,37.200038],[138.834503,37.198822],[138.834728,37.198439],[138.834803,37.198022],[138.834741,37.197247],[138.834766,37.196331],[138.834853,37.196022],[138.835391,37.195389],[138.835566,37.194947],[138.835578,37.194297],[138.835541,37.193822],[138.835328,37.193348],[138.835028,37.192923],[138.834753,37.191831],[138.834891,37.191323],[138.835053,37.190981],[138.835091,37.190806],[138.835016,37.190456],[138.835016,37.190065],[138.835528,37.189248],[138.836103,37.188498],[138.836566,37.188073],[138.836528,37.187906],[138.836303,37.18769],[138.836178,37.187215],[138.835966,37.186832],[138.835828,37.18644],[138.835566,37.185232],[138.835516,37.183999],[138.835429,37.183557],[138.835216,37.182907],[138.835154,37.182507],[138.834979,37.182015],[138.834854,37.181815],[138.834629,37.181632],[138.834291,37.181574],[138.833566,37.181749],[138.833416,37.181682],[138.833229,37.181174],[138.832966,37.180641],[138.832929,37.180157],[138.832754,37.179224],[138.832654,37.177491],[138.832729,37.177133],[138.832829,37.176999],[138.833117,37.176866],[138.833967,37.176599],[138.834854,37.176424],[138.834916,37.176449],[138.836716,37.175908],[138.837241,37.17555],[138.837604,37.175275],[138.837616,37.175033],[138.837529,37.174716],[138.837566,37.174458],[138.837716,37.174116],[138.837966,37.173758],[138.838966,37.172883],[138.839266,37.172558],[138.839304,37.172308],[138.839066,37.170567],[138.839004,37.169709],[138.839066,37.169575],[138.839166,37.16945],[138.839279,37.169342],[138.839441,37.169225],[138.839579,37.169159],[138.839691,37.16905],[138.839766,37.168984],[138.839804,37.168917],[138.839841,37.168825],[138.839841,37.168767],[138.839854,37.16865],[138.839979,37.168434],[138.840041,37.168325],[138.840091,37.168192],[138.840129,37.168075],[138.840204,37.1679],[138.840229,37.167817],[138.840216,37.167767],[138.840241,37.167734],[138.840279,37.1677],[138.840354,37.167642],[138.840479,37.16745],[138.840641,37.167317],[138.840754,37.167209],[138.840841,37.167109],[138.840954,37.166967],[138.841091,37.166842],[138.841191,37.166759],[138.841229,37.166742],[138.841316,37.166692],[138.841454,37.166634],[138.841529,37.166584],[138.841591,37.166534],[138.841704,37.166442],[138.841866,37.166376],[138.841954,37.166292],[138.842029,37.166217],[138.842054,37.166184],[138.842204,37.166151],[138.842341,37.166117],[138.842629,37.165992],[138.842816,37.165909],[138.842941,37.165817],[138.843029,37.165692],[138.843104,37.165642],[138.843216,37.165601],[138.843466,37.165567],[138.843754,37.165509],[138.844191,37.165476],[138.844341,37.165492],[138.844491,37.165492],[138.844691,37.165501],[138.844879,37.165526],[138.844954,37.165301],[138.844991,37.165184],[138.845279,37.164867],[138.845329,37.164826],[138.845404,37.164717],[138.845429,37.164617],[138.845454,37.164293],[138.845504,37.164143],[138.845541,37.164034],[138.845591,37.163918],[138.845616,37.163809],[138.845616,37.163726],[138.845604,37.163634],[138.845529,37.163309],[138.845454,37.163118],[138.845429,37.162968],[138.845416,37.162884],[138.845429,37.162793],[138.845429,37.162734],[138.845466,37.162551],[138.845541,37.162393],[138.845579,37.162209],[138.845604,37.162018],[138.845629,37.161926],[138.845666,37.161884],[138.845716,37.161843],[138.845716,37.161834],[138.845779,37.161793],[138.845966,37.161701],[138.846104,37.161618],[138.846166,37.161576],[138.846191,37.161559],[138.846254,37.161476],[138.846354,37.161435],[138.846516,37.161376],[138.846879,37.161326],[138.847066,37.161301],[138.847191,37.16121],[138.847229,37.16116],[138.847279,37.161018],[138.847354,37.160835],[138.847391,37.160751],[138.847441,37.160643],[138.847516,37.160551],[138.847591,37.160501],[138.847766,37.160418],[138.847854,37.160385],[138.847929,37.16036],[138.848204,37.160293],[138.848441,37.160251],[138.848591,37.160243],[138.848703,37.160243],[138.848853,37.16021],[138.848966,37.160185],[138.849078,37.160176],[138.849266,37.160193],[138.849391,37.16021],[138.849541,37.16021],[138.849753,37.160201],[138.850166,37.160135],[138.850428,37.160118],[138.850541,37.16011],[138.850691,37.160085],[138.850803,37.16006],[138.850878,37.160018],[138.851053,37.159868],[138.851141,37.159768],[138.851191,37.159693],[138.851303,37.159527],[138.851366,37.159393],[138.851378,37.159293],[138.851391,37.159135],[138.851416,37.15901],[138.851441,37.158968],[138.851553,37.158943],[138.851628,37.158918],[138.851903,37.158868],[138.852091,37.158835],[138.852266,37.158818],[138.852441,37.158793],[138.852616,37.158785],[138.852803,37.158752],[138.853103,37.158677],[138.853303,37.158627],[138.854003,37.158452],[138.854203,37.158393],[138.854253,37.158368],[138.854503,37.158118],[138.85474,37.157893],[138.855078,37.15756],[138.855465,37.157202],[138.855553,37.157094],[138.85574,37.156927],[138.855865,37.156827],[138.855653,37.156469],[138.855565,37.156335],[138.855328,37.156019],[138.856103,37.155652],[138.856428,37.155477],[138.856553,37.155427],[138.856653,37.155694],[138.85709,37.15556],[138.856815,37.154927],[138.857327,37.154736],[138.85799,37.154536],[138.858602,37.154336],[138.858865,37.154069],[138.858965,37.153952],[138.85894,37.153802],[138.858902,37.153644],[138.859127,37.153594],[138.859102,37.153144],[138.859152,37.153119],[138.859327,37.153027],[138.859477,37.152977],[138.859752,37.152894],[138.859752,37.152711],[138.859977,37.152461],[138.86004,37.152344],[138.86009,37.152219],[138.860127,37.152111],[138.860115,37.152028],[138.859977,37.151936],[138.859877,37.151886],[138.85984,37.151836],[138.859815,37.151794],[138.859815,37.151711],[138.85984,37.151644],[138.85999,37.151428],[138.860102,37.151278],[138.860252,37.151136],[138.860452,37.150819],[138.860515,37.150736],[138.86054,37.150611],[138.86054,37.150453],[138.860515,37.150344],[138.860415,37.150136],[138.860215,37.149836],[138.860127,37.149661],[138.86009,37.149486],[138.860077,37.149345],[138.860115,37.149203],[138.860152,37.149103],[138.860227,37.14897],[138.860365,37.148828],[138.860477,37.148736],[138.860665,37.148603],[138.86079,37.14857],[138.860915,37.148561],[138.861177,37.148553],[138.861552,37.148545],[138.861702,37.148528],[138.861902,37.14847],[138.862002,37.148428],[138.862115,37.148411],[138.862215,37.14842],[138.86234,37.148445],[138.862577,37.148503],[138.86279,37.148578],[138.862952,37.148686],[138.863289,37.14877],[138.863464,37.148795],[138.863677,37.148786],[138.863952,37.148845],[138.864177,37.148878],[138.864589,37.14887],[138.864952,37.148828],[138.865227,37.148811],[138.865702,37.148653],[138.865852,37.148603],[138.865977,37.148578],[138.866102,37.148603],[138.866264,37.148653],[138.866464,37.148786],[138.866627,37.148886],[138.866802,37.148945],[138.866914,37.148986],[138.867052,37.149036],[138.867327,37.149086],[138.867476,37.14912],[138.867701,37.149153],[138.867926,37.149086],[138.868051,37.149036],[138.868114,37.148995],[138.868176,37.148911],[138.868251,37.14882],[138.868326,37.14877],[138.868451,37.148703],[138.868526,37.148603],[138.868614,37.148478],[138.868664,37.148386],[138.868789,37.148286],[138.868914,37.148211],[138.868989,37.148145],[138.869039,37.148086],[138.869101,37.148011],[138.869201,37.147895],[138.869326,37.147811],[138.869426,37.147761],[138.869514,37.147703],[138.869601,37.147661],[138.869789,37.147645],[138.869926,37.147611],[138.870114,37.147537],[138.870214,37.14747],[138.870426,37.14712],[138.870514,37.147003],[138.870601,37.146887],[138.870701,37.146695],[138.870826,37.146487],[138.870889,37.146428],[138.870976,37.146337],[138.871189,37.146245],[138.871339,37.146203],[138.871601,37.146128],[138.871813,37.145942],[138.871851,37.145903],[138.871951,37.145828],[138.872089,37.145595],[138.872101,37.145512],[138.872126,37.14537],[138.872164,37.145237],[138.872226,37.14507],[138.872289,37.144912],[138.872489,37.14442],[138.872551,37.14432],[138.872664,37.14427],[138.873164,37.143979],[138.873226,37.143887],[138.873139,37.143212],[138.873151,37.14297],[138.873251,37.142687],[138.873289,37.142595],[138.873614,37.142104],[138.873864,37.141787],[138.874001,37.141646],[138.874089,37.141521],[138.874313,37.141196],[138.874476,37.140912],[138.874601,37.140746],[138.874688,37.140646],[138.874713,37.140529],[138.874738,37.140412],[138.874738,37.140062],[138.874601,37.139704],[138.874539,37.139388],[138.874489,37.139304],[138.874426,37.139196],[138.874301,37.138954],[138.874001,37.138721],[138.873714,37.138563],[138.873589,37.138513],[138.873389,37.138329],[138.873101,37.138129],[138.872976,37.138029],[138.872551,37.137796],[138.871964,37.137454],[138.871813,37.137359],[138.871451,37.137179],[138.871389,37.137096],[138.871401,37.137004],[138.871289,37.136838],[138.871176,37.136721],[138.870926,37.136521],[138.870789,37.136405],[138.870739,37.136305],[138.870726,37.136213],[138.870751,37.136113],[138.870789,37.135971],[138.870864,37.135713],[138.870914,37.135563],[138.870951,37.13543],[138.870976,37.135313],[138.870964,37.13518],[138.870939,37.13508],[138.870914,37.135021],[138.870864,37.134921],[138.870589,37.134646],[138.870539,37.134555],[138.870514,37.134463],[138.870502,37.134413],[138.870452,37.13438],[138.870364,37.134346],[138.870127,37.13433],[138.870014,37.134313],[138.869952,37.134296],[138.869902,37.134246],[138.869864,37.134155],[138.869914,37.134005],[138.870089,37.133572],[138.870164,37.133288],[138.870139,37.133197],[138.870014,37.133163],[138.869664,37.133113],[138.869389,37.133063],[138.869289,37.13303],[138.869139,37.132972],[138.868977,37.132938],[138.868627,37.13288],[138.868202,37.132822],[138.867839,37.132797],[138.867627,37.132772],[138.867352,37.132755],[138.867127,37.132697],[138.866889,37.132663],[138.866789,37.132647],[138.866639,37.132655],[138.866589,37.132655],[138.866489,37.13268],[138.866427,37.13268],[138.866214,37.13273],[138.866014,37.13278],[138.86579,37.132797],[138.865702,37.132788],[138.865627,37.132722],[138.86559,37.132605],[138.865515,37.132488],[138.86539,37.132338],[138.86519,37.13223],[138.864927,37.132105],[138.86479,37.132063],[138.86464,37.132022],[138.86439,37.131972],[138.86419,37.131963],[138.864115,37.131963],[138.864002,37.131938],[138.86384,37.131938],[138.86369,37.131972],[138.863565,37.132072],[138.863502,37.132122],[138.863427,37.132147],[138.863152,37.132188],[138.862927,37.13218],[138.862677,37.132097],[138.862477,37.132038],[138.862402,37.131988],[138.86229,37.131863],[138.862102,37.131697],[138.861927,37.131555],[138.861752,37.131488],[138.86154,37.131438],[138.861265,37.131413],[138.861065,37.131397],[138.860602,37.131405],[138.860203,37.131447],[138.860053,37.131447],[138.859953,37.131455],[138.859828,37.13143],[138.859728,37.131388],[138.859465,37.131255],[138.859328,37.131164],[138.859228,37.130964],[138.859128,37.130805],[138.859015,37.130639],[138.858953,37.130439],[138.858903,37.130239],[138.858853,37.129989],[138.858828,37.129897],[138.858765,37.129789],[138.858615,37.129655],[138.85844,37.12958],[138.858165,37.129539],[138.85784,37.129497],[138.85764,37.129439],[138.857478,37.129322],[138.85744,37.129272],[138.857428,37.129189],[138.85749,37.129014],[138.857553,37.128747],[138.857628,37.128489],[138.857765,37.128297],[138.857828,37.128131],[138.857953,37.127981],[138.858015,37.127856],[138.85809,37.127656],[138.85809,37.127506],[138.858115,37.127464],[138.85829,37.127189],[138.858403,37.127047],[138.858453,37.126981],[138.85849,37.126922],[138.858503,37.126864],[138.858465,37.126781],[138.858428,37.126714],[138.85839,37.126656],[138.858303,37.126506],[138.858228,37.126356],[138.857978,37.126164],[138.857865,37.126056],[138.857803,37.125989],[138.857728,37.125847],[138.857703,37.125781],[138.85774,37.125589],[138.85779,37.125381],[138.857853,37.125181],[138.857478,37.124964],[138.857265,37.124881],[138.85709,37.124798],[138.85674,37.124664],[138.856628,37.124589],[138.856553,37.124514],[138.856453,37.124431],[138.856228,37.124348],[138.856116,37.124306],[138.855941,37.124173],[138.855891,37.124023],[138.855841,37.123898],[138.855791,37.123789],[138.855728,37.123714],[138.855628,37.123606],[138.855466,37.123498],[138.855291,37.123406],[138.855128,37.123364],[138.854928,37.123331],[138.854816,37.123298],[138.854541,37.123281],[138.854328,37.123256],[138.854103,37.123248],[138.853891,37.123273],[138.853703,37.123273],[138.853228,37.123206],[138.853041,37.123164],[138.852766,37.122998],[138.852666,37.122914],[138.852503,37.122756],[138.852366,37.122623],[138.852166,37.122439],[138.852078,37.122373],[138.852016,37.122348],[138.851916,37.122323],[138.851578,37.122298],[138.851403,37.122289],[138.851254,37.122248],[138.851066,37.122114],[138.850891,37.121873],[138.850804,37.121681],[138.850641,37.121381],[138.850616,37.121206],[138.850591,37.120948],[138.850579,37.120848],[138.850529,37.12079],[138.850441,37.120698],[138.850404,37.120648],[138.850291,37.120573],[138.850129,37.120448],[138.849979,37.12034],[138.849854,37.120273],[138.849741,37.120215],[138.849666,37.120198],[138.849466,37.120281],[138.849216,37.120406],[138.849029,37.120481],[138.848829,37.120531],[138.848554,37.120581],[138.848091,37.120606],[138.847704,37.120648],[138.847479,37.120598],[138.847291,37.120556],[138.847154,37.120481],[138.847004,37.120364],[138.846941,37.12029],[138.846879,37.120215],[138.846791,37.120165],[138.846566,37.120148],[138.846354,37.120115],[138.846204,37.120115],[138.845992,37.120081],[138.845854,37.120048],[138.845592,37.119956],[138.845417,37.119898],[138.845179,37.119765],[138.844967,37.119681],[138.844667,37.119481],[138.844342,37.119248],[138.844179,37.119148],[138.844079,37.119115],[138.844029,37.11909],[138.843704,37.119073],[138.843517,37.119065],[138.843467,37.119065],[138.843242,37.119023],[138.843129,37.118973],[138.843017,37.118965],[138.842604,37.118965],[138.842442,37.118965],[138.842242,37.118965],[138.842017,37.118931],[138.841254,37.118673],[138.841042,37.118606],[138.840792,37.118531],[138.840642,37.118431],[138.840542,37.118373],[138.840455,37.118306],[138.840367,37.118165],[138.840317,37.118081],[138.840192,37.11799],[138.840092,37.117873],[138.84003,37.117681],[138.839855,37.117356],[138.839792,37.11724],[138.83973,37.117073],[138.839717,37.116981],[138.839705,37.116781],[138.839755,37.116565],[138.839792,37.116148],[138.839767,37.115973],[138.839767,37.11589],[138.839767,37.115773],[138.839755,37.115665],[138.839667,37.11554],[138.839605,37.115473],[138.83953,37.115415],[138.839317,37.115248],[138.839205,37.115157],[138.839142,37.115073],[138.839092,37.114932],[138.839055,37.114765],[138.839042,37.114548],[138.839055,37.114465],[138.839092,37.114365],[138.83913,37.11429],[138.83938,37.113965],[138.839455,37.113832],[138.839555,37.113665],[138.839592,37.113598],[138.839605,37.113424],[138.839617,37.113299],[138.839642,37.113149],[138.839667,37.112965],[138.839667,37.11279],[138.839642,37.112649],[138.839605,37.112557],[138.839542,37.112424],[138.839467,37.112282],[138.839217,37.111665],[138.839167,37.111465],[138.839117,37.111115],[138.839092,37.11099],[138.839005,37.11084],[138.838842,37.110624],[138.838717,37.110449],[138.838692,37.110299],[138.838642,37.110232],[138.838505,37.110124],[138.838267,37.109932],[138.838105,37.109832],[138.83793,37.109724],[138.837367,37.109374],[138.83728,37.109307],[138.837192,37.109232],[138.836843,37.108966],[138.836793,37.108891],[138.836643,37.108766],[138.836505,37.108599],[138.83638,37.108382],[138.836168,37.108032],[138.835905,37.107699],[138.835843,37.107557],[138.835768,37.107424],[138.835568,37.107074],[138.835418,37.106799],[138.835355,37.106624],[138.835243,37.106374],[138.83508,37.106108],[138.835068,37.106041],[138.835055,37.105949],[138.834993,37.105824],[138.834918,37.105774],[138.834805,37.105708],[138.834705,37.105624],[138.83468,37.105558],[138.83463,37.105408],[138.834593,37.105174],[138.83453,37.104949],[138.834505,37.104708],[138.834505,37.104591],[138.83453,37.104491],[138.834568,37.104383],[138.834643,37.104258],[138.83473,37.104075],[138.834693,37.103941],[138.834643,37.103875],[138.834618,37.103833],[138.834405,37.103675],[138.834343,37.103591],[138.83428,37.103516],[138.834168,37.103291],[138.834106,37.103241],[138.834043,37.103175],[138.833956,37.103141],[138.833843,37.1031],[138.833681,37.103091],[138.833293,37.103091],[138.833181,37.10305],[138.832968,37.102941],[138.832818,37.102808],[138.832456,37.102583],[138.832218,37.102366],[138.831918,37.102141],[138.831718,37.102075],[138.831456,37.102075],[138.831406,37.102075],[138.831156,37.102075],[138.830981,37.102108],[138.830756,37.102125],[138.830431,37.102125],[138.830206,37.102116],[138.830006,37.102067],[138.829818,37.101992],[138.829644,37.101883],[138.829481,37.101742],[138.829431,37.101658],[138.829394,37.101575],[138.829381,37.10145],[138.829331,37.101367],[138.829181,37.1011],[138.829094,37.100942],[138.829069,37.100775],[138.829081,37.1007],[138.829094,37.100608],[138.829081,37.100517],[138.829056,37.100392],[138.828944,37.100125],[138.828844,37.099967],[138.828744,37.099808],[138.828719,37.099667],[138.828731,37.099592],[138.828756,37.099517],[138.828781,37.099433],[138.828806,37.099234],[138.828756,37.099034],[138.828669,37.098859],[138.828669,37.098775],[138.828731,37.098634],[138.828756,37.098525],[138.828756,37.098425],[138.828719,37.098234],[138.828731,37.09805],[138.828744,37.097884],[138.828819,37.097692],[138.828869,37.097492],[138.829044,37.0973],[138.829181,37.097192],[138.829269,37.097084],[138.829331,37.096967],[138.829331,37.096867],[138.829319,37.096775],[138.829269,37.096642],[138.829206,37.09655],[138.829156,37.096459],[138.829131,37.096309],[138.829081,37.096134],[138.829019,37.095976],[138.828944,37.095751],[138.828906,37.095584],[138.828819,37.095376],[138.828756,37.095126],[138.828694,37.094942],[138.828694,37.094751],[138.828719,37.094676],[138.828756,37.094517],[138.828781,37.094459],[138.828869,37.094201],[138.828981,37.093626],[138.828981,37.093526],[138.828906,37.093384],[138.828744,37.093301],[138.828506,37.093234],[138.828269,37.093193],[138.828181,37.093168],[138.827969,37.093101],[138.827794,37.093009],[138.827681,37.092934],[138.827556,37.092751],[138.827469,37.092526],[138.827444,37.092384],[138.827394,37.092268],[138.827344,37.092151],[138.827244,37.092043],[138.827157,37.091993],[138.827082,37.091884],[138.827069,37.091659],[138.827057,37.091476],[138.827057,37.091384],[138.827007,37.091309],[138.826932,37.091251],[138.826782,37.091168],[138.826682,37.091101],[138.826544,37.091026],[138.826369,37.090934],[138.825932,37.090834],[138.825594,37.090784],[138.825232,37.090759],[138.825019,37.090759],[138.824644,37.090801],[138.824594,37.090776],[138.824557,37.090726],[138.824544,37.090676],[138.824532,37.090501],[138.824469,37.090293],[138.824457,37.090184],[138.824407,37.090068],[138.824407,37.089993],[138.824432,37.089893],[138.824532,37.08981],[138.824582,37.089735],[138.824632,37.089676],[138.824632,37.089576],[138.824619,37.089468],[138.824457,37.089143],[138.824307,37.088818],[138.824244,37.088568],[138.824132,37.088351],[138.824045,37.088135],[138.823482,37.087268],[138.823457,37.087118],[138.82347,37.086993],[138.823545,37.086876],[138.82422,37.086335],[138.824845,37.085885],[138.824957,37.085777],[138.825119,37.085435],[138.825544,37.08506],[138.826057,37.084835],[138.826332,37.08461],[138.826594,37.083802],[138.827457,37.08306],[138.827769,37.082702],[138.827994,37.082319],[138.828032,37.082202],[138.828444,37.081685],[138.828594,37.081327],[138.828594,37.081127],[138.828732,37.080585],[138.828757,37.080177],[138.828732,37.079777],[138.828594,37.079461],[138.828682,37.079211],[138.829244,37.078536],[138.829382,37.078452],[138.829607,37.078136],[138.829657,37.077486],[138.829857,37.076469],[138.829857,37.075953],[138.829694,37.075528],[138.829519,37.075478],[138.829157,37.075228],[138.829069,37.075136],[138.828932,37.074869],[138.828932,37.07462],[138.828882,37.074486],[138.828457,37.07422],[138.827807,37.074211],[138.82747,37.074278],[138.827107,37.074261],[138.826432,37.073695],[138.82592,37.073486],[138.825445,37.073445],[138.824745,37.073236],[138.823958,37.072745],[138.823558,37.072628],[138.823133,37.072403],[138.822295,37.072153],[138.822095,37.072153],[138.821258,37.072311],[138.82057,37.072353],[138.818883,37.072328],[138.818471,37.072103],[138.817846,37.071562],[138.816783,37.071037],[138.816471,37.070678],[138.815933,37.07027],[138.815621,37.070087],[138.814784,37.069978],[138.814359,37.069703],[138.814184,37.069453],[138.813096,37.068579],[138.812734,37.068104],[138.812534,37.067762],[138.812446,37.067429],[138.812172,37.067295],[138.811122,37.066995],[138.811034,37.066904],[138.811009,37.066612],[138.810422,37.065512],[138.810372,37.065329],[138.810109,37.064946],[138.809922,37.064546],[138.809834,37.064021],[138.809634,37.063621],[138.809634,37.063504],[138.809772,37.063304],[138.810347,37.063054],[138.810509,37.062946],[138.811047,37.062271],[138.811584,37.061171],[138.811522,37.06063],[138.811522,37.060138],[138.811584,37.05998],[138.811634,37.059463],[138.811584,37.059163],[138.811222,37.058871],[138.810659,37.058538],[138.810285,37.05808],[138.81001,37.057905],[138.809535,37.057838],[138.80871,37.057588],[138.808097,37.057288],[138.807222,37.056705],[138.806385,37.056297],[138.806122,37.055888],[138.80506,37.054922],[138.804998,37.054922],[138.804773,37.054672],[138.804585,37.054355],[138.80396,37.054222],[138.803485,37.054063],[138.803235,37.053722],[138.802948,37.053072],[138.802585,37.052397],[138.80216,37.051114],[138.802198,37.049939],[138.802423,37.049089],[138.802448,37.048231],[138.802423,37.047672],[138.802286,37.046789],[138.802061,37.046206],[138.801861,37.045889],[138.801723,37.045556],[138.801636,37.044964],[138.801611,37.044564],[138.801298,37.044314],[138.800648,37.043997],[138.800486,37.043706],[138.800348,37.043139],[138.799973,37.042623],[138.798911,37.041898],[138.798573,37.041564],[138.798036,37.040706],[138.797586,37.039714],[138.797248,37.039381],[138.796973,37.039173],[138.796948,37.038614],[138.796723,37.038206],[138.796274,37.037689],[138.795761,37.037256],[138.794636,37.036781],[138.793961,37.036531],[138.793599,37.036265],[138.793799,37.035998],[138.793824,37.035698],[138.793736,37.035181],[138.793849,37.03469],[138.793886,37.034282],[138.793999,37.033832],[138.794224,37.033457],[138.794199,37.033248],[138.794024,37.033207],[138.793749,37.033023],[138.793487,37.032507],[138.793237,37.032098],[138.792812,37.03194],[138.792737,37.031873],[138.791837,37.030049],[138.791387,37.029532],[138.791099,37.029532],[138.790087,37.030115],[138.7897,37.030249],[138.78905,37.030024],[138.788037,37.029907],[138.787787,37.029657],[138.787337,37.028957],[138.787088,37.028532],[138.787025,37.027541],[138.786863,37.026849],[138.786613,37.026532],[138.78635,37.026374],[138.786125,37.026124],[138.7861,37.025741],[138.786438,37.025408],[138.786463,37.025266],[138.7859,37.025316],[138.785675,37.025133],[138.785538,37.024433],[138.784413,37.02225],[138.784363,37.022],[138.783776,37.020925],[138.783438,37.020042],[138.783126,37.0195],[138.783126,37.019183],[138.783663,37.018425],[138.783776,37.01815],[138.783776,37.017842],[138.783326,37.017683],[138.783013,37.017608],[138.782876,37.017317],[138.782563,37.017],[138.781951,37.016709],[138.781639,37.016459],[138.781526,37.016192],[138.781864,37.015475],[138.781751,37.015292],[138.781726,37.014975],[138.781451,37.013942],[138.781501,37.013084],[138.781201,37.012859],[138.781001,37.012859],[138.780489,37.013109],[138.779989,37.013151],[138.779539,37.012742],[138.779451,37.012634],[138.779514,37.011868],[138.779339,37.011534],[138.779001,37.011351],[138.778614,37.010943],[138.778464,37.010851],[138.776864,37.010876],[138.776702,37.010826],[138.776214,37.010243],[138.775852,37.009968],[138.775464,37.010018],[138.775439,37.009743],[138.775714,37.008643],[138.776027,37.008168],[138.776564,37.007585],[138.776989,37.007277],[138.777464,37.006985],[138.777802,37.006843],[138.777939,37.00651],[138.778227,37.006193],[138.778389,37.005927],[138.778452,37.005502],[138.778277,37.005185],[138.778052,37.004935],[138.777489,37.00401],[138.777264,37.003744],[138.776902,37.003402],[138.776739,37.00306],[138.776452,37.002736],[138.776227,37.002419],[138.775952,37.002102],[138.775589,37.001944],[138.775227,37.001744],[138.774277,37.000927],[138.773865,37.000527],[138.773527,37.000011],[138.773227,36.998969],[138.773052,36.998136],[138.773177,36.997669],[138.77354,36.997061],[138.773652,36.996928],[138.773927,36.996336],[138.773927,36.995845],[138.773877,36.995661],[138.773627,36.995236],[138.773127,36.994628],[138.772702,36.99422],[138.771815,36.993478],[138.771678,36.992803],[138.771678,36.992178],[138.771828,36.991453],[138.771853,36.990828],[138.771965,36.990153],[138.772215,36.989387],[138.772253,36.988804],[138.772165,36.988304],[138.772315,36.987904],[138.772953,36.98747],[138.773178,36.987204],[138.772978,36.986571],[138.77279,36.986121],[138.772515,36.985896],[138.772153,36.985804],[138.77204,36.985737],[138.771178,36.983979],[138.771065,36.983463],[138.77079,36.983171],[138.770628,36.983079],[138.770265,36.982788],[138.769953,36.982404],[138.769678,36.981488],[138.769565,36.981238],[138.769515,36.981254],[138.769315,36.981254],[138.768615,36.980988],[138.768003,36.980854],[138.767591,36.980579],[138.766616,36.980129],[138.766278,36.979746],[138.765978,36.978955],[138.765728,36.97858],[138.765416,36.978263],[138.764916,36.977921],[138.764616,36.97763],[138.764591,36.977405],[138.764778,36.97693],[138.764816,36.976505],[138.764791,36.976055],[138.765178,36.974138],[138.765266,36.973539],[138.765241,36.973314],[138.764991,36.972947],[138.764966,36.97268],[138.765103,36.972414],[138.765103,36.972255],[138.764941,36.971805],[138.765104,36.971489],[138.765441,36.971014],[138.765803,36.970764],[138.766616,36.970522],[138.767003,36.970097],[138.767378,36.969281],[138.767678,36.969039],[138.767853,36.968747],[138.767903,36.968406],[138.767741,36.968006],[138.767653,36.967598],[138.767691,36.967414],[138.768078,36.966814],[138.768028,36.966139],[138.768116,36.965689],[138.768303,36.965256],[138.768366,36.96454],[138.768279,36.964156],[138.768316,36.963773],[138.768366,36.963615],[138.768654,36.963215],[138.769316,36.962715],[138.770053,36.961956],[138.770416,36.961731],[138.770666,36.96119],[138.770753,36.960898],[138.771341,36.960807],[138.771841,36.96054],[138.772678,36.959973],[138.773378,36.959665],[138.775241,36.959123],[138.776078,36.958948],[138.776753,36.958949],[138.777028,36.958899],[138.777315,36.95859],[138.777503,36.958449],[138.778178,36.958274],[138.778703,36.958182],[138.779001,36.957932],[138.779015,36.957824],[138.77879,36.957624],[138.778603,36.957057],[138.778715,36.956499],[138.77894,36.956224],[138.779415,36.955824],[138.779965,36.955482],[138.780228,36.955282],[138.780303,36.955082],[138.779803,36.955082],[138.779003,36.954899],[138.778128,36.954607],[138.777603,36.954466],[138.776791,36.954466],[138.776466,36.954357],[138.775791,36.953499],[138.775291,36.952483],[138.774178,36.951566],[138.773991,36.951333],[138.773928,36.951199],[138.773903,36.950933],[138.774016,36.950008],[138.774103,36.949308],[138.774166,36.949158],[138.773941,36.948658],[138.773966,36.948408],[138.773916,36.948116],[138.773504,36.947266],[138.773029,36.946633],[138.772579,36.946275],[138.772191,36.946091],[138.771666,36.945683],[138.770629,36.944808],[138.769516,36.943725],[138.74683,36.942705],[138.746606,36.942525],[138.746431,36.942458],[138.745918,36.942591],[138.745743,36.942525],[138.745743,36.942391],[138.745656,36.9423],[138.745081,36.942216],[138.744656,36.941725],[138.744381,36.941592],[138.743881,36.941475],[138.743631,36.94105],[138.743093,36.94065],[138.742406,36.940475],[138.742006,36.940275],[138.741681,36.940225],[138.741469,36.940158],[138.741206,36.939825],[138.741256,36.939575],[138.741731,36.939208],[138.741781,36.938942],[138.741506,36.937925],[138.741594,36.937592],[138.741769,36.937383],[138.741919,36.937317],[138.742119,36.937092],[138.742331,36.936975],[138.742831,36.9369],[138.743069,36.936742],[138.743306,36.936425],[138.743456,36.936292],[138.743806,36.936134],[138.744019,36.935975],[138.744194,36.9357],[138.744394,36.9352],[138.744594,36.934501],[138.744744,36.934317],[138.744819,36.933759],[138.744969,36.933601],[138.744994,36.933326],[138.744656,36.932359],[138.744619,36.931817],[138.744731,36.931276],[138.744869,36.931026],[138.745081,36.930868],[138.745044,36.930643],[138.744831,36.930368],[138.744506,36.930151],[138.744444,36.929901],[138.744556,36.929718],[138.744256,36.929401],[138.744194,36.928859],[138.744369,36.928659],[138.744356,36.927759],[138.744194,36.927393],[138.744194,36.926993],[138.744094,36.926543],[138.743769,36.926135],[138.743406,36.92596],[138.743306,36.92571],[138.743431,36.92546],[138.743244,36.925218],[138.743031,36.925101],[138.742769,36.925035],[138.742556,36.924951],[138.742344,36.924726],[138.742131,36.92461],[138.741981,36.924568],[138.741744,36.924385],[138.741706,36.924002],[138.741406,36.923802],[138.741019,36.923652],[138.740619,36.923085],[138.740407,36.92266],[138.740494,36.922302],[138.740257,36.922118],[138.739769,36.922118],[138.739269,36.92201],[138.739082,36.921785],[138.739169,36.92156],[138.739344,36.921335],[138.739319,36.921243],[138.739044,36.921293],[138.738744,36.921185],[138.738269,36.92091],[138.737419,36.920127],[138.737244,36.920044],[138.736969,36.920019],[138.736757,36.919927],[138.736694,36.919735],[138.736632,36.919452],[138.736482,36.919319],[138.736057,36.919277],[138.735994,36.919294],[138.735819,36.919227],[138.735395,36.918852],[138.73507,36.918602],[138.734995,36.918285],[138.734845,36.91806],[138.73482,36.917819],[138.734895,36.917569],[138.73472,36.91741],[138.734657,36.917227],[138.734482,36.917094],[138.734057,36.917185],[138.733945,36.917102],[138.733882,36.916919],[138.733732,36.916852],[138.733182,36.916469],[138.733207,36.916136],[138.732882,36.915886],[138.732632,36.915752],[138.73252,36.915502],[138.730545,36.908953],[138.730783,36.90827],[138.731308,36.907953],[138.731757,36.907612],[138.731957,36.907228],[138.731795,36.906353],[138.731858,36.905945],[138.731845,36.905195],[138.731983,36.904495],[138.732183,36.903912],[138.732857,36.903162],[138.732857,36.90282],[138.732458,36.902129],[138.73192,36.901545],[138.731245,36.900937],[138.730283,36.900471],[138.728995,36.900071],[138.728783,36.899962],[138.729208,36.899729],[138.729495,36.899187],[138.729483,36.898604],[138.729295,36.897929],[138.72902,36.897138],[138.728558,36.896213],[138.728108,36.895679],[138.726508,36.89433],[138.725996,36.893863],[138.725533,36.893371],[138.725271,36.892963],[138.724034,36.892046],[138.723634,36.89153],[138.723209,36.891105],[138.722396,36.890638],[138.721646,36.890255],[138.721284,36.889988],[138.720159,36.888572],[138.719497,36.887855],[138.718809,36.887297],[138.718384,36.886805],[138.717859,36.886064],[138.717247,36.884689],[138.716972,36.884264],[138.71691,36.883922],[138.716635,36.883564],[138.716122,36.883272],[138.715647,36.882872],[138.715335,36.882464],[138.714885,36.882106],[138.714547,36.881656],[138.71421,36.880514],[138.71421,36.880056],[138.71441,36.879673],[138.714372,36.879356],[138.714035,36.878906],[138.713485,36.877631],[138.713273,36.876956],[138.71326,36.876365],[138.713548,36.875848],[138.713485,36.875348],[138.71336,36.874898],[138.71376,36.873815],[138.713735,36.873523],[138.71331,36.873165],[138.713098,36.872715],[138.712935,36.872173],[138.712423,36.87179],[138.711673,36.871457],[138.710873,36.871398],[138.709886,36.871607],[138.709773,36.87154],[138.709498,36.871248],[138.709161,36.870707],[138.708673,36.87039],[138.707986,36.870057],[138.707299,36.869657],[138.706811,36.869324],[138.706124,36.869007],[138.705761,36.869032],[138.705411,36.869149],[138.704899,36.869082],[138.704186,36.868774],[138.703911,36.868682],[138.703074,36.86849],[138.702474,36.868557],[138.701887,36.86854],[138.700987,36.868432],[138.700837,36.868274],[138.700537,36.86819],[138.700437,36.867915],[138.700612,36.86744],[138.700849,36.867082],[138.701049,36.866557],[138.702712,36.865399],[138.703049,36.864116],[138.703287,36.863749],[138.703874,36.863474],[138.704149,36.863424],[138.704624,36.863224],[138.705062,36.862766],[138.705299,36.862358],[138.705224,36.861908],[138.705249,36.861508],[138.705549,36.861166],[138.706111,36.860733],[138.706424,36.860141],[138.706424,36.85965],[138.706361,36.859133],[138.706199,36.858633],[138.705862,36.858183],[138.705712,36.857692],[138.705799,36.857167],[138.705937,36.856692],[138.705874,36.856242],[138.705412,36.855417],[138.705049,36.854984],[138.704774,36.854426],[138.704437,36.853392],[138.703937,36.852309],[138.703637,36.851276],[138.703287,36.850326],[138.70305,36.849943],[138.702625,36.849659],[138.702112,36.849568],[138.701675,36.849684],[138.701225,36.849843],[138.700862,36.849776],[138.699275,36.848776],[138.698913,36.848643],[138.698738,36.848685],[138.698263,36.848893],[138.697875,36.849209],[138.697409,36.849132],[138.697025,36.84811],[138.69685,36.847776],[138.696663,36.847618],[138.696188,36.847326],[138.695851,36.846993],[138.695701,36.84661],[138.695426,36.846185],[138.694551,36.845285],[138.694126,36.84536],[138.693738,36.845493],[138.693088,36.845585],[138.692464,36.845768],[138.691901,36.845801],[138.691389,36.845776],[138.690764,36.845893],[138.69049,36.845952],[138.690226,36.845918],[138.690179,36.84603],[138.690139,36.846126],[138.690201,36.846393],[138.690651,36.846818],[138.691114,36.847335],[138.692051,36.848751],[138.692813,36.850034],[138.692826,36.850643],[138.692776,36.851226],[138.692863,36.851501],[138.693438,36.852176],[138.693601,36.852851],[138.69355,36.853409],[138.693325,36.854492],[138.693,36.855125],[138.690938,36.857058],[138.690138,36.857558],[138.689388,36.857817],[138.688951,36.858017],[138.688801,36.858317],[138.688801,36.858608],[138.688713,36.858858],[138.688751,36.859416],[138.688401,36.859875],[138.688313,36.859941],[138.688501,36.860525],[138.688326,36.860733],[138.687826,36.861025],[138.687201,36.861483],[138.687001,36.861908],[138.687063,36.862808],[138.686826,36.862883],[138.686713,36.862833],[138.686263,36.862816],[138.685838,36.862749],[138.685401,36.862616],[138.684863,36.863208],[138.684413,36.863324],[138.683913,36.863308],[138.683738,36.863349],[138.683376,36.863624],[138.682251,36.864649],[138.681876,36.865191],[138.681526,36.865466],[138.680988,36.865532],[138.680389,36.865515],[138.680064,36.865632],[138.680001,36.865765],[138.679826,36.865949],[138.679076,36.865774],[138.678776,36.865907],[138.678489,36.866249],[138.678401,36.866582],[138.678289,36.866657],[138.677776,36.866749],[138.677064,36.866749],[138.676801,36.86714],[138.676564,36.867299],[138.676139,36.867115],[138.675601,36.86694],[138.674739,36.866882],[138.674114,36.867065],[138.673726,36.867132],[138.673389,36.867049],[138.672677,36.866465],[138.672227,36.866349],[138.671802,36.866449],[138.670827,36.866882],[138.670227,36.866882],[138.669752,36.866798],[138.669452,36.866599],[138.669089,36.866598],[138.668589,36.866648],[138.668227,36.866623],[138.66769,36.86699],[138.667427,36.866948],[138.667127,36.86679],[138.666615,36.866657],[138.665777,36.866682],[138.665365,36.866865],[138.664115,36.867215],[138.663765,36.867507],[138.663227,36.867623],[138.66284,36.867857],[138.66234,36.86799],[138.661415,36.867948],[138.660703,36.868273],[138.659528,36.868057],[138.65864,36.868215],[138.65819,36.868148],[138.657915,36.868015],[138.657503,36.868023],[138.65729,36.86809],[138.657003,36.868365],[138.656878,36.86859],[138.657028,36.868815],[138.657303,36.869015],[138.657453,36.869215],[138.65749,36.869331],[138.657278,36.869556],[138.656778,36.869898],[138.656215,36.87004],[138.655591,36.87004],[138.654991,36.870223],[138.654428,36.870523],[138.653991,36.870906],[138.653778,36.871156],[138.653566,36.871223],[138.652741,36.871298],[138.652528,36.871481],[138.652391,36.871906],[138.652178,36.872248],[138.652003,36.872364],[138.651803,36.872631],[138.651841,36.873622],[138.651541,36.873739],[138.651453,36.874081],[138.651128,36.874422],[138.650478,36.874647],[138.649679,36.874739],[138.649166,36.874722],[138.648566,36.874639],[138.647941,36.874597],[138.647404,36.874647],[138.646479,36.874647],[138.645829,36.874814],[138.645291,36.874772],[138.644779,36.874814],[138.644279,36.875047],[138.642854,36.875531],[138.641842,36.875714],[138.641779,36.875781],[138.641629,36.876239],[138.641079,36.877272],[138.640979,36.878564],[138.640767,36.878947],[138.640267,36.87913],[138.639729,36.879247],[138.639192,36.879497],[138.638779,36.879813],[138.63813,36.880205],[138.637442,36.880405],[138.636217,36.880397],[138.635867,36.880197],[138.635442,36.879838],[138.635205,36.879813],[138.634992,36.879947],[138.63488,36.880355],[138.634917,36.880605],[138.63513,36.880963],[138.63528,36.881321],[138.635292,36.882113],[138.635742,36.883013],[138.63578,36.883238],[138.635692,36.883396],[138.63533,36.883463],[138.634492,36.88338],[138.63363,36.883205],[138.63298,36.883188],[138.632468,36.883321],[138.63193,36.88333],[138.63043,36.883021],[138.628855,36.883096],[138.628193,36.883104],[138.627743,36.882946],[138.627181,36.882546],[138.626756,36.882096],[138.626456,36.882004],[138.626068,36.882146],[138.625093,36.882763],[138.624506,36.883371],[138.623156,36.885321],[138.622481,36.886429],[138.622218,36.886929],[138.622106,36.888145],[138.622056,36.888395],[138.621906,36.888554],[138.621841,36.88855],[138.621219,36.889379],[138.620781,36.889545],[138.620094,36.889603],[138.619869,36.889695],[138.619881,36.88982],[138.619556,36.890312],[138.619131,36.890737],[138.618719,36.890945],[138.618294,36.891228],[138.617994,36.891678],[138.617881,36.891903],[138.617844,36.893311],[138.617856,36.895244],[138.617806,36.896553],[138.617844,36.897486],[138.618019,36.898519],[138.618419,36.90021],[138.618644,36.900919],[138.618944,36.901444],[138.620018,36.902719],[138.620556,36.903244],[138.621018,36.903785],[138.621031,36.903927],[138.619143,36.905052],[138.616619,36.90641],[138.614219,36.907759],[138.613044,36.908343],[138.612344,36.908476],[138.611257,36.908426],[138.610019,36.908268],[138.607445,36.908017],[138.606095,36.907917],[138.602682,36.907517],[138.60182,36.907284],[138.601158,36.906984],[138.600483,36.906751],[138.599883,36.906793],[138.599283,36.907042],[138.598645,36.907234],[138.598283,36.907284],[138.597758,36.907192],[138.59717,36.907017],[138.596708,36.906976],[138.596358,36.907009],[138.595945,36.907251],[138.594108,36.909759],[138.593758,36.910267],[138.593521,36.910517],[138.592971,36.91095],[138.592508,36.911567],[138.592171,36.912283],[138.591321,36.913708],[138.590833,36.914192],[138.590508,36.914308],[138.589546,36.913925],[138.589033,36.91385],[138.588683,36.913908],[138.588458,36.914117],[138.588446,36.914475],[138.588608,36.914892],[138.589071,36.91535],[138.589196,36.915858],[138.589458,36.916341],[138.589408,36.916658],[138.589433,36.917041],[138.589658,36.917333],[138.589633,36.918225],[138.589733,36.918508],[138.590083,36.918999],[138.590208,36.919441],[138.590208,36.919516],[138.590296,36.919733],[138.590995,36.921716],[138.59142,36.922799],[138.591545,36.923241],[138.591595,36.923682],[138.591683,36.924132],[138.59177,36.924857],[138.592008,36.925307],[138.591983,36.925349],[138.591245,36.925557],[138.590458,36.925699],[138.589683,36.925715],[138.589071,36.925782],[138.588558,36.925949],[138.588108,36.925982],[138.587433,36.92594],[138.587208,36.926049],[138.587008,36.92659],[138.586971,36.926865],[138.586996,36.927374],[138.586871,36.927657],[138.586408,36.928082],[138.586108,36.928432],[138.585721,36.928498],[138.585196,36.928448],[138.584521,36.92829],[138.583908,36.928207],[138.583296,36.928215],[138.582896,36.928323],[138.582871,36.92869],[138.582983,36.929248],[138.583358,36.930015],[138.583771,36.930498],[138.584246,36.931182],[138.584458,36.931723],[138.584708,36.933031],[138.584796,36.934256],[138.584571,36.936181],[138.584621,36.936756],[138.584996,36.937673],[138.585033,36.937864],[138.584883,36.938856],[138.584995,36.939422],[138.585245,36.940006],[138.58567,36.940764],[138.585845,36.941297],[138.585833,36.941872],[138.58572,36.942505],[138.585508,36.943305],[138.585433,36.943855],[138.585433,36.944514],[138.58547,36.945238],[138.585583,36.94583],[138.585758,36.946372],[138.585908,36.947255],[138.58622,36.948588],[138.586208,36.94968],[138.586382,36.951704],[138.586345,36.952788],[138.586557,36.953888],[138.58702,36.954787],[138.587007,36.955254],[138.586432,36.956846],[138.58612,36.957137],[138.585457,36.957487],[138.58597,36.95847],[138.586107,36.95892],[138.586132,36.959329],[138.58602,36.959729],[138.585207,36.960078],[138.585082,36.96022],[138.585282,36.960703],[138.585557,36.960903],[138.585982,36.961053],[138.58627,36.961237],[138.58652,36.961695],[138.586582,36.96222],[138.58657,36.962812],[138.58647,36.963336],[138.58622,36.964095],[138.585957,36.964545],[138.585882,36.964878],[138.586032,36.965303],[138.58637,36.965511],[138.587232,36.965636],[138.587407,36.965778],[138.58742,36.965878],[138.58717,36.966436],[138.58662,36.967186],[138.586495,36.967644],[138.586532,36.967986],[138.586882,36.968802],[138.587069,36.969436],[138.587069,36.969919],[138.586982,36.970394],[138.586782,36.970952],[138.586482,36.97151],[138.585832,36.972335],[138.585832,36.972652],[138.586044,36.973144],[138.586882,36.974119],[138.587207,36.97441],[138.587294,36.974827],[138.587207,36.975235],[138.586957,36.975843],[138.586932,36.976193],[138.587157,36.976502],[138.587594,36.976735],[138.588044,36.976893],[138.588294,36.977068],[138.588307,36.977277],[138.587982,36.97756],[138.587194,36.977976],[138.586944,36.978235],[138.586782,36.978835],[138.587044,36.979585],[138.587382,36.981076],[138.587419,36.981509],[138.587282,36.982068],[138.586719,36.982951],[138.586707,36.983317],[138.586782,36.983734],[138.586694,36.984192],[138.586444,36.984684],[138.586307,36.985151],[138.586344,36.986275],[138.586307,36.986809],[138.586394,36.987234],[138.586794,36.987859],[138.586719,36.988184],[138.586357,36.988483],[138.585894,36.988625],[138.585757,36.988633],[138.585182,36.988817],[138.584757,36.989158],[138.584457,36.989642],[138.584057,36.990158],[138.58342,36.99075],[138.582832,36.991108],[138.582257,36.991583],[138.581832,36.9922],[138.581332,36.992733],[138.580732,36.993166],[138.579482,36.993691],[138.57777,36.994632],[138.577058,36.995091],[138.576495,36.995516],[138.575983,36.995957],[138.575633,36.996532],[138.57517,36.998249],[138.574508,36.99949],[138.574233,37.000298],[138.574145,37.00084],[138.57382,37.00219],[138.573626,37.002761],[138.573533,37.003056],[138.573508,37.00354],[138.573445,37.003656],[138.573358,37.004056],[138.57322,37.004556],[138.573108,37.004714],[138.572758,37.005056],[138.572446,37.005214],[138.571983,37.005348],[138.571521,37.005398],[138.571133,37.005398],[138.570796,37.005739],[138.570708,37.005964],[138.570596,37.006664],[138.570446,37.006931],[138.570896,37.008289],[138.570983,37.008714],[138.570846,37.009705],[138.570183,37.011405],[138.569808,37.012147],[138.569496,37.012913],[138.569383,37.013505],[138.569358,37.013996],[138.569408,37.014313],[138.569796,37.015421],[138.569796,37.015688],[138.569683,37.016004],[138.569508,37.016213],[138.568908,37.016688],[138.568233,37.017138],[138.567983,37.017413],[138.567783,37.018154],[138.567671,37.018429],[138.567258,37.019196],[138.566971,37.019562],[138.566221,37.02062],[138.566021,37.021004],[138.565859,37.021229],[138.565859,37.021412],[138.565971,37.021795],[138.566233,37.022362],[138.566446,37.022654],[138.566621,37.022987],[138.566596,37.023645],[138.566621,37.02387],[138.567208,37.02452],[138.567346,37.024903],[138.567871,37.025762],[138.568196,37.025945],[138.568258,37.025945],[138.568696,37.026095],[138.569471,37.026228],[138.569933,37.026478],[138.570583,37.026887],[138.571421,37.027245],[138.571708,37.027395],[138.571796,37.027645],[138.572008,37.027845],[138.572296,37.027937],[138.572608,37.027962],[138.572908,37.02807],[138.572995,37.028137],[138.57322,37.028612],[138.57352,37.028503],[138.57392,37.028478],[138.574495,37.028587],[138.57482,37.028853],[138.575208,37.029537],[138.575695,37.029803],[138.576533,37.030112],[138.577008,37.030495],[138.57727,37.030837],[138.577583,37.031087],[138.577758,37.031153],[138.57802,37.031078],[138.57822,37.030945],[138.57872,37.030745],[138.579182,37.03067],[138.579932,37.030787],[138.580607,37.030803],[138.581182,37.030895],[138.581732,37.030937],[138.58237,37.031137],[138.582745,37.031178],[138.583045,37.031137],[138.584632,37.03057],[138.58507,37.030479],[138.586782,37.030629],[138.587157,37.030512],[138.587557,37.030579],[138.587932,37.030829],[138.588257,37.031095],[138.588607,37.031254],[138.588931,37.031454],[138.589369,37.031929],[138.589744,37.032128],[138.589919,37.032312],[138.590506,37.033662],[138.590919,37.034428],[138.591006,37.034495],[138.591169,37.034495],[138.591781,37.034403],[138.592244,37.034428],[138.593143,37.03467],[138.593531,37.034828],[138.593931,37.034945],[138.594981,37.035053],[138.595468,37.035278],[138.595681,37.03557],[138.595793,37.035995],[138.595968,37.037303],[138.596209,37.037605],[138.596581,37.037661],[138.596993,37.037778],[138.59748,37.038003],[138.598418,37.038761],[138.598568,37.038836],[138.599718,37.039103],[138.600943,37.039253],[138.601492,37.039436],[138.602255,37.040019],[138.60263,37.040244],[138.602917,37.040019],[138.603067,37.039944],[138.60393,37.039719],[138.604917,37.039736],[138.605467,37.039828],[138.606192,37.039853],[138.606692,37.039761],[138.607242,37.039736],[138.607817,37.039845],[138.608229,37.039845],[138.608692,37.039728],[138.609617,37.039545],[138.610541,37.039545],[138.611179,37.039336],[138.612104,37.039136],[138.612566,37.039153],[138.613066,37.03927],[138.613616,37.039561],[138.614141,37.040011],[138.615103,37.041111],[138.615891,37.041603],[138.616728,37.042236],[138.616966,37.042503],[138.617553,37.043453],[138.617816,37.043969],[138.617965,37.043994],[138.618828,37.043853],[138.619203,37.043828],[138.619528,37.043736],[138.62004,37.043536],[138.620478,37.043419],[138.621815,37.043236],[138.622177,37.043278],[138.62229,37.04332],[138.62249,37.043378],[138.622577,37.043403],[138.622802,37.043461],[138.622902,37.043461],[138.623065,37.043436],[138.623377,37.043261],[138.623652,37.043095],[138.624302,37.04272],[138.624452,37.042661],[138.624552,37.042561],[138.62484,37.04207],[138.625077,37.041845],[138.625252,37.041628],[138.625389,37.041578],[138.625652,37.041595],[138.625852,37.041536],[138.626002,37.041528],[138.627277,37.04177],[138.628027,37.042003],[138.628202,37.04207],[138.628439,37.042136],[138.628764,37.042295],[138.628889,37.042328],[138.629189,37.042411],[138.629439,37.042403],[138.629664,37.042411],[138.629851,37.04247],[138.629951,37.042486],[138.630189,37.042586],[138.630251,37.042628],[138.630426,37.042711],[138.630726,37.042778],[138.630814,37.042803],[138.630914,37.042886],[138.631101,37.04307],[138.631176,37.043136],[138.631339,37.04327],[138.631426,37.043303],[138.631514,37.043353],[138.631589,37.043386],[138.631889,37.043545],[138.632151,37.043628],[138.632489,37.043745],[138.632689,37.04377],[138.632864,37.043811],[138.633101,37.043903],[138.633176,37.043945],[138.633351,37.044086],[138.633813,37.044645],[138.634288,37.045036],[138.634451,37.045136],[138.634563,37.04527],[138.634701,37.04542],[138.634776,37.045528],[138.634776,37.045611],[138.634776,37.04572],[138.634776,37.045911],[138.634726,37.046036],[138.634676,37.046228],[138.634613,37.046594],[138.634676,37.046786],[138.634851,37.046986],[138.635113,37.047236],[138.635163,37.047336],[138.635251,37.047444],[138.635626,37.047944],[138.635701,37.048086],[138.635801,37.048294],[138.635913,37.048494],[138.636076,37.048736],[138.636251,37.049069],[138.636351,37.049211],[138.63645,37.049452],[138.6366,37.049569],[138.636725,37.049594],[138.637013,37.049544],[138.637263,37.049469],[138.637338,37.049419],[138.637563,37.049302],[138.6379,37.049069],[138.63825,37.048844],[138.638513,37.048653],[138.638638,37.048553],[138.638825,37.048378],[138.639,37.048278],[138.639075,37.048211],[138.639175,37.048219],[138.639213,37.048228],[138.639663,37.048428],[138.639813,37.048461],[138.6402,37.048328],[138.640438,37.048319],[138.641225,37.048544],[138.6414,37.048611],[138.6419,37.048828],[138.642187,37.049003],[138.6424,37.049128],[138.642525,37.049186],[138.643037,37.049478],[138.643137,37.049611],[138.643175,37.049819],[138.6432,37.050044],[138.643212,37.050319],[138.643262,37.050619],[138.643487,37.051002],[138.643687,37.051252],[138.643775,37.051402],[138.64375,37.051602],[138.64365,37.051819],[138.643412,37.052494],[138.64345,37.053002],[138.643537,37.053311],[138.643675,37.053485],[138.644225,37.053977],[138.644237,37.054235],[138.6442,37.054519],[138.644175,37.054719],[138.644212,37.055319],[138.644299,37.055835],[138.644449,37.056352],[138.644474,37.056527],[138.644637,37.056643],[138.644849,37.056735],[138.645199,37.05686],[138.645487,37.056885],[138.646224,37.057085],[138.646262,37.057102],[138.646462,37.057177],[138.646787,37.057352],[138.647362,37.057802],[138.647712,37.058168],[138.647912,37.05826],[138.648424,37.058477],[138.648674,37.05856],[138.648874,37.058585],[138.649061,37.058577],[138.649661,37.05856],[138.649824,37.058527],[138.649961,37.058485],[138.650311,37.058627],[138.650436,37.05871],[138.651111,37.059193],[138.651286,37.05931],[138.651799,37.059802],[138.652111,37.059985],[138.652698,37.060268],[138.652998,37.060443],[138.653673,37.06081],[138.654086,37.06101],[138.654311,37.06106],[138.654411,37.061085],[138.655011,37.061201],[138.655736,37.061443],[138.656286,37.06166],[138.656673,37.061843],[138.656798,37.061951],[138.656823,37.062001],[138.657023,37.062176],[138.65721,37.062251],[138.65741,37.062268],[138.657485,37.062251],[138.65776,37.062268],[138.657898,37.062293],[138.658148,37.062285],[138.658435,37.062251],[138.658685,37.06221],[138.658785,37.06216],[138.659785,37.062451],[138.659973,37.06251],[138.660073,37.062526],[138.660223,37.062518],[138.660385,37.062501],[138.660473,37.062476],[138.660598,37.062443],[138.660848,37.062376],[138.66106,37.062368],[138.661173,37.062351],[138.661298,37.062335],[138.66186,37.062276],[138.662072,37.062218],[138.662172,37.062193],[138.662297,37.062176],[138.662672,37.06211],[138.662997,37.06206],[138.663147,37.062076],[138.663397,37.06206],[138.663635,37.062077],[138.663647,37.062126],[138.663797,37.062268],[138.663922,37.062543],[138.663985,37.062593],[138.66436,37.062943],[138.664497,37.063035],[138.664635,37.063151],[138.664772,37.063318],[138.664822,37.06341],[138.664935,37.063543],[138.664972,37.063585],[138.665135,37.06366],[138.665347,37.06371],[138.665397,37.06371],[138.665785,37.06381],[138.665972,37.063876],[138.66611,37.063943],[138.666385,37.063993],[138.666522,37.06406],[138.666684,37.064268],[138.666947,37.06461],[138.667034,37.064701],[138.667147,37.064835],[138.667247,37.065076],[138.667309,37.065318],[138.667334,37.065376],[138.667322,37.065526],[138.667309,37.065685],[138.667259,37.065835],[138.667222,37.065976],[138.667147,37.066084],[138.667059,37.066318],[138.667272,37.066534],[138.667434,37.066601],[138.667647,37.066709],[138.667747,37.066893],[138.667872,37.067126],[138.667984,37.067293],[138.668334,37.067651],[138.668522,37.067893],[138.668747,37.068143],[138.668897,37.068243],[138.669197,37.068443],[138.669447,37.068559],[138.669609,37.068676],[138.669759,37.068801],[138.669847,37.068943],[138.669959,37.069093],[138.670046,37.069309],[138.670234,37.069801],[138.670284,37.069967],[138.670321,37.070134],[138.670371,37.070609],[138.670321,37.070759],[138.670246,37.070884],[138.670184,37.071076],[138.670209,37.071284],[138.670259,37.071417],[138.670296,37.071551],[138.670321,37.071726],[138.670334,37.071859],[138.670334,37.072051],[138.670321,37.072442],[138.670309,37.072717],[138.670284,37.073034],[138.670296,37.073234],[138.670334,37.073342],[138.670459,37.07355],[138.670521,37.073725],[138.670584,37.073875],[138.670659,37.074025],[138.670821,37.074225],[138.670934,37.07445],[138.671021,37.074692],[138.671059,37.074875],[138.671134,37.07505],[138.671171,37.075175],[138.671259,37.075525],[138.671284,37.0757],[138.671284,37.075867],[138.671271,37.076117],[138.671234,37.076292],[138.671109,37.076542],[138.671059,37.0767],[138.671084,37.076883],[138.671109,37.077067],[138.671084,37.077216],[138.671096,37.077341],[138.671184,37.077458],[138.671346,37.077583],[138.671396,37.077741],[138.671421,37.077866],[138.671421,37.078108],[138.671384,37.078308],[138.671321,37.07855],[138.671271,37.078691],[138.671234,37.078833],[138.671196,37.078966],[138.671134,37.079041],[138.670984,37.079208],[138.670959,37.079316],[138.671009,37.079416],[138.671109,37.079475],[138.671271,37.079558],[138.671396,37.079708],[138.671534,37.079924],[138.671759,37.080149],[138.672021,37.080499],[138.672084,37.080641],[138.672171,37.080808],[138.672334,37.081049],[138.672571,37.081299],[138.672746,37.081449],[138.672821,37.081558],[138.672871,37.081699],[138.672896,37.081841],[138.672809,37.081958],[138.672634,37.082124],[138.672446,37.082307],[138.672359,37.082424],[138.672359,37.082674],[138.672321,37.083082],[138.672234,37.083266],[138.672134,37.083441],[138.672084,37.083591],[138.672121,37.083741],[138.672159,37.084091],[138.672134,37.084232],[138.672121,37.084391],[138.672059,37.084615],[138.671946,37.085007],[138.671909,37.085174],[138.671896,37.085382],[138.671796,37.085624],[138.671796,37.085815],[138.671859,37.086007],[138.671946,37.086115],[138.672059,37.086232],[138.672271,37.086382],[138.672521,37.08689],[138.672546,37.08714],[138.672709,37.087407],[138.672909,37.087857],[138.673009,37.088382],[138.673259,37.08874],[138.673434,37.089232],[138.673509,37.089815],[138.673508,37.090248],[138.673458,37.09074],[138.673196,37.091306],[138.673059,37.091956],[138.672834,37.092339],[138.672609,37.092498],[138.672421,37.092698],[138.672384,37.093281],[138.671996,37.093731],[138.671709,37.094314],[138.671271,37.094814],[138.671046,37.095439],[138.671209,37.095872],[138.671571,37.096364],[138.670984,37.096747],[138.670371,37.097172],[138.669671,37.097872],[138.669471,37.098205],[138.669359,37.098838],[138.669496,37.099713],[138.669384,37.09998],[138.668959,37.100388],[138.668571,37.100638],[138.667146,37.101421],[138.666921,37.10158],[138.666809,37.102055],[138.666896,37.102346],[138.667146,37.102796],[138.667534,37.103379],[138.667896,37.103721],[138.668109,37.104121],[138.668034,37.104888],[138.667921,37.105246],[138.667696,37.105537],[138.667546,37.105896],[138.667521,37.106237],[138.667634,37.106796],[138.667796,37.107179],[138.667859,37.107471],[138.667821,37.108379],[138.667959,37.108754],[138.668271,37.109229],[138.669296,37.110404],[138.670046,37.111078],[138.670321,37.111487],[138.670408,37.111887],[138.670458,37.11247],[138.670321,37.112945],[138.669846,37.113886],[138.669758,37.114186],[138.669921,37.115036],[138.669896,37.115445],[138.669696,37.115803],[138.669421,37.116161],[138.669284,37.116478],[138.669221,37.116794],[138.669309,37.116928],[138.669521,37.117111],[138.669946,37.117286],[138.670833,37.117603],[138.671396,37.117894],[138.671621,37.118236],[138.671758,37.118553],[138.671671,37.118819],[138.671133,37.118911],[138.670746,37.119069],[138.670633,37.119336],[138.670658,37.119677],[138.670383,37.120661],[138.670383,37.121002],[138.670658,37.121111],[138.671183,37.121119],[138.672196,37.121136],[138.672496,37.121252],[138.672783,37.121436],[138.673083,37.121744],[138.673471,37.121927],[138.673671,37.121977],[138.674146,37.122244],[138.674508,37.122494],[138.675195,37.122877],[138.67542,37.123119],[138.675483,37.123352],[138.67547,37.123752],[138.675358,37.124252],[138.675308,37.124719],[138.675383,37.125285],[138.675558,37.125735],[138.675608,37.126052],[138.675558,37.126385],[138.675183,37.127193],[138.67502,37.128226],[138.67487,37.128726],[138.674658,37.129043],[138.674395,37.12931],[138.674145,37.129735],[138.674095,37.130168],[138.674195,37.131084],[138.673995,37.132551],[138.673808,37.132951],[138.673721,37.133243],[138.673883,37.133626],[138.674358,37.134126],[138.674833,37.134417],[138.675308,37.134617],[138.675945,37.134759],[138.676333,37.134867],[138.676508,37.135301],[138.676558,37.135634],[138.676695,37.135834],[138.67737,37.136534],[138.67747,37.136917],[138.677758,37.137234],[138.67812,37.137392],[138.678445,37.137617],[138.678732,37.137892],[138.678832,37.1382],[138.678895,37.138609],[138.678945,37.138717],[138.679195,37.138767],[138.680057,37.138809],[138.680507,37.138925],[138.680732,37.139059],[138.68107,37.13915],[138.681682,37.139534],[138.682595,37.140234],[138.682907,37.140417],[138.683295,37.14055],[138.683607,37.140575],[138.684132,37.140775],[138.684432,37.141],[138.684632,37.1412],[138.684719,37.141475],[138.684744,37.14195],[138.684857,37.142258],[138.685044,37.142508],[138.685244,37.142667],[138.685682,37.143167],[138.686382,37.143883],[138.686719,37.144108],[138.687307,37.144158],[138.687669,37.144267],[138.688032,37.144558],[138.688894,37.145008],[138.689331,37.145033],[138.690619,37.144967],[138.691044,37.145017],[138.691681,37.145175],[138.691794,37.145175],[138.691344,37.145642],[138.690781,37.146116],[138.690331,37.146408],[138.689806,37.146675],[138.689306,37.146883],[138.688519,37.147033],[138.687382,37.14715],[138.686957,37.147233],[138.686094,37.14775],[138.685444,37.147999],[138.685057,37.148266],[138.684382,37.148808],[138.683882,37.148849],[138.683469,37.149008],[138.682932,37.149483],[138.682369,37.150183],[138.680607,37.151282],[138.68022,37.151866],[138.67997,37.152316],[138.679695,37.152674],[138.67927,37.153124],[138.678907,37.153599],[138.67882,37.153774],[138.678482,37.15409],[138.677895,37.154474],[138.677395,37.154649],[138.677195,37.154649],[138.676757,37.154582],[138.676507,37.154465],[138.67622,37.154174],[138.67592,37.153482],[138.675645,37.153165],[138.675195,37.152874],[138.674695,37.15264],[138.67422,37.152599],[138.67372,37.152732],[138.673245,37.152932],[138.672995,37.152999],[138.67257,37.152957],[138.67227,37.152799],[138.672233,37.152707],[138.672408,37.15239],[138.672358,37.152099],[138.672245,37.151966],[138.671933,37.151924],[138.67177,37.151941],[138.671233,37.152149],[138.670508,37.152482],[138.67042,37.152574],[138.669896,37.152682],[138.667358,37.152682],[138.666908,37.152857],[138.666633,37.153199],[138.665958,37.154165],[138.665258,37.155623],[138.665083,37.156257],[138.664946,37.157173],[138.664946,37.157873],[138.665108,37.158306],[138.665471,37.15864],[138.666058,37.158915],[138.667283,37.159273],[138.667508,37.159473],[138.667058,37.159698],[138.666083,37.160264],[138.665321,37.160639],[138.663008,37.161698],[138.663058,37.162056],[138.663421,37.162556],[138.663896,37.163072],[138.664308,37.163256],[138.664696,37.163522],[138.665171,37.163706],[138.665671,37.163722],[138.666008,37.163864],[138.666508,37.164581],[138.667183,37.164872],[138.667683,37.165014],[138.66787,37.165372],[138.667845,37.165531],[138.667458,37.166431],[138.667395,37.166722],[138.667558,37.167147],[138.667983,37.167439],[138.668145,37.167597],[138.66817,37.167664],[138.667758,37.167664],[138.666721,37.167372],[138.666108,37.16703],[138.665696,37.166764],[138.665021,37.166497],[138.664358,37.166355],[138.662771,37.166172],[138.662346,37.16633],[138.661459,37.166739],[138.661459,37.166964],[138.661534,37.16723],[138.661758,37.167655],[138.662233,37.16838],[138.662921,37.169413],[138.663083,37.169705],[138.662971,37.170313],[138.662871,37.17043],[138.662458,37.170697],[138.662008,37.17083],[138.661883,37.170938],[138.661808,37.171296],[138.661621,37.17168],[138.661646,37.171863],[138.661946,37.17288],[138.661833,37.17308],[138.661508,37.173238],[138.661108,37.173305],[138.660333,37.173363],[138.660283,37.173654],[138.660483,37.173954],[138.660771,37.174246],[138.661121,37.174813],[138.660733,37.176296],[138.660483,37.176388],[138.659833,37.176471],[138.659371,37.176671],[138.659171,37.176854],[138.658996,37.177237],[138.658371,37.177587],[138.658334,37.177704],[138.658408,37.177996],[138.658234,37.178087],[138.658059,37.178262],[138.658059,37.178329],[138.658521,37.179171],[138.658496,37.179396],[138.658296,37.179579],[138.658096,37.179795],[138.658258,37.18057],[138.658383,37.180704],[138.658708,37.180887],[138.658958,37.181295],[138.659133,37.181654],[138.659821,37.182312],[138.660096,37.183129],[138.660083,37.183537],[138.659908,37.18392],[138.659508,37.184295],[138.659246,37.184703],[138.659171,37.185153],[138.659208,37.185878],[138.659158,37.186303],[138.658921,37.187478],[138.658508,37.188845],[138.658258,37.18932],[138.658071,37.189811],[138.658146,37.190203],[138.658271,37.190378],[138.659108,37.191286],[138.660108,37.192045],[138.660083,37.192128],[138.659783,37.192311],[138.659358,37.192328],[138.658983,37.192211],[138.658583,37.191936],[138.658308,37.191936],[138.658071,37.192278],[138.657771,37.192928],[138.657346,37.193194],[138.657221,37.193236],[138.656996,37.193236],[138.656946,37.193053],[138.656821,37.192786],[138.656521,37.192786],[138.656321,37.193003],[138.656233,37.193411],[138.656333,37.193819],[138.656508,37.194178],[138.656608,37.194519],[138.656321,37.194694]]],"type":"Polygon"},"properties":{"pref":"新潟県","kuni_id":"K39","yomi":"なかうおぬま","name":"中魚沼","kuni":"越後","id":"G39012","id_url":"G39012.html","kuni_url":"/kg/resource/K39.html"}}],"type":"FeatureCollection"}