{"features":[{"type":"Feature","properties":{"id":"G41002","kuni":"丹波","kuni_url":"/kg/resource/K41.html","id_url":"G41002.html","kuni_id":"K41","pref":"京都府","name":"北桑田","yomi":"きたくわた"},"geometry":{"type":"Polygon","coordinates":[[[135.519329,35.422863],[135.519912,35.422842],[135.520324,35.422934],[135.520849,35.422909],[135.521587,35.422501],[135.521999,35.422168],[135.522499,35.421893],[135.522687,35.421868],[135.523511,35.421893],[135.524124,35.421709],[135.524674,35.421218],[135.525524,35.420626],[135.525686,35.420609],[135.525711,35.420493],[135.525874,35.420318],[135.526074,35.419843],[135.526649,35.419285],[135.527011,35.418776],[135.526961,35.418318],[135.526549,35.41706],[135.526536,35.416285],[135.527636,35.415193],[135.527711,35.414968],[135.527649,35.414602],[135.527736,35.414285],[135.527936,35.413935],[135.527899,35.413577],[135.527724,35.413185],[135.527386,35.412652],[135.527624,35.412227],[135.527724,35.412169],[135.527761,35.412102],[135.528299,35.411852],[135.528786,35.411477],[135.529174,35.410827],[135.529848,35.410294],[135.529961,35.410069],[135.529874,35.409478],[135.529974,35.408694],[135.529886,35.408494],[135.528911,35.407728],[135.528574,35.407361],[135.528236,35.406653],[135.527736,35.40592],[135.527561,35.405536],[135.527299,35.405278],[135.526824,35.405195],[135.526449,35.405186],[135.526274,35.40497],[135.525874,35.404278],[135.525512,35.403795],[135.525162,35.403112],[135.525074,35.402728],[135.525137,35.40232],[135.525612,35.400929],[135.526674,35.400087],[135.527024,35.399529],[135.527349,35.398704],[135.527499,35.397879],[135.528011,35.397679],[135.528261,35.397629],[135.529736,35.397546],[135.529986,35.397487],[135.530086,35.397296],[135.530111,35.396779],[135.530211,35.396204],[135.530486,35.395688],[135.530899,35.395279],[135.530799,35.394546],[135.530936,35.394129],[135.531461,35.393596],[135.531599,35.393338],[135.531674,35.392988],[135.531474,35.392663],[135.530649,35.391938],[135.530411,35.391538],[135.529886,35.391171],[135.529436,35.390963],[135.528961,35.390797],[135.528649,35.39063],[135.528561,35.390272],[135.528611,35.389822],[135.528711,35.38953],[135.528949,35.389205],[135.528886,35.388705],[135.528424,35.387672],[135.528199,35.38728],[135.527837,35.387047],[135.527174,35.386972],[135.526699,35.386655],[135.526199,35.386255],[135.526099,35.386064],[135.526724,35.385464],[135.526999,35.385039],[135.527099,35.384422],[135.527137,35.383347],[135.527262,35.382748],[135.527474,35.382439],[135.527524,35.382014],[135.527424,35.381114],[135.527437,35.380531],[135.527524,35.380106],[135.528261,35.379848],[135.528874,35.37974],[135.529374,35.379498],[135.529849,35.379056],[135.530774,35.378781],[135.533423,35.378073],[135.533848,35.37794],[135.534248,35.377615],[135.534348,35.377415],[135.534723,35.377315],[135.536011,35.376815],[135.536086,35.376815],[135.536348,35.37674],[135.538235,35.37669],[135.540223,35.376598],[135.541748,35.376782],[135.543172,35.376798],[135.544435,35.376907],[135.54486,35.376973],[135.545247,35.377223],[135.545572,35.377123],[135.546085,35.37689],[135.546835,35.376915],[135.547985,35.376773],[135.548335,35.376857],[135.548722,35.377057],[135.549222,35.377123],[135.550622,35.376898],[135.550797,35.37709],[135.551209,35.377657],[135.551709,35.377815],[135.552472,35.37784],[135.553022,35.377798],[135.553797,35.377648],[135.554097,35.37749],[135.554247,35.377215],[135.554684,35.377065],[135.556147,35.377548],[135.556747,35.37764],[135.557422,35.377565],[135.557909,35.377373],[135.558296,35.376915],[135.558646,35.376582],[135.559309,35.37644],[135.559721,35.376624],[135.560134,35.376732],[135.560859,35.376774],[135.561371,35.376649],[135.561859,35.37664],[135.562271,35.37679],[135.562384,35.376882],[135.562621,35.377165],[135.563671,35.377257],[135.563834,35.377307],[135.564121,35.377482],[135.564271,35.377715],[135.565096,35.377398],[135.565609,35.377315],[135.565959,35.377215],[135.566271,35.376865],[135.566446,35.376474],[135.566584,35.376049],[135.566796,35.375824],[135.567221,35.37559],[135.567596,35.375207],[135.567984,35.374907],[135.568309,35.374799],[135.569196,35.375257],[135.569709,35.375182],[135.570421,35.374932],[135.570896,35.374716],[135.571159,35.374457],[135.571559,35.374316],[135.572059,35.374399],[135.572458,35.374624],[135.572858,35.374624],[135.573821,35.374466],[135.574283,35.374441],[135.574733,35.374591],[135.575433,35.375166],[135.575746,35.375216],[135.576108,35.375057],[135.576471,35.374849],[135.576883,35.374816],[135.577771,35.374957],[135.578996,35.375066],[135.579483,35.374949],[135.579921,35.374482],[135.580058,35.374191],[135.579971,35.373774],[135.580096,35.373624],[135.580483,35.373599],[135.580808,35.373441],[135.581383,35.372916],[135.582246,35.372391],[135.582783,35.372033],[135.583233,35.371549],[135.583458,35.371016],[135.583721,35.370508],[135.584108,35.370149],[135.584696,35.369875],[135.585233,35.369433],[135.585521,35.369291],[135.585658,35.369258],[135.586133,35.369225],[135.586833,35.369108],[135.587446,35.36875],[135.588083,35.368258],[135.588408,35.368383],[135.588558,35.36855],[135.588908,35.368666],[135.589683,35.3683],[135.590221,35.3685],[135.590746,35.368891],[135.591008,35.369191],[135.591121,35.369408],[135.591446,35.3698],[135.591796,35.369949],[135.592271,35.370066],[135.592696,35.370249],[135.593171,35.370333],[135.593608,35.370441],[135.593958,35.370666],[135.594245,35.371091],[135.59487,35.372699],[135.595083,35.372849],[135.595545,35.372974],[135.59597,35.372841],[135.59617,35.372716],[135.596483,35.372591],[135.596708,35.372583],[135.597183,35.372508],[135.597633,35.372499],[135.598658,35.372258],[135.599158,35.372066],[135.599308,35.371983],[135.599595,35.371674],[135.599745,35.371341],[135.59992,35.371191],[135.600358,35.371241],[135.600958,35.371399],[135.601658,35.371641],[135.602308,35.371941],[135.60282,35.372099],[135.602995,35.372124],[135.603595,35.371933],[135.604545,35.371449],[135.605045,35.371358],[135.605558,35.371399],[135.60617,35.371674],[135.606632,35.371741],[135.606895,35.371666],[135.607407,35.370783],[135.60782,35.370116],[135.608132,35.369874],[135.608857,35.369633],[135.60932,35.369408],[135.60942,35.369316],[135.609745,35.368783],[135.61007,35.368058],[135.610395,35.367666],[135.61057,35.367558],[135.61102,35.366841],[135.611157,35.366908],[135.611357,35.367508],[135.611632,35.369216],[135.61167,35.369283],[135.612007,35.369316],[135.61247,35.369491],[135.61377,35.370258],[135.61457,35.370741],[135.614807,35.370983],[135.614857,35.371008],[135.615295,35.370924],[135.615982,35.370316],[135.61632,35.370158],[135.617057,35.370208],[135.617282,35.370033],[135.617257,35.370008],[135.617632,35.369899],[135.618257,35.370183],[135.618544,35.370408],[135.618794,35.370499],[135.619782,35.370258],[135.620244,35.370125],[135.620444,35.370033],[135.621107,35.369608],[135.621657,35.369591],[135.621832,35.369616],[135.622177,35.369714],[135.622432,35.369733],[135.623107,35.369966],[135.623357,35.369941],[135.623919,35.369625],[135.624419,35.369166],[135.624681,35.368725],[135.625131,35.368533],[135.626081,35.368433],[135.626331,35.368308],[135.626481,35.368167],[135.626969,35.3679],[135.627231,35.367675],[135.627481,35.3673],[135.628294,35.3669],[135.629344,35.366717],[135.629769,35.366367],[135.630144,35.366125],[135.630994,35.365842],[135.632443,35.365584],[135.633081,35.365625],[135.633456,35.365684],[135.633718,35.365567],[135.633831,35.365334],[135.634056,35.364601],[135.634581,35.364409],[135.635756,35.364284],[135.636018,35.364101],[135.636118,35.363984],[135.636418,35.363742],[135.636656,35.363667],[135.636731,35.363676],[135.636993,35.363834],[135.637531,35.364059],[135.638768,35.364259],[135.639205,35.364617],[135.639605,35.365067],[135.64013,35.365342],[135.64053,35.365617],[135.640655,35.365884],[135.640593,35.366175],[135.640568,35.366525],[135.640593,35.36665],[135.640768,35.366825],[135.641468,35.366892],[135.641905,35.366859],[135.642255,35.36675],[135.643055,35.366051],[135.643668,35.365576],[135.644493,35.365109],[135.645093,35.364967],[135.645293,35.364876],[135.645693,35.364342],[135.646155,35.363859],[135.647005,35.363284],[135.648055,35.362751],[135.648917,35.361643],[135.649455,35.361201],[135.65078,35.360643],[135.652317,35.359968],[135.652992,35.359843],[135.653829,35.35991],[135.654292,35.359793],[135.654954,35.359393],[135.655829,35.359118],[135.656354,35.359068],[135.657042,35.358902],[135.657492,35.358977],[135.657692,35.359043],[135.658142,35.359127],[135.658292,35.359093],[135.659129,35.358535],[135.659441,35.358152],[135.659691,35.35761],[135.660241,35.356735],[135.660766,35.356385],[135.661429,35.356319],[135.661754,35.356327],[135.663266,35.35666],[135.664079,35.356819],[135.665091,35.356877],[135.665628,35.356769],[135.666253,35.356477],[135.667841,35.357085],[135.667991,35.357169],[135.668303,35.356977],[135.668716,35.356552],[135.669203,35.355919],[135.669291,35.355311],[135.669466,35.354344],[135.669553,35.354244],[135.669966,35.354119],[135.670553,35.354036],[135.671028,35.354036],[135.672015,35.354102],[135.672365,35.353994],[135.67334,35.353436],[135.67404,35.352911],[135.674378,35.352478],[135.674765,35.352094],[135.67519,35.351461],[135.675365,35.351003],[135.675365,35.350703],[135.67529,35.350545],[135.675203,35.350286],[135.675603,35.350395],[135.676115,35.350728],[135.676328,35.350661],[135.676565,35.350403],[135.67674,35.35007],[135.676928,35.349853],[135.677415,35.349845],[135.67794,35.349911],[135.678503,35.349936],[135.68034,35.34997],[135.680602,35.349911],[135.68144,35.349553],[135.681952,35.348978],[135.682327,35.34877],[135.68304,35.348312],[135.68364,35.348145],[135.684152,35.34797],[135.684715,35.347478],[135.685102,35.347295],[135.685802,35.347753],[135.686452,35.347912],[135.68744,35.348078],[135.688114,35.348062],[135.688689,35.347987],[135.689402,35.347837],[135.689852,35.347803],[135.690252,35.347653],[135.690489,35.347303],[135.690877,35.346837],[135.691489,35.34637],[135.692614,35.345803],[135.693127,35.345729],[135.693789,35.345712],[135.694414,35.34577],[135.694814,35.345687],[135.695327,35.345545],[135.695777,35.345329],[135.696789,35.345079],[135.697301,35.344754],[135.697764,35.344695],[135.698289,35.344895],[135.698814,35.34497],[135.699401,35.34487],[135.700176,35.344512],[135.700439,35.344229],[135.700639,35.343879],[135.700864,35.343587],[135.701051,35.343662],[135.701076,35.343712],[135.701814,35.34427],[135.702389,35.344445],[135.702901,35.34457],[135.703926,35.344745],[135.704301,35.344987],[135.704388,35.345112],[135.704701,35.34622],[135.704776,35.34637],[135.705038,35.346537],[135.705288,35.34647],[135.705476,35.34632],[135.705888,35.346029],[135.706238,35.345929],[135.706501,35.345879],[135.706551,35.345904],[135.707363,35.346879],[135.708238,35.34722],[135.708788,35.347237],[135.709288,35.347304],[135.709938,35.347537],[135.7104,35.347795],[135.7109,35.348212],[135.711175,35.348562],[135.711563,35.349462],[135.712113,35.350178],[135.712363,35.350587],[135.712513,35.351012],[135.712563,35.351562],[135.712513,35.352178],[135.712625,35.352745],[135.712725,35.35297],[135.712938,35.35322],[135.713463,35.353586],[135.714275,35.35392],[135.714837,35.354078],[135.715225,35.35402],[135.71555,35.35382],[135.7163,35.35347],[135.71665,35.353411],[135.716925,35.353628],[135.717237,35.354028],[135.717512,35.354561],[135.717762,35.35492],[135.718262,35.355278],[135.7186,35.355378],[135.718875,35.355245],[135.719375,35.354578],[135.719737,35.354403],[135.720037,35.354428],[135.72035,35.354353],[135.720999,35.353795],[135.721212,35.35347],[135.721449,35.353361],[135.722124,35.353353],[135.722587,35.353312],[135.723037,35.353103],[135.723374,35.352703],[135.723549,35.352295],[135.723812,35.351945],[135.724237,35.351787],[135.724774,35.35172],[135.724999,35.351745],[135.725462,35.351953],[135.726074,35.352045],[135.726574,35.351928],[135.726749,35.351987],[135.727149,35.352337],[135.727536,35.352503],[135.728261,35.352345],[135.729249,35.352012],[135.730236,35.351395],[135.730824,35.350929],[135.731348,35.350637],[135.731636,35.35057],[135.731886,35.350829],[135.731948,35.350862],[135.732298,35.350904],[135.732711,35.350895],[135.733298,35.350929],[135.734311,35.350912],[135.734836,35.351045],[135.735461,35.351104],[135.735998,35.351045],[135.736573,35.351187],[135.737235,35.351595],[135.737435,35.351628],[135.737748,35.351737],[135.737885,35.351887],[135.738035,35.352137],[135.739148,35.353253],[135.739635,35.353578],[135.740585,35.353953],[135.740823,35.354195],[135.740948,35.354662],[135.740973,35.355112],[135.741098,35.355578],[135.741073,35.356428],[135.740885,35.35672],[135.740573,35.357103],[135.74036,35.357461],[135.74011,35.358353],[135.740235,35.358378],[135.740598,35.358328],[135.740723,35.358286],[135.741123,35.35822],[135.742685,35.358278],[135.743272,35.358461],[135.744347,35.358994],[135.744797,35.358994],[135.745285,35.35882],[135.745835,35.358428],[135.746547,35.358095],[135.747169,35.357975],[135.748284,35.357661],[135.748584,35.357611],[135.749322,35.357428],[135.749959,35.357228],[135.750534,35.357136],[135.751034,35.356911],[135.752046,35.356237],[135.752784,35.355828],[135.753471,35.355403],[135.754134,35.355087],[135.754759,35.354703],[135.755396,35.354403],[135.756196,35.354387],[135.757133,35.354312],[135.757983,35.354154],[135.758308,35.354045],[135.758946,35.35357],[135.759358,35.353162],[135.759708,35.353162],[135.759846,35.353454],[135.759846,35.354045],[135.759908,35.354245],[135.760096,35.354429],[135.760596,35.35472],[135.761033,35.35517],[135.761745,35.355645],[135.76282,35.356178],[135.763395,35.356403],[135.764333,35.35652],[135.76457,35.35647],[135.764883,35.356312],[135.765095,35.356045],[135.765395,35.355479],[135.765758,35.355279],[135.766008,35.355237],[135.766558,35.35537],[135.767107,35.355612],[135.76757,35.35577],[135.76867,35.355954],[135.768782,35.35602],[135.769195,35.355679],[135.769545,35.355204],[135.769682,35.354371],[135.76947,35.353829],[135.769057,35.353496],[135.768445,35.353312],[135.767645,35.353179],[135.767595,35.353046],[135.767545,35.351962],[135.76737,35.351287],[135.76707,35.350746],[135.766583,35.350571],[135.766083,35.350296],[135.765895,35.349938],[135.76592,35.349438],[135.766108,35.349038],[135.766195,35.348629],[135.76572,35.348179],[135.76507,35.347704],[135.764658,35.347321],[135.76427,35.346854],[135.763945,35.346288],[135.76372,35.345455],[135.76377,35.345046],[135.764083,35.344488],[135.764708,35.344238],[135.765033,35.344146],[135.765858,35.34408],[135.766745,35.34408],[135.767733,35.343922],[135.768495,35.343938],[135.768995,35.343913],[135.769845,35.343447],[135.770395,35.343447],[135.770782,35.34353],[135.771195,35.343513],[135.771795,35.343305],[135.77237,35.342988],[135.772982,35.342897],[135.773695,35.342947],[135.77432,35.342788],[135.775032,35.342497],[135.775695,35.342114],[135.777869,35.341139],[135.778194,35.340872],[135.778282,35.340755],[135.778444,35.340347],[135.778807,35.340014],[135.779244,35.339947],[135.779682,35.340097],[135.779932,35.340255],[135.780557,35.340572],[135.780782,35.340572],[135.781407,35.339939],[135.781819,35.339581],[135.782432,35.338631],[135.782482,35.338164],[135.782482,35.337714],[135.782207,35.336673],[135.782182,35.336523],[135.782269,35.336231],[135.783257,35.335306],[135.783707,35.334831],[135.784007,35.334365],[135.784194,35.333523],[135.784307,35.333215],[135.784582,35.332756],[135.784744,35.332331],[135.784907,35.33204],[135.785757,35.331656],[135.785869,35.33154],[135.785932,35.331182],[135.785794,35.330798],[135.785819,35.330507],[135.786144,35.330348],[135.786532,35.330232],[135.786919,35.32999],[135.787744,35.329332],[135.788344,35.328923],[135.788894,35.328674],[135.789856,35.328382],[135.790131,35.32809],[135.790244,35.327665],[135.790431,35.32714],[135.790456,35.326965],[135.790381,35.326557],[135.790381,35.32624],[135.790706,35.325632],[135.790844,35.325182],[135.790907,35.323832],[135.791119,35.323516],[135.791582,35.323149],[135.792269,35.322974],[135.792956,35.322882],[135.794169,35.322383],[135.794994,35.321958],[135.795081,35.321841],[135.795194,35.321458],[135.795219,35.321208],[135.793981,35.320716],[135.793894,35.320558],[135.793894,35.320466],[135.794394,35.319408],[135.794606,35.318825],[135.794356,35.31815],[135.794081,35.317875],[135.793619,35.317541],[135.793181,35.317266],[135.792744,35.316841],[135.792407,35.316283],[135.792219,35.31585],[135.791882,35.315517],[135.791369,35.315242],[135.790919,35.314908],[135.790394,35.314142],[135.790069,35.313917],[135.789844,35.3136],[135.789769,35.313058],[135.789882,35.31265],[135.790044,35.312359],[135.790044,35.311975],[135.789982,35.31155],[135.789794,35.311075],[135.789544,35.310625],[135.789082,35.310084],[135.788669,35.309525],[135.788494,35.309117],[135.788219,35.308825],[135.788007,35.308484],[135.787782,35.308017],[135.787619,35.307942],[135.786469,35.307726],[135.786157,35.307517],[135.785882,35.307409],[135.785307,35.307501],[135.783795,35.307159],[135.783074,35.306735],[135.782232,35.305834],[135.781895,35.305267],[135.781707,35.305159],[135.781082,35.305317],[135.780582,35.305476],[135.780445,35.305476],[135.780082,35.305276],[135.77967,35.305117],[135.77877,35.305092],[135.778083,35.305159],[135.777445,35.305142],[135.777508,35.303926],[135.777645,35.303451],[135.77767,35.303134],[135.777583,35.302859],[135.777745,35.302701],[135.777833,35.302684],[135.778358,35.302159],[135.778408,35.301851],[135.778295,35.301418],[135.778108,35.301101],[135.778045,35.300768],[135.77822,35.300068],[135.778158,35.299526],[135.77797,35.299118],[135.777833,35.298718],[135.777995,35.298043],[135.778358,35.297568],[135.778383,35.297476],[135.778045,35.297051],[135.77772,35.296735],[135.777495,35.296393],[135.77752,35.296102],[135.777833,35.295627],[135.777933,35.29536],[135.777883,35.295018],[135.777695,35.294685],[135.777908,35.294052],[135.77827,35.293827],[135.778758,35.293602],[135.77942,35.293352],[135.780195,35.293127],[135.780658,35.293035],[135.780795,35.292835],[135.78082,35.292402],[135.780958,35.291977],[135.78132,35.291502],[135.781508,35.291119],[135.781595,35.290169],[135.781395,35.289994],[135.780908,35.289677],[135.780495,35.289227],[135.780195,35.288819],[135.780158,35.287852],[135.78002,35.287494],[135.779745,35.287352],[135.77937,35.287377],[135.779008,35.287336],[135.778233,35.286911],[135.777583,35.286819],[135.777333,35.286636],[135.777246,35.286527],[135.776896,35.286236],[135.776896,35.285986],[135.776971,35.285694],[135.776996,35.285394],[135.776808,35.285086],[135.776583,35.284969],[135.776146,35.284944],[135.775846,35.284836],[135.775683,35.284494],[135.775271,35.284344],[135.775046,35.284203],[135.774658,35.284044],[135.774359,35.284119],[135.774221,35.284969],[135.773946,35.285469],[135.773508,35.286011],[135.772683,35.286552],[135.772546,35.286727],[135.772359,35.286802],[135.772134,35.286819],[135.772059,35.287044],[135.772108,35.287544],[135.771946,35.288019],[135.771834,35.28811],[135.771446,35.288244],[135.771121,35.288469],[135.770684,35.288852],[135.770546,35.288894],[135.770209,35.288944],[135.769171,35.289527],[135.768421,35.289594],[135.768184,35.289735],[135.767771,35.289827],[135.767196,35.28971],[135.766809,35.289552],[135.766646,35.289527],[135.766172,35.289535],[135.765897,35.289419],[135.765734,35.289102],[135.765509,35.288902],[135.765097,35.288702],[135.764934,35.288477],[135.764684,35.288319],[135.764197,35.28836],[135.763622,35.288227],[135.763284,35.288002],[135.763234,35.287911],[135.762797,35.287844],[135.76211,35.287869],[135.761585,35.288002],[135.760947,35.288252],[135.76046,35.288277],[135.759935,35.288144],[135.759547,35.288094],[135.758747,35.288094],[135.758472,35.288027],[135.75831,35.288052],[135.757985,35.288185],[135.757735,35.28846],[135.75746,35.288544],[135.757385,35.288544],[135.75711,35.288277],[135.75686,35.287936],[135.756523,35.287786],[135.756035,35.287719],[135.75471,35.287469],[135.754185,35.287402],[135.753085,35.287469],[135.752848,35.287427],[135.752023,35.287469],[135.751723,35.287377],[135.751473,35.287361],[135.750998,35.287561],[135.750398,35.287386],[135.750011,35.287361],[135.749573,35.287386],[135.749136,35.287319],[135.748561,35.286777],[135.748261,35.286661],[135.747811,35.286619],[135.74717,35.286708],[135.747074,35.286711],[135.746849,35.286644],[135.746549,35.286669],[135.746161,35.286852],[135.745786,35.286802],[135.745236,35.286669],[135.744599,35.286761],[135.744349,35.286761],[135.743749,35.286469],[135.743499,35.286494],[135.742874,35.286877],[135.742736,35.286986],[135.741686,35.287302],[135.740949,35.287036],[135.740512,35.286986],[135.738474,35.287036],[135.737537,35.287444],[135.737212,35.287469],[135.736849,35.287536],[135.736299,35.287736],[135.735812,35.287761],[135.734925,35.287627],[135.734787,35.287444],[135.734575,35.287244],[135.734162,35.287111],[135.7338,35.287036],[135.733437,35.286661],[135.733437,35.286361],[135.73355,35.286094],[135.73355,35.285619],[135.733325,35.285327],[135.732725,35.284969],[135.732537,35.284903],[135.7314,35.284836],[135.73055,35.284878],[135.72995,35.284544],[135.729675,35.284478],[135.729425,35.284361],[135.729263,35.284069],[135.729125,35.283803],[135.729175,35.283486],[135.729475,35.282811],[135.729638,35.282111],[135.729888,35.281503],[135.729975,35.281145],[135.729913,35.280553],[135.729613,35.279811],[135.729563,35.279403],[135.729663,35.279203],[135.730138,35.279045],[135.730438,35.279003],[135.730688,35.27862],[135.730825,35.27857],[135.731363,35.27812],[135.731563,35.27792],[135.731563,35.277853],[135.730875,35.277195],[135.72975,35.275937],[135.7293,35.275712],[135.729163,35.275487],[135.728888,35.274837],[135.728726,35.274612],[135.728313,35.274404],[135.727951,35.273912],[135.727676,35.273729],[135.726776,35.273487],[135.726413,35.273012],[135.725951,35.272154],[135.725638,35.271754],[135.725588,35.271438],[135.725776,35.271029],[135.726226,35.270579],[135.726438,35.270463],[135.726763,35.270104],[135.726938,35.269338],[135.727176,35.26848],[135.727238,35.267988],[135.727338,35.267713],[135.727676,35.267646],[135.728088,35.267488],[135.728251,35.26733],[135.728826,35.267088],[135.729101,35.266771],[135.729376,35.26663],[135.729626,35.266455],[135.729926,35.266322],[135.730063,35.266297],[135.730276,35.266205],[135.730451,35.266072],[135.730863,35.266047],[135.731188,35.266163],[135.732176,35.266205],[135.732313,35.266072],[135.732151,35.26548],[135.732288,35.264988],[135.732288,35.264672],[135.732176,35.26433],[135.732113,35.263547],[135.731926,35.263114],[135.731563,35.26253],[135.731263,35.261605],[135.731238,35.261089],[135.731038,35.260322],[135.731376,35.259831],[135.731313,35.259472],[135.731013,35.258497],[135.731013,35.258073],[135.731201,35.257664],[135.731613,35.257281],[135.731863,35.256498],[135.732188,35.256039],[135.732413,35.255814],[135.732763,35.255614],[135.732926,35.255481],[135.732926,35.255323],[135.732851,35.255006],[135.732626,35.254848],[135.731826,35.254515],[135.731526,35.25429],[135.731026,35.253681],[135.730476,35.253206],[135.730126,35.253073],[135.730014,35.252956],[135.729851,35.252465],[135.729401,35.251857],[135.728951,35.251457],[135.728601,35.25119],[135.728351,35.250798],[135.728176,35.25034],[135.728176,35.24999],[135.728726,35.249607],[135.729701,35.249199],[135.730026,35.248999],[135.730839,35.248774],[135.731401,35.248532],[135.731801,35.248165],[135.732051,35.247707],[135.732414,35.24684],[135.732801,35.246424],[135.732964,35.246141],[135.733089,35.245732],[135.733226,35.245574],[135.733714,35.245291],[135.735326,35.244874],[135.736113,35.245082],[135.737388,35.245091],[135.737676,35.244991],[135.737826,35.244782],[135.738201,35.244799],[135.738438,35.244682],[135.738876,35.244274],[135.739226,35.243849],[135.739451,35.243366],[135.739688,35.243191],[135.741963,35.243083],[135.742638,35.243258],[135.743226,35.243499],[135.743876,35.243708],[135.744301,35.243799],[135.744551,35.243816],[135.744951,35.244066],[135.745376,35.244391],[135.745813,35.244658],[135.746188,35.244741],[135.7466,35.244691],[135.746875,35.244716],[135.747138,35.244783],[135.747172,35.244746],[135.747525,35.244882],[135.747688,35.244932],[135.7478,35.244841],[135.747913,35.244633],[135.747988,35.244566],[135.748288,35.244458],[135.749363,35.244166],[135.749438,35.244099],[135.749688,35.244049],[135.7501,35.244074],[135.750575,35.244008],[135.750788,35.244049],[135.751175,35.244366],[135.751363,35.244699],[135.75165,35.245083],[135.751975,35.245349],[135.752388,35.245349],[135.752913,35.245257],[135.753213,35.245258],[135.753563,35.245349],[135.753738,35.245324],[135.754225,35.245099],[135.754613,35.244808],[135.75505,35.243949],[135.755025,35.243816],[135.755163,35.243349],[135.75515,35.243233],[135.755325,35.242783],[135.755375,35.242608],[135.75565,35.242],[135.75565,35.241933],[135.755813,35.241725],[135.756,35.241391],[135.756413,35.240875],[135.756875,35.240017],[135.756875,35.23995],[135.757425,35.238967],[135.757612,35.238267],[135.757637,35.238067],[135.758112,35.23705],[135.7586,35.236492],[135.75885,35.236334],[135.759062,35.23615],[135.759175,35.235975],[135.759262,35.235659],[135.759262,35.235367],[135.759362,35.234942],[135.759425,35.234892],[135.76005,35.234784],[135.760212,35.234759],[135.760387,35.234692],[135.760487,35.234334],[135.760737,35.233926],[135.760925,35.233459],[135.761037,35.232643],[135.760862,35.231476],[135.760862,35.231251],[135.760974,35.230718],[135.761112,35.23036],[135.761224,35.230176],[135.761412,35.229726],[135.761299,35.229276],[135.760749,35.228585],[135.760562,35.228135],[135.760587,35.228001],[135.760724,35.227818],[135.760749,35.227552],[135.760524,35.22701],[135.760499,35.226693],[135.760524,35.22656],[135.760712,35.22631],[135.760987,35.226068],[135.761074,35.225793],[135.761124,35.225418],[135.761287,35.22526],[135.761399,35.22521],[135.761699,35.225143],[135.761862,35.225077],[135.762199,35.224852],[135.762362,35.224585],[135.762524,35.224044],[135.762637,35.223144],[135.762712,35.222827],[135.762987,35.222269],[135.763099,35.22186],[135.763124,35.221594],[135.762987,35.220719],[135.762712,35.220377],[135.762462,35.219844],[135.762324,35.219127],[135.762099,35.218678],[135.761762,35.217753],[135.761712,35.217419],[135.761712,35.217219],[135.762012,35.216769],[135.762261,35.216586],[135.762361,35.216428],[135.762424,35.216228],[135.762336,35.215036],[135.762274,35.214878],[135.761924,35.214636],[135.761174,35.21432],[135.760249,35.21407],[135.760137,35.214028],[135.759587,35.213445],[135.759287,35.21282],[135.759174,35.212686],[135.759012,35.212611],[135.758674,35.212595],[135.758487,35.212528],[135.758324,35.21237],[135.757874,35.21172],[135.757662,35.211337],[135.757324,35.210978],[135.756912,35.210212],[135.756387,35.20907],[135.756112,35.208737],[135.755899,35.208604],[135.755449,35.208487],[135.755174,35.208445],[135.754962,35.208379],[135.754624,35.208129],[135.754162,35.207545],[135.754049,35.20732],[135.754024,35.20667],[135.754049,35.206629],[135.753887,35.206021],[135.753749,35.205729],[135.753062,35.204737],[135.753162,35.204379],[135.753299,35.202829],[135.753274,35.202813],[135.753349,35.202446],[135.753624,35.202179],[135.754337,35.201663],[135.754637,35.201396],[135.754974,35.200963],[135.755187,35.200129],[135.755324,35.199821],[135.755599,35.199055],[135.755812,35.198205],[135.756387,35.196313],[135.756524,35.19598],[135.756712,35.195838],[135.757262,35.195797],[135.757374,35.195747],[135.757724,35.195388],[135.757887,35.195188],[135.757999,35.194963],[135.758599,35.194397],[135.758824,35.194263],[135.759074,35.194155],[135.759812,35.193572],[135.760324,35.193272],[135.760661,35.193005],[135.761149,35.192647],[135.761236,35.19258],[135.761561,35.19213],[135.761699,35.192014],[135.762274,35.191855],[135.762986,35.191747],[135.763586,35.191589],[135.764036,35.19138],[135.764249,35.19118],[135.764336,35.191022],[135.764436,35.189947],[135.764574,35.189539],[135.764824,35.189047],[135.764961,35.188889],[135.765311,35.188689],[135.765474,35.188689],[135.765861,35.188822],[135.766048,35.188839],[135.766498,35.188639],[135.767311,35.188506],[135.767698,35.188297],[135.768086,35.187981],[135.768386,35.187539],[135.768573,35.186997],[135.768711,35.186864],[135.769073,35.186881],[135.769236,35.186839],[135.769311,35.186706],[135.769373,35.186256],[135.769586,35.186073],[135.769636,35.185898],[135.769498,35.185689],[135.769536,35.185198],[135.769423,35.184164],[135.769411,35.183848],[135.769523,35.18349],[135.769798,35.183306],[135.770323,35.183081],[135.77101,35.182615],[135.771848,35.182098],[135.772298,35.18169],[135.772648,35.18144],[135.77276,35.181465],[135.773223,35.181481],[135.77386,35.181481],[135.773935,35.181465],[135.774048,35.181348],[135.774073,35.181106],[135.773985,35.180806],[135.773773,35.180407],[135.773773,35.18009],[135.773848,35.17989],[135.774123,35.179573],[135.774285,35.179465],[135.774948,35.17919],[135.775085,35.179032],[135.775135,35.178873],[135.77491,35.178223],[135.774998,35.17784],[135.775273,35.177507],[135.775323,35.177349],[135.775298,35.177124],[135.775185,35.177015],[135.77356,35.176274],[135.773235,35.176115],[135.772798,35.175715],[135.772735,35.175557],[135.772823,35.175149],[135.772935,35.174974],[135.77296,35.174632],[135.772898,35.174499],[135.772248,35.174049],[135.771973,35.173916],[135.771798,35.173782],[135.771498,35.173332],[135.77131,35.173199],[135.770948,35.172866],[135.770835,35.172799],[135.770785,35.172666],[135.770923,35.172074],[135.77081,35.171782],[135.770423,35.171358],[135.77026,35.171024],[135.770235,35.170508],[135.77036,35.170016],[135.770448,35.169874],[135.770423,35.169491],[135.77026,35.169149],[135.769985,35.168791],[135.770185,35.167891],[135.770185,35.167441],[135.76996,35.166791],[135.76991,35.16645],[135.770623,35.165308],[135.77071,35.16425],[135.77066,35.163325],[135.770873,35.162858],[135.77091,35.162517],[135.770873,35.161909],[135.770935,35.16175],[135.771123,35.161575],[135.771398,35.161142],[135.771373,35.160584],[135.77151,35.160134],[135.77201,35.159725],[135.772523,35.159575],[135.77286,35.159326],[135.772885,35.158201],[135.773085,35.157726],[135.773298,35.157459],[135.77336,35.157234],[135.77261,35.156468],[135.772373,35.155976],[135.77231,35.155476],[135.771985,35.155076],[135.771523,35.154734],[135.770885,35.153793],[135.770485,35.153768],[135.769848,35.153793],[135.76916,35.15341],[135.768785,35.152918],[135.768535,35.152376],[135.76821,35.151951],[135.76766,35.151501],[135.767086,35.151118],[135.766611,35.150985],[135.766011,35.150893],[135.765461,35.151318],[135.764836,35.15161],[135.764561,35.15186],[135.764473,35.15186],[135.763986,35.151135],[135.763686,35.150893],[135.763211,35.151093],[135.762311,35.15136],[135.762011,35.151343],[135.761811,35.150893],[135.761436,35.150535],[135.761211,35.15051],[135.760686,35.150751],[135.760249,35.150843],[135.760011,35.150735],[135.759736,35.150443],[135.759261,35.150393],[135.758986,35.150485],[135.758936,35.150085],[135.758036,35.149293],[135.756111,35.148127],[135.755324,35.147743],[135.754662,35.147718],[135.754162,35.147852],[135.753862,35.147135],[135.753424,35.146952],[135.753012,35.147002],[135.752599,35.147202],[135.752412,35.147402],[135.751562,35.14776],[135.751037,35.148102],[135.751012,35.14821],[135.751087,35.14911],[135.750349,35.149335],[135.749224,35.149518],[135.748737,35.149518],[135.748074,35.149702],[135.747687,35.149877],[135.74725,35.149968],[135.747173,35.14994],[135.747112,35.149977],[135.746587,35.149977],[135.7453,35.149877],[135.744912,35.14996],[135.744612,35.150093],[135.744475,35.150426],[135.744412,35.150743],[135.744162,35.151551],[135.74355,35.152893],[135.743475,35.153884],[135.743312,35.154918],[135.743088,35.155501],[135.742825,35.155884],[135.742163,35.156351],[135.741988,35.157584],[135.74185,35.158034],[135.741463,35.158459],[135.7403,35.1591],[135.739063,35.159967],[135.737538,35.160967],[135.736988,35.160992],[135.736226,35.160933],[135.735676,35.160975],[135.735176,35.161175],[135.734488,35.161733],[135.733901,35.162242],[135.733563,35.16285],[135.733476,35.162983],[135.733201,35.163925],[135.733026,35.164875],[135.732913,35.165075],[135.732464,35.165516],[135.732051,35.166233],[135.731776,35.166499],[135.731389,35.166724],[135.731351,35.167266],[135.731276,35.167466],[135.730689,35.168116],[135.730601,35.168449],[135.730839,35.168991],[135.730864,35.169307],[135.730839,35.169649],[135.730901,35.169874],[135.730489,35.170007],[135.730114,35.170049],[135.729826,35.170149],[135.729364,35.170566],[135.728989,35.170782],[135.728639,35.170899],[135.728526,35.170891],[135.728301,35.170799],[135.727701,35.170349],[135.727439,35.170224],[135.727164,35.170182],[135.726901,35.170299],[135.726689,35.170749],[135.726414,35.170932],[135.726214,35.170991],[135.725702,35.170824],[135.725389,35.170782],[135.725152,35.170849],[135.724889,35.171099],[135.723989,35.171507],[135.723789,35.171499],[135.723689,35.171382],[135.723727,35.171182],[135.723727,35.170874],[135.723227,35.170724],[135.723039,35.170541],[135.722902,35.170282],[135.722714,35.170091],[135.722539,35.170082],[135.722089,35.170099],[135.721789,35.170199],[135.721527,35.170207],[135.721077,35.170107],[135.720702,35.169832],[135.720215,35.169082],[135.720127,35.168882],[135.720327,35.168324],[135.719965,35.168274],[135.719415,35.168424],[135.718815,35.168649],[135.718065,35.168774],[135.71779,35.168791],[135.717102,35.168966],[135.716177,35.169007],[135.715765,35.168866],[135.715465,35.168666],[135.71489,35.168566],[135.714253,35.168857],[135.713978,35.168941],[135.713753,35.168941],[135.71354,35.168757],[135.712965,35.167857],[135.712703,35.166883],[135.712653,35.166591],[135.712378,35.166166],[135.711965,35.165866],[135.711065,35.165341],[135.710666,35.164749],[135.710416,35.164524],[135.709766,35.164158],[135.709628,35.164133],[135.708628,35.164425],[135.706953,35.165416],[135.706228,35.165799],[135.705566,35.165991],[135.704854,35.166058],[135.704004,35.165691],[135.703379,35.165616],[135.702716,35.165608],[135.702079,35.165516],[135.701104,35.165216],[135.700392,35.164916],[135.700392,35.164891],[135.700279,35.164866],[135.700104,35.165183],[135.699892,35.165449],[135.698979,35.165916],[135.698429,35.165933],[135.697742,35.165908],[135.696942,35.165924],[135.695867,35.166024],[135.695155,35.165883],[135.694805,35.165974],[135.694105,35.166349],[135.69353,35.166407],[135.692017,35.166199],[135.690455,35.166116],[135.689743,35.166266],[135.689018,35.166557],[135.688468,35.166891],[135.687555,35.167507],[135.68698,35.167799],[135.686731,35.167774],[135.686268,35.167299],[135.685968,35.166907],[135.685706,35.166299],[135.685706,35.166232],[135.685456,35.165966],[135.684906,35.165757],[135.684418,35.165682],[135.684368,35.165641],[135.683868,35.165607],[135.683268,35.165649],[135.682856,35.165716],[135.681994,35.165666],[135.681669,35.165682],[135.681344,35.165774],[135.680781,35.166032],[135.679706,35.166765],[135.679069,35.167082],[135.678806,35.166849],[135.678306,35.166599],[135.677544,35.166415],[135.677157,35.16614],[135.675732,35.165924],[135.675769,35.165565],[135.675844,35.165232],[135.674544,35.164232],[135.674332,35.163774],[135.674382,35.163257],[135.674257,35.162924],[135.674482,35.162449],[135.67462,35.161532],[135.67447,35.160382],[135.674395,35.159908],[135.67432,35.159683],[135.67412,35.159458],[135.67317,35.158933],[135.672757,35.158474],[135.67252,35.157866],[135.672607,35.157308],[135.672945,35.156724],[135.673307,35.155666],[135.673157,35.155016],[135.672857,35.154541],[135.672695,35.154],[135.672583,35.152492],[135.672507,35.151842],[135.672757,35.150875],[135.672732,35.150242],[135.672657,35.149609],[135.672857,35.14925],[135.673157,35.148984],[135.67357,35.147326],[135.673682,35.146692],[135.673495,35.146334],[135.673007,35.146017],[135.672595,35.145651],[135.672407,35.145267],[135.672495,35.144709],[135.672744,35.143918],[135.672694,35.143468],[135.672457,35.142609],[135.672494,35.142051],[135.672632,35.141426],[135.672832,35.140885],[135.672957,35.140368],[135.673457,35.139335],[135.673819,35.138752],[135.674207,35.138327],[135.674432,35.138177],[135.675032,35.137868],[135.675481,35.137777],[135.675619,35.13771],[135.675781,35.137443],[135.675731,35.13681],[135.675444,35.135977],[135.675369,35.134985],[135.675569,35.13411],[135.675469,35.133686],[135.674631,35.132327],[135.674306,35.131852],[135.674119,35.131352],[135.674119,35.131244],[135.674344,35.130369],[135.674319,35.129853],[135.673719,35.129619],[135.673531,35.129344],[135.673481,35.128919],[135.673319,35.128469],[135.672756,35.127969],[135.672344,35.127719],[135.672231,35.127469],[135.672269,35.127086],[135.672044,35.126903],[135.671144,35.126561],[135.670769,35.126219],[135.670582,35.125653],[135.670456,35.12372],[135.670244,35.12302],[135.670031,35.122886],[135.669207,35.122811],[135.668857,35.122536],[135.668394,35.122086],[135.667982,35.121612],[135.667544,35.121378],[135.667269,35.121328],[135.666482,35.121328],[135.665844,35.121137],[135.665332,35.120845],[135.664732,35.12012],[135.664544,35.11967],[135.664532,35.119128],[135.664332,35.118837],[135.663957,35.118653],[135.663469,35.118128],[135.662619,35.117787],[135.661332,35.117054],[135.659919,35.116145],[135.659832,35.116162],[135.658732,35.116853],[135.658369,35.117003],[135.657957,35.117045],[135.65702,35.117287],[135.656345,35.117237],[135.655845,35.116987],[135.655445,35.116645],[135.655357,35.116462],[135.654332,35.114904],[135.654195,35.11477],[135.65392,35.114904],[135.653295,35.115095],[135.652845,35.115137],[135.652432,35.115387],[135.652382,35.115495],[135.652045,35.11572],[135.651332,35.115962],[135.650807,35.116229],[135.650195,35.116987],[135.649883,35.117678],[135.64972,35.11822],[135.649433,35.118578],[135.648683,35.119153],[135.64847,35.119195],[135.648145,35.11902],[135.647595,35.118628],[135.64692,35.118062],[135.64717,35.117887],[135.647945,35.117128],[135.64817,35.116695],[135.648145,35.11647],[135.649095,35.11482],[135.64932,35.114612],[135.649758,35.114462],[135.64927,35.113804],[135.64872,35.113237],[135.648233,35.112629],[135.648158,35.112087],[135.648195,35.111887],[135.64847,35.111346],[135.648645,35.111146],[135.649008,35.110229],[135.649258,35.109938],[135.649758,35.109804],[135.65057,35.109838],[135.651182,35.109729],[135.651645,35.109529],[135.652557,35.109246],[135.653707,35.109046],[135.654207,35.108988],[135.654457,35.108988],[135.65467,35.108921],[135.654732,35.108829],[135.654357,35.107771],[135.653707,35.106796],[135.653732,35.106596],[135.65407,35.106288],[135.654432,35.105838],[135.653832,35.105563],[135.653532,35.105313],[135.65307,35.10468],[135.652882,35.10423],[135.652595,35.103705],[135.65227,35.103322],[135.651795,35.103138],[135.651145,35.103088],[135.650895,35.102955],[135.650545,35.102563],[135.65017,35.101797],[135.650783,35.100839],[135.65112,35.099939],[135.65127,35.099156],[135.651295,35.098772],[135.651545,35.098414],[135.651958,35.098214],[135.65232,35.097856],[135.652358,35.097589],[135.652233,35.096781],[135.652695,35.096289],[135.652758,35.095948],[135.652595,35.095248],[135.652633,35.094914],[135.652858,35.094506],[135.65327,35.094089],[135.65372,35.093506],[135.654133,35.09304],[135.654308,35.092606],[135.654308,35.092406],[135.653683,35.092065],[135.653158,35.091948],[135.652583,35.091923],[135.652258,35.091673],[135.651958,35.091356],[135.651495,35.090965],[135.650783,35.090265],[135.650383,35.089765],[135.650333,35.08954],[135.650421,35.089382],[135.650446,35.088932],[135.650646,35.088057],[135.650633,35.087449],[135.650658,35.08684],[135.648233,35.087882],[135.647633,35.088232],[135.646796,35.088907],[135.646608,35.089015],[135.645946,35.089298],[135.645783,35.089415],[135.645121,35.089723],[135.644621,35.08979],[135.644271,35.089765],[135.644308,35.090457],[135.644233,35.090748],[135.644283,35.091115],[135.644058,35.091473],[135.643534,35.091665],[135.643558,35.091823],[135.643533,35.091873],[135.643546,35.092456],[135.643521,35.09279],[135.643596,35.09349],[135.643183,35.093731],[135.642159,35.094489],[135.641684,35.094573],[135.641384,35.094598],[135.640346,35.094539],[135.639309,35.094531],[135.638471,35.094981],[135.637759,35.095239],[135.636572,35.095664],[135.635934,35.096131],[135.635259,35.095089],[135.634997,35.094256],[135.634647,35.093798],[135.634334,35.092473],[135.633659,35.091448],[135.633697,35.090665],[135.633622,35.090307],[135.633409,35.089782],[135.633022,35.089173],[135.632597,35.088024],[135.632359,35.087599],[135.631847,35.087182],[135.631872,35.08694],[135.63201,35.08669],[135.63201,35.086549],[135.632097,35.08649],[135.63226,35.086174],[135.633459,35.084999],[135.633484,35.084666],[135.633459,35.084507],[135.633597,35.084166],[135.634384,35.083491],[135.634609,35.083199],[135.634747,35.082924],[135.635097,35.082607],[135.638084,35.080799],[135.638597,35.080466],[135.638897,35.080124],[135.639059,35.079741],[135.639384,35.079491],[135.639884,35.079241],[135.640397,35.078816],[135.640734,35.078766],[135.640947,35.078833],[135.641796,35.078491],[135.642046,35.078266],[135.642784,35.077974],[135.642921,35.077816],[135.643109,35.0777],[135.643584,35.077541],[135.644046,35.077316],[135.644146,35.077091],[135.644371,35.076958],[135.644621,35.076891],[135.644584,35.07675],[135.644234,35.076508],[135.643734,35.076375],[135.643021,35.076125],[135.642221,35.076216],[135.642171,35.076241],[135.641647,35.074916],[135.641509,35.074716],[135.641422,35.074375],[135.641997,35.073658],[135.642734,35.073],[135.642897,35.072725],[135.642847,35.072483],[135.642622,35.072142],[135.642009,35.071517],[135.641959,35.0712],[135.642059,35.070867],[135.642009,35.070525],[135.641847,35.070192],[135.641972,35.069492],[135.641759,35.069017],[135.641859,35.068617],[135.641809,35.068234],[135.641809,35.067759],[135.641747,35.067642],[135.641722,35.067267],[135.641822,35.066951],[135.641522,35.066226],[135.641297,35.065326],[135.640797,35.065034],[135.640472,35.065017],[135.640084,35.065201],[135.639984,35.065176],[135.639672,35.064926],[135.639259,35.064726],[135.63841,35.064617],[135.637897,35.064842],[135.637535,35.064826],[135.635947,35.063726],[135.635772,35.063301],[135.635885,35.062959],[135.635935,35.062618],[135.635772,35.062284],[135.635272,35.062018],[135.635197,35.061834],[135.635022,35.061834],[135.634647,35.062243],[135.634347,35.062468],[135.633748,35.062609],[135.63386,35.063659],[135.633448,35.063484],[135.632948,35.063618],[135.632848,35.063601],[135.63251,35.063643],[135.632048,35.063801],[135.631173,35.063893],[135.63046,35.064326],[135.63016,35.064442],[135.629773,35.064759],[135.628923,35.065051],[135.628435,35.065301],[135.627698,35.065434],[135.627085,35.065509],[135.62681,35.065576],[135.626435,35.066367],[135.626523,35.066634],[135.626523,35.066926],[135.62646,35.067017],[135.626223,35.067217],[135.626085,35.067601],[135.625873,35.067917],[135.62581,35.068209],[135.62581,35.068617],[135.625923,35.068934],[135.62606,35.069159],[135.62601,35.069334],[135.625848,35.069584],[135.625798,35.069875],[135.625935,35.070217],[135.625985,35.070484],[135.625848,35.070667],[135.625635,35.07085],[135.625523,35.071142],[135.625698,35.071609],[135.625885,35.0719],[135.62591,35.072192],[135.625773,35.072284],[135.625223,35.072292],[135.62496,35.072359],[135.62476,35.072625],[135.624573,35.073075],[135.624523,35.073417],[135.62466,35.073617],[135.624685,35.073733],[135.624548,35.074542],[135.623598,35.075358],[135.623598,35.075558],[135.62371,35.07605],[135.623735,35.076525],[135.62371,35.076933],[135.623773,35.077241],[135.623748,35.077716],[135.623773,35.078075],[135.623698,35.07835],[135.623498,35.078666],[135.623535,35.079566],[135.62351,35.079925],[135.62346,35.080083],[135.623398,35.080691],[135.623135,35.081391],[135.622973,35.081683],[135.622885,35.082083],[135.622773,35.082308],[135.622585,35.082558],[135.622285,35.082766],[135.622174,35.082748],[135.621723,35.083216],[135.621348,35.083891],[135.621048,35.084541],[135.620748,35.084949],[135.620298,35.086074],[135.62011,35.086432],[135.62011,35.086549],[135.619835,35.087415],[135.619623,35.087865],[135.619373,35.08809],[135.619098,35.088207],[135.618936,35.088424],[135.618886,35.089324],[135.618786,35.089724],[135.618586,35.090157],[135.618423,35.09034],[135.618261,35.090457],[135.617861,35.090657],[135.617773,35.090882],[135.617773,35.09124],[135.617723,35.091348],[135.617611,35.091423],[135.617061,35.091848],[135.617111,35.091865],[135.616898,35.09209],[135.616836,35.092232],[135.616798,35.092773],[135.616661,35.092932],[135.616686,35.092948],[135.616661,35.093265],[135.616798,35.093781],[135.616936,35.094048],[135.617136,35.094656],[135.617323,35.095473],[135.617273,35.096006],[135.616948,35.096481],[135.616886,35.096723],[135.616886,35.096998],[135.616948,35.097264],[135.617136,35.097714],[135.617473,35.098189],[135.617498,35.098831],[135.617611,35.099314],[135.617636,35.099714],[135.617811,35.100497],[135.617698,35.100589],[135.617598,35.100931],[135.617236,35.100956],[135.616436,35.100814],[135.616273,35.100589],[135.616161,35.100297],[135.615961,35.099897],[135.615911,35.099639],[135.615686,35.099381],[135.614836,35.097856],[135.614561,35.097439],[135.614473,35.097381],[135.613736,35.097181],[135.613211,35.096848],[135.613073,35.09664],[135.612861,35.096481],[135.612498,35.096373],[135.611611,35.09599],[135.611011,35.095748],[135.610486,35.09559],[135.609561,35.095223],[135.607799,35.09419],[135.606862,35.093523],[135.606149,35.093048],[135.605687,35.092857],[135.605187,35.092765],[135.605112,35.092832],[135.604887,35.093273],[135.604374,35.094157],[135.604124,35.094357],[135.603799,35.094515],[135.603362,35.094557],[135.602787,35.094498],[135.602474,35.094523],[135.602037,35.094548],[135.601687,35.094757],[135.601412,35.094998],[135.600962,35.095398],[135.6007,35.095448],[135.600575,35.095357],[135.600362,35.095057],[135.599962,35.09494],[135.599712,35.094957],[135.599462,35.094948],[135.598975,35.095107],[135.5988,35.09509],[135.59825,35.09474],[135.597875,35.09439],[135.597187,35.09444],[135.596863,35.094573],[135.596688,35.094773],[135.59645,35.094998],[135.596175,35.094998],[135.595738,35.094865],[135.595488,35.094865],[135.59475,35.095157],[135.5942,35.095498],[135.5939,35.095632],[135.593425,35.095682],[135.5928,35.095432],[135.592551,35.095382],[135.592001,35.095382],[135.591513,35.095482],[135.590851,35.095732],[135.590451,35.095973],[135.590226,35.096273],[135.590063,35.096657],[135.589763,35.097165],[135.589238,35.097657],[135.588963,35.097823],[135.588776,35.09809],[135.588863,35.098632],[135.588638,35.09879],[135.588426,35.098757],[135.587876,35.098465],[135.587651,35.098515],[135.587464,35.098698],[135.587189,35.099107],[135.586989,35.099265],[135.586626,35.099265],[135.586364,35.099082],[135.586251,35.098815],[135.585951,35.098315],[135.585676,35.09814],[135.584989,35.097915],[135.584614,35.097757],[135.584426,35.097648],[135.584276,35.097423],[135.584189,35.097473],[135.584064,35.097698],[135.583789,35.097982],[135.583289,35.098773],[135.583239,35.098848],[135.583089,35.098898],[135.582327,35.09859],[135.582214,35.098582],[135.581464,35.09854],[135.580639,35.098382],[135.580139,35.098098],[135.579715,35.097974],[135.578327,35.097882],[135.577865,35.09794],[135.577802,35.097949],[135.57769,35.098132],[135.577502,35.098898],[135.577202,35.09894],[135.57684,35.098807],[135.576515,35.098623],[135.57589,35.098515],[135.575403,35.098532],[135.575115,35.098715],[135.574928,35.09894],[135.574553,35.099548],[135.574165,35.100048],[135.573565,35.10059],[135.572978,35.101023],[135.572215,35.101182],[135.571887,35.101253],[135.572345,35.101919],[135.573833,35.103849],[135.578312,35.108764],[135.58038,35.111404],[135.581211,35.113363],[135.580923,35.115274],[135.579327,35.117057],[135.577002,35.120339],[135.57649,35.121101],[135.576323,35.121911],[135.576454,35.122912],[135.577436,35.124452],[135.579153,35.126484],[135.580438,35.128006],[135.580189,35.128036],[135.579664,35.128244],[135.578876,35.127903],[135.577776,35.127636],[135.577502,35.128086],[135.577477,35.128278],[135.577064,35.128786],[135.576977,35.129169],[135.576652,35.129819],[135.576552,35.130336],[135.576439,35.130644],[135.576239,35.130852],[135.576139,35.131052],[135.576114,35.131261],[135.576002,35.131436],[135.575702,35.131686],[135.575539,35.131869],[135.575339,35.132427],[135.575152,35.132535],[135.575077,35.132535],[135.574189,35.132069],[135.573402,35.131752],[135.57199,35.131511],[135.57134,35.131302],[135.57109,35.131111],[135.570915,35.130911],[135.570865,35.130777],[135.570615,35.129811],[135.570452,35.129578],[135.570127,35.129211],[135.569215,35.128328],[135.568853,35.128061],[135.568253,35.127645],[135.56754,35.127545],[135.567165,35.127611],[135.56654,35.12787],[135.566428,35.128036],[135.566328,35.128153],[135.56594,35.128778],[135.565653,35.129136],[135.565278,35.129686],[135.56479,35.130294],[135.564403,35.130619],[135.563678,35.131136],[135.563291,35.131436],[135.562841,35.131761],[135.561428,35.132602],[135.561353,35.133844],[135.561378,35.134294],[135.561428,35.134352],[135.561166,35.134968],[135.560178,35.135627],[135.559953,35.135835],[135.559403,35.136352],[135.559128,35.136718],[135.559003,35.136926],[135.559041,35.136943],[135.559278,35.137368],[135.559366,35.137643],[135.559553,35.138051],[135.559841,35.138901],[135.559916,35.139593],[135.559866,35.139884],[135.559841,35.140459],[135.560041,35.141659],[135.560278,35.142267],[135.560528,35.142542],[135.561203,35.142917],[135.561415,35.143276],[135.56169,35.1439],[135.561803,35.144559],[135.562115,35.146242],[135.562165,35.14635],[135.562253,35.14725],[135.562415,35.14785],[135.562415,35.14815],[135.56234,35.148258],[135.562165,35.148325],[135.562065,35.148416],[135.561165,35.14875],[135.560665,35.149025],[135.560478,35.149225],[135.560365,35.149433],[135.560365,35.149608],[135.560528,35.150041],[135.56034,35.150641],[135.558629,35.151492],[135.557147,35.152863],[135.556964,35.154027],[135.557304,35.158529],[135.556829,35.161624],[135.555913,35.162643],[135.552932,35.164629],[135.549928,35.166016],[135.547827,35.168072],[135.54748,35.17155],[135.548002,35.173421],[135.550026,35.178742],[135.550636,35.180861],[135.549849,35.183216],[135.547758,35.184778],[135.5474,35.18847],[135.549254,35.190285],[135.550691,35.192826],[135.550315,35.194554],[135.547487,35.196571],[135.545554,35.1983],[135.545208,35.199425],[135.549091,35.202557],[135.550739,35.205439],[135.551382,35.206855],[135.547485,35.211624],[135.542447,35.218239],[135.5381,35.222028],[135.532382,35.225205],[135.529698,35.225205],[135.52693,35.226501],[135.524488,35.227611],[135.516492,35.22799],[135.510388,35.22799],[135.507783,35.22799],[135.506202,35.227409],[135.504899,35.226433],[135.504597,35.225875],[135.504597,35.224667],[135.50538,35.22115],[135.506266,35.21803],[135.506033,35.21619],[135.505544,35.215747],[135.503387,35.216005],[135.501338,35.216653],[135.499283,35.216809],[135.497953,35.216171],[135.495397,35.214222],[135.493891,35.213593],[135.490447,35.212914],[135.488199,35.213094],[135.485175,35.214747],[135.483022,35.215924],[135.480952,35.216429],[135.476112,35.216429],[135.474931,35.217088],[135.473476,35.2179],[135.472475,35.219781],[135.472187,35.221921],[135.471839,35.224501],[135.471839,35.226111],[135.471839,35.22869],[135.47108,35.22959],[135.469275,35.230814],[135.465571,35.233217],[135.464239,35.2357],[135.464091,35.237466],[135.463908,35.239648],[135.46446,35.240964],[135.46595,35.243117],[135.466958,35.245768],[135.466832,35.246064],[135.465982,35.24773],[135.46562,35.24838],[135.46532,35.248814],[135.464807,35.249289],[135.464532,35.249555],[135.464357,35.250072],[135.46412,35.25138],[135.463957,35.251738],[135.463582,35.253197],[135.46342,35.253363],[135.46297,35.25403],[135.462607,35.254505],[135.461957,35.255963],[135.461507,35.256563],[135.460607,35.257488],[135.460395,35.257629],[135.459357,35.258671],[135.458657,35.259237],[135.456395,35.260787],[135.456133,35.261012],[135.456058,35.261204],[135.456058,35.261296],[135.45627,35.262062],[135.456332,35.262662],[135.456307,35.263079],[135.45617,35.263737],[135.45622,35.264887],[135.456282,35.265703],[135.456445,35.266437],[135.456482,35.266845],[135.456607,35.267228],[135.457107,35.268178],[135.457195,35.268586],[135.45752,35.26907],[135.45817,35.269645],[135.458432,35.269836],[135.45852,35.270086],[135.459057,35.270594],[135.459382,35.270969],[135.459107,35.271103],[135.45902,35.271244],[135.458882,35.271569],[135.458757,35.271719],[135.458757,35.271819],[135.458532,35.272511],[135.458482,35.272936],[135.458545,35.273394],[135.458732,35.273919],[135.45882,35.274419],[135.45892,35.275652],[135.45902,35.276102],[135.459107,35.27626],[135.459357,35.276577],[135.459757,35.276985],[135.45992,35.277369],[135.459907,35.277718],[135.45972,35.278035],[135.459632,35.278502],[135.459807,35.278793],[135.460107,35.27916],[135.460494,35.280243],[135.460712,35.281179],[135.46086,35.281807],[135.461582,35.28291],[135.461732,35.283226],[135.461644,35.283484],[135.461069,35.284276],[135.460994,35.284509],[135.461057,35.284609],[135.461382,35.284809],[135.461519,35.285068],[135.461569,35.285384],[135.461707,35.285576],[135.461894,35.285676],[135.462244,35.285768],[135.462482,35.285959],[135.463157,35.286692],[135.463394,35.286842],[135.463707,35.286876],[135.464094,35.286817],[135.464606,35.286651],[135.465044,35.286576],[135.465569,35.286626],[135.465881,35.286726],[135.466481,35.287484],[135.467044,35.287851],[135.468106,35.288034],[135.469231,35.288326],[135.469643,35.288334],[135.470031,35.288251],[135.470281,35.288367],[135.470706,35.289192],[135.470956,35.289375],[135.471318,35.289409],[135.471531,35.289542],[135.471981,35.29005],[135.472281,35.290175],[135.472556,35.290242],[135.472943,35.290625],[135.473193,35.29105],[135.473343,35.291517],[135.473381,35.292034],[135.473581,35.292217],[135.474393,35.2927],[135.47503,35.292767],[135.47508,35.293033],[135.474993,35.293433],[135.475118,35.293642],[135.475355,35.293842],[135.475568,35.293908],[135.475743,35.294083],[135.476005,35.2945],[135.476293,35.294675],[135.476868,35.294958],[135.477268,35.295233],[135.477293,35.295641],[135.47748,35.295908],[135.477818,35.295975],[135.478143,35.296158],[135.47828,35.2965],[135.478317,35.297216],[135.47823,35.2975],[135.477867,35.298183],[135.477792,35.298591],[135.47763,35.298874],[135.477143,35.299166],[135.476905,35.299358],[135.476693,35.299983],[135.47653,35.300166],[135.476355,35.300274],[135.47568,35.300791],[135.475105,35.301591],[135.47478,35.302182],[135.474593,35.302399],[135.474243,35.303015],[135.473993,35.303332],[135.474005,35.30344],[135.474693,35.303507],[135.47518,35.30359],[135.475655,35.303765],[135.476093,35.304099],[135.476342,35.304374],[135.47643,35.30469],[135.476492,35.305873],[135.476442,35.306698],[135.47653,35.306857],[135.476817,35.306973],[135.477267,35.307207],[135.473207,35.308945],[135.46993,35.309734],[135.467488,35.310647],[135.464999,35.31211],[135.463185,35.31211],[135.461728,35.312474],[135.458805,35.313203],[135.45565,35.315101],[135.454122,35.316723],[135.45374,35.318568],[135.45374,35.320635],[135.452539,35.322262],[135.461943,35.324534],[135.471828,35.32796],[135.474672,35.329435],[135.47825,35.329435],[135.481623,35.329435],[135.48407,35.330112],[135.485568,35.33252],[135.486631,35.334231],[135.486978,35.335143],[135.48599,35.337611],[135.485476,35.338726],[135.484674,35.340052],[135.484372,35.341501],[135.484372,35.343585],[135.484616,35.345459],[135.485338,35.347259],[135.48704,35.35005],[135.489313,35.351842],[135.491717,35.354292],[135.492768,35.355363],[135.493094,35.356207],[135.492694,35.359136],[135.491265,35.3624],[135.490918,35.363815],[135.491206,35.365528],[135.491481,35.367008],[135.492631,35.367986],[135.494688,35.369193],[135.496146,35.370278],[135.499359,35.372342],[135.501425,35.374062],[135.502792,35.375777],[135.504807,35.378485],[135.505571,35.38062],[135.507125,35.384985],[135.508354,35.38844],[135.508741,35.390423],[135.509126,35.395117],[135.508696,35.399469],[135.508696,35.404141],[135.509304,35.407806],[135.510124,35.411902],[135.510648,35.414519],[135.511864,35.419346],[135.512908,35.421321],[135.513787,35.423209],[135.514125,35.423184],[135.514287,35.422917],[135.514725,35.422617],[135.515275,35.422076],[135.5155,35.421943],[135.516012,35.421968],[135.516762,35.422168],[135.517687,35.422526],[135.518274,35.422642],[135.519199,35.422867],[135.519329,35.422863]]]}}],"type":"FeatureCollection"}