{"type":"FeatureCollection","features":[{"geometry":{"type":"Polygon","coordinates":[[[135.235007,35.768569],[135.235394,35.768344],[135.235807,35.767869],[135.236069,35.767419],[135.236444,35.766469],[135.236444,35.766311],[135.236532,35.766244],[135.237032,35.766203],[135.237357,35.766219],[135.237469,35.766286],[135.237419,35.767053],[135.237594,35.767169],[135.238182,35.767053],[135.238419,35.767036],[135.238832,35.766919],[135.239294,35.766719],[135.239382,35.766511],[135.239182,35.766403],[135.239144,35.765836],[135.239082,35.765478],[135.239119,35.765145],[135.239207,35.764828],[135.238994,35.76442],[135.239057,35.763995],[135.239282,35.763678],[135.239669,35.763428],[135.240044,35.76332],[135.240169,35.763095],[135.240807,35.76257],[135.241132,35.762187],[135.241457,35.761895],[135.242369,35.761353],[135.243069,35.760879],[135.243769,35.760254],[135.244207,35.760137],[135.244856,35.76007],[135.245419,35.759954],[135.245794,35.75982],[135.245944,35.759795],[135.246156,35.759687],[135.246181,35.759504],[135.246731,35.759145],[135.246644,35.758512],[135.246706,35.758537],[135.246819,35.758354],[135.246794,35.758129],[135.246944,35.757904],[135.246906,35.757704],[135.246669,35.757596],[135.246669,35.757437],[135.246756,35.757321],[135.247156,35.757233],[135.247256,35.757254],[135.247581,35.757479],[135.247906,35.757412],[135.248131,35.757254],[135.248194,35.757271],[135.248494,35.757271],[135.248494,35.757321],[135.248669,35.757362],[135.248606,35.757404],[135.248581,35.757546],[135.249019,35.757721],[135.249256,35.757629],[135.249906,35.757137],[135.250219,35.756979],[135.250494,35.757004],[135.250694,35.757112],[135.250719,35.757162],[135.250456,35.757471],[135.250344,35.757746],[135.250369,35.758129],[135.250319,35.758579],[135.250581,35.759254],[135.250694,35.759479],[135.251369,35.759095],[135.251643,35.759095],[135.251818,35.759204],[135.252143,35.75932],[135.252318,35.759562],[135.252406,35.75952],[135.252518,35.75932],[135.252781,35.759295],[135.252843,35.759337],[135.253081,35.759404],[135.253518,35.75927],[135.253606,35.75927],[135.253818,35.759337],[135.253956,35.759295],[135.254131,35.758937],[135.254318,35.758754],[135.254581,35.758954],[135.254818,35.759087],[135.255043,35.759045],[135.255193,35.758912],[135.255393,35.758029],[135.255368,35.757696],[135.255481,35.756996],[135.255456,35.756546],[135.255156,35.756071],[135.254456,35.755488],[135.254368,35.755471],[135.252744,35.755496],[135.252694,35.755538],[135.251981,35.754521],[135.252094,35.753921],[135.252369,35.753921],[135.252394,35.754004],[135.252681,35.754004],[135.252681,35.753938],[135.252856,35.753963],[135.253006,35.754346],[135.253219,35.754296],[135.253156,35.753688],[135.253044,35.753671],[135.253181,35.753604],[135.253244,35.753288],[135.252156,35.753263],[135.252131,35.753421],[135.251631,35.753421],[135.251394,35.753313],[135.251219,35.753138],[135.251031,35.752921],[135.250881,35.752088],[135.250969,35.751996],[135.250856,35.751863],[135.250819,35.751505],[135.251031,35.75078],[135.251494,35.750321],[135.251819,35.750213],[135.252156,35.750338],[135.252431,35.750338],[135.252594,35.75018],[135.252706,35.749905],[135.253031,35.749655],[135.253269,35.749072],[135.253544,35.748755],[135.254156,35.748388],[135.254506,35.748088],[135.254619,35.747863],[135.254894,35.747822],[135.255106,35.74768],[135.255156,35.74748],[135.255044,35.747138],[135.255319,35.746663],[135.255506,35.746438],[135.255694,35.746347],[135.255981,35.746455],[135.256331,35.74643],[135.256581,35.746272],[135.256719,35.746022],[135.256631,35.745822],[135.256356,35.745622],[135.256319,35.745555],[135.256506,35.745014],[135.256944,35.744647],[135.257381,35.744464],[135.258444,35.744405],[135.258793,35.744447],[135.258993,35.744605],[135.259018,35.744764],[135.258993,35.744805],[135.259031,35.744897],[135.259168,35.744922],[135.259193,35.744964],[135.259356,35.744939],[135.259443,35.744872],[135.259606,35.744914],[135.25968,35.744868],[135.259993,35.744622],[135.259956,35.744439],[135.260156,35.744389],[135.260593,35.744414],[135.260768,35.74463],[135.260968,35.744722],[135.261181,35.744539],[135.261406,35.744539],[135.261631,35.744605],[135.261681,35.744672],[135.261681,35.744764],[135.26153,35.744852],[135.26153,35.744902],[135.262067,35.744935],[135.262167,35.744827],[135.262268,35.744664],[135.262568,35.74473],[135.262706,35.744705],[135.262943,35.744272],[135.263281,35.744339],[135.263506,35.744514],[135.263956,35.744555],[135.264443,35.744505],[135.264431,35.744805],[135.264555,35.744843],[135.264942,35.744818],[135.26503,35.74468],[135.265005,35.744639],[135.265055,35.744589],[135.265555,35.744818],[135.265855,35.744877],[135.26633,35.74478],[135.266555,35.744622],[135.266355,35.744539],[135.265993,35.744514],[135.266543,35.744147],[135.266705,35.743856],[135.266968,35.742931],[135.26708,35.742731],[135.267193,35.742639],[135.26733,35.742589],[135.26758,35.742564],[135.267718,35.742631],[135.267968,35.742631],[135.267993,35.742539],[135.267818,35.742381],[135.267793,35.742272],[135.267905,35.742206],[135.269055,35.741989],[135.269643,35.741847],[135.269668,35.741822],[135.269868,35.741872],[135.269893,35.741822],[135.270055,35.741731],[135.27053,35.741747],[135.270668,35.741881],[135.270743,35.741814],[135.270943,35.741772],[135.27108,35.741881],[135.271218,35.741789],[135.27163,35.741714],[135.272655,35.741614],[135.272768,35.741664],[135.273042,35.741881],[135.273305,35.742222],[135.273517,35.742264],[135.273667,35.742397],[135.273755,35.742781],[135.273867,35.742847],[135.273917,35.742822],[135.274005,35.742889],[135.27403,35.742981],[135.27428,35.742972],[135.27458,35.742789],[135.274767,35.742522],[135.274855,35.742072],[135.274817,35.741781],[135.274555,35.741281],[135.27438,35.740656],[135.274105,35.740389],[135.273905,35.740364],[135.273793,35.740281],[135.273705,35.739923],[135.273705,35.739698],[135.274093,35.739514],[135.274305,35.739239],[135.27433,35.739148],[135.274218,35.738698],[135.274293,35.738473],[135.274068,35.738164],[135.27373,35.737873],[135.273705,35.737806],[135.27373,35.737623],[135.273805,35.737531],[135.274043,35.736765],[135.274068,35.736515],[135.27393,35.736231],[135.27373,35.736048],[135.273705,35.735915],[135.27373,35.73589],[135.274093,35.735956],[135.274255,35.736048],[135.274343,35.736248],[135.274405,35.736265],[135.274543,35.736223],[135.274618,35.736156],[135.27453,35.735948],[135.274343,35.73584],[135.274343,35.735773],[135.27403,35.73524],[135.27383,35.735056],[135.27353,35.735015],[135.273418,35.734973],[135.273193,35.734773],[135.273018,35.734506],[135.273068,35.734282],[135.273405,35.734257],[135.273593,35.734207],[135.273593,35.734073],[135.273393,35.733823],[135.273368,35.733665],[135.27348,35.733573],[135.273643,35.733507],[135.273668,35.73344],[135.273918,35.73339],[135.27408,35.733323],[135.27408,35.73314],[135.273693,35.733123],[135.273718,35.732965],[135.27368,35.732898],[135.273605,35.732857],[135.273543,35.732723],[135.273568,35.732432],[135.273755,35.732248],[135.27298,35.731915],[135.273168,35.731374],[135.273493,35.73094],[135.274555,35.730257],[135.274805,35.730165],[135.274868,35.730124],[135.27553,35.730499],[135.275918,35.730557],[135.276818,35.731249],[135.277205,35.731357],[135.277593,35.731532],[135.277792,35.731732],[135.278092,35.731732],[135.278267,35.731798],[135.27838,35.731732],[135.27863,35.731748],[135.278842,35.731657],[135.278892,35.731549],[135.278642,35.731165],[135.278505,35.730874],[135.278492,35.730607],[135.278717,35.730624],[135.27888,35.730715],[135.279017,35.730665],[135.279155,35.730549],[135.27968,35.730432],[135.28018,35.730207],[135.280317,35.729982],[135.280417,35.729324],[135.280542,35.729057],[135.28038,35.728807],[135.28043,35.728582],[135.28068,35.728357],[135.281167,35.728174],[135.281392,35.727991],[135.281642,35.727966],[135.282367,35.728224],[135.283055,35.728149],[135.28383,35.728482],[135.284005,35.728682],[135.284155,35.729199],[135.28443,35.729465],[135.284567,35.729532],[135.284605,35.729574],[135.284817,35.729482],[135.285067,35.729257],[135.285154,35.729324],[135.285292,35.729282],[135.285342,35.729124],[135.285217,35.728382],[135.28488,35.727932],[135.28493,35.727666],[135.285255,35.727049],[135.285355,35.726732],[135.285517,35.726507],[135.286092,35.726191],[135.286455,35.726091],[135.286617,35.726091],[135.287592,35.725882],[135.287854,35.725357],[135.287992,35.725199],[135.288017,35.725091],[135.288454,35.724458],[135.288642,35.724591],[135.288754,35.724499],[135.288867,35.724274],[135.288867,35.724183],[135.288692,35.724024],[135.288642,35.724024],[135.288604,35.723783],[135.288492,35.723533],[135.288354,35.723441],[135.288317,35.723283],[135.288379,35.723058],[135.288229,35.722816],[135.288067,35.722658],[135.287867,35.722391],[135.287842,35.722258],[135.288005,35.722141],[135.287917,35.721874],[135.288192,35.721849],[135.28833,35.721758],[135.288517,35.721391],[135.288542,35.721191],[135.288505,35.721058],[135.288255,35.720725],[135.288667,35.720783],[135.288642,35.720383],[135.288667,35.720358],[135.288967,35.720425],[135.28913,35.7202],[135.28918,35.7199],[135.28913,35.719675],[135.289292,35.719583],[135.289455,35.719383],[135.289555,35.718958],[135.289442,35.718417],[135.289105,35.7179],[135.288767,35.717633],[135.288455,35.717525],[135.28823,35.71735],[135.288205,35.717125],[135.28798,35.716767],[135.287942,35.716558],[135.288155,35.716017],[135.288617,35.715475],[135.28878,35.715475],[135.289067,35.7154],[135.289367,35.715375],[135.289392,35.715267],[135.289255,35.715108],[135.288967,35.715067],[135.288742,35.714825],[135.28863,35.714534],[135.288317,35.714017],[135.287705,35.713434],[135.287217,35.712475],[135.286967,35.712092],[135.286842,35.711784],[135.286905,35.7116],[135.286842,35.711284],[135.286418,35.710817],[135.286543,35.710251],[135.28668,35.710092],[135.28688,35.710001],[135.287043,35.710042],[135.287117,35.709951],[135.287205,35.709776],[135.287168,35.709484],[135.287392,35.709326],[135.287305,35.708959],[135.287405,35.708826],[135.287992,35.708801],[135.288042,35.708751],[135.28793,35.708526],[135.287705,35.708351],[135.287618,35.708084],[135.287455,35.707884],[135.286868,35.707593],[135.286368,35.707393],[135.285943,35.707059],[135.28578,35.706859],[135.285655,35.706526],[135.285705,35.706118],[135.285943,35.705418],[135.286105,35.705234],[135.286418,35.705034],[135.286718,35.705009],[135.287168,35.705318],[135.287355,35.705268],[135.287405,35.705093],[135.287443,35.705109],[135.287818,35.705043],[135.288068,35.705059],[135.28818,35.705151],[135.288243,35.705259],[135.288293,35.705284],[135.288843,35.704809],[135.289155,35.704851],[135.289317,35.704918],[135.289455,35.705184],[135.28933,35.705409],[135.28933,35.705768],[135.28953,35.706059],[135.289642,35.706376],[135.289867,35.706459],[135.290142,35.706484],[135.290367,35.706434],[135.29053,35.706276],[135.290667,35.706051],[135.290805,35.706026],[135.290942,35.706359],[135.291467,35.706376],[135.291805,35.706334],[135.29208,35.706193],[135.292155,35.706193],[135.292292,35.706126],[135.292317,35.706076],[135.292292,35.705968],[135.292067,35.705968],[135.291955,35.705859],[135.291955,35.705809],[135.29323,35.705618],[135.29373,35.705484],[135.293917,35.705368],[135.293967,35.705276],[135.294055,35.705234],[135.29463,35.705109],[135.29473,35.704393],[135.295005,35.704118],[135.295092,35.703985],[135.295617,35.703935],[135.29578,35.703868],[135.295942,35.70366],[135.296479,35.702735],[135.296617,35.702618],[135.297054,35.702343],[135.297429,35.701868],[135.297817,35.701568],[135.298229,35.701452],[135.298367,35.701385],[135.298829,35.700843],[135.299192,35.700593],[135.299492,35.700518],[135.299704,35.70041],[135.300017,35.700427],[135.300404,35.700335],[135.300842,35.700285],[135.301004,35.700143],[135.301642,35.700068],[135.301942,35.699935],[135.302417,35.69991],[135.302742,35.699743],[135.303104,35.699493],[135.303517,35.699293],[135.303929,35.699177],[135.304229,35.699152],[135.304316,35.699168],[135.304729,35.699477],[135.304979,35.699593],[135.305316,35.699635],[135.305541,35.69961],[135.305804,35.699293],[135.305941,35.699218],[135.306366,35.699243],[135.306504,35.699193],[135.306691,35.698968],[135.306604,35.698769],[135.306466,35.69856],[135.306591,35.698294],[135.306779,35.697619],[135.307154,35.696735],[135.307291,35.696577],[135.307591,35.696419],[135.307979,35.696144],[135.308304,35.696052],[135.308354,35.695894],[135.308041,35.695261],[135.308091,35.694811],[135.308416,35.694319],[135.308654,35.693619],[135.308454,35.693461],[135.307991,35.693552],[135.307379,35.693602],[135.307191,35.693586],[135.307129,35.693244],[135.306729,35.692869],[135.306316,35.692577],[135.306279,35.692286],[135.306116,35.692269],[135.306154,35.692694],[135.306904,35.693361],[135.306916,35.693586],[135.306279,35.693819],[135.306191,35.693794],[135.305841,35.694094],[135.305729,35.694069],[135.305729,35.694027],[135.305866,35.693869],[135.305754,35.693819],[135.305691,35.693711],[135.304517,35.692802],[135.304654,35.691111],[135.304229,35.690194],[135.304079,35.689453],[135.304129,35.689069],[135.304404,35.688703],[135.304317,35.688411],[135.304304,35.688145],[135.304367,35.68812],[135.304442,35.687895],[135.304467,35.687378],[135.304429,35.686903],[135.304229,35.686436],[135.304092,35.686253],[135.303767,35.685337],[135.303404,35.684978],[135.303067,35.684712],[135.302729,35.684337],[135.302617,35.684112],[135.302404,35.68317],[135.301955,35.682387],[135.301217,35.681737],[135.301142,35.681562],[135.300942,35.681654],[135.300142,35.681704],[135.300055,35.681479],[135.300017,35.680937],[135.299642,35.679995],[135.299442,35.679704],[135.29923,35.67957],[135.298942,35.679579],[135.298667,35.67962],[135.298592,35.679537],[135.29883,35.679379],[135.299017,35.679129],[135.299355,35.678987],[135.299705,35.678712],[135.299892,35.678446],[135.30003,35.677679],[135.299942,35.677429],[135.29993,35.677112],[135.300017,35.677004],[135.30018,35.676912],[135.300342,35.676904],[135.300642,35.676704],[135.300755,35.676412],[135.30078,35.676096],[135.300655,35.675713],[135.300405,35.675171],[135.300155,35.674954],[135.299567,35.674713],[135.29948,35.674529],[135.29948,35.674304],[135.29928,35.674154],[135.29903,35.674129],[135.29878,35.673996],[135.298667,35.673704],[135.298992,35.673138],[135.299017,35.672979],[135.299455,35.672621],[135.299717,35.672305],[135.299855,35.671921],[135.299905,35.67138],[135.300055,35.670946],[135.299767,35.669896],[135.299742,35.669813],[135.299855,35.669613],[135.300105,35.66953],[135.30033,35.669122],[135.300092,35.668872],[135.30023,35.668663],[135.300392,35.668305],[135.300567,35.668147],[135.30078,35.66808],[135.301117,35.667513],[135.301367,35.667247],[135.301905,35.666389],[135.302105,35.66603],[135.302742,35.66508],[135.302855,35.664714],[135.303142,35.664314],[135.303167,35.664197],[135.303092,35.66388],[135.303117,35.663589],[135.303255,35.663356],[135.303342,35.663064],[135.303292,35.662772],[135.303205,35.662681],[135.303042,35.662364],[135.302792,35.662114],[135.30268,35.662089],[135.302317,35.662172],[135.302017,35.662331],[135.301792,35.662581],[135.301567,35.662764],[135.301517,35.662847],[135.301043,35.663122],[135.300768,35.663206],[135.30068,35.663139],[135.30043,35.662781],[135.299855,35.662706],[135.299518,35.662864],[135.299355,35.662789],[135.29888,35.662472],[135.298805,35.662022],[135.29908,35.661456],[135.299255,35.661247],[135.299168,35.661006],[135.29898,35.660772],[135.29878,35.660639],[135.297705,35.660656],[135.29718,35.660581],[135.296593,35.660464],[135.295268,35.659872],[135.294968,35.659797],[135.294606,35.659822],[135.294243,35.659931],[135.293768,35.660197],[135.293293,35.660397],[135.292993,35.660606],[135.292818,35.660897],[135.292706,35.661189],[135.292518,35.661464],[135.292018,35.661772],[135.292018,35.661931],[135.292181,35.662114],[135.292143,35.662364],[135.292031,35.662547],[135.291818,35.662564],[135.291481,35.662864],[135.291418,35.663089],[135.291506,35.663247],[135.291731,35.663405],[135.291781,35.663539],[135.291756,35.663614],[135.291581,35.663722],[135.291743,35.664197],[135.291418,35.664564],[135.291331,35.664697],[135.290831,35.665014],[135.290556,35.66503],[135.289968,35.664939],[135.289943,35.664847],[135.289993,35.664714],[135.289943,35.664572],[135.289781,35.66453],[135.289056,35.664547],[135.288968,35.66448],[135.288668,35.664472],[135.288368,35.664655],[135.288081,35.66468],[135.288031,35.664589],[135.287918,35.664514],[135.287868,35.664514],[135.287668,35.664605],[135.287668,35.664789],[135.287556,35.665039],[135.287531,35.665305],[135.287393,35.665447],[135.287518,35.665697],[135.287831,35.665897],[135.288156,35.665988],[135.288518,35.666038],[135.288718,35.666155],[135.288606,35.666247],[135.288818,35.666655],[135.289043,35.666655],[135.290131,35.666497],[135.290381,35.666413],[135.290543,35.666297],[135.290706,35.666413],[135.290706,35.666547],[135.290568,35.666955],[135.290568,35.667255],[135.290668,35.667613],[135.291306,35.66893],[135.291906,35.669113],[135.292131,35.669371],[135.292818,35.669755],[135.293018,35.669813],[135.29363,35.670105],[135.294018,35.670421],[135.294268,35.670488],[135.294605,35.670613],[135.29503,35.671155],[135.294343,35.671696],[135.294093,35.671788],[135.29418,35.672088],[135.294155,35.672396],[135.294018,35.672421],[135.294268,35.673588],[135.29448,35.673588],[135.294493,35.673813],[135.294318,35.673813],[135.294355,35.674171],[135.29383,35.674471],[135.293305,35.674721],[135.292468,35.674104],[135.292055,35.673946],[135.291381,35.673463],[135.291331,35.673754],[135.290806,35.673779],[135.290506,35.674054],[135.290018,35.674596],[135.289518,35.674804],[135.289443,35.674871],[135.289356,35.674896],[135.288943,35.674879],[135.288768,35.674654],[135.288406,35.674321],[135.288268,35.674279],[135.287968,35.674329],[135.287906,35.674396],[135.287793,35.675521],[135.287618,35.675654],[135.287268,35.675662],[135.286868,35.675329],[135.286718,35.674138],[135.286456,35.673488],[135.286068,35.673221],[135.285643,35.673088],[135.285143,35.672979],[135.284818,35.672804],[135.284456,35.672696],[135.284281,35.672579],[135.284031,35.672229],[135.283606,35.671513],[135.283519,35.671105],[135.283481,35.67063],[135.283281,35.670346],[135.283194,35.67028],[135.282756,35.670096],[135.282394,35.670055],[135.281869,35.669838],[135.281644,35.669813],[135.281481,35.669688],[135.280819,35.66948],[135.280594,35.669463],[135.280344,35.669505],[135.280206,35.66948],[135.280094,35.669296],[135.279519,35.668638],[135.279494,35.668546],[135.279194,35.668388],[135.278606,35.668288],[135.278419,35.668496],[135.278269,35.668721],[135.277769,35.668988],[135.277769,35.669105],[135.277881,35.669196],[135.278244,35.669288],[135.278681,35.669446],[135.278956,35.669405],[135.279131,35.66943],[135.279406,35.66963],[135.279844,35.669813],[135.280019,35.670213],[135.279994,35.670396],[135.279831,35.670488],[135.278769,35.670296],[135.278294,35.67028],[135.277469,35.670446],[135.277256,35.670513],[135.277006,35.670805],[135.276744,35.671305],[135.276469,35.671646],[135.276169,35.671854],[135.275582,35.672013],[135.275257,35.672063],[135.275007,35.671971],[135.274694,35.671754],[135.274332,35.671354],[135.274444,35.671121],[135.274707,35.670763],[135.275144,35.670488],[135.275444,35.66988],[135.275382,35.669813],[135.275469,35.668771],[135.275444,35.668138],[135.275207,35.667705],[135.274619,35.667363],[135.273907,35.66718],[135.273432,35.666922],[135.273107,35.666605],[135.272769,35.666447],[135.272332,35.666372],[135.272157,35.666397],[135.271944,35.666422],[135.271219,35.666755],[135.270882,35.667005],[135.270744,35.667155],[135.270457,35.667813],[135.270244,35.66788],[135.270107,35.667855],[135.269132,35.667538],[135.26842,35.66733],[135.267895,35.667121],[135.267307,35.66673],[135.265882,35.66548],[135.265295,35.665022],[135.264495,35.66418],[135.264032,35.66318],[135.263795,35.662772],[135.263595,35.662313],[135.264095,35.662089],[135.263383,35.661272],[135.263283,35.660905],[135.263883,35.660614],[135.263758,35.660364],[135.263558,35.660297],[135.263195,35.66048],[135.263058,35.660564],[135.262945,35.660547],[135.26262,35.660364],[135.26047,35.657606],[135.259433,35.655972],[135.259208,35.655881],[135.258633,35.655514],[135.258633,35.655489],[135.25857,35.655514],[135.258495,35.655489],[135.257971,35.655006],[135.257746,35.655056],[135.257058,35.654414],[135.255521,35.652456],[135.254721,35.651481],[135.253821,35.650231],[135.253083,35.648998],[135.252746,35.649023],[135.252446,35.648498],[135.251409,35.64634],[135.251021,35.645615],[135.250921,35.64534],[135.250896,35.644973],[135.250921,35.64439],[135.250634,35.642324],[135.250609,35.641824],[135.250646,35.64144],[135.250534,35.640374],[135.250459,35.640032],[135.249821,35.638966],[135.249584,35.638124],[135.249172,35.637449],[135.248534,35.636966],[135.248484,35.636899],[135.247205,35.633698],[135.246847,35.632841],[135.246759,35.632525],[135.246384,35.63165],[135.246109,35.630816],[135.245972,35.630275],[135.245747,35.629867],[135.245634,35.62955],[135.245585,35.629125],[135.245685,35.628017],[135.245997,35.626934],[135.245972,35.626909],[135.245835,35.626142],[135.245985,35.625467],[135.24601,35.625192],[135.245822,35.624675],[135.245685,35.624475],[135.24536,35.624342],[135.245172,35.624142],[135.245035,35.623417],[135.244985,35.621542],[135.244935,35.620917],[135.244685,35.620467],[135.24441,35.620176],[135.24301,35.619301],[135.242623,35.618759],[135.24241,35.618534],[135.241598,35.617951],[135.241085,35.617726],[135.23936,35.617243],[135.237923,35.617001],[135.236686,35.616734],[135.235736,35.61636],[135.235298,35.616001],[135.234898,35.61546],[135.234598,35.614943],[135.234161,35.61386],[135.233848,35.612735],[135.233711,35.611968],[135.233548,35.611543],[135.233298,35.611268],[135.232786,35.610977],[135.231974,35.610193],[135.231549,35.609835],[135.230861,35.609502],[135.230486,35.609252],[135.230211,35.609035],[135.230049,35.60881],[135.229274,35.608335],[135.228836,35.608252],[135.228324,35.608027],[135.227974,35.607735],[135.227324,35.606927],[135.227286,35.60686],[135.227236,35.60686],[135.226561,35.606344],[135.226099,35.605827],[135.225799,35.605419],[135.225612,35.60506],[135.225449,35.604611],[135.225387,35.603302],[135.225274,35.603077],[135.224924,35.602827],[135.224762,35.602761],[135.223862,35.602094],[135.223674,35.602027],[135.223062,35.602277],[135.222874,35.602252],[135.222462,35.602119],[135.222087,35.602011],[135.222062,35.601969],[135.220037,35.601028],[135.21965,35.600869],[135.216787,35.599286],[135.21495,35.598436],[135.21465,35.598211],[135.21395,35.597611],[135.21365,35.597228],[135.213538,35.59687],[135.213563,35.596236],[135.2135,35.595628],[135.213288,35.594928],[135.21265,35.593595],[135.212538,35.593395],[135.212138,35.592945],[135.2117,35.592745],[135.211325,35.592637],[135.211025,35.592478],[135.210488,35.592145],[135.210138,35.591945],[135.209213,35.591137],[135.209026,35.59082],[135.208838,35.590637],[135.208588,35.590304],[135.208426,35.589962],[135.208288,35.589812],[135.208151,35.589512],[135.207851,35.588995],[135.207638,35.58877],[135.207413,35.588462],[135.207251,35.588054],[135.206976,35.587512],[135.206788,35.587287],[135.206576,35.586487],[135.206476,35.586337],[135.205963,35.584662],[135.204876,35.582888],[135.204601,35.582546],[135.204276,35.582046],[135.204226,35.581913],[135.204039,35.581663],[135.203926,35.581388],[135.203739,35.581071],[135.203676,35.581096],[135.203376,35.581046],[135.202964,35.580863],[135.201614,35.57988],[135.201426,35.579788],[135.200801,35.579305],[135.200626,35.579288],[135.200489,35.579305],[135.200077,35.578896],[135.199864,35.578621],[135.199864,35.57858],[135.199677,35.578571],[135.198802,35.57773],[135.198389,35.577122],[135.198339,35.576963],[135.197902,35.576372],[135.197789,35.576505],[135.197539,35.575863],[135.197377,35.576005],[135.197027,35.575297],[135.196939,35.575322],[135.196777,35.575163],[135.196502,35.575022],[135.196289,35.574813],[135.195902,35.573997],[135.195802,35.573797],[135.195627,35.574047],[135.195414,35.573814],[135.194777,35.573289],[135.194539,35.57288],[135.194427,35.572589],[135.194315,35.572764],[135.193802,35.572222],[135.193665,35.571922],[135.193452,35.571289],[135.193252,35.571355],[135.192952,35.571055],[135.192815,35.570947],[135.192515,35.570264],[135.19244,35.569947],[135.192302,35.570056],[135.192077,35.569764],[135.191977,35.569714],[135.19184,35.569606],[135.191727,35.569447],[135.19159,35.569056],[135.19149,35.568581],[135.191352,35.568631],[135.19069,35.567739],[135.190515,35.566989],[135.190377,35.567056],[135.190177,35.566964],[135.190102,35.566948],[135.189877,35.566673],[135.189827,35.566373],[135.189827,35.565923],[135.189777,35.565539],[135.189615,35.565789],[135.18929,35.565223],[135.18924,35.564881],[135.189102,35.564831],[135.18899,35.564739],[135.188852,35.564239],[135.188915,35.563881],[135.188778,35.563923],[135.188715,35.563856],[135.188753,35.56354],[135.188678,35.563273],[135.188653,35.562865],[135.18874,35.562523],[135.188603,35.56259],[135.188378,35.56239],[135.18824,35.562181],[135.18814,35.56189],[135.188115,35.56114],[135.188265,35.560623],[135.18804,35.560715],[135.187878,35.560323],[135.18779,35.560257],[135.18774,35.560323],[135.187603,35.560007],[135.18789,35.558515],[135.187678,35.558607],[135.187403,35.558623],[135.18729,35.558673],[135.186878,35.55869],[135.186678,35.558548],[135.186628,35.558465],[135.186628,35.558148],[135.187003,35.556907],[135.187878,35.555124],[135.188215,35.554249],[135.188228,35.554024],[135.18809,35.553882],[135.18809,35.553616],[135.18829,35.553274],[135.18829,35.553099],[135.188178,35.552957],[135.188403,35.552399],[135.18824,35.552349],[135.188278,35.552032],[135.188465,35.551832],[135.18864,35.551516],[135.188278,35.551466],[135.18794,35.551508],[135.187528,35.551549],[135.187565,35.551216],[135.187703,35.551008],[135.18784,35.550674],[135.187878,35.550316],[135.188053,35.549383],[135.187978,35.548733],[135.187865,35.548366],[135.187415,35.547508],[135.187353,35.5473],[135.187803,35.546533],[135.188503,35.545683],[135.190265,35.544633],[135.19089,35.5446],[135.19099,35.543625],[135.191328,35.542884],[135.191165,35.542884],[135.19094,35.542767],[135.190803,35.542542],[135.191528,35.541984],[135.191778,35.54185],[135.192065,35.5418],[135.19234,35.54165],[135.192128,35.541034],[135.192103,35.540742],[135.192265,35.540384],[135.19249,35.540334],[135.192465,35.540251],[135.192353,35.540251],[135.192328,35.539884],[135.192253,35.539751],[135.192028,35.539567],[135.19214,35.539159],[135.192503,35.538684],[135.192678,35.538509],[135.193503,35.538226],[135.193865,35.538159],[135.194565,35.537934],[135.194815,35.537826],[135.19509,35.538193],[135.195415,35.538443],[135.195602,35.539276],[135.195627,35.539301],[135.19654,35.539442],[135.196865,35.539451],[135.197277,35.539409],[135.197615,35.539317],[135.19784,35.539209],[135.198027,35.539009],[135.198365,35.538784],[135.19889,35.538543],[135.199177,35.538268],[135.199202,35.538201],[135.198765,35.537993],[135.198827,35.536959],[135.199302,35.536984],[135.199715,35.537051],[135.20004,35.537218],[135.201777,35.537593],[135.20194,35.537409],[135.202077,35.537526],[135.201915,35.537726],[135.202727,35.539476],[135.204439,35.539176],[135.205239,35.539543],[135.205927,35.539934],[135.206852,35.540684],[135.207452,35.541301],[135.208514,35.542601],[135.208877,35.542984],[135.209151,35.543392],[135.208789,35.543526],[135.208926,35.543709],[135.209276,35.543576],[135.209714,35.544617],[135.209951,35.5453],[135.210114,35.545892],[135.210539,35.547042],[135.210889,35.54825],[135.210851,35.549058],[135.210714,35.549575],[135.210626,35.549666],[135.210539,35.549641],[135.210089,35.551],[135.210251,35.551041],[135.210339,35.551225],[135.210326,35.551516],[135.210126,35.551925],[135.209689,35.552533],[135.208814,35.553224],[135.208489,35.553541],[135.207451,35.554158],[135.206539,35.554558],[135.206126,35.554691],[135.205951,35.554599],[135.203939,35.555241],[135.204102,35.555424],[135.203902,35.555741],[135.203814,35.556099],[135.204239,35.557141],[135.204514,35.558207],[135.204527,35.558682],[135.204302,35.559199],[135.204214,35.559649],[135.204401,35.559899],[135.205226,35.560582],[135.205339,35.560765],[135.205551,35.560923],[135.206001,35.561182],[135.206439,35.561548],[135.206714,35.561865],[135.206814,35.562182],[135.207164,35.562632],[135.207439,35.562748],[135.207689,35.562915],[135.208051,35.56289],[135.208664,35.562765],[135.208964,35.56274],[135.209326,35.562882],[135.209714,35.562973],[135.209901,35.562973],[135.210539,35.562773],[135.211013,35.562665],[135.212001,35.562565],[135.212426,35.56259],[135.212838,35.562682],[135.212976,35.562757],[135.213651,35.563323],[135.213876,35.563848],[135.214063,35.564165],[135.214451,35.564598],[135.214851,35.564873],[135.215263,35.565256],[135.215626,35.565715],[135.215588,35.565781],[135.215651,35.565873],[135.215863,35.566031],[135.216001,35.566081],[135.216088,35.566031],[135.216863,35.566131],[135.217413,35.566223],[135.217913,35.566431],[135.217963,35.566481],[135.218325,35.566531],[135.21835,35.566548],[135.21915,35.566673],[135.219475,35.566898],[135.219863,35.567289],[135.220025,35.567489],[135.220688,35.567839],[135.221013,35.567906],[135.221175,35.567881],[135.221688,35.567598],[135.2221,35.567331],[135.222538,35.56729],[135.223287,35.567314],[135.224087,35.567456],[135.22475,35.567664],[135.225162,35.567873],[135.22565,35.568281],[135.2262,35.568989],[135.226637,35.569673],[135.226987,35.570739],[135.227225,35.571347],[135.227437,35.571781],[135.227625,35.572864],[135.22765,35.573389],[135.227862,35.57443],[135.227824,35.574539],[135.227749,35.574655],[135.227849,35.574814],[135.227874,35.575247],[135.228287,35.575589],[135.228512,35.57563],[135.228787,35.575772],[135.229224,35.575797],[135.229412,35.575847],[135.229824,35.57628],[135.230012,35.576688],[135.230062,35.57813],[135.229937,35.579263],[135.229824,35.579738],[135.229224,35.581338],[135.228737,35.582254],[135.228062,35.583838],[135.228224,35.584196],[135.228224,35.584404],[135.228087,35.584538],[135.227937,35.584621],[135.227937,35.584854],[135.227774,35.585004],[135.227737,35.585304],[135.227774,35.585396],[135.228174,35.585737],[135.228587,35.585987],[135.228812,35.586079],[135.228949,35.586212],[135.229224,35.586171],[135.229424,35.586171],[135.229612,35.585996],[135.229649,35.585704],[135.229624,35.585429],[135.229537,35.585229],[135.229537,35.585087],[135.229649,35.584796],[135.229987,35.584304],[135.230612,35.583721],[135.230999,35.583496],[135.232186,35.582946],[135.232436,35.582854],[135.232861,35.582629],[135.233611,35.582346],[135.234461,35.581971],[135.235436,35.581663],[135.236049,35.581555],[135.236211,35.581488],[135.236799,35.581446],[135.237736,35.581588],[135.238011,35.581771],[135.238149,35.582063],[135.238661,35.582388],[135.239486,35.582621],[135.239823,35.582779],[135.240198,35.583188],[135.240561,35.583396],[135.240923,35.583563],[135.240998,35.583829],[135.241223,35.583904],[135.241598,35.584221],[135.241898,35.584679],[135.242398,35.585271],[135.242448,35.585587],[135.242361,35.586012],[135.241798,35.586462],[135.241586,35.586412],[135.241298,35.586437],[135.241073,35.586487],[135.240923,35.586787],[135.240898,35.586971],[135.240598,35.587221],[135.240598,35.587287],[135.240736,35.587487],[135.241111,35.587737],[135.241461,35.587871],[135.241623,35.587804],[135.242161,35.587687],[135.242511,35.587729],[135.243348,35.587704],[135.24386,35.587787],[135.24456,35.588054],[135.244785,35.588412],[135.245023,35.589004],[135.245335,35.590237],[135.245548,35.59042],[135.245823,35.591228],[135.246035,35.591278],[135.24626,35.591228],[135.246335,35.591178],[135.246523,35.590704],[135.246623,35.59062],[135.246898,35.59057],[135.247207,35.590585],[135.247798,35.590862],[135.24801,35.591203],[135.248148,35.59172],[135.24826,35.592287],[135.248497,35.592695],[135.249547,35.593387],[135.24996,35.593587],[135.250235,35.59377],[135.25071,35.593953],[135.250822,35.594253],[135.25056,35.594978],[135.250485,35.595178],[135.250922,35.59602],[135.250885,35.596361],[135.250772,35.596628],[135.250822,35.596903],[135.251097,35.597178],[135.251297,35.597653],[135.251297,35.597853],[135.251397,35.598261],[135.25146,35.598286],[135.25156,35.598245],[135.251835,35.598836],[135.25206,35.599019],[135.252247,35.599286],[135.252547,35.599561],[135.252859,35.599703],[135.253134,35.599678],[135.253409,35.599769],[135.253572,35.599911],[135.253659,35.599844],[135.253884,35.599819],[135.254097,35.599703],[135.254497,35.599594],[135.254997,35.598895],[135.255134,35.598828],[135.255434,35.59892],[135.255522,35.598745],[135.255997,35.598536],[135.256197,35.598311],[135.256197,35.598045],[135.256034,35.597653],[135.256084,35.596928],[135.256284,35.59682],[135.256122,35.595953],[135.256022,35.595687],[135.255934,35.59532],[135.255909,35.594937],[135.256022,35.594753],[135.256634,35.594578],[135.256659,35.594353],[135.256522,35.594145],[135.256197,35.593987],[135.256134,35.593828],[135.256109,35.593537],[135.256147,35.593128],[135.256334,35.593128],[135.256447,35.593037],[135.256484,35.59292],[135.256397,35.592654],[135.256347,35.592579],[135.255547,35.592262],[135.255234,35.592079],[135.255159,35.591854],[135.255297,35.591629],[135.255184,35.59147],[135.255222,35.591037],[135.255359,35.590762],[135.255384,35.590312],[135.255447,35.590062],[135.255422,35.589787],[135.255559,35.588996],[135.255872,35.588612],[135.256209,35.588412],[135.256184,35.588254],[135.256047,35.588137],[135.255347,35.588179],[135.255159,35.588112],[135.254909,35.588062],[135.254772,35.587954],[135.254435,35.587996],[135.254022,35.588129],[135.253747,35.588287],[135.253572,35.588329],[135.253272,35.588212],[135.252835,35.588262],[135.252497,35.588371],[135.252385,35.588554],[135.252322,35.588712],[135.251885,35.588687],[135.251497,35.58877],[135.250747,35.589179],[135.250497,35.589179],[135.249947,35.588879],[135.249497,35.588579],[135.24931,35.588487],[135.249335,35.588329],[135.24926,35.588196],[135.24901,35.588212],[135.248735,35.588029],[135.248598,35.588012],[135.24826,35.587779],[135.247848,35.587646],[135.247598,35.587279],[135.247435,35.586529],[135.247385,35.586237],[135.247385,35.585829],[135.247485,35.585421],[135.247623,35.585221],[135.24796,35.585129],[135.24856,35.585129],[135.248648,35.585104],[135.248698,35.584996],[135.248923,35.584904],[135.249553,35.584495],[135.249635,35.584221],[135.249605,35.584106],[135.249548,35.583954],[135.24916,35.583596],[135.249066,35.583559],[135.248948,35.583571],[135.248673,35.583638],[135.247623,35.583621],[135.247448,35.583554],[135.24726,35.583396],[135.24711,35.583229],[135.246985,35.582638],[135.247048,35.58183],[135.247199,35.58158],[135.247523,35.581146],[135.247985,35.580063],[135.248173,35.579813],[135.24856,35.579497],[135.248672,35.579428],[135.248814,35.579393],[135.24899,35.579352],[135.24931,35.579297],[135.249498,35.579297],[135.249585,35.579022],[135.249523,35.578888],[135.249573,35.578638],[135.249823,35.57828],[135.249985,35.578255],[135.250168,35.578168],[135.25026,35.578005],[135.250572,35.57778],[135.251535,35.577713],[135.252222,35.57778],[135.252522,35.577755],[135.25256,35.577772],[135.252885,35.577755],[135.252997,35.577705],[135.25336,35.577705],[135.25341,35.577347],[135.253347,35.577122],[135.252385,35.576764],[135.252047,35.57658],[135.25166,35.576289],[135.251497,35.576205],[135.251185,35.575914],[135.251022,35.575639],[135.250772,35.575547],[135.250473,35.575372],[135.25021,35.574447],[135.250162,35.574188],[135.250123,35.573572],[135.25026,35.573389],[135.250323,35.573122],[135.25046,35.572714],[135.250423,35.572306],[135.25056,35.572222],[135.250585,35.572147],[135.25056,35.571997],[135.250648,35.571856],[135.25081,35.571722],[135.250835,35.571497],[135.250773,35.571298],[135.250698,35.571156],[135.250585,35.571089],[135.250635,35.570781],[135.250998,35.570281],[135.251135,35.570164],[135.251922,35.569714],[135.25261,35.569214],[135.252947,35.568856],[135.254347,35.567773],[135.25526,35.567656],[135.25556,35.567698],[135.255672,35.567748],[135.255972,35.56779],[135.256722,35.567673],[135.257184,35.567698],[135.257247,35.56749],[135.257709,35.567223],[135.258184,35.567173],[135.258597,35.567198],[135.258847,35.56724],[135.258922,35.567282],[135.259234,35.56769],[135.259509,35.567823],[135.259784,35.568048],[135.260034,35.568023],[135.260284,35.568181],[135.260472,35.568156],[135.260509,35.56809],[135.261084,35.567815],[135.261272,35.567931],[135.261497,35.567973],[135.261634,35.567865],[135.261746,35.56784],[135.261996,35.567865],[135.262159,35.567907],[135.262409,35.567932],[135.262596,35.567907],[135.262796,35.567682],[135.263509,35.567498],[135.263696,35.56734],[135.264009,35.567223],[135.264446,35.567198],[135.264634,35.567223],[135.264946,35.567132],[135.265571,35.566815],[135.266071,35.566723],[135.266434,35.566765],[135.266759,35.566965],[135.267533,35.567323],[135.267983,35.567373],[135.268508,35.567073],[135.268721,35.566982],[135.268883,35.567007],[135.268908,35.566174],[135.269021,35.565882],[135.269346,35.565607],[135.269733,35.56554],[135.269796,35.565499],[135.269621,35.565065],[135.269621,35.564757],[135.269696,35.564257],[135.269971,35.563807],[135.270271,35.563757],[135.270583,35.563582],[135.270908,35.563466],[135.271071,35.563282],[135.271158,35.563241],[135.271208,35.563041],[135.271571,35.562807],[135.271621,35.562424],[135.271896,35.562107],[135.272033,35.562024],[135.272258,35.562132],[135.272745,35.562174],[135.273058,35.562107],[135.27327,35.561974],[135.27347,35.561699],[135.273845,35.561383],[135.274045,35.561408],[135.274095,35.561291],[135.27407,35.561049],[135.274095,35.560983],[135.27432,35.560824],[135.274395,35.560616],[135.27467,35.560299],[135.274758,35.560141],[135.274533,35.560008],[135.274395,35.559808],[135.27387,35.559608],[135.272983,35.559724],[135.272658,35.559633],[135.27237,35.559383],[135.272158,35.559025],[135.272095,35.558841],[135.272045,35.558825],[135.271271,35.558891],[135.270246,35.558874],[135.269646,35.558741],[135.269308,35.55845],[135.269083,35.558133],[135.268721,35.557816],[135.268696,35.55775],[135.268258,35.557666],[135.267321,35.557708],[135.266846,35.5576],[135.266184,35.557108],[135.265796,35.556883],[135.265409,35.556816],[135.265021,35.556708],[135.264884,35.556591],[135.264346,35.555983],[135.264184,35.555625],[135.264209,35.555533],[135.263596,35.5547],[135.263159,35.554342],[135.262771,35.554192],[135.262321,35.5541],[135.261771,35.554058],[135.261422,35.554258],[135.261059,35.554217],[135.260947,35.554258],[135.259709,35.554516],[135.259372,35.554716],[135.258709,35.554766],[135.258247,35.5549],[135.25671,35.555441],[135.256435,35.555625],[135.256372,35.5561],[135.256097,35.556374],[135.255885,35.556533],[135.255585,35.556641],[135.25516,35.556641],[135.254785,35.556574],[135.254197,35.556333],[135.254147,35.556216],[135.25421,35.553925],[135.25446,35.55365],[135.254485,35.553542],[135.254435,35.553333],[135.254372,35.552683],[135.254235,35.552417],[135.253897,35.552275],[135.25376,35.5523],[135.253347,35.552508],[135.253097,35.552842],[135.25291,35.553342],[135.252635,35.553675],[135.252285,35.553791],[135.251173,35.554],[135.250323,35.55425],[135.24966,35.55475],[135.24936,35.5552],[135.249273,35.555435],[135.249223,35.555716],[135.249173,35.556049],[135.24926,35.556366],[135.24926,35.556658],[135.24946,35.556883],[135.250423,35.557108],[135.25081,35.557241],[135.251171,35.557378],[135.25154,35.557637],[135.251835,35.557824],[135.251973,35.558077],[135.252002,35.558373],[135.25201,35.558724],[135.25201,35.559149],[135.251897,35.559607],[135.251623,35.560032],[135.251298,35.560416],[135.250498,35.561049],[135.249948,35.561299],[135.24871,35.561707],[135.24821,35.561774],[135.247748,35.561799],[135.247173,35.561757],[135.245761,35.561515],[135.245573,35.561515],[135.245411,35.561332],[135.245273,35.561282],[135.245186,35.561399],[135.245123,35.561399],[135.244136,35.561007],[135.242961,35.560474],[135.241998,35.559791],[135.241773,35.559541],[135.241673,35.559041],[135.241674,35.558832],[135.241561,35.558657],[135.240799,35.557949],[135.240474,35.557716],[135.240299,35.557649],[135.239899,35.557216],[135.239786,35.557149],[135.239536,35.556758],[135.238749,35.555916],[135.238636,35.555733],[135.238224,35.555233],[135.237899,35.554599],[135.237499,35.554141],[135.237299,35.553716],[135.237224,35.553375],[135.237037,35.553058],[135.237311,35.552991],[135.237149,35.552333],[135.237012,35.552333],[135.236937,35.552016],[135.236824,35.552016],[135.236824,35.551633],[135.236887,35.551608],[135.236887,35.551492],[135.236637,35.551492],[135.236512,35.549975],[135.236874,35.549933],[135.236774,35.548759],[135.236874,35.54765],[135.237124,35.546775],[135.237337,35.545734],[135.237587,35.545101],[135.237674,35.544242],[135.238586,35.542559],[135.239449,35.541209],[135.239711,35.540735],[135.240011,35.540285],[135.240486,35.539768],[135.240824,35.539301],[135.241549,35.538377],[135.242611,35.537277],[135.243874,35.536343],[135.244586,35.535852],[135.245123,35.53556],[135.245398,35.535535],[135.246111,35.535885],[135.246336,35.53591],[135.246661,35.535777],[135.247161,35.535777],[135.247208,35.535857],[135.247548,35.535902],[135.247898,35.535877],[135.248148,35.535902],[135.248486,35.536152],[135.248836,35.536102],[135.250573,35.53551],[135.251873,35.535194],[135.252398,35.534944],[135.252998,35.534602],[135.253548,35.534402],[135.253935,35.534444],[135.25451,35.534369],[135.254847,35.534286],[135.255122,35.534369],[135.25576,35.53486],[135.25606,35.535002],[135.256447,35.534861],[135.25681,35.534836],[135.257022,35.534902],[135.257685,35.535019],[135.258347,35.534994],[135.259072,35.534811],[135.259759,35.534511],[135.260422,35.534061],[135.260834,35.533994],[135.261247,35.533836],[135.261572,35.533652],[135.261797,35.533586],[135.262372,35.533494],[135.262784,35.533511],[135.263197,35.533736],[135.263371,35.533944],[135.263509,35.533869],[135.263696,35.533852],[135.263896,35.534077],[135.264109,35.534161],[135.264171,35.534144],[135.264196,35.534002],[135.264134,35.533686],[135.264221,35.533578],[135.264546,35.533369],[135.264859,35.533236],[135.265296,35.533211],[135.265544,35.533236],[135.264567,35.530856],[135.261731,35.527681],[135.260528,35.526476],[135.258624,35.525166],[135.257221,35.52338],[135.256566,35.521328],[135.254485,35.517498],[135.252071,35.514962],[135.249236,35.511945],[135.247186,35.509738],[135.246736,35.509397],[135.246111,35.50898],[135.245761,35.508638],[135.245511,35.508213],[135.245049,35.508005],[135.244887,35.507772],[135.244637,35.50768],[135.244087,35.507588],[135.243499,35.507605],[135.242512,35.507505],[135.242174,35.507347],[135.241574,35.50743],[135.241149,35.507588],[135.240624,35.50783],[135.240462,35.507938],[135.240012,35.508363],[135.239349,35.508705],[135.238762,35.508722],[135.23835,35.50878],[135.23805,35.509097],[135.2378,35.509205],[135.237487,35.509297],[135.237262,35.509496],[135.237237,35.509563],[135.236137,35.50958],[135.235387,35.509796],[135.234875,35.510813],[135.234512,35.511105],[135.234237,35.511146],[135.2341,35.511121],[135.233912,35.510871],[135.233837,35.510421],[135.23375,35.51033],[135.233363,35.510413],[135.232838,35.510363],[135.232538,35.51018],[135.2324,35.509663],[135.231775,35.508996],[135.231588,35.508572],[135.231338,35.508363],[135.2309,35.508313],[135.230538,35.508197],[135.2301,35.508147],[135.229525,35.508163],[135.229225,35.507805],[135.228863,35.50753],[135.2287,35.507188],[135.228675,35.506847],[135.228575,35.50658],[135.228438,35.506438],[135.228413,35.506097],[135.228251,35.505689],[135.227726,35.505305],[135.227588,35.505239],[135.226901,35.505072],[135.226413,35.504839],[135.226113,35.504547],[135.225888,35.504205],[135.225676,35.504047],[135.225226,35.503905],[135.224076,35.503755],[135.223738,35.503555],[135.223688,35.503164],[135.223601,35.50298],[135.223576,35.502597],[135.223701,35.502239],[135.223763,35.501831],[135.223488,35.501447],[135.223151,35.501181],[135.222389,35.500931],[135.221364,35.500864],[135.221039,35.500172],[135.220289,35.499022],[135.219876,35.498439],[135.219801,35.497939],[135.219876,35.497289],[135.220264,35.495689],[135.220239,35.495548],[135.219826,35.495098],[135.219626,35.494515],[135.219601,35.494315],[135.219626,35.493748],[135.219514,35.493548],[135.219239,35.493281],[135.218826,35.493031],[135.218364,35.492898],[135.217127,35.493056],[135.216327,35.493056],[135.216077,35.49294],[135.215252,35.492806],[135.214452,35.49279],[135.213827,35.492881],[135.212939,35.493123],[135.212177,35.493214],[135.211565,35.493198],[135.21094,35.493131],[135.210277,35.493106],[135.209752,35.493173],[135.209227,35.493131],[135.208577,35.492998],[135.207915,35.492748],[135.207115,35.492273],[135.206178,35.491515],[135.20604,35.491515],[135.205328,35.491081],[135.204803,35.490906],[135.20329,35.490723],[135.20214,35.490431],[135.20169,35.490273],[135.201228,35.490165],[135.20109,35.490073],[135.201028,35.489823],[135.201278,35.48944],[135.201528,35.488881],[135.202078,35.48739],[135.202053,35.48719],[135.201665,35.486807],[135.200778,35.486223],[135.200403,35.485707],[135.200565,35.485023],[135.200728,35.48469],[135.201628,35.484215],[135.201803,35.483924],[135.201853,35.483407],[135.201853,35.482865],[135.20169,35.482324],[135.201415,35.481716],[135.201165,35.481332],[135.201003,35.481199],[135.200615,35.480974],[135.200203,35.480499],[135.199753,35.480116],[135.199241,35.479799],[135.198716,35.479349],[135.198303,35.478766],[135.198241,35.478657],[135.198166,35.478224],[135.198003,35.477749],[135.197728,35.477416],[135.197228,35.477166],[135.195878,35.476783],[135.195241,35.476249],[135.194803,35.475816],[135.193841,35.473991],[135.193516,35.473699],[135.192604,35.473683],[135.192191,35.473433],[135.190879,35.472983],[135.190079,35.472283],[135.189491,35.471924],[135.187954,35.471366],[135.187679,35.471224],[135.186504,35.470375],[135.185954,35.4699],[135.185917,35.469808],[135.186092,35.469425],[135.186142,35.46895],[135.185804,35.467716],[135.185704,35.466816],[135.185479,35.46645],[135.185479,35.465983],[135.185829,35.465033],[135.185917,35.464242],[135.185804,35.463683],[135.185454,35.463075],[135.184792,35.462467],[135.184354,35.462467],[135.183854,35.46235],[135.183767,35.462309],[135.183392,35.461742],[135.182979,35.461567],[135.182367,35.461409],[135.181217,35.460509],[135.180742,35.460325],[135.179842,35.460284],[135.17923,35.460192],[135.178855,35.459967],[135.178605,35.459742],[135.17838,35.45965],[135.177855,35.459517],[135.17748,35.459342],[135.17703,35.458959],[135.176543,35.458642],[135.175993,35.458617],[135.175693,35.458534],[135.17528,35.458059],[135.174893,35.457517],[135.17448,35.457092],[135.17428,35.45695],[135.173793,35.4568],[135.173318,35.456725],[135.172768,35.456575],[135.17208,35.456484],[135.170656,35.456442],[135.169918,35.456284],[135.169093,35.456259],[135.168563,35.456422],[135.168243,35.456484],[135.167631,35.456417],[135.166944,35.456259],[135.166231,35.456217],[135.165494,35.456375],[135.165081,35.456625],[135.164644,35.457033],[135.164169,35.457258],[135.162931,35.457417],[135.161757,35.457458],[135.161044,35.457142],[135.160869,35.45685],[135.160657,35.455925],[135.160407,35.455592],[135.160019,35.455458],[135.159494,35.455367],[135.159419,35.455433],[135.159169,35.455817],[135.158707,35.456108],[135.157907,35.456492],[135.157494,35.456808],[135.156669,35.457108],[135.155794,35.457175],[135.155545,35.457467],[135.15477,35.458233],[135.153707,35.459133],[135.153432,35.459066],[135.153095,35.458908],[135.152432,35.458683],[135.151582,35.458575],[135.15082,35.458775],[135.150045,35.458916],[135.149032,35.459233],[135.148782,35.459391],[135.147458,35.46045],[135.147245,35.460741],[135.14727,35.461191],[135.147183,35.461483],[135.146583,35.461916],[135.146558,35.462249],[135.146808,35.462816],[135.14692,35.463174],[135.14697,35.463516],[135.146745,35.463849],[135.146308,35.464166],[135.145595,35.464416],[135.145208,35.464799],[135.144858,35.465299],[135.144495,35.465699],[135.143583,35.466082],[135.142633,35.466357],[135.141633,35.466557],[135.140021,35.467057],[135.138008,35.467349],[135.136608,35.467374],[135.135946,35.467516],[135.134458,35.468099],[135.133721,35.468282],[135.133059,35.468349],[135.131934,35.468799],[135.131109,35.469182],[135.130371,35.469615],[135.129846,35.469749],[135.129159,35.469774],[135.127597,35.46959],[135.127459,35.469524],[135.126634,35.469549],[135.126272,35.469599],[135.124922,35.46989],[135.124872,35.469932],[135.124872,35.469799],[135.124572,35.46944],[135.122922,35.468674],[135.122197,35.468357],[135.121547,35.468199],[135.120997,35.468132],[135.120335,35.467974],[135.119947,35.467724],[135.119672,35.467232],[135.119422,35.466941],[135.11901,35.466782],[135.11816,35.466757],[135.117272,35.466691],[135.116622,35.466532],[135.116035,35.466224],[135.115822,35.466132],[135.11431,35.465324],[135.113973,35.465324],[135.113423,35.465116],[135.112773,35.464741],[135.111585,35.464107],[135.111035,35.463766],[135.110373,35.463699],[135.110073,35.463566],[135.109885,35.463299],[135.109435,35.462866],[135.109085,35.462466],[135.108698,35.461791],[135.108311,35.460599],[135.108036,35.460033],[135.107736,35.459808],[135.107211,35.459491],[135.106848,35.459225],[135.105886,35.458325],[135.105773,35.458116],[135.105723,35.457666],[135.105886,35.456883],[135.105936,35.456316],[135.105823,35.455775],[135.105886,35.4553],[135.106073,35.454558],[135.106436,35.453975],[135.106923,35.453525],[135.107036,35.453075],[135.106898,35.452692],[135.106811,35.451792],[135.106923,35.450734],[135.106999,35.450692],[135.107111,35.450659],[135.107198,35.450592],[135.108573,35.4501],[135.109336,35.449017],[135.109423,35.448434],[135.109448,35.447842],[135.109611,35.447301],[135.109911,35.446901],[135.110298,35.446517],[135.110485,35.446109],[135.110735,35.445768],[135.111085,35.445434],[135.111723,35.445026],[135.111835,35.444643],[135.11196,35.443876],[135.112235,35.442526],[135.112235,35.44201],[135.112185,35.44176],[135.11216,35.440885],[135.112485,35.440002],[135.112648,35.439235],[135.112673,35.438535],[135.112148,35.437569],[135.111873,35.436785],[135.111923,35.436327],[135.111785,35.435902],[135.111786,35.435744],[135.112635,35.434777],[135.112973,35.434302],[135.113273,35.433719],[135.113304,35.43312],[135.110905,35.432665],[135.108033,35.431403],[135.105801,35.429669],[135.103525,35.427584],[135.100252,35.425464],[135.095881,35.422635],[135.092032,35.418255],[135.089114,35.415552],[135.086979,35.414272],[135.080786,35.413597],[135.067319,35.414651],[135.050242,35.413854],[135.049954,35.414429],[135.049729,35.415087],[135.049742,35.415603],[135.049817,35.416012],[135.050129,35.416962],[135.050067,35.41737],[135.049829,35.41797],[135.049642,35.418353],[135.049554,35.418711],[135.049916,35.41947],[135.050141,35.419803],[135.050266,35.419836],[135.050266,35.419886],[135.049879,35.419995],[135.049854,35.419978],[135.049579,35.42022],[135.049304,35.420603],[135.049129,35.420919],[135.048729,35.421486],[135.048529,35.421936],[135.048229,35.422344],[135.047792,35.422678],[135.047354,35.423111],[135.047104,35.423511],[135.047079,35.423894],[135.047292,35.424327],[135.047604,35.425111],[135.047542,35.425636],[135.047567,35.425744],[135.047742,35.425927],[135.048254,35.426244],[135.048291,35.42651],[135.047954,35.426827],[135.047054,35.427369],[135.046992,35.427594],[135.047192,35.427927],[135.047741,35.428519],[135.047741,35.428677],[135.047541,35.429102],[135.047167,35.429735],[135.047192,35.429935],[135.047329,35.430227],[135.047654,35.43061],[135.047854,35.431127],[135.048104,35.431577],[135.048504,35.431893],[135.048704,35.432168],[135.048591,35.432868],[135.048154,35.434243],[135.047966,35.435235],[135.048079,35.43541],[135.048516,35.435751],[135.048704,35.436068],[135.048704,35.436559],[135.049091,35.437059],[135.049279,35.437643],[135.049591,35.439018],[135.049591,35.439193],[135.049454,35.439601],[135.049416,35.439851],[135.049554,35.440367],[135.050004,35.441109],[135.050438,35.441557],[135.050854,35.441876],[135.051453,35.442217],[135.051753,35.442442],[135.051753,35.442526],[135.051216,35.443609],[135.051129,35.443859],[135.050941,35.445075],[135.050279,35.446408],[135.050254,35.446633],[135.050579,35.447733],[135.050641,35.448142],[135.050304,35.449017],[135.050254,35.449491],[135.050204,35.449625],[135.049816,35.450308],[135.049791,35.450641],[135.049891,35.45105],[135.049791,35.451075],[135.049379,35.451316],[135.048554,35.451683],[135.047916,35.452016],[135.047504,35.452424],[135.047429,35.452558],[135.047291,35.453508],[135.046716,35.453958],[135.045991,35.454299],[135.045642,35.454683],[135.045342,35.455132],[135.045254,35.455466],[135.045391,35.456599],[135.045179,35.457066],[135.045116,35.457407],[135.045179,35.457724],[135.044841,35.459707],[135.044679,35.460024],[135.044079,35.460407],[135.043741,35.460882],[135.043579,35.461398],[135.043441,35.462048],[135.043579,35.462323],[135.043691,35.462432],[135.044404,35.462882],[135.044629,35.463332],[135.044654,35.463582],[135.044266,35.464231],[135.043891,35.464773],[135.043804,35.465315],[135.043829,35.465815],[135.043616,35.466198],[135.043316,35.46649],[135.043091,35.466873],[135.042766,35.467073],[135.042266,35.467214],[135.041804,35.467389],[135.041491,35.468048],[135.041529,35.468589],[135.041604,35.469056],[135.041416,35.469398],[135.041054,35.469714],[135.041029,35.470681],[135.040891,35.471356],[135.040816,35.472147],[135.040841,35.472755],[135.040929,35.473405],[135.040654,35.473839],[135.040204,35.47413],[135.039791,35.474514],[135.039191,35.474855],[135.038616,35.474964],[135.038041,35.474964],[135.037454,35.475263],[135.036716,35.475422],[135.036254,35.475305],[135.035479,35.474905],[135.035367,35.474988],[135.035367,35.475488],[135.035229,35.476138],[135.035154,35.477022],[135.035566,35.477722],[135.035429,35.478188],[135.035404,35.478555],[135.035704,35.480155],[135.035679,35.480171],[135.035754,35.480196],[135.036116,35.480355],[135.036779,35.480446],[135.038504,35.480463],[135.038841,35.480646],[135.039091,35.481055],[135.039416,35.481363],[135.039879,35.481546],[135.040191,35.481704],[135.040241,35.481796],[135.040428,35.482788],[135.040766,35.483596],[135.041253,35.485287],[135.041428,35.486096],[135.041453,35.48727],[135.041816,35.48792],[135.042253,35.489137],[135.042003,35.490087],[135.041791,35.490645],[135.041816,35.490803],[135.042416,35.491503],[135.042691,35.491995],[135.042716,35.492362],[135.042341,35.492811],[135.042116,35.49337],[135.042141,35.493828],[135.041953,35.494228],[135.041266,35.494611],[135.040966,35.494753],[135.039616,35.495111],[135.039316,35.495111],[135.037578,35.495386],[135.036591,35.495636],[135.035878,35.495678],[135.035491,35.495744],[135.035079,35.496128],[135.035029,35.496219],[135.034641,35.496511],[135.034204,35.496653],[135.033591,35.497078],[135.033179,35.497194],[135.032379,35.497144],[135.032166,35.497211],[135.032304,35.497419],[135.032629,35.497753],[135.032991,35.498044],[135.033954,35.498944],[135.034503,35.499377],[135.035353,35.499919],[135.035416,35.499919],[135.036316,35.500319],[135.036653,35.500677],[135.037778,35.501444],[135.037916,35.501802],[135.037891,35.50241],[135.038328,35.502635],[135.039315,35.502752],[135.039953,35.50291],[135.040315,35.50316],[135.040315,35.503194],[135.040728,35.503377],[135.040978,35.503444],[135.041215,35.503669],[135.041665,35.504319],[135.041903,35.504902],[135.042453,35.50556],[135.042765,35.505852],[135.04364,35.506368],[135.044002,35.506727],[135.044165,35.507085],[135.044602,35.50781],[135.044902,35.508168],[135.045065,35.508485],[135.045152,35.508751],[135.044902,35.509118],[135.044327,35.509276],[135.04394,35.509526],[135.043565,35.50986],[135.043177,35.510443],[135.042902,35.511443],[135.043065,35.512051],[135.043202,35.512251],[135.043427,35.512793],[135.043502,35.513109],[135.043452,35.513334],[135.043502,35.513718],[135.043402,35.514051],[135.04299,35.514842],[135.042852,35.515359],[135.042877,35.515584],[135.043402,35.516484],[135.04359,35.517],[135.043652,35.517592],[135.04329,35.518742],[135.04299,35.519442],[135.04294,35.519958],[135.042765,35.520225],[135.042302,35.52045],[135.041727,35.52095],[135.040902,35.521583],[135.040465,35.522392],[135.040402,35.522958],[135.04079,35.524125],[135.040602,35.524625],[135.040165,35.524783],[135.03969,35.524825],[135.03939,35.525191],[135.03939,35.525641],[135.040102,35.526424],[135.040052,35.526783],[135.039615,35.527641],[135.039202,35.528657],[135.038952,35.528907],[135.038402,35.528999],[135.037915,35.528974],[135.037602,35.529107],[135.036565,35.530032],[135.03629,35.530465],[135.036178,35.531632],[135.03634,35.532848],[135.036315,35.533073],[135.036153,35.534048],[135.03629,35.534973],[135.036427,35.53544],[135.036702,35.536031],[135.03709,35.53659],[135.03709,35.537315],[135.037177,35.537265],[135.03759,35.537223],[135.038377,35.537065],[135.038952,35.536856],[135.03954,35.536748],[135.04119,35.53704],[135.041702,35.536906],[135.042702,35.536515],[135.043439,35.536132],[135.044239,35.535548],[135.045164,35.534598],[135.045527,35.53399],[135.046264,35.53329],[135.046839,35.533207],[135.046927,35.533224],[135.047339,35.533224],[135.048051,35.532815],[135.048651,35.532732],[135.049151,35.532616],[135.049889,35.532341],[135.050664,35.531916],[135.051839,35.531507],[135.052151,35.531466],[135.053276,35.531399],[135.053664,35.531507],[135.053876,35.531824],[135.053988,35.532091],[135.053988,35.532182],[135.054313,35.532407],[135.054313,35.532382],[135.054376,35.532407],[135.054726,35.532382],[135.055063,35.532316],[135.056026,35.532857],[135.056676,35.532966],[135.057088,35.533174],[135.057538,35.533557],[135.057913,35.533757],[135.058051,35.533782],[135.058413,35.533532],[135.058913,35.532899],[135.059488,35.532766],[135.060038,35.532783],[135.060588,35.532941],[135.06105,35.533283],[135.0613,35.533508],[135.0622,35.533908],[135.062863,35.534657],[135.063438,35.534899],[135.063775,35.535124],[135.063938,35.535557],[135.064025,35.535916],[135.06435,35.535891],[135.0649,35.535957],[135.065587,35.536274],[135.066112,35.536299],[135.066637,35.536566],[135.067125,35.537107],[135.067625,35.537357],[135.068175,35.537466],[135.069112,35.537491],[135.069462,35.537374],[135.069712,35.537107],[135.069962,35.536924],[135.070399,35.536857],[135.070862,35.537032],[135.071337,35.537416],[135.071712,35.537482],[135.072812,35.537149],[135.073287,35.536766],[135.073749,35.536649],[135.073999,35.536924],[135.074299,35.537774],[135.074599,35.538249],[135.075186,35.538674],[135.075486,35.538657],[135.076061,35.538432],[135.076611,35.538424],[135.077074,35.538541],[135.079199,35.539324],[135.079886,35.539691],[135.080411,35.539891],[135.081011,35.540049],[135.081123,35.540049],[135.081948,35.539616],[135.082461,35.539641],[135.082873,35.539957],[135.083923,35.540949],[135.084061,35.541191],[135.084011,35.541557],[135.083761,35.542007],[135.083873,35.542366],[135.084173,35.542591],[135.084698,35.542791],[135.085436,35.543016],[135.085873,35.54324],[135.086423,35.543665],[135.086623,35.54394],[135.087285,35.54414],[135.087385,35.544324],[135.08736,35.54459],[135.087498,35.544999],[135.087723,35.54529],[135.088248,35.545782],[135.088498,35.545857],[135.088985,35.545924],[135.089535,35.545832],[135.089898,35.54569],[135.090723,35.54549],[135.091048,35.545515],[135.091785,35.545648],[135.092398,35.54589],[135.092922,35.54639],[135.093035,35.546999],[135.093222,35.547582],[135.093547,35.548057],[135.093635,35.548532],[135.093722,35.548665],[135.094435,35.548532],[135.09501,35.548232],[135.095672,35.548299],[135.096435,35.548799],[135.096934,35.54889],[135.097597,35.54884],[135.099109,35.548574],[135.099797,35.548115],[135.100009,35.548115],[135.100759,35.54834],[135.102234,35.548882],[135.102897,35.549041],[135.103334,35.549041],[135.103884,35.549307],[135.104409,35.549399],[135.105621,35.549332],[135.106559,35.549508],[135.106771,35.549241],[135.107046,35.549032],[135.107896,35.549033],[135.108534,35.548941],[135.108759,35.548874],[135.109409,35.548491],[135.109684,35.548541],[135.110621,35.548849],[135.111171,35.548966],[135.111784,35.549257],[135.112334,35.549457],[135.112546,35.549482],[135.113296,35.549457],[135.113983,35.549391],[135.114558,35.549415],[135.115046,35.549324],[135.115958,35.548732],[135.116533,35.548574],[135.116808,35.54844],[135.117021,35.54819],[135.117546,35.547249],[135.118096,35.546998],[135.118208,35.546973],[135.118783,35.54704],[135.118971,35.547132],[135.119471,35.547448],[135.119746,35.54794],[135.120021,35.548548],[135.120321,35.548798],[135.121208,35.549048],[135.121321,35.549181],[135.121371,35.54954],[135.121596,35.550056],[135.121808,35.55044],[135.122183,35.550848],[135.122218,35.550953],[135.122246,35.550956],[135.122658,35.551098],[135.122983,35.551298],[135.123471,35.551889],[135.123708,35.552706],[135.123871,35.553073],[135.12607,35.554081],[135.126483,35.554248],[135.126683,35.554273],[135.126708,35.554365],[135.126895,35.55459],[135.126808,35.55504],[135.127795,35.555706],[135.128033,35.556023],[135.128058,35.556381],[135.128245,35.557223],[135.128382,35.557498],[135.12882,35.55759],[135.129207,35.55764],[135.129595,35.557865],[135.12992,35.557982],[135.130282,35.558057],[135.130607,35.558282],[135.13147,35.558448],[135.131495,35.558648],[135.13127,35.558965],[135.13107,35.559373],[135.131145,35.559782],[135.131657,35.560598],[135.131682,35.561165],[135.131732,35.561457],[135.132332,35.562165],[135.132907,35.562348],[135.133357,35.562398],[135.133794,35.562781],[135.133944,35.56319],[135.134007,35.563573],[135.134357,35.564098],[135.134432,35.564148],[135.134894,35.564756],[135.135194,35.565531],[135.135432,35.566073],[135.135619,35.566798],[135.135369,35.567389],[135.135307,35.568039],[135.135156,35.568714],[135.135294,35.568964],[135.136056,35.569406],[135.136194,35.569739],[135.136019,35.570347],[135.136131,35.570581],[135.136431,35.570714],[135.136756,35.571081],[135.136981,35.571397],[135.137031,35.571622],[135.136719,35.57198],[135.136831,35.572322],[135.137044,35.572464],[135.137369,35.57283],[135.137956,35.573055],[135.138581,35.573247],[135.138744,35.57338],[135.139219,35.573613],[135.139944,35.573438],[135.140406,35.573622],[135.140731,35.573913],[135.140956,35.574305],[135.141193,35.575046],[135.141406,35.575388],[135.141568,35.576338],[135.141718,35.57693],[135.141968,35.577588],[135.142318,35.578088],[135.142843,35.578388],[135.143356,35.578504],[135.143493,35.578779],[135.143931,35.579054],[135.144156,35.579304],[135.144093,35.579504],[135.143843,35.579754],[135.143818,35.579996],[135.144243,35.580662],[135.144331,35.580979],[135.144106,35.581537],[135.144068,35.581745],[135.144481,35.582087],[135.144718,35.582587],[135.144918,35.582745],[135.145131,35.583103],[135.145131,35.583537],[135.145181,35.583695],[135.145506,35.584128],[135.145868,35.584312],[135.146331,35.584337],[135.14703,35.584228],[135.147993,35.584145],[135.148793,35.584337],[135.149043,35.584362],[135.149318,35.584587],[135.149343,35.584745],[135.149555,35.585136],[135.14983,35.58532],[135.15013,35.58557],[135.15038,35.585861],[135.150743,35.586003],[135.151093,35.586186],[135.151368,35.586236],[135.151818,35.586145],[135.152805,35.586136],[135.153255,35.585953],[135.153755,35.586003],[135.154355,35.58612],[135.154855,35.586261],[135.155155,35.586311],[135.155767,35.586486],[135.156467,35.586953],[135.156692,35.58722],[135.157155,35.587945],[135.15788,35.588678],[135.158554,35.589036],[135.158692,35.589378],[135.158692,35.589511],[135.158879,35.589853],[135.158992,35.590236],[135.159242,35.590253],[135.159429,35.590228],[135.160367,35.590294],[135.161529,35.590561],[135.162267,35.591211],[135.162754,35.591478],[135.163129,35.591586],[135.163392,35.591719],[135.163854,35.592211],[135.163879,35.592286],[135.163641,35.592527],[135.163329,35.592894],[135.163217,35.593186],[135.162867,35.593711],[135.162492,35.593936],[135.162304,35.594211],[135.162067,35.594686],[135.161992,35.594977],[135.162154,35.595294],[135.162017,35.595785],[135.162129,35.596152],[135.162029,35.596377],[135.162104,35.59671],[135.162354,35.597185],[135.162754,35.597452],[135.163029,35.597952],[135.163491,35.598244],[135.164191,35.598618],[135.164441,35.598935],[135.164979,35.599518],[135.164979,35.59981],[135.165116,35.600127],[135.165641,35.600552],[135.165879,35.600893],[135.165941,35.60121],[135.165729,35.601702],[135.165916,35.602068],[135.165891,35.60211],[135.166029,35.602151],[135.166266,35.602535],[135.166566,35.602826],[135.166916,35.602985],[135.167316,35.603068],[135.167728,35.603343],[135.168028,35.603635],[135.168353,35.60386],[135.168728,35.603968],[135.168866,35.603968],[135.169216,35.60421],[135.169378,35.604576],[135.169416,35.60516],[135.169353,35.605635],[135.169391,35.605834],[135.169553,35.605859],[135.170116,35.60581],[135.170541,35.605851],[135.171003,35.605985],[135.171603,35.605985],[135.171766,35.606051],[135.172653,35.606559],[135.173028,35.606584],[135.17324,35.606493],[135.173378,35.606518],[135.174265,35.606851],[135.17459,35.607051],[135.174915,35.607159],[135.17549,35.607176],[135.17629,35.607109],[135.176828,35.606968],[135.17729,35.606676],[135.17734,35.606585],[135.17764,35.60631],[135.17844,35.606168],[135.179228,35.606276],[135.18009,35.606185],[135.180677,35.606201],[135.181115,35.606385],[135.181302,35.606451],[135.181352,35.606743],[135.181715,35.607351],[135.181902,35.607843],[135.18204,35.608609],[135.182102,35.609518],[135.182452,35.610418],[135.182927,35.612017],[135.182965,35.612892],[135.183315,35.613501],[135.183365,35.613751],[135.18329,35.613976],[135.182827,35.614184],[135.182565,35.614251],[135.181677,35.614392],[135.180602,35.614467],[135.17839,35.614475],[135.178065,35.614634],[135.17804,35.615],[135.178102,35.615134],[135.178015,35.615742],[135.17724,35.616667],[135.176953,35.616917],[135.176353,35.61715],[135.17534,35.617675],[135.174903,35.617767],[135.174453,35.61775],[135.17394,35.617883],[135.173665,35.618108],[135.173515,35.618383],[135.17324,35.618475],[135.172728,35.61875],[135.172603,35.619091],[135.17239,35.619425],[135.17204,35.619816],[135.17174,35.620083],[135.171778,35.620333],[135.171878,35.620675],[135.17239,35.620916],[135.172753,35.621141],[135.172878,35.621433],[135.17329,35.62195],[135.17324,35.622175],[135.172678,35.62245],[135.17254,35.622608],[135.172115,35.622766],[135.171815,35.623149],[135.171765,35.623516],[135.170765,35.623658],[135.170128,35.623974],[135.16964,35.624474],[135.16929,35.625083],[135.16919,35.625674],[135.168953,35.625766],[135.168328,35.625857],[135.167628,35.625791],[135.167278,35.626066],[135.166878,35.626499],[135.165841,35.627266],[135.164916,35.627774],[135.164353,35.627974],[135.163653,35.628157],[135.163303,35.628366],[135.162966,35.62864],[135.162716,35.62889],[135.162753,35.629207],[135.162591,35.629524],[135.162128,35.629682],[135.161803,35.629749],[135.161516,35.629549],[135.161216,35.629257],[135.160941,35.62924],[135.160403,35.629532],[135.160353,35.629649],[135.160353,35.629874],[135.160416,35.63019],[135.160603,35.630657],[135.160741,35.631132],[135.160741,35.631607],[135.160641,35.632015],[135.160403,35.632373],[135.160053,35.632648],[135.159941,35.632782],[135.159728,35.633123],[135.159703,35.633373],[135.159353,35.633532],[135.158953,35.633648],[135.158766,35.633832],[135.158766,35.634298],[135.158903,35.63489],[135.159066,35.635273],[135.159428,35.636581],[135.159591,35.636981],[135.159728,35.637481],[135.159278,35.638206],[135.158953,35.639223],[135.158941,35.639739],[135.158803,35.640481],[135.158891,35.641006],[135.159028,35.641498],[135.158841,35.641881],[135.158653,35.642131],[135.158603,35.642539],[135.158416,35.643214],[135.158416,35.643647],[135.158591,35.644097],[135.159103,35.644639],[135.159341,35.644997],[135.159778,35.645714],[135.160115,35.647064],[135.160167,35.647679],[135.160199,35.647894],[135.159529,35.649955],[135.158398,35.651183],[135.157761,35.651671],[135.157347,35.652699],[135.157912,35.654576],[135.157912,35.656967],[135.157237,35.65919],[135.155226,35.661936],[135.15433,35.662767],[135.154063,35.664541],[135.152706,35.666234],[135.151902,35.668372],[135.15084,35.671859],[135.149582,35.674356],[135.14922,35.678812],[135.150033,35.68267],[135.150859,35.683984],[135.154731,35.683529],[135.156059,35.683529],[135.156059,35.684438],[135.155155,35.687351],[135.156291,35.688714],[135.161934,35.692157],[135.165539,35.694456],[135.168452,35.696314],[135.171527,35.696314],[135.177811,35.698402],[135.183926,35.698911],[135.18816,35.699576],[135.193812,35.700463],[135.193812,35.70055],[135.193587,35.701109],[135.193512,35.701809],[135.193512,35.70235],[135.193237,35.702575],[135.192962,35.703117],[135.192799,35.703675],[135.193049,35.703925],[135.192799,35.704308],[135.191924,35.704292],[135.191612,35.704358],[135.191262,35.704833],[135.190737,35.7054],[135.190937,35.705983],[135.190712,35.706658],[135.189912,35.707241],[135.188949,35.708058],[135.188649,35.708441],[135.188099,35.7086],[135.188512,35.7088],[135.188787,35.709233],[135.188924,35.709524],[135.189424,35.709966],[135.189674,35.710041],[135.190449,35.709966],[135.191399,35.710191],[135.192249,35.710774],[135.192699,35.711308],[135.193311,35.711916],[135.193424,35.712233],[135.192924,35.712749],[135.192874,35.713407],[135.192599,35.714149],[135.192111,35.714441],[135.192274,35.714574],[135.192936,35.714982],[135.193049,35.715632],[135.192586,35.71624],[135.192586,35.716374],[135.192949,35.717257],[135.192811,35.717615],[135.193174,35.717857],[135.193536,35.717815],[135.193949,35.718015],[135.194424,35.718399],[135.194586,35.71864],[135.194511,35.719323],[135.194849,35.719857],[135.195211,35.720648],[135.196461,35.721273],[135.196848,35.721657],[135.197398,35.722031],[135.197898,35.722731],[135.198461,35.723248],[135.198773,35.72394],[135.198911,35.724615],[135.199523,35.725565],[135.199311,35.726056],[135.198898,35.726664],[135.199036,35.727814],[135.198536,35.728331],[135.197986,35.729014],[135.197561,35.730206],[135.197286,35.731156],[135.197236,35.731714],[135.197261,35.732322],[135.197711,35.732455],[135.19856,35.732614],[135.19931,35.732989],[135.200085,35.733622],[135.200735,35.734272],[135.201373,35.734855],[135.202373,35.735122],[135.203398,35.735205],[135.205522,35.735722],[135.206385,35.735805],[135.206572,35.735872],[135.207472,35.737088],[135.20741,35.737488],[135.207722,35.737847],[135.20786,35.737938],[135.207997,35.738322],[135.207485,35.73893],[135.20726,35.739563],[135.207685,35.740213],[135.207822,35.740888],[135.208547,35.741063],[135.209047,35.741513],[135.209509,35.741513],[135.210534,35.741146],[135.211284,35.741188],[135.212084,35.74153],[135.212309,35.741596],[135.212922,35.741905],[135.213397,35.742738],[135.214334,35.74298],[135.215696,35.743221],[135.216159,35.743221],[135.217271,35.743013],[135.218371,35.742746],[135.219509,35.742405],[135.219921,35.74238],[135.220034,35.74303],[135.219771,35.744221],[135.220021,35.745013],[135.219884,35.745688],[135.219946,35.746388],[135.220646,35.748271],[135.221008,35.748988],[135.221483,35.749713],[135.222183,35.750312],[135.222658,35.750896],[135.223296,35.752521],[135.223321,35.753137],[135.223408,35.753404],[135.223558,35.754145],[135.224008,35.754979],[135.224983,35.756279],[135.22557,35.756887],[135.22592,35.757179],[135.22607,35.757545],[135.226195,35.757995],[135.226395,35.758462],[135.227583,35.759995],[135.227933,35.760737],[135.227908,35.761078],[135.22782,35.76137],[135.22767,35.761436],[135.227408,35.761636],[135.22702,35.762086],[135.227208,35.762361],[135.22762,35.762536],[135.228533,35.763053],[135.229295,35.763411],[135.229757,35.763711],[135.230232,35.764228],[135.230557,35.764586],[135.23112,35.764786],[135.23132,35.764945],[135.231507,35.765194],[135.235007,35.768569]]]},"properties":{"pref":"京都府","kuni_id":"K42","yomi":"よさ","name":"与謝","id":"G42002","kuni":"丹後","id_url":"G42002.html","kuni_url":"/kg/resource/K42.html"},"type":"Feature"}]}