{"features":[{"type":"Feature","properties":{"id":"G43006","kuni":"但馬","id_url":"G43006.html","kuni_url":"/kg/resource/K43.html","pref":"兵庫県","kuni_id":"K43","yomi":"しつみ","name":"七美"},"geometry":{"coordinates":[[[134.585768,35.581921],[134.58673,35.582021],[134.587355,35.582079],[134.587805,35.581988],[134.588017,35.581896],[134.588417,35.581613],[134.588767,35.581421],[134.589192,35.581288],[134.589842,35.581421],[134.590367,35.581713],[134.591205,35.582404],[134.591755,35.582496],[134.593192,35.582313],[134.593779,35.582079],[134.594242,35.581713],[134.594504,35.581255],[134.594529,35.580713],[134.594692,35.580155],[134.594867,35.580005],[134.595442,35.57963],[134.596704,35.57908],[134.597017,35.579021],[134.597542,35.579146],[134.597792,35.578996],[134.597867,35.578855],[134.597917,35.578055],[134.598004,35.577472],[134.598667,35.576763],[134.599154,35.576013],[134.599329,35.575622],[134.600954,35.574339],[134.601054,35.574222],[134.601204,35.573322],[134.601466,35.573039],[134.602029,35.572997],[134.602804,35.573122],[134.603916,35.57298],[134.604679,35.572939],[134.605103,35.572797],[134.605291,35.572672],[134.605691,35.572222],[134.606303,35.571997],[134.607103,35.571956],[134.607728,35.571772],[134.608191,35.571231],[134.608653,35.570664],[134.609216,35.570181],[134.609641,35.570014],[134.610241,35.569856],[134.610403,35.569789],[134.61099,35.569323],[134.611328,35.568939],[134.61154,35.568639],[134.61179,35.568456],[134.612228,35.568381],[134.612578,35.568273],[134.613178,35.567556],[134.613678,35.567406],[134.61514,35.567881],[134.61579,35.568056],[134.616203,35.568223],[134.61674,35.568214],[134.617277,35.567748],[134.617952,35.566973],[134.618302,35.566839],[134.618877,35.566689],[134.61949,35.566598],[134.619915,35.566564],[134.620427,35.566589],[134.620777,35.566631],[134.621127,35.566631],[134.62149,35.566548],[134.622002,35.566573],[134.622263,35.566554],[134.622477,35.566664],[134.623064,35.566798],[134.623677,35.566798],[134.625014,35.566589],[134.625664,35.566423],[134.626089,35.566356],[134.626914,35.566398],[134.627564,35.566231],[134.628051,35.566073],[134.628539,35.565823],[134.629201,35.565731],[134.630001,35.565548],[134.630364,35.565364],[134.630788,35.565223],[134.631188,35.565156],[134.631463,35.565023],[134.631376,35.56459],[134.631601,35.563531],[134.631788,35.56319],[134.632088,35.563098],[134.632451,35.562806],[134.633088,35.561723],[134.633388,35.560815],[134.633438,35.560523],[134.633226,35.560165],[134.632851,35.55994],[134.632664,35.559515],[134.632576,35.559448],[134.632476,35.559315],[134.632564,35.558548],[134.632801,35.557265],[134.632639,35.55704],[134.632476,35.556274],[134.632239,35.555957],[134.632052,35.555849],[134.631589,35.555732],[134.631339,35.555599],[134.630389,35.554932],[134.629515,35.554016],[134.629452,35.553857],[134.629115,35.553432],[134.628652,35.553299],[134.628227,35.553232],[134.628165,35.553182],[134.62794,35.552124],[134.628065,35.551857],[134.628215,35.551632],[134.62824,35.551041],[134.628165,35.550391],[134.628353,35.550349],[134.628903,35.550366],[134.629303,35.550433],[134.62979,35.550583],[134.630315,35.550474],[134.63074,35.550224],[134.631315,35.549791],[134.63199,35.549466],[134.632415,35.549399],[134.632477,35.549199],[134.632465,35.548566],[134.632578,35.547958],[134.632828,35.547708],[134.633253,35.547591],[134.633653,35.547325],[134.633915,35.546891],[134.63404,35.546441],[134.634428,35.546058],[134.63479,35.545625],[134.63519,35.545283],[134.635465,35.545166],[134.635828,35.545216],[134.636203,35.545416],[134.636502,35.545458],[134.636815,35.545408],[134.63694,35.54525],[134.63699,35.54485],[134.63714,35.544691],[134.637327,35.544616],[134.637502,35.544458],[134.637602,35.544142],[134.63744,35.543742],[134.637377,35.5434],[134.637527,35.543158],[134.637952,35.542792],[134.638252,35.542475],[134.638402,35.542225],[134.638302,35.541034],[134.638539,35.540375],[134.638777,35.540217],[134.639027,35.540175],[134.639014,35.53945],[134.638864,35.539159],[134.638252,35.539159],[134.63804,35.539142],[134.637177,35.5389],[134.637052,35.53865],[134.636952,35.538242],[134.63674,35.537867],[134.63664,35.537501],[134.63719,35.537026],[134.637889,35.536667],[134.638089,35.535942],[134.638489,35.535493],[134.638764,35.535168],[134.639064,35.534468],[134.639152,35.533884],[134.639114,35.533393],[134.638977,35.532826],[134.638664,35.53206],[134.638389,35.531635],[134.638014,35.530468],[134.637564,35.529002],[134.637339,35.527835],[134.637152,35.527335],[134.636877,35.527052],[134.636477,35.526918],[134.636077,35.526827],[134.635277,35.526335],[134.634752,35.526094],[134.634315,35.525819],[134.634102,35.525527],[134.633915,35.524719],[134.633577,35.524702],[134.633427,35.524744],[134.63314,35.524769],[134.63269,35.524702],[134.631215,35.524844],[134.62999,35.525035],[134.62914,35.525102],[134.628653,35.525044],[134.628028,35.524635],[134.627565,35.524394],[134.627228,35.52406],[134.626828,35.523744],[134.626428,35.52361],[134.626028,35.523344],[134.625778,35.523052],[134.625253,35.522669],[134.625078,35.522602],[134.624516,35.522494],[134.624003,35.522494],[134.623578,35.522635],[134.622816,35.523294],[134.622416,35.523477],[134.622263,35.523475],[134.622041,35.523552],[134.621504,35.524102],[134.621454,35.524127],[134.620466,35.523752],[134.619991,35.523669],[134.619516,35.523685],[134.619079,35.523802],[134.618829,35.523835],[134.618416,35.523794],[134.617491,35.52386],[134.617179,35.52376],[134.616979,35.523477],[134.616804,35.523119],[134.617004,35.522502],[134.617216,35.521902],[134.617191,35.521352],[134.616854,35.52026],[134.616829,35.519552],[134.616916,35.519136],[134.617204,35.518886],[134.617766,35.518594],[134.618041,35.518377],[134.618066,35.518102],[134.617804,35.517594],[134.617704,35.517311],[134.617679,35.516994],[134.617904,35.516594],[134.618304,35.516244],[134.618566,35.515928],[134.619016,35.514778],[134.619429,35.513161],[134.619166,35.512761],[134.617979,35.511845],[134.617104,35.511353],[134.616741,35.511061],[134.616491,35.510561],[134.616541,35.50997],[134.616716,35.509045],[134.616829,35.508687],[134.616979,35.50837],[134.617816,35.50747],[134.618066,35.506953],[134.618341,35.505945],[134.618529,35.505562],[134.618729,35.50532],[134.618779,35.505195],[134.618191,35.50442],[134.618079,35.50407],[134.618129,35.503829],[134.618329,35.503154],[134.618316,35.503054],[134.618279,35.502671],[134.618316,35.502154],[134.618666,35.501521],[134.619154,35.501387],[134.619629,35.501371],[134.620066,35.501313],[134.620379,35.501146],[134.620791,35.500788],[134.621116,35.500663],[134.621578,35.500663],[134.621741,35.500729],[134.621791,35.500863],[134.621641,35.501279],[134.621716,35.501521],[134.621953,35.501621],[134.622241,35.501596],[134.622255,35.501512],[134.622666,35.501413],[134.622716,35.501371],[134.622991,35.501304],[134.623103,35.501304],[134.624203,35.501121],[134.624366,35.501004],[134.624728,35.500554],[134.625028,35.500013],[134.625378,35.499496],[134.62579,35.499071],[134.62599,35.498796],[134.626515,35.498346],[134.626753,35.497963],[134.627165,35.49778],[134.627803,35.497555],[134.628378,35.497263],[134.62909,35.49683],[134.62964,35.49663],[134.630278,35.496513],[134.630665,35.496405],[134.63124,35.49568],[134.631977,35.495547],[134.632777,35.495614],[134.63319,35.49543],[134.633965,35.494822],[134.634377,35.494689],[134.634902,35.494705],[134.635227,35.494772],[134.635615,35.494797],[134.636052,35.494439],[134.636577,35.494147],[134.636689,35.493914],[134.636652,35.493556],[134.636789,35.493014],[134.636989,35.492681],[134.636352,35.491797],[134.636327,35.491464],[134.63654,35.490964],[134.636952,35.490647],[134.637677,35.490198],[134.637889,35.489906],[134.637889,35.489564],[134.637614,35.489114],[134.637227,35.488914],[134.636877,35.488798],[134.636877,35.488756],[134.637315,35.488348],[134.637752,35.488031],[134.637977,35.487648],[134.638027,35.487181],[134.638302,35.486865],[134.639014,35.486431],[134.639289,35.485956],[134.639764,35.485781],[134.639977,35.485373],[134.640114,35.484632],[134.640227,35.48449],[134.640839,35.484198],[134.640889,35.484132],[134.640889,35.483523],[134.641077,35.483165],[134.641764,35.48219],[134.641902,35.481857],[134.641877,35.481698],[134.641602,35.481424],[134.641464,35.481224],[134.641464,35.480932],[134.641827,35.480549],[134.642239,35.48019],[134.642377,35.479649],[134.642677,35.479199],[134.643114,35.47904],[134.644189,35.478765],[134.644127,35.478424],[134.643827,35.477816],[134.643664,35.477391],[134.642977,35.476916],[134.642727,35.476649],[134.642565,35.476132],[134.642402,35.476107],[134.641902,35.476291],[134.641577,35.476266],[134.64124,35.475932],[134.641077,35.475391],[134.640665,35.474283],[134.640315,35.473833],[134.639315,35.4712],[134.639103,35.470883],[134.63899,35.470791],[134.638003,35.470775],[134.637915,35.470341],[134.637703,35.469892],[134.637453,35.469508],[134.637315,35.4691],[134.637228,35.468608],[134.636815,35.468067],[134.636428,35.467142],[134.635553,35.466309],[134.635441,35.466109],[134.635603,35.4655],[134.636153,35.464734],[134.636565,35.463917],[134.636453,35.463426],[134.636153,35.463017],[134.636016,35.462701],[134.635903,35.461259],[134.636016,35.460634],[134.635941,35.459884],[134.635491,35.458851],[134.635191,35.458468],[134.634891,35.458218],[134.634341,35.457543],[134.633928,35.45716],[134.633266,35.456826],[134.632778,35.456735],[134.632503,35.456576],[134.632616,35.456193],[134.632578,35.455901],[134.632303,35.45561],[134.631678,35.455493],[134.631266,35.455343],[134.631266,35.454976],[134.631616,35.454077],[134.631453,35.45311],[134.631103,35.451643],[134.631066,35.451168],[134.631203,35.450877],[134.632141,35.450444],[134.632553,35.45006],[134.632691,35.449369],[134.632741,35.448735],[134.632603,35.44846],[134.632003,35.448394],[134.631916,35.448352],[134.631641,35.447944],[134.631266,35.447477],[134.630829,35.446794],[134.630791,35.446502],[134.630954,35.446169],[134.631041,35.446077],[134.631154,35.445827],[134.631179,35.445536],[134.631404,35.444744],[134.631341,35.443961],[134.631541,35.443686],[134.631704,35.443211],[134.631954,35.442761],[134.632304,35.442536],[134.632579,35.442286],[134.632916,35.441386],[134.633216,35.441161],[134.633466,35.440911],[134.633491,35.440436],[134.633454,35.439203],[134.633591,35.438911],[134.633654,35.438528],[134.633566,35.437828],[134.633866,35.436878],[134.634091,35.436403],[134.634454,35.435437],[134.634829,35.43512],[134.635141,35.434012],[134.635404,35.433562],[134.635654,35.432662],[134.635904,35.43232],[134.636641,35.431962],[134.637166,35.43147],[134.637904,35.430904],[134.638291,35.430704],[134.638728,35.430679],[134.639203,35.430587],[134.639553,35.430312],[134.640353,35.429479],[134.640766,35.429121],[134.641841,35.428354],[134.642628,35.427629],[134.642966,35.427629],[134.643378,35.427854],[134.643766,35.428129],[134.644178,35.428196],[134.644416,35.428129],[134.644553,35.428013],[134.644778,35.427829],[134.645078,35.42738],[134.646678,35.425963],[134.646865,35.425555],[134.647003,35.424563],[134.647303,35.424022],[134.647528,35.423505],[134.647828,35.423255],[134.648178,35.423147],[134.649003,35.421972],[134.649228,35.421522],[134.649303,35.420797],[134.649303,35.420322],[134.649203,35.419856],[134.64914,35.419831],[134.648453,35.418806],[134.64804,35.418406],[134.647628,35.417497],[134.64724,35.417072],[134.647078,35.416872],[134.646666,35.416514],[134.646616,35.416398],[134.645841,35.415431],[134.645178,35.414706],[134.644741,35.413989],[134.644941,35.413448],[134.645103,35.41304],[134.645016,35.412773],[134.644991,35.41234],[134.645041,35.412181],[134.645041,35.411648],[134.644991,35.411173],[134.644853,35.410881],[134.644391,35.410815],[134.643978,35.410673],[134.643453,35.410206],[134.642903,35.40984],[134.642566,35.409573],[134.642316,35.409281],[134.642266,35.409123],[134.641941,35.408765],[134.641528,35.408515],[134.641028,35.40829],[134.640866,35.408107],[134.640429,35.40784],[134.639929,35.407432],[134.639791,35.407273],[134.639191,35.407282],[134.638854,35.407548],[134.638441,35.407865],[134.638054,35.408223],[134.637454,35.408606],[134.637229,35.408698],[134.636604,35.408831],[134.635754,35.409489],[134.635279,35.409689],[134.633192,35.409873],[134.632642,35.409989],[134.631467,35.409723],[134.630304,35.409898],[134.629754,35.410014],[134.629229,35.410289],[134.629092,35.410306],[134.628654,35.410064],[134.628467,35.409989],[134.628104,35.409922],[134.627255,35.409681],[134.625905,35.409681],[134.625305,35.409589],[134.624917,35.409414],[134.624092,35.408889],[134.62393,35.408489],[134.623792,35.407989],[134.62343,35.407748],[134.622855,35.407498],[134.622605,35.407523],[134.622265,35.407679],[134.62198,35.407864],[134.621905,35.407864],[134.621242,35.407573],[134.620942,35.407531],[134.620555,35.407531],[134.619618,35.407214],[134.618905,35.406923],[134.618318,35.406789],[134.61788,35.406606],[134.617555,35.406406],[134.617493,35.406248],[134.617605,35.405906],[134.617468,35.405548],[134.617143,35.405231],[134.616918,35.404356],[134.61653,35.404173],[134.616143,35.404106],[134.615793,35.403881],[134.61538,35.403548],[134.614355,35.403273],[134.614143,35.403048],[134.613868,35.402623],[134.613481,35.402223],[134.612981,35.401948],[134.612568,35.401682],[134.612268,35.401207],[134.612381,35.400398],[134.612131,35.400282],[134.611681,35.400215],[134.611106,35.400282],[134.610456,35.400307],[134.609731,35.400282],[134.609106,35.400082],[134.608581,35.399857],[134.608193,35.39954],[134.608006,35.399048],[134.608193,35.398257],[134.608406,35.397699],[134.608081,35.396749],[134.607581,35.395982],[134.607581,35.395649],[134.607667,35.394936],[134.607556,35.394607],[134.607238,35.392944],[134.607238,35.392159],[134.608852,35.389286],[134.610772,35.385994],[134.611813,35.38241],[134.612307,35.378891],[134.612307,35.376524],[134.610056,35.3709],[134.60795,35.366465],[134.607481,35.365263],[134.606502,35.36404],[134.605093,35.362775],[134.602603,35.361307],[134.600154,35.360512],[134.595949,35.359696],[134.592528,35.358787],[134.587164,35.354947],[134.584691,35.353172],[134.582367,35.352421],[134.581085,35.352006],[134.579591,35.351523],[134.578471,35.350622],[134.577081,35.349188],[134.57462,35.345706],[134.57183,35.342453],[134.570748,35.340723],[134.568993,35.339401],[134.565752,35.336961],[134.565173,35.336614],[134.563075,35.333387],[134.561185,35.331349],[134.559168,35.3296],[134.556984,35.328243],[134.552964,35.326805],[134.550505,35.32566],[134.546381,35.324395],[134.542652,35.323251],[134.539259,35.322658],[134.534713,35.321782],[134.534438,35.322023],[134.534113,35.322248],[134.533838,35.32234],[134.533064,35.322307],[134.532776,35.322423],[134.532526,35.322573],[134.531876,35.322681],[134.531626,35.322881],[134.531164,35.323381],[134.530964,35.323423],[134.530639,35.32344],[134.530364,35.323398],[134.529926,35.322765],[134.529601,35.322715],[134.528689,35.32284],[134.528414,35.32304],[134.528164,35.323315],[134.527939,35.32349],[134.527277,35.323823],[134.526777,35.324406],[134.526314,35.324673],[134.526014,35.324989],[134.525714,35.325098],[134.525439,35.325098],[134.525264,35.325206],[134.525114,35.325431],[134.524427,35.325948],[134.524077,35.326148],[134.523702,35.326556],[134.523664,35.326798],[134.523814,35.327298],[134.523789,35.327656],[134.523902,35.328447],[134.523852,35.328964],[134.523752,35.329264],[134.523589,35.329464],[134.523389,35.329481],[134.523364,35.329506],[134.523014,35.329522],[134.522089,35.329722],[134.52139,35.329947],[134.520902,35.330147],[134.520502,35.330255],[134.519927,35.330314],[134.519452,35.330339],[134.519027,35.330422],[134.518665,35.330555],[134.51779,35.331389],[134.517102,35.33188],[134.516602,35.332122],[134.515703,35.332338],[134.515315,35.332455],[134.514865,35.332763],[134.514103,35.333505],[134.513303,35.334263],[134.51254,35.334713],[134.512065,35.334888],[134.510828,35.335463],[134.509978,35.336021],[134.509666,35.336313],[134.509591,35.336496],[134.509566,35.336504],[134.509491,35.336513],[134.509216,35.337121],[134.508578,35.337712],[134.508216,35.337937],[134.507978,35.338162],[134.507616,35.338296],[134.507091,35.338412],[134.506816,35.338496],[134.507066,35.339021],[134.507316,35.339787],[134.507403,35.340479],[134.507641,35.341087],[134.507816,35.341229],[134.508766,35.341654],[134.509178,35.341945],[134.509316,35.342079],[134.509591,35.342712],[134.509728,35.343345],[134.509928,35.345187],[134.509491,35.346295],[134.509491,35.34672],[134.509678,35.347103],[134.510066,35.347536],[134.510228,35.347961],[134.510415,35.349295],[134.51039,35.349653],[134.510178,35.350711],[134.510365,35.350936],[134.510728,35.351186],[134.511353,35.351253],[134.511903,35.351186],[134.512653,35.351228],[134.512953,35.351386],[134.513115,35.351678],[134.513753,35.352469],[134.513853,35.353253],[134.513778,35.353794],[134.513715,35.353886],[134.513253,35.354094],[134.512403,35.354336],[134.51149,35.354519],[134.511215,35.354544],[134.510253,35.354877],[134.509078,35.355561],[134.508603,35.355786],[134.508228,35.356211],[134.508203,35.356486],[134.50809,35.356777],[134.507703,35.357094],[134.507103,35.358219],[134.506691,35.358535],[134.505616,35.359052],[134.504928,35.359235],[134.504353,35.359552],[134.504128,35.359818],[134.504078,35.360185],[134.504266,35.360743],[134.504466,35.361177],[134.504428,35.361335],[134.504016,35.361668],[134.503366,35.362368],[134.503303,35.362726],[134.503416,35.363676],[134.503328,35.364218],[134.503166,35.365301],[134.503028,35.365659],[134.502816,35.365884],[134.502816,35.365934],[134.502266,35.365868],[134.501466,35.366001],[134.501003,35.366268],[134.500616,35.366634],[134.499978,35.366926],[134.499728,35.366993],[134.499178,35.367059],[134.498116,35.366993],[134.497891,35.367043],[134.497429,35.367201],[134.497291,35.367218],[134.497276,35.367241],[134.497191,35.367309],[134.496641,35.367318],[134.496391,35.367268],[134.495454,35.366984],[134.495016,35.367076],[134.494116,35.367559],[134.493504,35.367718],[134.493091,35.367718],[134.492566,35.367793],[134.491966,35.368359],[134.491529,35.368518],[134.491042,35.368526],[134.490204,35.368418],[134.489767,35.368259],[134.489267,35.367993],[134.488967,35.367968],[134.488554,35.368584],[134.487929,35.368967],[134.487292,35.369201],[134.486767,35.369159],[134.486467,35.369292],[134.486279,35.369476],[134.48598,35.370067],[134.48593,35.370651],[134.485642,35.371084],[134.48493,35.371426],[134.483667,35.371859],[134.48358,35.371925],[134.483417,35.37245],[134.483155,35.37285],[134.482655,35.373109],[134.482017,35.373225],[134.481442,35.373292],[134.48043,35.374],[134.480218,35.374025],[134.479405,35.373692],[134.479055,35.373667],[134.478668,35.373759],[134.478255,35.373675],[134.477918,35.37365],[134.477655,35.373858],[134.477218,35.37445],[134.476305,35.374725],[134.47598,35.374767],[134.475181,35.374683],[134.474793,35.374708],[134.474656,35.375092],[134.474581,35.3755],[134.474368,35.375842],[134.473818,35.3762],[134.473381,35.376591],[134.473168,35.377],[134.473193,35.377333],[134.473093,35.377716],[134.472618,35.377966],[134.472381,35.378216],[134.472031,35.378983],[134.471706,35.379483],[134.471493,35.379933],[134.471468,35.380141],[134.471493,35.380791],[134.471906,35.382482],[134.472343,35.382949],[134.472681,35.383449],[134.473043,35.383891],[134.473131,35.384049],[134.473081,35.384482],[134.473118,35.384932],[134.473343,35.385607],[134.473456,35.385765],[134.473981,35.385915],[134.474393,35.386165],[134.474456,35.386365],[134.474318,35.386749],[134.474068,35.38709],[134.473856,35.387515],[134.473831,35.387765],[134.473893,35.388332],[134.474243,35.389473],[134.474268,35.389815],[134.474218,35.390065],[134.474006,35.39054],[134.473893,35.391006],[134.474093,35.391681],[134.474518,35.39209],[134.475043,35.392423],[134.475493,35.392848],[134.47588,35.393323],[134.476405,35.393748],[134.476768,35.394123],[134.47688,35.394598],[134.477493,35.395381],[134.477343,35.396106],[134.477268,35.396714],[134.477355,35.397656],[134.47728,35.398114],[134.477493,35.399597],[134.477443,35.400047],[134.477755,35.400722],[134.478055,35.400855],[134.478718,35.400922],[134.479218,35.401122],[134.479892,35.402063],[134.480255,35.402663],[134.48053,35.403255],[134.480517,35.403721],[134.480242,35.404038],[134.47983,35.404246],[134.479668,35.404563],[134.479768,35.406163],[134.47993,35.406388],[134.480517,35.406679],[134.480717,35.406971],[134.48078,35.407529],[134.481317,35.409487],[134.481442,35.410162],[134.481417,35.41037],[134.481042,35.411387],[134.48068,35.411795],[134.479918,35.412179],[134.47873,35.412637],[134.477343,35.413795],[134.476855,35.414137],[134.476743,35.414386],[134.476805,35.414611],[134.477168,35.41542],[134.477305,35.416053],[134.477105,35.417494],[134.477193,35.418128],[134.47748,35.418644],[134.477843,35.419136],[134.478268,35.419811],[134.478193,35.419827],[134.478218,35.419877],[134.478193,35.420194],[134.47828,35.420486],[134.47833,35.421144],[134.478143,35.421552],[134.477668,35.422094],[134.47728,35.422335],[134.476655,35.422652],[134.476455,35.422794],[134.476093,35.423219],[134.475993,35.423419],[134.47593,35.423735],[134.476205,35.424077],[134.47668,35.42426],[134.477705,35.424552],[134.478442,35.424985],[134.47883,35.424985],[134.47933,35.424827],[134.479692,35.424869],[134.479967,35.42521],[134.480042,35.425977],[134.480042,35.426877],[134.479854,35.42731],[134.479379,35.427652],[134.479192,35.427693],[134.478717,35.427918],[134.478367,35.42826],[134.478092,35.428593],[134.477705,35.42891],[134.477342,35.429118],[134.477367,35.429226],[134.477567,35.429543],[134.478229,35.430243],[134.479879,35.43106],[134.480517,35.431243],[134.481504,35.431218],[134.481841,35.431285],[134.482529,35.431585],[134.482779,35.431626],[134.483391,35.431826],[134.483854,35.432126],[134.485041,35.432734],[134.485153,35.432851],[134.485316,35.433118],[134.485316,35.433459],[134.485378,35.433551],[134.486041,35.433843],[134.485816,35.434426],[134.485816,35.434768],[134.485978,35.435059],[134.486366,35.435376],[134.487003,35.435759],[134.487053,35.436259],[134.487003,35.436776],[134.486816,35.437409],[134.486428,35.438109],[134.485928,35.438517],[134.485703,35.43865],[134.485515,35.438875],[134.485978,35.439334],[134.486203,35.439809],[134.486865,35.44055],[134.48709,35.440933],[134.487615,35.4413],[134.487965,35.4417],[134.48839,35.441908],[134.488853,35.442042],[134.48919,35.4422],[134.48919,35.44225],[134.48864,35.442875],[134.488578,35.44315],[134.488715,35.443808],[134.48864,35.444841],[134.48869,35.445633],[134.489077,35.446241],[134.489352,35.446874],[134.489577,35.447174],[134.490015,35.447491],[134.490127,35.447624],[134.490127,35.447958],[134.490352,35.448191],[134.49074,35.448433],[134.490765,35.448708],[134.490627,35.449183],[134.490702,35.449791],[134.490352,35.450041],[134.489577,35.450082],[134.489515,35.450066],[134.48894,35.450241],[134.488502,35.450557],[134.487865,35.451257],[134.487815,35.451374],[134.48809,35.451957],[134.488165,35.45234],[134.48814,35.452407],[134.488227,35.452632],[134.48864,35.452949],[134.488752,35.45309],[134.488777,35.453407],[134.488752,35.453565],[134.488777,35.453899],[134.488914,35.45424],[134.489052,35.45444],[134.489027,35.454582],[134.488752,35.455057],[134.488689,35.455507],[134.488664,35.455957],[134.488552,35.456315],[134.488686,35.456858],[134.488802,35.457606],[134.488664,35.458173],[134.488889,35.45869],[134.489103,35.459057],[134.489164,35.459665],[134.489189,35.459864],[134.488839,35.460723],[134.488914,35.461198],[134.489227,35.461606],[134.489552,35.461923],[134.489614,35.462031],[134.489614,35.462414],[134.489339,35.462956],[134.489139,35.463456],[134.489002,35.463972],[134.488914,35.464114],[134.488502,35.464447],[134.487427,35.464805],[134.487214,35.464947],[134.486739,35.464947],[134.486239,35.464989],[134.486052,35.465172],[134.485414,35.466839],[134.485164,35.467405],[134.485464,35.468063],[134.485889,35.468622],[134.486489,35.469055],[134.486851,35.469438],[134.487076,35.46998],[134.487101,35.470188],[134.486964,35.471205],[134.486576,35.47278],[134.485639,35.474113],[134.485589,35.474313],[134.486189,35.474654],[134.486601,35.474929],[134.487214,35.475179],[134.487464,35.475471],[134.488039,35.475879],[134.488314,35.476146],[134.488151,35.476713],[134.488314,35.477121],[134.488876,35.477688],[134.489339,35.477913],[134.489564,35.478113],[134.489651,35.478254],[134.489976,35.479179],[134.490089,35.479604],[134.489976,35.479921],[134.489889,35.479987],[134.489201,35.480146],[134.488651,35.480329],[134.488351,35.480462],[134.488376,35.480596],[134.488851,35.480846],[134.489564,35.481096],[134.490139,35.481637],[134.490801,35.481929],[134.491414,35.482162],[134.491476,35.482229],[134.491389,35.482546],[134.491001,35.483154],[134.490951,35.483537],[134.491364,35.484012],[134.491826,35.484329],[134.492276,35.484737],[134.492389,35.485637],[134.492326,35.48607],[134.492351,35.486337],[134.492439,35.486429],[134.492876,35.486587],[134.493489,35.48677],[134.493901,35.48697],[134.494101,35.48702],[134.494564,35.487037],[134.495289,35.486704],[134.495976,35.486612],[134.496451,35.486612],[134.497274,35.486876],[134.497376,35.487154],[134.497351,35.48757],[134.497338,35.488862],[134.497438,35.489312],[134.497463,35.489678],[134.497274,35.490168],[134.497026,35.490653],[134.497026,35.490728],[134.497138,35.490795],[134.497274,35.490735],[134.497276,35.49077],[134.497813,35.490853],[134.498101,35.490953],[134.498613,35.491203],[134.498938,35.491462],[134.499676,35.492153],[134.499988,35.492545],[134.500176,35.492995],[134.500301,35.493145],[134.501126,35.493803],[134.501588,35.49442],[134.501738,35.494895],[134.502563,35.495603],[134.502888,35.495795],[134.503288,35.495836],[134.503838,35.495911],[134.504238,35.496503],[134.504313,35.496503],[134.504475,35.496411],[134.504588,35.496403],[134.504963,35.496653],[134.505488,35.497186],[134.505938,35.497595],[134.506875,35.498503],[134.507688,35.49922],[134.508225,35.49962],[134.5096,35.50087],[134.510163,35.501328],[134.510325,35.501536],[134.510675,35.501794],[134.5112,35.502278],[134.511962,35.503153],[134.512187,35.503411],[134.512712,35.503903],[134.515112,35.505753],[134.5158,35.506361],[134.517149,35.507627],[134.517562,35.507369],[134.518349,35.506794],[134.518974,35.505978],[134.519199,35.505819],[134.520462,35.506161],[134.521424,35.506186],[134.521924,35.506319],[134.522399,35.506353],[134.522837,35.506469],[134.523137,35.506436],[134.523449,35.506244],[134.523674,35.506219],[134.523774,35.506736],[134.524474,35.506928],[134.524636,35.507078],[134.524836,35.507853],[134.525161,35.507828],[134.525349,35.507611],[134.525861,35.507453],[134.526636,35.506828],[134.527699,35.506069],[134.528124,35.505969],[134.528311,35.505811],[134.528749,35.505261],[134.528861,35.504986],[134.528961,35.504995],[134.529711,35.505536],[134.530399,35.505919],[134.530886,35.506511],[134.531511,35.506711],[134.531874,35.507086],[134.532261,35.507378],[134.532886,35.507578],[134.534498,35.507986],[134.535036,35.508303],[134.535523,35.508469],[134.536136,35.508428],[134.537398,35.508469],[134.537936,35.508311],[134.538561,35.508169],[134.539073,35.508203],[134.539348,35.508103],[134.540036,35.507644],[134.540148,35.507403],[134.540161,35.507036],[134.540198,35.506936],[134.540436,35.506786],[134.540835,35.506795],[134.541048,35.506853],[134.54156,35.507086],[134.542823,35.507795],[134.543523,35.507986],[134.544135,35.508095],[134.544748,35.508328],[134.546835,35.509061],[134.547273,35.509353],[134.547922,35.510136],[134.548322,35.510394],[134.548772,35.510503],[134.54911,35.510636],[134.549622,35.512036],[134.549822,35.512502],[134.550097,35.512944],[134.55026,35.513269],[134.550547,35.513461],[134.550885,35.513594],[134.551385,35.514361],[134.55116,35.514669],[134.550722,35.515019],[134.550347,35.515169],[134.549772,35.515219],[134.54881,35.515344],[134.54786,35.515627],[134.547347,35.515835],[134.54716,35.516052],[134.547085,35.516794],[134.54721,35.517594],[134.547197,35.518043],[134.546822,35.518777],[134.546835,35.519135],[134.547097,35.519552],[134.547372,35.519843],[134.547585,35.52056],[134.547897,35.521002],[134.548322,35.52146],[134.548822,35.521885],[134.549284,35.522551],[134.549334,35.522876],[134.549284,35.523001],[134.548722,35.523751],[134.548784,35.524185],[134.548972,35.524801],[134.549059,35.525509],[134.548997,35.526409],[134.548734,35.526676],[134.548397,35.526901],[134.548197,35.526968],[134.547647,35.527026],[134.547085,35.526851],[134.545285,35.526159],[134.544647,35.525868],[134.544222,35.525718],[134.543935,35.525734],[134.54386,35.525784],[134.54381,35.526076],[134.544372,35.527518],[134.544497,35.528034],[134.544347,35.530334],[134.543972,35.530859],[134.54376,35.531492],[134.543697,35.533117],[134.543447,35.534292],[134.542985,35.534967],[134.54296,35.535058],[134.543135,35.535508],[134.543922,35.53665],[134.544359,35.537042],[134.544759,35.537608],[134.545647,35.538333],[134.546059,35.5392],[134.546047,35.539583],[134.545659,35.54025],[134.545234,35.540666],[134.544822,35.5409],[134.544284,35.541058],[134.544022,35.541458],[134.543884,35.542041],[134.543709,35.542516],[134.543222,35.543199],[134.542947,35.543991],[134.542959,35.544483],[134.542872,35.544766],[134.542622,35.545083],[134.542672,35.545449],[134.542485,35.546191],[134.542597,35.546832],[134.543147,35.547607],[134.543672,35.548516],[134.544022,35.548857],[134.544584,35.549324],[134.544859,35.549682],[134.544847,35.549866],[134.544609,35.550291],[134.544184,35.550824],[134.543759,35.551915],[134.543047,35.552482],[134.542772,35.552915],[134.542222,35.553624],[134.541922,35.553907],[134.542097,35.55419],[134.542422,35.554857],[134.542659,35.55584],[134.542859,35.556257],[134.543197,35.556698],[134.544159,35.55739],[134.544547,35.557423],[134.545484,35.55724],[134.545947,35.557423],[134.546497,35.557782],[134.547184,35.558032],[134.547634,35.558373],[134.547734,35.558507],[134.548222,35.558915],[134.548709,35.559457],[134.548922,35.55994],[134.548859,35.560465],[134.548747,35.560907],[134.548897,35.56134],[134.550171,35.562873],[134.550296,35.56324],[134.550359,35.563656],[134.550471,35.564073],[134.551384,35.564065],[134.551896,35.564015],[134.552446,35.563931],[134.553009,35.563981],[134.553159,35.564115],[134.553259,35.564556],[134.553621,35.564881],[134.553909,35.564964],[134.555258,35.565089],[134.555608,35.565339],[134.555733,35.565481],[134.556233,35.565714],[134.556983,35.565964],[134.557446,35.566156],[134.557708,35.566223],[134.558308,35.566273],[134.559021,35.566114],[134.560146,35.565689],[134.560421,35.565673],[134.560533,35.565739],[134.56067,35.566139],[134.560783,35.566914],[134.561045,35.567023],[134.56237,35.566889],[134.56287,35.567056],[134.56327,35.567306],[134.563858,35.567731],[134.564308,35.567839],[134.56472,35.567681],[134.565208,35.567314],[134.565608,35.567048],[134.565807,35.567031],[134.567007,35.567339],[134.567832,35.567489],[134.568257,35.567756],[134.568657,35.568056],[134.569357,35.568406],[134.569857,35.568897],[134.570357,35.570081],[134.570769,35.570447],[134.571019,35.570572],[134.572357,35.571055],[134.572719,35.571455],[134.573319,35.572322],[134.573694,35.572789],[134.574406,35.573389],[134.575406,35.574005],[134.575831,35.57438],[134.575881,35.574488],[134.575881,35.574838],[134.576031,35.575097],[134.576481,35.57528],[134.577356,35.57548],[134.577931,35.575422],[134.578481,35.57548],[134.578918,35.575563],[134.580656,35.575713],[134.581206,35.575863],[134.581618,35.576222],[134.582369,35.576685],[134.583193,35.577063],[134.583618,35.577155],[134.583805,35.577438],[134.583868,35.578055],[134.583843,35.579113],[134.58398,35.57998],[134.584018,35.580488],[134.584118,35.580829],[134.58433,35.581196],[134.585543,35.581888],[134.585768,35.581921]]],"type":"Polygon"}}],"type":"FeatureCollection"}