{"features":[{"type":"Feature","properties":{"pref":"鳥取県","kuni_id":"K44","yomi":"けた","name":"気多","id":"G44005","kuni":"因幡","id_url":"G44005.html","kuni_url":"/kg/resource/K44.html"},"geometry":{"coordinates":[[[133.965184,35.522965],[133.965509,35.522848],[133.967634,35.522399],[133.968234,35.52224],[133.968671,35.522015],[133.969109,35.521857],[133.970071,35.52159],[133.970709,35.521765],[133.971009,35.521657],[133.971284,35.521632],[133.972021,35.521724],[133.972658,35.52219],[133.972958,35.522574],[133.973208,35.522757],[133.973571,35.522782],[133.973733,35.522849],[133.973783,35.523007],[133.973846,35.523049],[133.974171,35.52289],[133.974396,35.522849],[133.974583,35.522915],[133.974796,35.522757],[133.975133,35.522665],[133.975521,35.522615],[133.975871,35.522707],[133.976008,35.522774],[133.976396,35.522824],[133.977433,35.522549],[133.977571,35.52264],[133.977446,35.523049],[133.977496,35.523049],[133.977908,35.52284],[133.978208,35.522365],[133.978346,35.522324],[133.979995,35.522549],[133.980245,35.52264],[133.981045,35.523807],[133.981258,35.524215],[133.981558,35.524482],[133.98187,35.524598],[133.982195,35.524823],[133.982333,35.524982],[133.982333,35.525023],[133.982495,35.525115],[133.98252,35.525182],[133.982495,35.525365],[133.982583,35.525473],[133.982908,35.525365],[133.983158,35.524907],[133.983208,35.524732],[133.983458,35.524548],[133.98357,35.524257],[133.98352,35.524032],[133.983408,35.523832],[133.983645,35.523624],[133.983783,35.523107],[133.98382,35.522857],[133.98412,35.522699],[133.985495,35.522407],[133.985732,35.522432],[133.986257,35.522607],[133.987032,35.522765],[133.988457,35.522882],[133.989007,35.52299],[133.989557,35.52319],[133.989645,35.523332],[133.989945,35.523532],[133.989995,35.523849],[133.990407,35.52434],[133.990495,35.524499],[133.99052,35.524682],[133.991207,35.525465],[133.991407,35.525648],[133.991982,35.52544],[133.992369,35.525423],[133.992507,35.52544],[133.992969,35.525399],[133.993432,35.525307],[133.993869,35.525124],[133.994182,35.524924],[133.994669,35.524382],[133.994919,35.523799],[133.995032,35.523165],[133.995244,35.523257],[133.995244,35.523215],[133.995607,35.523349],[133.995632,35.523415],[133.995469,35.52384],[133.995494,35.524115],[133.995544,35.524249],[133.995657,35.524315],[133.996207,35.524224],[133.997276,35.524256],[133.997769,35.52444],[133.999556,35.524799],[134.000356,35.525224],[134.000794,35.525582],[134.000844,35.525724],[134.000844,35.525857],[134.000931,35.526149],[134.001069,35.526307],[134.001344,35.526324],[134.001456,35.526374],[134.001944,35.526823],[134.001944,35.52709],[134.001756,35.527432],[134.001731,35.527748],[134.002156,35.528015],[134.001756,35.528623],[134.002893,35.529357],[134.002406,35.529681],[134.002106,35.530023],[134.001969,35.530273],[134.002168,35.530523],[134.002268,35.53059],[134.002268,35.530765],[134.002056,35.530831],[134.001781,35.530698],[134.001556,35.530523],[134.001369,35.53054],[134.001319,35.530698],[134.001781,35.531423],[134.001669,35.531623],[134.001644,35.531806],[134.001806,35.531873],[134.002056,35.531848],[134.002306,35.531781],[134.002493,35.53194],[134.002543,35.53219],[134.002493,35.532431],[134.002543,35.532614],[134.002793,35.532589],[134.003231,35.532365],[134.003456,35.532498],[134.003731,35.532814],[134.003918,35.533173],[134.004193,35.533448],[134.004531,35.533631],[134.004781,35.534281],[134.004781,35.534639],[134.004643,35.535048],[134.004468,35.535273],[134.004468,35.535656],[134.004581,35.535997],[134.005106,35.536422],[134.005131,35.536489],[134.005518,35.536872],[134.006206,35.537347],[134.00653,35.537481],[134.006805,35.537731],[134.007218,35.537864],[134.007793,35.537881],[134.007993,35.537839],[134.008268,35.537706],[134.008518,35.537522],[134.008543,35.537272],[134.00928,35.536622],[134.009618,35.536414],[134.009855,35.536014],[134.01003,35.535948],[134.010468,35.535314],[134.01068,35.534839],[134.010818,35.534364],[134.010768,35.533848],[134.01143,35.533331],[134.011943,35.533031],[134.01198,35.53299],[134.011918,35.53274],[134.01178,35.532631],[134.01173,35.532515],[134.011805,35.53229],[134.012143,35.532115],[134.01288,35.531881],[134.01318,35.53164],[134.013268,35.53139],[134.013243,35.53119],[134.01318,35.531098],[134.013293,35.530915],[134.013355,35.530648],[134.013218,35.53024],[134.01308,35.52999],[134.01283,35.529832],[134.012743,35.52974],[134.012943,35.529565],[134.012993,35.529382],[134.013355,35.529223],[134.013593,35.529198],[134.013868,35.529582],[134.014205,35.529832],[134.01458,35.529923],[134.014967,35.529898],[134.015305,35.529807],[134.015355,35.529723],[134.015442,35.52934],[134.016042,35.52864],[134.01623,35.527757],[134.016205,35.527399],[134.01623,35.527265],[134.016367,35.527149],[134.016617,35.526674],[134.016642,35.526049],[134.016755,35.525616],[134.017967,35.524691],[134.018017,35.524624],[134.01808,35.524216],[134.01808,35.523791],[134.017967,35.523208],[134.01783,35.522933],[134.017442,35.522799],[134.017305,35.522599],[134.017442,35.522233],[134.017867,35.521749],[134.018267,35.521966],[134.01878,35.521666],[134.018205,35.521008],[134.01953,35.520541],[134.020267,35.520208],[134.023217,35.519592],[134.024004,35.519525],[134.025267,35.519325],[134.026567,35.519142],[134.026979,35.519167],[134.027417,35.519233],[134.028242,35.519025],[134.029966,35.518917],[134.032304,35.518642],[134.033766,35.518592],[134.033841,35.518575],[134.034453,35.518575],[134.035791,35.518659],[134.038491,35.518567],[134.039828,35.518659],[134.041453,35.518592],[134.041478,35.518609],[134.04319,35.518742],[134.043978,35.518767],[134.045077,35.518676],[134.045377,35.518742],[134.047577,35.518784],[134.048027,35.518767],[134.048927,35.518784],[134.050577,35.518742],[134.051152,35.518784],[134.051564,35.518851],[134.052139,35.518809],[134.052964,35.518826],[134.055602,35.519234],[134.057114,35.519184],[134.057639,35.519142],[134.058189,35.519184],[134.059476,35.519409],[134.060164,35.519384],[134.061051,35.519434],[134.062688,35.519651],[134.063513,35.519651],[134.064951,35.519834],[134.067588,35.519851],[134.068663,35.519901],[134.0694,35.520034],[134.071325,35.520484],[134.072088,35.520484],[134.0722,35.520459],[134.0727,35.520484],[134.074375,35.520843],[134.074675,35.520843],[134.075525,35.520909],[134.076162,35.520993],[134.0766,35.521176],[134.07685,35.521243],[134.077262,35.521284],[134.078225,35.521509],[134.07935,35.521918],[134.080062,35.522343],[134.080562,35.522551],[134.080974,35.522659],[134.081112,35.522793],[134.081462,35.523718],[134.081437,35.524126],[134.081524,35.524459],[134.081599,35.524617],[134.082149,35.525067],[134.082487,35.525251],[134.083799,35.525068],[134.084099,35.524976],[134.084487,35.524909],[134.084712,35.524843],[134.084924,35.524684],[134.085337,35.524101],[134.085636,35.524168],[134.085949,35.524393],[134.086111,35.524568],[134.086186,35.524618],[134.086661,35.524459],[134.086936,35.524326],[134.087074,35.524209],[134.087286,35.524143],[134.087561,35.524143],[134.087811,35.524251],[134.087786,35.524434],[134.087561,35.524476],[134.087599,35.524776],[134.087786,35.524793],[134.087974,35.524768],[134.088149,35.524409],[134.088286,35.524459],[134.088561,35.524634],[134.088586,35.524793],[134.088661,35.524818],[134.088774,35.524609],[134.088886,35.524543],[134.089049,35.524684],[134.089349,35.524834],[134.089436,35.525043],[134.089349,35.525376],[134.089349,35.525693],[134.089436,35.525743],[134.089874,35.525693],[134.090311,35.525401],[134.090586,35.525176],[134.091223,35.525018],[134.091523,35.524968],[134.091886,35.524818],[134.092098,35.524768],[134.092873,35.524501],[134.093748,35.524318],[134.094411,35.524293],[134.094461,35.524268],[134.095473,35.524251],[134.096086,35.524385],[134.096885,35.524451],[134.097185,35.524451],[134.098035,35.524535],[134.098585,35.524693],[134.09886,35.524876],[134.099085,35.52521],[134.098998,35.525526],[134.09911,35.525684],[134.09941,35.525934],[134.100073,35.526026],[134.100148,35.526251],[134.100235,35.526701],[134.100373,35.526901],[134.100735,35.526859],[134.100972,35.526901],[134.101335,35.526876],[134.101747,35.526743],[134.10131,35.525934],[134.100835,35.525301],[134.100623,35.525168],[134.100285,35.524851],[134.100035,35.524401],[134.099985,35.523926],[134.10031,35.52321],[134.100235,35.522377],[134.10031,35.52206],[134.100448,35.521835],[134.100473,35.521652],[134.100085,35.521002],[134.100085,35.520568],[134.100223,35.520102],[134.100285,35.51956],[134.100223,35.519044],[134.10011,35.518569],[134.10011,35.51821],[134.10001,35.517911],[134.099673,35.517802],[134.099535,35.517644],[134.099348,35.517127],[134.099173,35.515911],[134.098848,35.515327],[134.098761,35.514944],[134.098686,35.514219],[134.098548,35.513586],[134.097986,35.51237],[134.097298,35.51127],[134.097248,35.510728],[134.097411,35.51057],[134.098398,35.510078],[134.098536,35.509803],[134.098536,35.509403],[134.098398,35.508878],[134.098211,35.508428],[134.098173,35.50807],[134.098723,35.506879],[134.098886,35.506362],[134.098911,35.50512],[134.098998,35.504937],[134.099248,35.504671],[134.099498,35.504512],[134.099573,35.504396],[134.099661,35.503837],[134.099898,35.503404],[134.099961,35.503146],[134.099848,35.503121],[134.099636,35.502921],[134.099161,35.502263],[134.098773,35.502021],[134.098498,35.501729],[134.098311,35.501429],[134.098011,35.501204],[134.097698,35.501054],[134.097511,35.500846],[134.097623,35.500646],[134.097898,35.500396],[134.097998,35.500146],[134.097923,35.500063],[134.097586,35.499879],[134.097261,35.499613],[134.096761,35.498571],[134.096761,35.498171],[134.096899,35.497646],[134.096761,35.497338],[134.096461,35.496955],[134.096324,35.49578],[134.096461,35.49553],[134.096649,35.495372],[134.096561,35.495063],[134.096349,35.49463],[134.096349,35.493955],[134.096186,35.493572],[134.096261,35.493238],[134.096486,35.492855],[134.096649,35.492155],[134.096861,35.491972],[134.097224,35.491339],[134.097161,35.491164],[134.096786,35.490914],[134.096536,35.490597],[134.096586,35.490106],[134.096536,35.489672],[134.096286,35.489272],[134.096149,35.489181],[134.095711,35.489064],[134.095299,35.488864],[134.094937,35.488614],[134.094499,35.488372],[134.094024,35.487964],[134.093837,35.487564],[134.093474,35.486956],[134.092874,35.485214],[134.092399,35.484339],[134.092187,35.483481],[134.091962,35.482965],[134.091737,35.482581],[134.091462,35.481815],[134.091212,35.481348],[134.090362,35.480082],[134.090037,35.47934],[134.089837,35.478665],[134.089512,35.478082],[134.089262,35.477807],[134.089562,35.477607],[134.0897,35.477565],[134.089925,35.477407],[134.08995,35.476907],[134.089862,35.475715],[134.089725,35.475307],[134.089637,35.475174],[134.089225,35.47499],[134.088763,35.474699],[134.088575,35.474432],[134.088513,35.474049],[134.0886,35.472857],[134.088625,35.471816],[134.088925,35.471457],[134.089363,35.471166],[134.089063,35.470282],[134.089225,35.469408],[134.089388,35.469133],[134.089438,35.468891],[134.089413,35.468774],[134.089063,35.468233],[134.088838,35.467399],[134.088813,35.467108],[134.088838,35.467016],[134.089188,35.466683],[134.089875,35.466233],[134.090075,35.466141],[134.090175,35.465933],[134.09015,35.465825],[134.089275,35.464766],[134.088975,35.464333],[134.088825,35.463883],[134.088338,35.46335],[134.087788,35.462825],[134.086988,35.462],[134.086963,35.461658],[134.087038,35.460917],[134.086901,35.460192],[134.086763,35.460017],[134.086351,35.459633],[134.085776,35.459],[134.085688,35.458684],[134.085638,35.457984],[134.085551,35.457584],[134.085713,35.4572],[134.085826,35.457084],[134.086076,35.456251],[134.086126,35.456184],[134.086426,35.456117],[134.086813,35.456067],[134.087038,35.455801],[134.087201,35.455442],[134.087013,35.454992],[134.086076,35.453843],[134.085851,35.453343],[134.085876,35.452959],[134.085939,35.452693],[134.085901,35.452334],[134.086176,35.451951],[134.086789,35.451726],[134.086951,35.451701],[134.087201,35.451585],[134.087339,35.451343],[134.087414,35.450868],[134.087301,35.45051],[134.086951,35.450126],[134.086264,35.449851],[134.085989,35.44956],[134.085739,35.448343],[134.085764,35.448185],[134.085951,35.448077],[134.086364,35.448077],[134.086501,35.447985],[134.087051,35.447393],[134.087051,35.447235],[134.086526,35.44636],[134.085701,35.445594],[134.085426,35.445369],[134.085314,35.445035],[134.085039,35.444652],[134.084764,35.444152],[134.083839,35.443385],[134.083477,35.44316],[134.083589,35.442935],[134.083614,35.44271],[134.083589,35.442244],[134.083477,35.441786],[134.083252,35.441427],[134.083064,35.441252],[134.082814,35.441136],[134.082814,35.440911],[134.083227,35.439944],[134.083439,35.439244],[134.083689,35.437844],[134.084077,35.436695],[134.084152,35.436203],[134.084152,35.435728],[134.084102,35.435345],[134.083689,35.434828],[134.083714,35.434378],[134.083877,35.433903],[134.083877,35.433545],[134.083602,35.432778],[134.083002,35.431787],[134.08269,35.430979],[134.08244,35.430479],[134.08214,35.430029],[134.081427,35.429245],[134.08099,35.428837],[134.080027,35.42812],[134.07959,35.427554],[134.079252,35.427062],[134.078652,35.426537],[134.078127,35.426362],[134.077552,35.426229],[134.077052,35.426229],[134.076677,35.426162],[134.076265,35.425862],[134.075902,35.425346],[134.075515,35.425037],[134.074778,35.424721],[134.074478,35.424446],[134.074165,35.423796],[134.073565,35.423754],[134.072578,35.423529],[134.072078,35.423371],[134.071203,35.422871],[134.070515,35.422696],[134.070103,35.422379],[134.069228,35.421813],[134.068703,35.421704],[134.068066,35.421663],[134.067353,35.421571],[134.066728,35.421412],[134.066141,35.421163],[134.065216,35.420646],[134.064628,35.420104],[134.064416,35.419971],[134.064141,35.419946],[134.063778,35.420063],[134.062629,35.420804],[134.061966,35.421054],[134.061529,35.421029],[134.061229,35.420879],[134.060729,35.420721],[134.060354,35.420737],[134.059966,35.420921],[134.059691,35.420987],[134.059191,35.420987],[134.058979,35.421104],[134.058779,35.421554],[134.058641,35.421754],[134.058541,35.421821],[134.057791,35.421437],[134.057491,35.421462],[134.056829,35.421937],[134.055904,35.421912],[134.055017,35.422229],[134.054829,35.422096],[134.054579,35.421762],[134.053729,35.421287],[134.052929,35.420996],[134.052679,35.420587],[134.052404,35.420362],[134.05153,35.419821],[134.051042,35.419671],[134.050492,35.419554],[134.050017,35.419537],[134.049692,35.419446],[134.04923,35.419196],[134.04853,35.418637],[134.047655,35.418362],[134.04733,35.418204],[134.047055,35.417829],[134.047105,35.417288],[134.047355,35.416179],[134.04713,35.414646],[134.04718,35.413813],[134.046968,35.413338],[134.046493,35.41273],[134.046218,35.412196],[134.045568,35.41138],[134.044243,35.410255],[134.043556,35.409805],[134.042669,35.409155],[134.042294,35.40873],[134.042256,35.408655],[134.042506,35.408139],[134.042531,35.40778],[134.042481,35.406947],[134.042344,35.405456],[134.042181,35.405214],[134.041731,35.404781],[134.041707,35.403706],[134.041519,35.403114],[134.041269,35.402531],[134.040994,35.402189],[134.040107,35.401589],[134.040057,35.401498],[134.039944,35.400389],[134.039945,35.399831],[134.040107,35.398748],[134.039895,35.398248],[134.039757,35.397706],[134.039695,35.397148],[134.039807,35.395657],[134.039995,35.395098],[134.040082,35.394573],[134.039832,35.393315],[134.039882,35.39309],[134.04027,35.392415],[134.040607,35.39194],[134.040907,35.391215],[134.041345,35.390882],[134.041482,35.390832],[134.042007,35.390407],[134.042332,35.389549],[134.042857,35.38939],[134.043182,35.389141],[134.043457,35.389007],[134.044032,35.389166],[134.044507,35.389074],[134.045769,35.389116],[134.046094,35.388941],[134.046369,35.388599],[134.046481,35.387966],[134.046944,35.387541],[134.047219,35.387341],[134.047306,35.386841],[134.047281,35.386232],[134.047669,35.385782],[134.048294,35.385491],[134.048619,35.385174],[134.048206,35.384791],[134.047994,35.384183],[134.047356,35.383708],[134.047144,35.383324],[134.046781,35.382849],[134.045494,35.382091],[134.045157,35.381708],[134.045044,35.381233],[134.044994,35.380625],[134.044769,35.380058],[134.044494,35.379725],[134.044332,35.379225],[134.044332,35.379066],[134.044694,35.378683],[134.045319,35.378233],[134.046119,35.377517],[134.046094,35.3774],[134.045894,35.377308],[134.045294,35.377375],[134.044769,35.377267],[134.044219,35.377292],[134.043532,35.377517],[134.042957,35.377583],[134.042132,35.377491],[134.041994,35.377475],[134.041394,35.377566],[134.040982,35.377583],[134.040544,35.37745],[134.039857,35.37745],[134.038832,35.377591],[134.037957,35.377791],[134.037182,35.378058],[134.03612,35.378516],[134.035233,35.378916],[134.034658,35.37915],[134.034058,35.3791],[134.03347,35.379166],[134.032545,35.3794],[134.031933,35.37935],[134.031658,35.379258],[134.031145,35.3796],[134.029933,35.380208],[134.028883,35.380616],[134.02842,35.380974],[134.027821,35.381199],[134.026996,35.382283],[134.026521,35.382491],[134.025971,35.382533],[134.025033,35.382758],[134.024021,35.383099],[134.023283,35.383574],[134.022646,35.384116],[134.022158,35.384249],[134.021196,35.384432],[134.020446,35.384499],[134.020396,35.384591],[134.019683,35.384999],[134.019296,35.385357],[134.018834,35.385874],[134.018334,35.386149],[134.017921,35.386191],[134.017459,35.386599],[134.016846,35.386865],[134.016296,35.386874],[134.015771,35.386715],[134.015221,35.38649],[134.014709,35.386215],[134.013446,35.387615],[134.013246,35.387732],[134.012921,35.38784],[134.012784,35.38784],[134.011321,35.388274],[134.010746,35.388632],[134.010146,35.388682],[134.009559,35.38859],[134.009046,35.388565],[134.008571,35.388182],[134.008384,35.387957],[134.008184,35.388565],[134.007809,35.389265],[134.007634,35.389315],[134.007259,35.389332],[134.006921,35.389473],[134.006409,35.389807],[134.005796,35.390057],[134.005084,35.389882],[134.004784,35.389607],[134.004259,35.39004],[134.004071,35.390532],[134.003934,35.39069],[134.003709,35.390757],[134.003109,35.390848],[134.002859,35.390848],[134.002471,35.390715],[134.001971,35.390448],[134.000322,35.389748],[133.999722,35.38934],[133.999472,35.389232],[133.999309,35.389365],[133.998922,35.389948],[133.998434,35.390223],[133.998047,35.390315],[133.997684,35.390565],[133.997322,35.390536],[133.997184,35.390606],[133.996934,35.39054],[133.996697,35.390581],[133.996284,35.390581],[133.996084,35.390631],[133.996059,35.390606],[133.995534,35.391415],[133.994884,35.39184],[133.994634,35.391931],[133.993697,35.392073],[133.993234,35.392248],[133.991934,35.392948],[133.991584,35.393239],[133.991284,35.393648],[133.991122,35.394006],[133.990984,35.394498],[133.990934,35.395014],[133.990984,35.395689],[133.990909,35.396297],[133.991759,35.397189],[133.992259,35.397622],[133.992484,35.398022],[133.992484,35.398131],[133.992234,35.39858],[133.992209,35.398722],[133.992322,35.399055],[133.992622,35.399439],[133.993322,35.399972],[133.993922,35.400672],[133.994584,35.401097],[133.994747,35.401164],[133.995247,35.401472],[133.995447,35.401764],[133.995384,35.401789],[133.994922,35.40228],[133.994809,35.402488],[133.994809,35.402888],[133.995172,35.40338],[133.995472,35.403697],[133.995997,35.40403],[133.996609,35.404347],[133.997321,35.404618],[133.997722,35.405213],[133.997884,35.405322],[133.998072,35.405388],[133.998846,35.405413],[133.999334,35.405597],[134.000609,35.406247],[134.000796,35.406496],[134.000771,35.406738],[134.000571,35.407055],[134.000359,35.407621],[134.000296,35.408096],[133.999721,35.408638],[133.999371,35.409155],[133.999284,35.409646],[133.999284,35.410096],[133.999009,35.410954],[133.998759,35.411479],[133.997884,35.412312],[133.997521,35.412987],[133.997279,35.413119],[133.997197,35.413129],[133.996947,35.413196],[133.996559,35.413062],[133.996209,35.413062],[133.996097,35.413079],[133.995847,35.413329],[133.995072,35.413962],[133.994947,35.414295],[133.994972,35.414637],[133.994834,35.414812],[133.994334,35.414945],[133.994172,35.415129],[133.994334,35.415287],[133.994809,35.415462],[133.994672,35.41562],[133.994347,35.41567],[133.994234,35.415712],[133.994034,35.415912],[133.993984,35.416187],[133.993934,35.416945],[133.993847,35.41742],[133.993834,35.418295],[133.994022,35.418653],[133.994772,35.419261],[133.995097,35.419345],[133.995434,35.419528],[133.995547,35.41982],[133.995647,35.419936],[133.995697,35.420078],[133.995896,35.420436],[133.995834,35.421245],[133.996184,35.422353],[133.996171,35.422511],[133.996096,35.422669],[133.995671,35.423028],[133.995446,35.423136],[133.994922,35.423203],[133.994572,35.423294],[133.994222,35.423469],[133.993834,35.423561],[133.993684,35.423486],[133.992922,35.422961],[133.992147,35.422844],[133.991747,35.422794],[133.991097,35.422519],[133.990447,35.421911],[133.989185,35.420636],[133.988985,35.420503],[133.988835,35.420703],[133.988497,35.420878],[133.987872,35.421119],[133.987397,35.421411],[133.986822,35.421611],[133.986622,35.421653],[133.98541,35.422211],[133.98521,35.422461],[133.984747,35.423602],[133.98446,35.424119],[133.984235,35.424236],[133.98376,35.424277],[133.983435,35.424452],[133.98341,35.424744],[133.983235,35.425035],[133.98301,35.425144],[133.982522,35.425277],[133.981998,35.425319],[133.981473,35.425227],[133.981098,35.424927],[133.980898,35.424702],[133.980585,35.424427],[133.980385,35.42441],[133.979823,35.424519],[133.979273,35.424669],[133.978448,35.425044],[133.978073,35.42516],[133.977498,35.42486],[133.977348,35.424877],[133.976973,35.424469],[133.976498,35.424177],[133.976098,35.424019],[133.975498,35.423944],[133.974248,35.423935],[133.974123,35.423885],[133.973998,35.42371],[133.973336,35.42291],[133.972611,35.422277],[133.972486,35.422211],[133.971686,35.422469],[133.971286,35.42236],[133.970961,35.422102],[133.970811,35.422152],[133.970699,35.422352],[133.970574,35.422694],[133.969999,35.423335],[133.969436,35.423744],[133.968786,35.424077],[133.968236,35.424185],[133.966886,35.424035],[133.966286,35.424102],[133.965999,35.424235],[133.965549,35.424502],[133.965224,35.424952],[133.964986,35.42601],[133.964749,35.426593],[133.964524,35.426776],[133.964149,35.426818],[133.963724,35.426951],[133.963499,35.427101],[133.962674,35.427026],[133.962224,35.427051],[133.961724,35.426976],[133.961424,35.426976],[133.960412,35.427351],[133.960312,35.427351],[133.959837,35.42721],[133.959162,35.42721],[133.958712,35.427385],[133.958312,35.427451],[133.957037,35.427509],[133.956475,35.427576],[133.955775,35.427609],[133.9551,35.427518],[133.95445,35.427493],[133.95395,35.427351],[133.9534,35.427368],[133.952775,35.427543],[133.9522,35.427651],[133.951738,35.427851],[133.951513,35.428009],[133.951113,35.428659],[133.950975,35.429542],[133.950825,35.429784],[133.950575,35.429917],[133.950238,35.430259],[133.950063,35.430709],[133.950038,35.431317],[133.950175,35.43265],[133.950113,35.433184],[133.950613,35.434092],[133.950725,35.435159],[133.95095,35.4357],[133.951525,35.435883],[133.951625,35.435975],[133.951288,35.436242],[133.951113,35.436467],[133.950863,35.436867],[133.950488,35.436775],[133.950013,35.436617],[133.949588,35.436592],[133.948963,35.436675],[133.948125,35.437008],[133.94785,35.437408],[133.9478,35.437867],[133.947888,35.438383],[133.948038,35.438833],[133.948063,35.439125],[133.94765,35.43985],[133.947488,35.440925],[133.947513,35.441624],[133.948525,35.442849],[133.94865,35.442941],[133.948825,35.443191],[133.9489,35.443599],[133.949388,35.443941],[133.949713,35.444083],[133.949763,35.444149],[133.949813,35.444416],[133.949788,35.444799],[133.949813,35.445274],[133.949925,35.445482],[133.9508,35.446774],[133.951062,35.447449],[133.951262,35.448199],[133.951625,35.448807],[133.951825,35.449082],[133.951875,35.449482],[133.951637,35.45059],[133.951762,35.450682],[133.952137,35.45064],[133.953175,35.45024],[133.953525,35.450332],[133.953575,35.450374],[133.953662,35.450649],[133.953637,35.450965],[133.95335,35.45184],[133.952975,35.452607],[133.952887,35.453057],[133.952487,35.453615],[133.952312,35.454023],[133.95195,35.454223],[133.951475,35.454423],[133.9508,35.454506],[133.950375,35.454506],[133.9496,35.454856],[133.949187,35.455173],[133.948813,35.455256],[133.948313,35.455231],[133.948088,35.455256],[133.948038,35.45564],[133.948025,35.455973],[133.948175,35.456698],[133.947913,35.457489],[133.947325,35.458631],[133.947025,35.459056],[133.946825,35.459531],[133.946513,35.460772],[133.946075,35.46178],[133.946175,35.461964],[133.946475,35.462239],[133.946613,35.462505],[133.946513,35.46343],[133.9466,35.463947],[133.9469,35.464289],[133.94725,35.464455],[133.94735,35.46468],[133.947375,35.465063],[133.947625,35.46538],[133.948062,35.465763],[133.948087,35.465988],[133.947887,35.466872],[133.947975,35.46728],[133.948387,35.468613],[133.948487,35.469105],[133.948812,35.469696],[133.9495,35.470463],[133.950099,35.471421],[133.950212,35.471829],[133.950137,35.472438],[133.950162,35.472888],[133.950299,35.473296],[133.950674,35.473771],[133.951124,35.474271],[133.951649,35.474746],[133.951887,35.475246],[133.952012,35.475721],[133.951962,35.476104],[133.951949,35.476554],[133.951999,35.477004],[133.952037,35.478087],[133.952149,35.479329],[133.952374,35.480137],[133.952774,35.48062],[133.953286,35.48107],[133.953411,35.48152],[133.953261,35.48197],[133.953536,35.481978],[133.953836,35.48207],[133.954224,35.482503],[133.954374,35.48282],[133.954149,35.483178],[133.954024,35.483445],[133.954111,35.483878],[133.953986,35.484411],[133.954274,35.485569],[133.955374,35.485819],[133.955774,35.485986],[133.955899,35.486144],[133.955599,35.486369],[133.955274,35.486886],[133.955011,35.487403],[133.954586,35.487669],[133.954299,35.488544],[133.954249,35.488586],[133.954524,35.488727],[133.954699,35.488952],[133.954736,35.489677],[133.954861,35.490127],[133.955111,35.490577],[133.955086,35.490961],[133.955398,35.49166],[133.955348,35.491819],[133.955073,35.49211],[133.955161,35.492635],[133.955411,35.492885],[133.955786,35.493177],[133.956011,35.493452],[133.956086,35.49386],[133.956523,35.494602],[133.956623,35.495035],[133.956661,35.496318],[133.956486,35.496835],[133.956436,35.496835],[133.956198,35.496951],[133.956173,35.497035],[133.956198,35.497401],[133.956823,35.49801],[133.957098,35.498351],[133.957111,35.498643],[133.957036,35.499093],[133.957361,35.499301],[133.95816,35.499468],[133.95841,35.499759],[133.958785,35.500284],[133.95931,35.500326],[133.959935,35.500334],[133.96036,35.500451],[133.961398,35.501359],[133.961948,35.501634],[133.962698,35.501868],[133.963297,35.502159],[133.963797,35.502459],[133.964022,35.502709],[133.964297,35.503142],[133.96436,35.503209],[133.964335,35.503251],[133.96436,35.503592],[133.964535,35.504334],[133.964697,35.504584],[133.965047,35.504717],[133.96591,35.504892],[133.966285,35.505076],[133.966485,35.505301],[133.967084,35.505684],[133.967334,35.505909],[133.967797,35.506742],[133.968322,35.507259],[133.968709,35.50755],[133.969322,35.508275],[133.969422,35.508609],[133.969284,35.50915],[133.969122,35.509558],[133.968572,35.510275],[133.968547,35.510417],[133.968909,35.510642],[133.969397,35.510883],[133.969759,35.51125],[133.970446,35.511858],[133.970809,35.512233],[133.970884,35.512416],[133.970946,35.512916],[133.970559,35.514333],[133.970559,35.514558],[133.970696,35.515349],[133.970671,35.515866],[133.970721,35.516424],[133.970759,35.517258],[133.970621,35.517824],[133.970396,35.518324],[133.970071,35.518791],[133.968921,35.519874],[133.968534,35.520465],[133.968096,35.520865],[133.966859,35.521774],[133.966234,35.522132],[133.965709,35.522332],[133.965184,35.522465],[133.965184,35.522965]]],"type":"Polygon"}}],"type":"FeatureCollection"}