{"type":"FeatureCollection","features":[{"geometry":{"coordinates":[[[133.119342,35.580976],[133.11918,35.580909],[133.119042,35.580776],[133.11873,35.580709],[133.118105,35.580726],[133.11783,35.580659],[133.117942,35.580501],[133.118267,35.580526],[133.118542,35.580484],[133.118792,35.580168],[133.119117,35.580118],[133.119642,35.579984],[133.119805,35.579893],[133.120055,35.579643],[133.120105,35.579376],[133.12008,35.579085],[133.120717,35.578926],[133.121155,35.578743],[133.121342,35.578635],[133.12148,35.578426],[133.12208,35.57836],[133.12233,35.578293],[133.122383,35.578211],[133.122492,35.578168],[133.122605,35.577943],[133.122655,35.577901],[133.12283,35.577918],[133.123092,35.578035],[133.123217,35.577985],[133.123417,35.577602],[133.123567,35.578368],[133.123679,35.57846],[133.124554,35.578568],[133.124842,35.578635],[133.124929,35.578593],[133.125042,35.578252],[133.125154,35.578143],[133.125067,35.577985],[133.124829,35.577735],[133.124779,35.577102],[133.124654,35.576927],[133.124479,35.576835],[133.124504,35.576493],[133.124629,35.576268],[133.125229,35.576152],[133.125442,35.576152],[133.125879,35.576585],[133.126317,35.576894],[133.126479,35.576985],[133.126654,35.577168],[133.127129,35.57721],[133.127441,35.57746],[133.127679,35.577594],[133.127704,35.577727],[133.127354,35.577885],[133.126891,35.578027],[133.126516,35.578185],[133.126342,35.578293],[133.126254,35.57861],[133.126579,35.578727],[133.127654,35.57856],[133.127741,35.578493],[133.128004,35.578493],[133.128316,35.578677],[133.128354,35.578877],[133.128141,35.57906],[133.128154,35.579285],[133.128241,35.57951],[133.128291,35.579535],[133.128416,35.579802],[133.128416,35.579918],[133.128616,35.580118],[133.128966,35.580252],[133.129191,35.580227],[133.129429,35.580093],[133.129716,35.580118],[133.129953,35.580185],[133.130041,35.580185],[133.130066,35.580293],[133.130153,35.58036],[133.130328,35.580293],[133.130391,35.580068],[133.130241,35.579793],[133.130203,35.579635],[133.130266,35.579552],[133.130616,35.579502],[133.130853,35.579502],[133.130878,35.57946],[133.130816,35.579302],[133.131078,35.579277],[133.131166,35.579302],[133.131191,35.579435],[133.131491,35.579594],[133.131578,35.579752],[133.131428,35.579927],[133.131691,35.580019],[133.131928,35.580177],[133.132128,35.580219],[133.132041,35.580493],[133.131891,35.580677],[133.132066,35.580718],[133.133028,35.58056],[133.133178,35.580735],[133.133428,35.580535],[133.13369,35.580469],[133.133753,35.58096],[133.133665,35.581277],[133.134015,35.581568],[133.134428,35.581685],[133.134915,35.58166],[133.135065,35.581569],[133.135178,35.581385],[133.135265,35.58136],[133.13544,35.581044],[133.136053,35.581477],[133.13634,35.581994],[133.136578,35.581927],[133.136865,35.581785],[133.136952,35.581519],[133.137065,35.581402],[133.137202,35.581335],[133.137465,35.58111],[133.137902,35.581402],[133.137815,35.58156],[133.13794,35.58176],[133.138227,35.58181],[133.138427,35.581652],[133.138427,35.581602],[133.138577,35.581535],[133.139215,35.581511],[133.139615,35.581552],[133.139877,35.581469],[133.140015,35.581011],[133.140427,35.580944],[133.14034,35.580852],[133.140077,35.580694],[133.140077,35.580561],[133.140477,35.580519],[133.140652,35.580469],[133.140565,35.580311],[133.140215,35.580152],[133.14039,35.580086],[133.140565,35.580061],[133.140627,35.579677],[133.140939,35.579611],[133.140802,35.579411],[133.140877,35.579161],[133.140852,35.579094],[133.14079,35.579094],[133.140627,35.579186],[133.14039,35.579211],[133.14004,35.579319],[133.139727,35.579502],[133.138915,35.579661],[133.138877,35.579144],[133.13879,35.578919],[133.138565,35.578827],[133.138215,35.579077],[133.138127,35.579261],[133.137727,35.579394],[133.137315,35.579461],[133.137078,35.579377],[133.136828,35.579327],[133.13659,35.579352],[133.136353,35.579419],[133.136103,35.579311],[133.13584,35.579244],[133.135778,35.578611],[133.135565,35.578452],[133.13514,35.578386],[133.134903,35.578502],[133.134615,35.578702],[133.134615,35.578885],[133.134678,35.579085],[133.134478,35.579269],[133.134003,35.579294],[133.133403,35.57911],[133.132991,35.578952],[133.132666,35.578752],[133.132066,35.578077],[133.132003,35.577969],[133.132053,35.577877],[133.132028,35.577785],[133.131916,35.57776],[133.131716,35.577902],[133.131541,35.577902],[133.131303,35.57781],[133.130516,35.57786],[133.130004,35.577794],[133.129916,35.577652],[133.129966,35.577135],[133.130054,35.576952],[133.130229,35.576819],[133.130229,35.57671],[133.130341,35.576594],[133.130391,35.575936],[133.130479,35.575852],[133.130741,35.575761],[133.131004,35.575961],[133.131041,35.576119],[133.131328,35.576119],[133.131441,35.576186],[133.132603,35.575752],[133.133003,35.576136],[133.133128,35.575819],[133.132303,35.574786],[133.132941,35.573928],[133.133466,35.573811],[133.133816,35.573628],[133.134191,35.573178],[133.134303,35.57282],[133.134266,35.57167],[133.134466,35.571436],[133.134841,35.571395],[133.135366,35.571012],[133.135653,35.570895],[133.136028,35.570803],[133.136178,35.570803],[133.136265,35.570645],[133.136615,35.570303],[133.136753,35.57022],[133.13719,35.570078],[133.137565,35.570053],[133.137453,35.570237],[133.137515,35.57037],[133.137803,35.570278],[133.137915,35.57042],[133.138203,35.570462],[133.138378,35.570329],[133.138403,35.570237],[133.138378,35.570012],[133.138115,35.569762],[133.13829,35.569195],[133.138428,35.569012],[133.138603,35.568995],[133.138715,35.568854],[133.13834,35.568362],[133.138278,35.568095],[133.13854,35.567862],[133.138603,35.567912],[133.138915,35.568004],[133.13909,35.567887],[133.139203,35.567637],[133.139503,35.567796],[133.13964,35.567837],[133.140252,35.567862],[133.140427,35.567746],[133.140365,35.567571],[133.140452,35.567321],[133.140427,35.567112],[133.140252,35.566871],[133.140103,35.565813],[133.139578,35.565671],[133.13929,35.565429],[133.139165,35.564821],[133.138965,35.564529],[133.138878,35.564054],[133.13884,35.563513],[133.138928,35.56268],[133.13939,35.56218],[133.140428,35.561255],[133.14089,35.56093],[133.141502,35.560797],[133.14179,35.560797],[133.141965,35.560955],[133.142252,35.561063],[133.142577,35.560972],[133.142865,35.560722],[133.143152,35.560655],[133.143502,35.56068],[133.143727,35.560905],[133.143965,35.561014],[133.144027,35.561014],[133.14399,35.560722],[133.14434,35.56068],[133.144539,35.560922],[133.144664,35.561239],[133.144889,35.561239],[133.145302,35.561147],[133.145327,35.56108],[133.145264,35.560739],[133.145527,35.560722],[133.145827,35.561147],[133.146227,35.561189],[133.146289,35.560989],[133.146514,35.56058],[133.146602,35.560539],[133.146889,35.560989],[133.147239,35.561322],[133.147589,35.56173],[133.147889,35.561972],[133.148326,35.562222],[133.148551,35.562247],[133.148639,35.562222],[133.148789,35.561997],[133.148926,35.561905],[133.149076,35.56168],[133.149101,35.561247],[133.149789,35.560956],[133.150139,35.560731],[133.150551,35.560072],[133.150689,35.559714],[133.150889,35.559531],[133.151264,35.559439],[133.151789,35.559464],[133.152401,35.559598],[133.152951,35.559839],[133.153451,35.560314],[133.153651,35.560631],[133.153738,35.560989],[133.153626,35.561264],[133.153451,35.561464],[133.153276,35.561531],[133.152988,35.561831],[133.153013,35.562139],[133.153138,35.562297],[133.153338,35.562439],[133.153801,35.562931],[133.154101,35.563131],[133.154276,35.563356],[133.154476,35.563539],[133.154651,35.563564],[133.154913,35.562947],[133.154988,35.562364],[133.155026,35.562389],[133.155051,35.562164],[133.154463,35.562006],[133.154501,35.561797],[133.154351,35.561597],[133.154438,35.561306],[133.154576,35.561148],[133.155163,35.560848],[133.155801,35.560623],[133.156201,35.560598],[133.156526,35.560648],[133.15655,35.560731],[133.156525,35.561389],[133.156638,35.561656],[133.156988,35.561998],[133.157975,35.562464],[133.158388,35.562064],[133.160037,35.562848],[133.159875,35.563273],[133.16005,35.563498],[133.1601,35.563798],[133.160012,35.563931],[133.159437,35.564131],[133.159125,35.564131],[133.158863,35.564206],[133.1586,35.564456],[133.158338,35.564297],[133.158075,35.564297],[133.157875,35.564522],[133.157825,35.565156],[133.157738,35.565222],[133.157325,35.565314],[133.156488,35.565339],[133.156225,35.56538],[133.156225,35.565539],[133.15655,35.565722],[133.156813,35.565922],[133.1573,35.565964],[133.157763,35.566055],[133.157738,35.566347],[133.157763,35.566464],[133.158237,35.566889],[133.1582,35.566955],[133.157975,35.56698],[133.158262,35.567339],[133.1589,35.56768],[133.159425,35.567855],[133.159775,35.568055],[133.159862,35.568239],[133.15975,35.56853],[133.159987,35.568805],[133.159837,35.569055],[133.15975,35.569122],[133.159662,35.569372],[133.159637,35.569613],[133.159812,35.569888],[133.159987,35.570022],[133.159987,35.570313],[133.160075,35.570497],[133.160337,35.57043],[133.160575,35.570422],[133.160312,35.571513],[133.160462,35.571688],[133.160837,35.571913],[133.161162,35.572005],[133.161449,35.571938],[133.161787,35.571463],[133.162024,35.57153],[133.162224,35.571388],[133.162662,35.571297],[133.163012,35.571297],[133.163362,35.571363],[133.163712,35.571297],[133.163937,35.57143],[133.164062,35.571638],[133.164312,35.571613],[133.164549,35.571388],[133.164549,35.57123],[133.164262,35.571072],[133.164112,35.570755],[133.163874,35.570555],[133.163474,35.570372],[133.163237,35.570055],[133.163212,35.569739],[133.163262,35.569722],[133.163612,35.569989],[133.164074,35.57008],[133.164537,35.570055],[133.164837,35.56978],[133.165062,35.569422],[133.165024,35.568922],[133.165174,35.568722],[133.165149,35.568539],[133.165262,35.568139],[133.165312,35.568089],[133.166162,35.568089],[133.166362,35.567864],[133.166387,35.567639],[133.166149,35.567114],[133.166062,35.566689],[133.165949,35.566414],[133.165512,35.566106],[133.165624,35.565831],[133.165712,35.565381],[133.165624,35.564973],[133.165275,35.564389],[133.165412,35.563889],[133.165562,35.563714],[133.165987,35.563348],[133.166512,35.563123],[133.166949,35.563006],[133.167674,35.563165],[133.168112,35.563206],[133.168374,35.563365],[133.168462,35.56359],[133.168399,35.563815],[133.168549,35.563956],[133.168837,35.56409],[133.169074,35.56454],[133.169362,35.564581],[133.169674,35.564398],[133.170462,35.563815],[133.170862,35.563673],[133.171537,35.563648],[133.171824,35.563673],[133.171912,35.563856],[133.172024,35.564398],[133.172412,35.565073],[133.172612,35.565231],[133.172724,35.565365],[133.173224,35.56529],[133.174174,35.56509],[133.174524,35.564931],[133.174849,35.564656],[133.175161,35.564473],[133.175336,35.56454],[133.175924,35.56504],[133.176036,35.565515],[133.176236,35.565898],[133.176536,35.566281],[133.176536,35.566481],[133.176361,35.566706],[133.176049,35.566756],[133.175699,35.566931],[133.174911,35.567614],[133.174749,35.567956],[133.174686,35.568406],[133.174924,35.568806],[133.175236,35.568831],[133.175786,35.568673],[133.176199,35.568448],[133.176399,35.568223],[133.176661,35.568239],[133.176924,35.568423],[133.177099,35.568306],[133.177386,35.56754],[133.177761,35.56749],[133.178624,35.56749],[133.178886,35.567623],[133.178949,35.567715],[133.178949,35.568306],[133.179149,35.568415],[133.179498,35.568415],[133.179673,35.568598],[133.179823,35.568839],[133.180086,35.569023],[133.180223,35.568731],[133.180198,35.568431],[133.180111,35.568348],[133.179786,35.568165],[133.179873,35.568048],[133.180136,35.568031],[133.180173,35.56794],[133.180136,35.56769],[133.180373,35.567373],[133.180773,35.567665],[133.181061,35.567781],[133.181186,35.567781],[133.181323,35.567573],[133.181298,35.56724],[133.181123,35.56699],[133.180836,35.56699],[133.180711,35.566448],[133.180599,35.566198],[133.180774,35.566065],[133.181061,35.566082],[133.181673,35.566532],[133.182073,35.566898],[133.182486,35.56714],[133.182861,35.567231],[133.183186,35.567207],[133.183448,35.567323],[133.183823,35.567248],[133.184111,35.567073],[133.184336,35.566865],[133.184223,35.566548],[133.183761,35.566307],[133.183586,35.566148],[133.183198,35.565965],[133.183023,35.565807],[133.182936,35.565648],[133.182536,35.56529],[133.182711,35.56529],[133.183086,35.565582],[133.183523,35.565698],[133.183986,35.565898],[133.184398,35.565915],[133.184623,35.565848],[133.184736,35.565757],[133.184948,35.565515],[133.184886,35.565307],[133.184498,35.564857],[133.184586,35.564674],[133.184623,35.564407],[133.184386,35.563774],[133.184586,35.563707],[133.184936,35.56364],[133.185461,35.56384],[133.185573,35.563999],[133.185923,35.564315],[133.186411,35.564465],[133.186798,35.564399],[133.187111,35.56429],[133.187486,35.564282],[133.187636,35.56424],[133.188298,35.563565],[133.188348,35.563332],[133.187948,35.562774],[133.187998,35.562416],[133.188198,35.562074],[133.188436,35.561782],[133.188748,35.561616],[133.188873,35.561641],[133.188986,35.561732],[133.189773,35.561616],[133.190173,35.561641],[133.191048,35.562016],[133.191048,35.562041],[133.191273,35.562157],[133.191885,35.562224],[133.192035,35.562266],[133.19221,35.562374],[133.192523,35.562741],[133.192785,35.563099],[133.192973,35.563666],[133.192973,35.564091],[133.192823,35.564524],[133.192598,35.564682],[133.191848,35.564815],[133.191373,35.564949],[133.19091,35.564999],[133.190798,35.565065],[133.19066,35.565274],[133.19046,35.565882],[133.19016,35.566065],[133.18961,35.566174],[133.189448,35.566357],[133.189448,35.566399],[133.189623,35.56649],[133.18991,35.566582],[133.189998,35.566765],[133.189848,35.566965],[133.189885,35.567215],[133.189998,35.567507],[133.189998,35.56769],[133.18986,35.567982],[133.189398,35.568048],[133.189398,35.56814],[133.189573,35.568298],[133.189423,35.568498],[133.18896,35.568707],[133.18881,35.56884],[133.18881,35.56889],[133.188985,35.568998],[133.18876,35.570281],[133.188823,35.570823],[133.18906,35.571298],[133.189498,35.571731],[133.189435,35.571798],[133.18906,35.572023],[133.187873,35.571889],[133.187385,35.571864],[133.186948,35.571914],[133.18686,35.572031],[133.186885,35.572256],[133.186773,35.572323],[133.186835,35.572639],[133.18706,35.572773],[133.187648,35.573448],[133.18776,35.573539],[133.18811,35.573514],[133.188723,35.573198],[133.188985,35.573148],[133.18956,35.573198],[133.189998,35.573556],[133.190035,35.573664],[133.189448,35.574123],[133.18931,35.574323],[133.18911,35.574348],[133.189048,35.574389],[133.189023,35.574506],[133.189135,35.574523],[133.189285,35.574731],[133.189073,35.574864],[133.188785,35.575247],[133.18841,35.575247],[133.18806,35.575522],[133.187773,35.575681],[133.187598,35.575731],[133.187398,35.575639],[133.187285,35.575639],[133.18696,35.575706],[133.187023,35.575797],[133.186823,35.576181],[133.18711,35.576206],[133.187548,35.576022],[133.187323,35.576606],[133.187035,35.577172],[133.186948,35.577514],[133.186973,35.577647],[133.187235,35.57758],[133.187498,35.578097],[133.187848,35.578072],[133.187848,35.578189],[133.187998,35.578589],[133.188085,35.57873],[133.188435,35.578797],[133.188723,35.578547],[133.189235,35.578389],[133.189385,35.578455],[133.189473,35.578855],[133.189673,35.578972],[133.189935,35.578764],[133.190198,35.57843],[133.190485,35.57818],[133.190835,35.577772],[133.191123,35.577681],[133.191385,35.577681],[133.19141,35.577931],[133.191323,35.578222],[133.19116,35.578355],[133.191073,35.57858],[133.19116,35.57883],[133.191048,35.579039],[133.190498,35.579214],[133.190323,35.579514],[133.19026,35.579755],[133.19041,35.580005],[133.19166,35.580114],[133.192098,35.58018],[133.192435,35.580072],[133.192698,35.579847],[133.19301,35.57928],[133.193335,35.57923],[133.19371,35.57928],[133.193822,35.579164],[133.193597,35.578964],[133.19351,35.578806],[133.193647,35.578531],[133.19356,35.578281],[133.193273,35.577947],[133.19301,35.577564],[133.192885,35.577272],[133.19301,35.576956],[133.193298,35.576972],[133.193673,35.577197],[133.193785,35.577131],[133.193848,35.576972],[133.19396,35.576864],[133.193985,35.576681],[133.194285,35.576706],[133.194835,35.576947],[133.195272,35.577239],[133.196085,35.577556],[133.19631,35.577372],[133.196635,35.577056],[133.196685,35.576923],[133.196635,35.576856],[133.196335,35.576723],[133.195722,35.575998],[133.195722,35.575839],[133.195785,35.575748],[133.19576,35.575664],[133.195372,35.575548],[133.195322,35.575506],[133.195085,35.575006],[133.19496,35.574464],[133.195047,35.573923],[133.19516,35.57359],[133.195073,35.573248],[133.194573,35.572456],[133.194485,35.571981],[133.194685,35.571556],[133.194923,35.571282],[133.19506,35.57104],[133.19501,35.570948],[133.194598,35.570565],[133.194535,35.570473],[133.194485,35.57009],[133.194685,35.569773],[133.194823,35.569323],[133.194785,35.568623],[133.194873,35.568082],[133.195135,35.56774],[133.195573,35.567515],[133.196123,35.567357],[133.196523,35.567307],[133.196785,35.567424],[133.197023,35.567915],[133.19746,35.568499],[133.19796,35.568907],[133.198535,35.569199],[133.199547,35.569515],[133.199897,35.569649],[133.200072,35.569899],[133.200372,35.570049],[133.201035,35.570007],[133.20141,35.569915],[133.202022,35.56989],[133.20231,35.569707],[133.202335,35.569457],[133.202247,35.569215],[133.202335,35.568982],[133.202622,35.568757],[133.202947,35.568757],[133.203697,35.569115],[133.204222,35.569299],[133.204635,35.569315],[133.204922,35.569157],[133.205085,35.568907],[133.205722,35.568732],[133.206135,35.568841],[133.20631,35.568749],[133.206422,35.568482],[133.206247,35.568116],[133.206335,35.567732],[133.206647,35.567349],[133.207172,35.567149],[133.207397,35.567099],[133.207697,35.567324],[133.20816,35.567416],[133.208597,35.567299],[133.209147,35.567249],[133.209234,35.567274],[133.209409,35.567433],[133.209809,35.567499],[133.210134,35.567524],[133.210159,35.567541],[133.210184,35.567183],[133.210247,35.567141],[133.210822,35.567133],[133.211672,35.567224],[133.211897,35.567383],[133.212072,35.567583],[133.212372,35.567741],[133.212459,35.568016],[133.212397,35.568308],[133.212222,35.568558],[133.212484,35.568849],[133.212572,35.569091],[133.212697,35.569324],[133.212922,35.569632],[133.213072,35.569699],[133.214122,35.569907],[133.214522,35.569832],[133.215422,35.569949],[133.215772,35.570082],[133.216147,35.570282],[133.216234,35.570482],[133.216159,35.571341],[133.216309,35.572016],[133.216272,35.572266],[133.215897,35.572541],[133.215697,35.572832],[133.215647,35.573107],[133.215934,35.573424],[133.216022,35.573715],[133.215759,35.573807],[133.214284,35.573874],[133.214109,35.573807],[133.214022,35.573899],[133.213622,35.575257],[133.213572,35.575523],[133.213684,35.575707],[133.214034,35.575707],[133.214497,35.576065],[133.214522,35.575632],[133.214784,35.575615],[133.215134,35.575182],[133.215397,35.575115],[133.215534,35.575315],[133.215834,35.575274],[133.215997,35.57529],[133.216297,35.575449],[133.216647,35.575582],[133.216847,35.575873],[133.216759,35.576057],[133.216409,35.576215],[133.215984,35.576873],[133.215897,35.577073],[133.215984,35.577215],[133.216222,35.577257],[133.216272,35.577615],[133.216572,35.577957],[133.216834,35.57854],[133.216747,35.578881],[133.215822,35.579398],[133.215534,35.57949],[133.215472,35.579606],[133.215622,35.57974],[133.215972,35.579965],[133.215997,35.580165],[133.215947,35.580665],[133.215996,35.580756],[133.217021,35.581473],[133.217171,35.581448],[133.217196,35.581406],[133.217596,35.58134],[133.217809,35.581406],[133.218009,35.581406],[133.218146,35.581315],[133.218209,35.581065],[133.218184,35.580906],[133.218096,35.58084],[133.217859,35.580865],[133.217659,35.580615],[133.217596,35.580323],[133.217771,35.579956],[133.217971,35.579915],[133.218034,35.57994],[133.218459,35.579781],[133.218671,35.579756],[133.218784,35.579848],[133.218784,35.579506],[133.218984,35.579348],[133.219071,35.578715],[133.219584,35.578307],[133.219959,35.57779],[133.220071,35.577765],[133.220546,35.577948],[133.220921,35.578307],[133.221334,35.578482],[133.221584,35.578665],[133.221509,35.578915],[133.221621,35.579157],[133.221771,35.579273],[133.222146,35.579315],[133.222146,35.579115],[133.222521,35.579315],[133.222609,35.579273],[133.222846,35.579382],[133.223071,35.579432],[133.223246,35.579273],[133.223884,35.579357],[133.224171,35.579315],[133.224409,35.579557],[133.224696,35.579698],[133.224959,35.579648],[133.225109,35.579532],[133.225159,35.579673],[133.225746,35.579848],[133.225634,35.580373],[133.226246,35.580732],[133.226534,35.58059],[133.226621,35.580482],[133.226821,35.580615],[133.227059,35.58064],[133.227171,35.580498],[133.227084,35.579782],[133.227171,35.579573],[133.227046,35.579415],[133.226409,35.578923],[133.226321,35.578607],[133.226409,35.578265],[133.226609,35.57809],[133.227709,35.578265],[133.227509,35.578015],[133.227384,35.57779],[133.227559,35.577724],[133.228109,35.577815],[133.228696,35.57799],[133.229421,35.578415],[133.230096,35.57889],[133.230759,35.578982],[133.231284,35.578982],[133.231858,35.57904],[133.232733,35.578974],[133.232821,35.578999],[133.233058,35.57924],[133.233308,35.579332],[133.233658,35.579332],[133.233871,35.579174],[133.234158,35.579015],[133.234558,35.579199],[133.234708,35.579199],[133.234846,35.579149],[133.234846,35.57904],[133.234496,35.578724],[133.234121,35.577932],[133.234121,35.577707],[133.233996,35.577641],[133.233683,35.577707],[133.232959,35.57764],[133.232434,35.57764],[133.231971,35.577507],[133.231246,35.576949],[133.231034,35.576741],[133.230659,35.576832],[133.230084,35.576766],[133.229784,35.576616],[133.229584,35.576457],[133.229496,35.576232],[133.229384,35.576182],[133.228709,35.576049],[133.228221,35.575916],[133.227696,35.575824],[133.226946,35.575832],[133.226509,35.575766],[133.226421,35.575716],[133.226071,35.575649],[133.225896,35.575765],[133.225784,35.575715],[133.225784,35.575632],[133.225609,35.575474],[133.225971,35.574432],[133.225459,35.574324],[133.225246,35.574166],[133.225159,35.574141],[133.225421,35.573916],[133.223909,35.573107],[133.224397,35.571183],[133.224884,35.571249],[133.224972,35.571141],[133.227796,35.571483],[133.228909,35.571574],[133.228896,35.571741],[133.229409,35.571833],[133.229421,35.571691],[133.230671,35.571808],[133.230696,35.571616],[133.233021,35.57195],[133.233221,35.572224],[133.233334,35.572266],[133.234559,35.572491],[133.235084,35.572716],[133.235596,35.573033],[133.236009,35.573191],[133.236246,35.573099],[133.236184,35.572849],[133.236584,35.572866],[133.236821,35.572666],[133.236821,35.572258],[133.236634,35.5717],[133.236371,35.571333],[133.236309,35.570525],[133.236484,35.570475],[133.236659,35.57025],[133.236721,35.569958],[133.237009,35.569983],[133.237796,35.570117],[133.238196,35.570341],[133.238609,35.570383],[133.238946,35.570267],[133.239846,35.570242],[133.239996,35.570358],[133.240321,35.5702],[133.240808,35.570017],[133.241383,35.569967],[133.242171,35.5701],[133.242258,35.57015],[133.242233,35.570258],[133.242546,35.570375],[133.242746,35.570258],[133.243683,35.570325],[133.244058,35.570325],[133.244583,35.570408],[133.245133,35.570683],[133.246121,35.571533],[133.246183,35.5721],[133.246358,35.572683],[133.246745,35.573158],[133.247358,35.573475],[133.247395,35.573458],[133.247958,35.573525],[133.248383,35.57345],[133.248633,35.573325],[133.248683,35.572991],[133.24897,35.572633],[133.249095,35.5726],[133.24947,35.5728],[133.24957,35.573008],[133.249495,35.573475],[133.249558,35.573575],[133.249533,35.573891],[133.249208,35.574291],[133.24917,35.5746],[133.24922,35.574991],[133.24937,35.575416],[133.249533,35.575233],[133.249583,35.5751],[133.249658,35.5751],[133.249795,35.575299],[133.25007,35.575491],[133.25032,35.575591],[133.25042,35.575533],[133.25047,35.575433],[133.250833,35.575683],[133.251033,35.575666],[133.251158,35.575533],[133.251332,35.575491],[133.251507,35.575699],[133.251707,35.575566],[133.251882,35.5755],[133.25207,35.575308],[133.252095,35.57515],[133.252445,35.575016],[133.252632,35.574991],[133.25287,35.575116],[133.252995,35.57525],[133.253145,35.5753],[133.253145,35.575133],[133.253032,35.574866],[133.252845,35.574683],[133.252845,35.57415],[133.253007,35.573991],[133.253207,35.5739],[133.253382,35.573416],[133.253532,35.573391],[133.25362,35.573283],[133.253882,35.573133],[133.253932,35.57295],[133.253745,35.572525],[133.253457,35.572492],[133.25312,35.572508],[133.252645,35.572566],[133.252545,35.572533],[133.252495,35.572408],[133.252208,35.572466],[133.251933,35.572466],[133.251658,35.572342],[133.251133,35.572175],[133.250908,35.572067],[133.250745,35.571942],[133.25122,35.5716],[133.250958,35.571567],[133.250458,35.571625],[133.250183,35.571425],[133.249945,35.571492],[133.249883,35.571392],[133.249895,35.570883],[133.25012,35.57045],[133.250733,35.5703],[133.25097,35.570175],[133.251895,35.570508],[133.252445,35.570675],[133.252758,35.570742],[133.25307,35.57065],[133.253145,35.570617],[133.253333,35.570775],[133.253508,35.570608],[133.253958,35.570367],[133.254208,35.570367],[133.254195,35.570592],[133.25437,35.570592],[133.254657,35.570392],[133.25472,35.569958],[133.254807,35.569825],[133.255432,35.569717],[133.255745,35.5697],[133.255982,35.569733],[133.256132,35.569825],[133.256157,35.569917],[133.256107,35.570108],[133.255807,35.570533],[133.255745,35.570692],[133.255845,35.570892],[133.25607,35.571092],[133.256232,35.571358],[133.256307,35.571575],[133.256595,35.571742],[133.256807,35.571908],[133.257357,35.572042],[133.257795,35.572233],[133.257995,35.5724],[133.258057,35.572617],[133.257995,35.572792],[133.257532,35.573275],[133.257357,35.573541],[133.257332,35.573641],[133.257582,35.573841],[133.257757,35.573841],[133.257945,35.573933],[133.258457,35.574783],[133.258644,35.57495],[133.258982,35.575083],[133.259007,35.575175],[133.259094,35.575241],[133.259457,35.575191],[133.259607,35.5751],[133.260007,35.575158],[133.260219,35.575158],[133.260557,35.574883],[133.261044,35.574975],[133.261332,35.574941],[133.261444,35.574825],[133.261669,35.574775],[133.261719,35.574791],[133.262169,35.574816],[133.262619,35.574716],[133.262932,35.5746],[133.263019,35.574608],[133.263444,35.574808],[133.263894,35.574908],[133.264044,35.574875],[133.264069,35.57435],[133.264257,35.574258],[133.264332,35.574133],[133.264219,35.5738],[133.264669,35.57235],[133.264807,35.5722],[133.265094,35.5722],[133.265582,35.572408],[133.265694,35.572558],[133.265644,35.572692],[133.265669,35.572775],[133.265744,35.57275],[133.265782,35.572908],[133.265732,35.573067],[133.265594,35.573133],[133.265319,35.573008],[133.265057,35.572842],[133.264994,35.572942],[133.265044,35.573008],[133.265581,35.573367],[133.265706,35.573658],[133.265294,35.573908],[133.265244,35.574083],[133.265281,35.575008],[133.265544,35.575758],[133.265519,35.575891],[133.265569,35.576325],[133.266094,35.577341],[133.266444,35.577825],[133.266719,35.578066],[133.266919,35.578183],[133.267081,35.578341],[133.267094,35.578483],[133.267269,35.578566],[133.267556,35.578583],[133.267819,35.578516],[133.267944,35.578366],[133.268081,35.578466],[133.268181,35.578483],[133.268606,35.578341],[133.268894,35.578141],[133.269131,35.578325],[133.269381,35.578333],[133.269543,35.578216],[133.269631,35.577975],[133.269506,35.577725],[133.269569,35.577266],[133.269656,35.5772],[133.269869,35.577316],[133.270006,35.577541],[133.269956,35.578316],[133.269868,35.578508],[133.269943,35.578725],[133.270106,35.578925],[133.270406,35.578766],[133.270693,35.578533],[133.270931,35.578516],[133.270943,35.578266],[133.270856,35.578091],[133.270868,35.578016],[133.271106,35.577958],[133.271493,35.577975],[133.271593,35.577941],[133.271731,35.577775],[133.271656,35.5769],[133.271956,35.576966],[133.272281,35.577158],[133.272468,35.577175],[133.272606,35.577033],[133.272743,35.576758],[133.273043,35.5767],[133.273143,35.576733],[133.273568,35.577225],[133.273531,35.577491],[133.273318,35.577558],[133.273418,35.5779],[133.273531,35.577991],[133.273656,35.577866],[133.273718,35.577625],[133.273906,35.577333],[133.274056,35.577283],[133.274193,35.577308],[133.274218,35.577241],[133.274156,35.577066],[133.274243,35.576991],[133.274793,35.576842],[133.274943,35.576675],[133.274781,35.576092],[133.274831,35.575842],[133.274981,35.575525],[133.274956,35.575358],[133.274731,35.575008],[133.274543,35.574608],[133.274281,35.574275],[133.274093,35.574192],[133.273493,35.573683],[133.274268,35.573833],[133.274481,35.573858],[133.274643,35.5738],[133.274693,35.573359],[133.274656,35.573],[133.274781,35.572967],[133.275043,35.573117],[133.275468,35.573967],[133.276268,35.574792],[133.276581,35.574958],[133.277018,35.574817],[133.277393,35.574283],[133.27793,35.574159],[133.278118,35.573959],[133.277943,35.573575],[133.277656,35.573292],[133.277818,35.573242],[133.277918,35.573142],[133.277881,35.572842],[133.278505,35.572684],[133.278768,35.572492],[133.278843,35.572325],[133.278755,35.572117],[133.278593,35.571942],[133.278793,35.571834],[133.278905,35.571817],[133.280043,35.572042],[133.280155,35.572],[133.280368,35.571817],[133.280493,35.571526],[133.281005,35.571492],[133.281305,35.571501],[133.281768,35.571809],[133.281818,35.571934],[133.281805,35.572134],[133.281493,35.572509],[133.281343,35.572509],[133.281218,35.5726],[133.280993,35.572592],[133.28098,35.572667],[133.281168,35.572784],[133.281193,35.572925],[133.280743,35.573209],[133.280743,35.573425],[133.280618,35.573592],[133.280205,35.573717],[133.27993,35.5736],[133.279768,35.5735],[133.27938,35.573717],[133.279168,35.573559],[133.279043,35.573625],[133.279105,35.5739],[133.279093,35.574109],[133.279405,35.5744],[133.279655,35.5743],[133.279555,35.5751],[133.279818,35.575667],[133.27968,35.575567],[133.27903,35.575508],[133.27878,35.575592],[133.278668,35.575717],[133.278918,35.576033],[133.279643,35.576517],[133.279255,35.576483],[133.279293,35.576583],[133.279518,35.576842],[133.27998,35.577208],[133.280355,35.577433],[133.281368,35.5778],[133.282018,35.578117],[133.282255,35.578183],[133.282492,35.578058],[133.282767,35.577742],[133.282792,35.577692],[133.283155,35.577775],[133.283505,35.577617],[133.283742,35.577658],[133.284042,35.577567],[133.284292,35.577283],[133.284417,35.577417],[133.284542,35.5775],[133.284692,35.577342],[133.284742,35.577075],[133.284692,35.576625],[133.284917,35.576442],[133.285155,35.576442],[133.285405,35.576533],[133.285517,35.576383],[133.28553,35.576167],[133.285755,35.575934],[133.285592,35.575775],[133.285642,35.575675],[133.286092,35.575834],[133.286355,35.57585],[133.286792,35.575642],[133.286955,35.575517],[133.287142,35.575525],[133.287317,35.575459],[133.287342,35.5754],[133.286742,35.575017],[133.286417,35.574784],[133.28628,35.574617],[133.28628,35.574509],[133.286417,35.574392],[133.286842,35.574384],[133.28728,35.574442],[133.287542,35.574567],[133.28788,35.574609],[133.288142,35.574792],[133.288442,35.574867],[133.288505,35.574859],[133.288605,35.574742],[133.28898,35.575059],[133.289605,35.575067],[133.289805,35.574834],[133.290055,35.574234],[133.290242,35.573909],[133.290292,35.573876],[133.290392,35.573942],[133.290479,35.574242],[133.290292,35.575042],[133.290417,35.575259],[133.290654,35.575275],[133.290954,35.575134],[133.291079,35.574975],[133.291179,35.574892],[133.291329,35.574892],[133.291392,35.5751],[133.291517,35.575217],[133.291792,35.57535],[133.292017,35.575625],[133.292267,35.575742],[133.292492,35.575917],[133.292417,35.575984],[133.292329,35.576159],[133.292342,35.576375],[133.292217,35.576534],[133.291842,35.576625],[133.291579,35.576625],[133.290992,35.576892],[133.290942,35.577375],[133.290979,35.577592],[133.291117,35.577767],[133.291479,35.577917],[133.292754,35.5778],[133.293892,35.577875],[133.294067,35.577842],[133.294204,35.577725],[133.294254,35.577559],[133.294192,35.577292],[133.293629,35.576809],[133.293379,35.576667],[133.293279,35.576492],[133.293242,35.5763],[133.293079,35.576],[133.293504,35.576042],[133.293654,35.5761],[133.294042,35.576325],[133.294367,35.576467],[133.294992,35.5765],[133.295079,35.576375],[133.295004,35.576175],[133.295417,35.57595],[133.295567,35.575825],[133.295579,35.575784],[133.295729,35.576184],[133.295929,35.576217],[133.296329,35.576167],[133.296666,35.576092],[133.297216,35.575834],[133.296841,35.575426],[133.296641,35.575492],[133.296529,35.575392],[133.296454,35.575092],[133.296154,35.574776],[133.296292,35.574634],[133.296442,35.574551],[133.296492,35.574417],[133.296404,35.574326],[133.296367,35.574242],[133.296554,35.574059],[133.296692,35.573834],[133.296817,35.573326],[133.296942,35.573234],[133.297429,35.573517],[133.297641,35.573684],[133.297929,35.573692],[133.298266,35.573601],[133.298479,35.573467],[133.298516,35.573143],[133.298416,35.572201],[133.297966,35.571293],[133.297966,35.571084],[133.298141,35.570976],[133.298416,35.571018],[133.298741,35.571184],[133.299329,35.571859],[133.299654,35.572376],[133.300029,35.572893],[133.299879,35.573801],[133.299979,35.574226],[133.300141,35.574484],[133.300291,35.574492],[133.300541,35.574384],[133.301016,35.574326],[133.301029,35.573917],[133.301116,35.573743],[133.301254,35.573626],[133.301529,35.573726],[133.301991,35.573693],[133.302829,35.573534],[133.303229,35.573501],[133.303504,35.573434],[133.303429,35.573184],[133.303679,35.572509],[133.303729,35.572259],[133.303654,35.572051],[133.303779,35.571718],[133.304004,35.571318],[133.304429,35.570876],[133.304604,35.570918],[133.304704,35.571135],[133.304591,35.571509],[133.304653,35.571918],[133.304916,35.572818],[133.305103,35.573043],[133.305478,35.573184],[133.305791,35.573209],[133.305978,35.573368],[133.305616,35.573551],[133.305391,35.573859],[133.305416,35.574559],[133.305453,35.574718],[133.305628,35.574759],[133.306016,35.574684],[133.306053,35.575134],[133.306178,35.575184],[133.306428,35.575084],[133.306678,35.575042],[133.306778,35.575159],[133.306678,35.575317],[133.306853,35.575642],[133.307153,35.575826],[133.307278,35.575984],[133.307591,35.576084],[133.307828,35.576059],[133.308141,35.575967],[133.308516,35.575617],[133.308766,35.575468],[133.308866,35.575276],[133.309365,35.575143],[133.309266,35.574459],[133.309553,35.574134],[133.309728,35.573768],[133.309628,35.573601],[133.310565,35.573151],[133.310853,35.572801],[133.311253,35.572426],[133.311503,35.572251],[133.311628,35.572218],[133.311978,35.572201],[133.312253,35.57216],[133.312303,35.572301],[133.31229,35.572485],[133.312603,35.57256],[133.312878,35.572518],[133.312903,35.57231],[133.313265,35.571976],[133.31339,35.57166],[133.31344,35.571393],[133.313553,35.571343],[133.313853,35.57131],[133.314353,35.570701],[133.314653,35.570551],[133.315015,35.570426],[133.315103,35.570227],[133.314978,35.570085],[133.314815,35.569968],[133.314853,35.569868],[133.315078,35.569993],[133.315415,35.570077],[133.31549,35.570002],[133.31559,35.569402],[133.31584,35.569802],[133.315903,35.570102],[133.316065,35.570193],[133.316615,35.569818],[133.31704,35.569802],[133.317552,35.56966],[133.317865,35.569668],[133.317927,35.569693],[133.318027,35.569952],[133.317927,35.570152],[133.318065,35.570243],[133.318702,35.570218],[133.319002,35.570027],[133.319265,35.570135],[133.319515,35.569868],[133.319852,35.569677],[133.320352,35.569627],[133.321002,35.569335],[133.321202,35.569402],[133.321677,35.569327],[133.322102,35.569185],[133.322602,35.568735],[133.322527,35.568893],[133.322714,35.569235],[133.323052,35.569202],[133.323214,35.569093],[133.323227,35.569135],[133.323077,35.569318],[133.323014,35.569543],[133.323327,35.569677],[133.323614,35.569627],[133.324052,35.569085],[133.324139,35.568327],[133.324189,35.56821],[133.324327,35.568269],[133.324489,35.568402],[133.324552,35.568385],[133.324727,35.568269],[133.324939,35.568194],[133.325702,35.568202],[133.325739,35.568452],[133.325714,35.568585],[133.325977,35.568668],[133.326302,35.568619],[133.326427,35.56846],[133.326264,35.568285],[133.326402,35.568094],[133.326727,35.567844],[133.326764,35.567594],[133.326677,35.567027],[133.325714,35.56591],[133.325314,35.56566],[133.325002,35.565535],[133.324427,35.565377],[133.324052,35.565144],[133.323352,35.564902],[133.322815,35.564519],[133.32259,35.564294],[133.322027,35.564286],[133.321765,35.564094],[133.32154,35.563569],[133.321377,35.563402],[133.321127,35.563252],[133.32029,35.563402],[133.32019,35.563361],[133.319815,35.562902],[133.319377,35.562644],[133.318702,35.562452],[133.318215,35.562394],[133.317815,35.562402],[133.317465,35.562452],[133.317215,35.562461],[133.316703,35.562177],[133.31609,35.561902],[133.315103,35.561677],[133.31419,35.561511],[133.31354,35.560919],[133.313215,35.560602],[133.312353,35.560261],[133.311491,35.560027],[133.311316,35.560036],[133.310953,35.559952],[133.310828,35.560161],[133.310803,35.560569],[133.310841,35.560919],[133.310816,35.561186],[133.310516,35.561502],[133.310203,35.562052],[133.309916,35.562311],[133.309478,35.562519],[133.308866,35.562627],[133.308378,35.562477],[133.308241,35.562286],[133.308228,35.562036],[133.308366,35.561677],[133.308578,35.561586],[133.308766,35.561561],[133.308941,35.561394],[133.308966,35.561277],[133.308291,35.560736],[133.308053,35.560577],[133.307816,35.560552],[133.307316,35.560619],[133.306879,35.560594],[133.306729,35.560536],[133.306729,35.560411],[133.306929,35.560252],[133.307478,35.559211],[133.307503,35.559119],[133.307253,35.559094],[133.307066,35.558811],[133.306829,35.558577],[133.306454,35.558427],[133.305966,35.558336],[133.305566,35.558227],[133.305266,35.558094],[133.304966,35.557869],[133.304879,35.557869],[133.304754,35.558036],[133.304516,35.558161],[133.304079,35.558119],[133.303679,35.558119],[133.303191,35.558319],[133.302791,35.558544],[133.302229,35.558277],[133.301879,35.558211],[133.301541,35.558202],[133.300892,35.558261],[133.300729,35.558194],[133.300217,35.557577],[133.299904,35.557369],[133.299642,35.557286],[133.299342,35.557311],[133.298942,35.557536],[133.298692,35.557852],[133.298542,35.558236],[133.298079,35.558536],[133.297942,35.558586],[133.297542,35.558619],[133.297167,35.558561],[133.296442,35.558252],[133.295779,35.558536],[133.295554,35.558577],[133.295055,35.558477],[133.294642,35.558486],[133.29428,35.558585],[133.293617,35.559119],[133.29343,35.559235],[133.293155,35.559285],[133.292867,35.55926],[133.292692,35.55921],[133.292092,35.558469],[133.291692,35.558302],[133.290892,35.558194],[133.29013,35.55816],[133.289867,35.55831],[133.289517,35.558735],[133.289155,35.558827],[133.289018,35.558735],[133.288855,35.558485],[133.288593,35.557894],[133.288318,35.55766],[133.287993,35.557619],[133.287668,35.557694],[133.287418,35.557869],[133.287193,35.55791],[133.286955,35.557785],[133.286768,35.557585],[133.28658,35.55726],[133.286418,35.557085],[133.286168,35.557094],[133.286105,35.557135],[133.286055,35.557344],[133.285705,35.557602],[133.28473,35.557219],[133.283768,35.556977],[133.283355,35.55691],[133.282943,35.55691],[133.282618,35.557052],[133.282256,35.557377],[133.282081,35.55751],[133.281731,35.557519],[133.281356,35.557419],[133.281031,35.557244],[133.280206,35.556535],[133.279768,35.556269],[133.278793,35.555994],[133.278318,35.555902],[133.278106,35.555919],[133.277106,35.55626],[133.276969,35.556277],[133.276694,35.556194],[133.276269,35.555952],[133.275994,35.555869],[133.275594,35.55591],[133.275356,35.555902],[133.274806,35.55576],[133.274444,35.55561],[133.274081,35.55551],[133.273694,35.555502],[133.272881,35.555677],[133.271906,35.555635],[133.271356,35.555693],[133.270444,35.555952],[133.270094,35.555927],[133.269057,35.555527],[133.268557,35.555452],[133.267744,35.555477],[133.267219,35.555402],[133.266694,35.55541],[133.265619,35.555627],[133.265132,35.555618],[133.264495,35.55546],[133.263982,35.555218],[133.26372,35.554985],[133.26337,35.554577],[133.262895,35.554143],[133.26242,35.554035],[133.261432,35.553943],[133.260895,35.553902],[133.260745,35.55386],[133.259807,35.553752],[133.258895,35.553593],[133.258358,35.553643],[133.25817,35.553702],[133.257658,35.553718],[133.257183,35.553693],[133.256945,35.553602],[133.256583,35.55341],[133.255995,35.553277],[133.25562,35.553302],[133.25537,35.553393],[133.255245,35.553518],[133.255183,35.553652],[133.253995,35.553902],[133.253333,35.553993],[133.25292,35.554018],[133.252658,35.553927],[133.252458,35.55391],[133.252521,35.553493],[133.252608,35.553018],[133.252571,35.55286],[133.252396,35.552727],[133.252046,35.552552],[133.251483,35.552385],[133.250246,35.552135],[133.249633,35.55186],[133.249021,35.551685],[133.248483,35.551752],[133.248133,35.551752],[133.247846,35.55171],[133.247733,35.551577],[133.24738,35.551329],[133.246908,35.55101],[133.246421,35.550943],[133.246096,35.550785],[133.245771,35.550568],[133.245371,35.550385],[133.243996,35.550243],[133.244709,35.549085],[133.244196,35.548985],[133.243146,35.548935],[133.242571,35.548952],[133.242084,35.548885],[133.240621,35.548869],[133.239509,35.54881],[133.239109,35.54876],[133.238559,35.548769],[133.238221,35.548802],[133.237796,35.548877],[133.237397,35.54891],[133.237209,35.54891],[133.236659,35.549002],[133.236384,35.54901],[133.235009,35.549218],[133.234584,35.549202],[133.234222,35.549235],[133.233709,35.54926],[133.232834,35.549152],[133.232322,35.54911],[133.231772,35.549018],[133.231234,35.548968],[133.230684,35.548968],[133.229459,35.548885],[133.228297,35.548835],[133.227809,35.548785],[133.226772,35.548585],[133.225547,35.54831],[133.225084,35.548218],[133.224159,35.548002],[133.223622,35.54791],[133.223035,35.547793],[133.222522,35.547743],[133.222397,35.547743],[133.221035,35.547302],[133.220535,35.547102],[133.219872,35.546877],[133.218935,35.54651],[133.21811,35.546077],[133.216797,35.54511],[133.21611,35.54466],[133.215735,35.544352],[133.215322,35.544118],[133.214897,35.543818],[133.214735,35.543677],[133.214647,35.543635],[133.214547,35.543527],[133.213935,35.543093],[133.213535,35.542843],[133.21311,35.542552],[133.21211,35.541835],[133.210873,35.541027],[133.20996,35.54036],[133.20956,35.540094],[133.208973,35.53976],[133.20846,35.53941],[133.207748,35.539094],[133.206961,35.538644],[133.206461,35.538294],[133.205973,35.537994],[133.204573,35.537202],[133.204036,35.536919],[133.203386,35.536552],[133.202849,35.536219],[133.202324,35.535952],[133.201724,35.535677],[133.201286,35.535419],[133.201149,35.535302],[133.201049,35.535252],[133.200986,35.535177],[133.200699,35.534402],[133.200486,35.533877],[133.200249,35.533402],[133.199774,35.532177],[133.198899,35.530327],[133.199024,35.530077],[133.198987,35.530011],[133.198762,35.529919],[133.198487,35.529619],[133.198299,35.529302],[133.198124,35.528936],[133.198087,35.528669],[133.198149,35.528377],[133.198187,35.528052],[133.198266,35.527617],[133.198362,35.527011],[133.1985,35.526311],[133.198712,35.525669],[133.198915,35.525322],[133.199137,35.524961],[133.174002,35.519611],[133.163503,35.519203],[133.14773,35.50907],[133.145555,35.506504],[133.145968,35.503129],[133.147843,35.489155],[133.152818,35.483448],[133.153256,35.48314],[133.158743,35.475424],[133.161805,35.465592],[133.149294,35.461284],[133.140635,35.462817],[133.135296,35.459739],[133.128519,35.457277],[133.122975,35.454814],[133.116814,35.454199],[133.111475,35.452763],[133.107779,35.452763],[133.107368,35.452968],[133.104082,35.454609],[133.10285,35.457687],[133.103877,35.461791],[133.103466,35.465279],[133.101413,35.467536],[133.097511,35.467331],[133.094636,35.464664],[133.091967,35.464048],[133.087038,35.464869],[133.076565,35.467126],[133.068351,35.469588],[133.060137,35.471435],[133.053155,35.471024],[133.048227,35.469383],[133.038506,35.439765],[133.023482,35.447072],[133.008684,35.454254],[133.003359,35.456854],[133.020599,35.474997],[133.020436,35.483301],[133.018243,35.489134],[133.015567,35.493266],[133.013134,35.497317],[133.01067,35.502849],[133.009863,35.505189],[133.008929,35.507523],[133.007644,35.509507],[133.005775,35.511841],[133.005425,35.514875],[133.005425,35.518959],[133.004024,35.522694],[133.002739,35.525728],[133.002739,35.528645],[133.002505,35.53343],[133.002973,35.536347],[133.002389,35.537398],[133.000332,35.539377],[133.001431,35.540352],[133.001406,35.540644],[133.001131,35.540935],[133.001019,35.541202],[133.001156,35.54181],[133.001231,35.541902],[133.001206,35.54211],[133.001231,35.542152],[133.001369,35.542127],[133.001619,35.541902],[133.001731,35.541952],[133.001594,35.542219],[133.001594,35.542352],[133.001819,35.54231],[133.001894,35.542127],[133.002231,35.541902],[133.002306,35.541794],[133.002369,35.54181],[133.002444,35.541969],[133.002469,35.542127],[133.002556,35.542285],[133.002694,35.542285],[133.002994,35.541994],[133.003156,35.541902],[133.003019,35.541519],[133.002856,35.541319],[133.002944,35.541069],[133.002919,35.540727],[133.002944,35.540644],[133.002919,35.540302],[133.003331,35.540302],[133.003569,35.540144],[133.003819,35.540102],[133.004144,35.540119],[133.004281,35.540186],[133.004394,35.540327],[133.004644,35.540344],[133.004781,35.540302],[133.005006,35.540436],[133.005169,35.540477],[133.005419,35.540436],[133.005606,35.540302],[133.005793,35.540236],[133.006131,35.540011],[133.006156,35.539869],[133.006131,35.539827],[133.005793,35.539986],[133.005831,35.539894],[133.005993,35.539694],[133.006131,35.539627],[133.006543,35.539352],[133.006656,35.539169],[133.006593,35.539086],[133.006593,35.538811],[133.006706,35.538719],[133.006818,35.538786],[133.007006,35.538994],[133.007343,35.539036],[133.007756,35.538927],[133.007943,35.538811],[133.007856,35.538228],[133.007806,35.537728],[133.007881,35.537661],[133.008018,35.537911],[133.008331,35.538044],[133.008818,35.538003],[133.009181,35.537928],[133.009531,35.537703],[133.009643,35.537594],[133.009756,35.538136],[133.009806,35.538178],[133.009781,35.538719],[133.009868,35.538811],[133.010606,35.538811],[133.01113,35.538761],[133.011705,35.538736],[133.011868,35.538878],[133.012093,35.538919],[133.012393,35.539169],[133.012693,35.539186],[133.01283,35.539144],[133.012918,35.538944],[133.013105,35.538944],[133.014018,35.539144],[133.014268,35.539369],[133.014343,35.539636],[133.014293,35.539911],[133.01413,35.540161],[133.014018,35.540494],[133.013855,35.541152],[133.013992,35.541419],[133.01393,35.541511],[133.013655,35.541602],[133.013555,35.541711],[133.013555,35.541827],[133.014067,35.541736],[133.014342,35.541602],[133.014405,35.541736],[133.01468,35.541802],[133.01503,35.541761],[133.01528,35.541644],[133.015192,35.541536],[133.01533,35.541486],[133.01558,35.541761],[133.015692,35.541686],[133.016055,35.541552],[133.01633,35.541486],[133.016492,35.541527],[133.01668,35.541511],[133.016817,35.541352],[133.017017,35.541302],[133.01743,35.541302],[133.01803,35.541169],[133.018354,35.541194],[133.018492,35.541169],[133.018742,35.541344],[133.018967,35.541394],[133.019179,35.541369],[133.019429,35.541527],[133.020067,35.541461],[133.020117,35.541211],[133.020392,35.540761],[133.020504,35.540444],[133.020529,35.540178],[133.020779,35.539836],[133.021104,35.539769],[133.021579,35.539794],[133.021767,35.540061],[133.021904,35.539944],[133.021954,35.539944],[133.022017,35.540153],[133.022067,35.540128],[133.022292,35.540169],[133.022542,35.540486],[133.022642,35.540761],[133.022617,35.540986],[133.022641,35.541161],[133.022704,35.541236],[133.023029,35.541277],[133.023441,35.541186],[133.023604,35.541094],[133.023879,35.540869],[133.023966,35.540761],[133.024041,35.540461],[133.024016,35.540236],[133.024241,35.540353],[133.025529,35.539628],[133.025804,35.539603],[133.026466,35.539969],[133.025866,35.539453],[133.026441,35.539019],[133.026516,35.539111],[133.027041,35.538794],[133.026766,35.538528],[133.026904,35.538278],[133.027016,35.538211],[133.027154,35.538186],[133.027266,35.538295],[133.027429,35.538211],[133.027779,35.538278],[133.027816,35.538453],[133.027978,35.538345],[133.028166,35.538478],[133.028303,35.539111],[133.027541,35.539178],[133.027541,35.539336],[133.028328,35.539311],[133.028416,35.539603],[133.028391,35.540053],[133.028503,35.540278],[133.028778,35.540553],[133.029216,35.540819],[133.029903,35.541003],[133.030153,35.541111],[133.030203,35.541269],[133.030228,35.541652],[133.030116,35.541927],[133.029878,35.542061],[133.029653,35.542127],[133.029603,35.542261],[133.029878,35.542552],[133.029928,35.542536],[133.030178,35.542536],[133.030253,35.542802],[133.03059,35.542711],[133.031028,35.542711],[133.03114,35.542761],[133.031028,35.543294],[133.03094,35.543411],[133.03064,35.543452],[133.03034,35.543886],[133.03029,35.544177],[133.030365,35.54431],[133.030703,35.544402],[133.03059,35.544494],[133.03054,35.544652],[133.030565,35.544785],[133.030678,35.544944],[133.030403,35.545169],[133.030228,35.54546],[133.02999,35.545735],[133.029628,35.54596],[133.029603,35.546027],[133.029928,35.546319],[133.03009,35.546585],[133.030153,35.546927],[133.02999,35.54711],[133.029878,35.547427],[133.029853,35.547693],[133.029765,35.54781],[133.02889,35.548118],[133.028116,35.548593],[133.028091,35.548685],[133.028141,35.548818],[133.028203,35.548802],[133.028365,35.548802],[133.028615,35.548752],[133.02889,35.548643],[133.029053,35.548727],[133.02914,35.549027],[133.028915,35.54941],[133.028728,35.550376],[133.028478,35.55056],[133.02809,35.55056],[133.027703,35.550493],[133.027428,35.550535],[133.027241,35.550626],[133.027428,35.550693],[133.027978,35.550735],[133.028065,35.550943],[133.027928,35.551051],[133.027928,35.551185],[133.027865,35.551326],[133.02759,35.551485],[133.026941,35.551643],[133.026253,35.55171],[133.026053,35.55166],[133.025891,35.55171],[133.026228,35.551843],[133.026803,35.551885],[133.026916,35.551951],[133.026828,35.55211],[133.026666,35.552201],[133.026578,35.552318],[133.026466,35.552635],[133.026328,35.552718],[133.026303,35.552793],[133.026466,35.552926],[133.02674,35.553035],[133.02674,35.553151],[133.026416,35.553259],[133.026528,35.553376],[133.026965,35.553443],[133.027015,35.553418],[133.027103,35.553376],[133.027403,35.553326],[133.027515,35.553443],[133.02779,35.553601],[133.02804,35.553776],[133.028115,35.553934],[133.027565,35.554001],[133.02754,35.554026],[133.027603,35.554276],[133.02834,35.554568],[133.028565,35.554818],[133.028615,35.555084],[133.028703,35.555218],[133.029028,35.555334],[133.029028,35.555443],[133.028778,35.555584],[133.028753,35.555676],[133.029003,35.555826],[133.029278,35.555943],[133.029715,35.555826],[133.030015,35.555809],[133.029878,35.555668],[133.029603,35.555534],[133.029465,35.555334],[133.02949,35.555284],[133.03024,35.554951],[133.03024,35.554793],[133.030078,35.554659],[133.030178,35.554318],[133.030378,35.554068],[133.030703,35.553285],[133.030865,35.553193],[133.03144,35.55326],[133.031615,35.55346],[133.03169,35.553685],[133.03189,35.553868],[133.032402,35.55396],[133.032677,35.55416],[133.032852,35.554426],[133.032852,35.554518],[133.032627,35.554651],[133.03249,35.554701],[133.032165,35.554951],[133.032265,35.555101],[133.032715,35.555059],[133.032765,35.555193],[133.03274,35.555259],[133.033452,35.555284],[133.033777,35.555551],[133.033815,35.555626],[133.033752,35.555851],[133.033227,35.556051],[133.032965,35.556276],[133.03249,35.556859],[133.03224,35.556976],[133.03159,35.557201],[133.031452,35.557293],[133.031615,35.557701],[133.031802,35.557767],[133.032215,35.557834],[133.032765,35.557768],[133.032902,35.557676],[133.03304,35.557901],[133.03329,35.557968],[133.033889,35.557559],[133.034002,35.557534],[133.034114,35.557359],[133.034339,35.557109],[133.034464,35.556834],[133.034602,35.556993],[133.034939,35.557201],[133.034914,35.557359],[133.034852,35.557376],[133.034964,35.557559],[133.035489,35.557651],[133.035514,35.557693],[133.034889,35.558034],[133.034439,35.558101],[133.034202,35.558368],[133.034252,35.558509],[133.034502,35.558776],[133.034552,35.558909],[133.034777,35.558959],[133.035439,35.559184],[133.035739,35.559134],[133.036289,35.559109],[133.037089,35.559268],[133.037776,35.559318],[133.038726,35.559293],[133.039226,35.559451],[133.039476,35.559676],[133.039864,35.559651],[133.039726,35.559518],[133.040276,35.559426],[133.040376,35.559518],[133.040301,35.559676],[133.040351,35.559809],[133.040514,35.559759],[133.040626,35.559676],[133.040739,35.559743],[133.040851,35.559759],[133.040851,35.559601],[133.040514,35.559243],[133.040076,35.558951],[133.039826,35.558543],[133.039664,35.558118],[133.039689,35.557826],[133.039826,35.557734],[133.040076,35.557801],[133.040239,35.557759],[133.040189,35.557601],[133.040301,35.557484],[133.040414,35.557285],[133.040139,35.556768],[133.039914,35.556676],[133.039964,35.556476],[133.039939,35.556251],[133.039689,35.556251],[133.039501,35.556176],[133.039314,35.55571],[133.039414,35.555326],[133.039664,35.55496],[133.040026,35.554651],[133.040651,35.554335],[133.041151,35.554151],[133.043151,35.553627],[133.044663,35.553452],[133.044801,35.553585],[133.044913,35.553835],[133.045001,35.553852],[133.045188,35.553785],[133.045301,35.553785],[133.045576,35.553718],[133.045688,35.553718],[133.045926,35.553652],[133.046151,35.55376],[133.046238,35.55401],[133.046038,35.554368],[133.046126,35.554368],[133.046263,35.554285],[133.046476,35.554368],[133.046613,35.554285],[133.046726,35.554352],[133.046701,35.554393],[133.046038,35.554777],[133.045901,35.555002],[133.045988,35.555135],[133.046038,35.55516],[133.046263,35.555068],[133.046926,35.554643],[133.046951,35.55451],[133.046926,35.554485],[133.046951,35.554418],[133.0475,35.553985],[133.047713,35.553943],[133.048075,35.55396],[133.048488,35.554102],[133.049013,35.554368],[133.049288,35.554635],[133.049863,35.555427],[133.050163,35.556035],[133.050138,35.556235],[133.05,35.556443],[133.049513,35.556618],[133.049013,35.556918],[133.048875,35.557077],[133.048713,35.557143],[133.048625,35.557318],[133.048375,35.557635],[133.0483,35.55786],[133.0481,35.558068],[133.04755,35.558785],[133.04745,35.559076],[133.047425,35.559285],[133.046925,35.559393],[133.046563,35.559576],[133.046538,35.559668],[133.046813,35.559826],[133.0477,35.559843],[133.047913,35.559935],[133.048738,35.559801],[133.049013,35.559668],[133.049238,35.559301],[133.049475,35.559076],[133.049538,35.559526],[133.049925,35.55951],[133.050412,35.559368],[133.050637,35.55926],[133.050962,35.55901],[133.05105,35.559051],[133.0513,35.559418],[133.051375,35.55971],[133.051737,35.559726],[133.0522,35.559951],[133.0527,35.560068],[133.053025,35.560176],[133.05325,35.560385],[133.053275,35.560518],[133.053462,35.560693],[133.053849,35.56126],[133.054324,35.561826],[133.054324,35.56221],[133.054212,35.562434],[133.053912,35.562676],[133.053749,35.562701],[133.053162,35.563059],[133.052975,35.563284],[133.052924,35.563718],[133.053062,35.563893],[133.053249,35.564009],[133.053499,35.564051],[133.053687,35.564118],[133.053662,35.564259],[133.056437,35.564776],[133.056874,35.564751],[133.056961,35.564568],[133.057761,35.564209],[133.057786,35.563668],[133.058061,35.563551],[133.058086,35.563418],[133.058174,35.563376],[133.058499,35.563351],[133.059049,35.563484],[133.059386,35.563643],[133.059624,35.563893],[133.059899,35.564543],[133.059899,35.564701],[133.059661,35.564926],[133.059574,35.564926],[133.059549,35.564993],[133.059411,35.565084],[133.059574,35.565401],[133.059661,35.565668],[133.059636,35.566051],[133.059686,35.566209],[133.059986,35.566484],[133.060348,35.566726],[133.061011,35.567384],[133.060623,35.567492],[133.060323,35.567651],[133.060123,35.568626],[133.060711,35.569342],[133.060848,35.569751],[133.061123,35.569909],[133.061173,35.569992],[133.061223,35.570442],[133.061086,35.570692],[133.060711,35.570967],[133.060623,35.571209],[133.060598,35.571459],[133.060461,35.571417],[133.060486,35.571709],[133.060436,35.572025],[133.060136,35.572134],[133.059473,35.572025],[133.059411,35.57205],[133.059473,35.572184],[133.059111,35.572433],[133.059061,35.572517],[133.058448,35.572542],[133.058348,35.572592],[133.058211,35.572525],[133.058011,35.572475],[133.057961,35.5725],[133.058211,35.57315],[133.057936,35.5734],[133.057824,35.573425],[133.057486,35.573333],[133.057349,35.573042],[133.057161,35.572792],[133.057024,35.572725],[133.056661,35.5727],[133.056561,35.573042],[133.056249,35.573042],[133.056174,35.572792],[133.055699,35.57275],[133.055624,35.57295],[133.055736,35.573242],[133.055736,35.573425],[133.055374,35.573492],[133.054686,35.573333],[133.054574,35.5734],[133.054436,35.573583],[133.054224,35.573742],[133.053999,35.573808],[133.054111,35.57435],[133.053949,35.574508],[133.053499,35.574625],[133.053124,35.574466],[133.051962,35.574625],[133.051037,35.574508],[133.050674,35.574533],[133.050312,35.574666],[133.050012,35.574825],[133.049987,35.574875],[133.049687,35.574916],[133.049462,35.575033],[133.048975,35.575166],[133.048775,35.575258],[133.049,35.575325],[133.049075,35.575416],[133.048837,35.57555],[133.049075,35.576066],[133.04875,35.576516],[133.0482,35.576449],[133.047925,35.576608],[133.0479,35.576766],[133.047287,35.576908],[133.047237,35.577041],[133.047262,35.577241],[133.04735,35.577266],[133.047562,35.577441],[133.047487,35.577899],[133.04785,35.578141],[133.048362,35.578391],[133.0487,35.578483],[133.048887,35.578341],[133.049087,35.578274],[133.049362,35.578641],[133.049737,35.578499],[133.049987,35.578549],[133.050074,35.578524],[133.050074,35.578341],[133.050124,35.578233],[133.050649,35.578233],[133.050562,35.577983],[133.050624,35.577691],[133.050949,35.577374],[133.051249,35.577216],[133.051337,35.577124],[133.051549,35.577191],[133.051999,35.577391],[133.052462,35.577391],[133.053124,35.577308],[133.053536,35.577349],[133.053749,35.577524],[133.054199,35.577599],[133.054361,35.577708],[133.054686,35.578024],[133.055074,35.578474],[133.054724,35.578408],[133.054249,35.578816],[133.054274,35.578966],[133.054936,35.579083],[133.055624,35.579374],[133.055986,35.579691],[133.056236,35.579708],[133.056511,35.579574],[133.056511,35.579349],[133.056311,35.579349],[133.056261,35.579324],[133.056261,35.579149],[133.056199,35.579016],[133.055986,35.578858],[133.056011,35.578808],[133.056236,35.578808],[133.056374,35.578741],[133.056698,35.578741],[133.057061,35.578833],[133.057848,35.578858],[133.058073,35.578924],[133.058186,35.579216],[133.058123,35.579374],[133.057986,35.579574],[133.058023,35.579774],[133.058236,35.579983],[133.058348,35.580208],[133.058573,35.580499],[133.059361,35.580899],[133.059423,35.581082],[133.059123,35.581399],[133.059011,35.581691],[133.059011,35.581916],[133.059198,35.582166],[133.059536,35.582257],[133.060335,35.582024],[133.061098,35.581599],[133.061235,35.581482],[133.061435,35.581241],[133.061398,35.580766],[133.06151,35.580633],[133.061623,35.580649],[133.06181,35.580858],[133.062085,35.580741],[133.062335,35.580541],[133.06231,35.580291],[133.062335,35.580249],[133.062523,35.580249],[133.062723,35.580199],[133.062998,35.580399],[133.06341,35.580424],[133.063848,35.580516],[133.064372,35.580383],[133.06476,35.580133],[133.065085,35.579683],[133.065222,35.578849],[133.065885,35.578325],[133.066022,35.5781],[133.066235,35.577316],[133.066235,35.576841],[133.06616,35.576483],[133.066072,35.576325],[133.066097,35.57625],[133.066622,35.576075],[133.066785,35.575983],[133.067172,35.576075],[133.067222,35.57605],[133.067472,35.576342],[133.06701,35.577608],[133.067035,35.577966],[133.067472,35.5783],[133.06811,35.578666],[133.068434,35.5788],[133.068709,35.578816],[133.068847,35.579],[133.068822,35.579225],[133.068659,35.579358],[133.068222,35.579541],[133.067885,35.579766],[133.067147,35.580374],[133.067097,35.580874],[133.067347,35.581099],[133.067997,35.581366],[133.068034,35.581408],[133.067972,35.581591],[133.067809,35.581841],[133.067672,35.582199],[133.067647,35.582607],[133.067784,35.582924],[133.068409,35.583466],[133.068584,35.583599],[133.068659,35.583866],[133.068772,35.583957],[133.068834,35.584157],[133.069184,35.584066],[133.069759,35.584157],[133.070284,35.583799],[133.070484,35.583824],[133.070722,35.583774],[133.071309,35.583524],[133.071471,35.583524],[133.071546,35.583749],[133.071684,35.583616],[133.071821,35.583616],[133.072021,35.583432],[133.072484,35.583416],[133.072896,35.583074],[133.073221,35.582941],[133.073584,35.582958],[133.073746,35.582849],[133.073946,35.582641],[133.074296,35.582599],[133.074296,35.582849],[133.074459,35.582983],[133.074959,35.582958],[133.075184,35.583074],[133.075534,35.583074],[133.075646,35.583049],[133.076308,35.582708],[133.076796,35.582599],[133.077246,35.582458],[133.077796,35.582141],[133.077983,35.581899],[133.078096,35.581899],[133.078258,35.581758],[133.078371,35.581966],[133.078421,35.581849],[133.078696,35.581716],[133.078758,35.581716],[133.078858,35.581941],[133.078946,35.581916],[133.079033,35.581741],[133.079246,35.581674],[133.079471,35.581691],[133.079633,35.581491],[133.079908,35.581691],[133.080096,35.581691],[133.080433,35.581533],[133.080845,35.5812],[133.08147,35.581083],[133.08202,35.581033],[133.082358,35.580875],[133.082433,35.580791],[133.082708,35.580633],[133.082958,35.580583],[133.083095,35.580491],[133.083833,35.580225],[133.083945,35.580133],[133.084145,35.5802],[133.084358,35.579933],[133.08442,35.579908],[133.084658,35.58],[133.08497,35.580042],[133.08532,35.580225],[133.08552,35.580491],[133.085907,35.580783],[133.086207,35.581233],[133.086282,35.581283],[133.086645,35.58135],[133.087145,35.581258],[133.087245,35.581208],[133.087557,35.58085],[133.088045,35.580358],[133.088295,35.580333],[133.088407,35.580875],[133.088482,35.581008],[133.08862,35.581033],[133.088845,35.580875],[133.08887,35.580892],[133.08887,35.581208],[133.088957,35.581433],[133.089145,35.58155],[133.089395,35.581525],[133.08967,35.581233],[133.090057,35.5811],[133.090195,35.58085],[133.090407,35.580625],[133.091132,35.580558],[133.091507,35.580125],[133.091844,35.579925],[133.091894,35.579542],[133.092632,35.578459],[133.092657,35.578325],[133.093069,35.578275],[133.093407,35.578392],[133.093457,35.578459],[133.093519,35.578725],[133.093594,35.578859],[133.093707,35.578842],[133.093957,35.578617],[133.094119,35.578209],[133.094344,35.578009],[133.094694,35.577867],[133.094857,35.577892],[133.095407,35.578092],[133.095769,35.57805],[133.096407,35.578225],[133.096932,35.57845],[133.097444,35.578859],[133.097894,35.579375],[133.098494,35.58025],[133.098444,35.580525],[133.098519,35.58075],[133.098656,35.581542],[133.098556,35.581917],[133.098469,35.582033],[133.098081,35.582308],[133.097756,35.582642],[133.097506,35.583025],[133.097156,35.583367],[133.096844,35.583342],[133.095232,35.582958],[133.095119,35.583008],[133.093719,35.5835],[133.093444,35.583641],[133.093269,35.583908],[133.092757,35.584108],[133.092644,35.584341],[133.092732,35.584583],[133.092757,35.585124],[133.092944,35.585258],[133.093032,35.585258],[133.093719,35.586049],[133.093969,35.586116],[133.094107,35.586208],[133.094219,35.586449],[133.094082,35.586574],[133.093932,35.586599],[133.093582,35.586599],[133.093357,35.586449],[133.093144,35.586433],[133.092782,35.586341],[133.092419,35.586208],[133.092182,35.586166],[133.091707,35.586141],[133.091519,35.586233],[133.090719,35.586341],[133.090444,35.586449],[133.090419,35.586591],[133.090244,35.586699],[133.09022,35.586816],[133.090407,35.587007],[133.090407,35.587091],[133.090207,35.587199],[133.090182,35.587316],[133.090269,35.587474],[133.090169,35.587607],[133.08992,35.587766],[133.090332,35.587841],[133.090157,35.588057],[133.090294,35.588224],[133.090457,35.588274],[133.090644,35.588224],[133.090682,35.588182],[133.090794,35.588149],[133.091382,35.588466],[133.091632,35.588524],[133.092019,35.588499],[133.092344,35.588541],[133.092544,35.588507],[133.092619,35.588466],[133.092807,35.588516],[133.093094,35.588574],[133.093182,35.588624],[133.093382,35.588657],[133.094144,35.588366],[133.094394,35.588316],[133.094657,35.588532],[133.094957,35.588574],[133.095419,35.588549],[133.095619,35.588391],[133.095669,35.588233],[133.095707,35.587724],[133.095769,35.587674],[133.096081,35.587649],[133.096256,35.587491],[133.096519,35.587491],[133.096719,35.587524],[133.096906,35.587708],[133.097194,35.587774],[133.097469,35.587799],[133.097781,35.587983],[133.098069,35.588274],[133.098219,35.588533],[133.098331,35.588891],[133.098381,35.589407],[133.098281,35.589974],[133.098119,35.590257],[133.097781,35.590582],[133.097319,35.590724],[133.096656,35.590616],[133.096494,35.590641],[133.096294,35.590624],[133.095369,35.590441],[133.094819,35.590557],[133.094382,35.590582],[133.094194,35.590649],[133.094019,35.590857],[133.093732,35.591332],[133.093682,35.591474],[133.093657,35.591457],[133.093682,35.591349],[133.093644,35.591182],[133.093669,35.590999],[133.093544,35.59099],[133.093432,35.591174],[133.093407,35.591565],[133.093344,35.591782],[133.093369,35.59204],[133.094157,35.592382],[133.094144,35.592532],[133.094019,35.592665],[133.093744,35.592815],[133.093719,35.59294],[133.093994,35.593032],[133.094219,35.59314],[133.094344,35.59334],[133.094319,35.59349],[133.094169,35.59359],[133.093932,35.593607],[133.093532,35.593515],[133.093394,35.593582],[133.093307,35.593765],[133.093119,35.593832],[133.092894,35.593815],[133.092719,35.593848],[133.092644,35.594048],[133.092907,35.594557],[133.092819,35.594707],[133.092569,35.59469],[133.092307,35.594907],[133.092244,35.595132],[133.092344,35.595407],[133.092532,35.595565],[133.092444,35.595798],[133.092457,35.59584],[133.092382,35.595981],[133.092332,35.59599],[133.092532,35.596148],[133.092382,35.59624],[133.092419,35.596365],[133.092657,35.596598],[133.092469,35.596781],[133.092444,35.596915],[133.092469,35.597015],[133.092332,35.597306],[133.092332,35.597398],[133.092569,35.597231],[133.092694,35.597198],[133.093169,35.597215],[133.093482,35.597573],[133.093544,35.597698],[133.093307,35.598115],[133.093182,35.59839],[133.092969,35.598498],[133.092369,35.598539],[133.092319,35.598523],[133.092269,35.598414],[133.092007,35.598314],[133.091894,35.598156],[133.091344,35.597856],[133.091169,35.597631],[133.091019,35.597415],[133.090844,35.597406],[133.090769,35.597473],[133.090782,35.597531],[133.090719,35.597531],[133.090607,35.597456],[133.090544,35.597323],[133.090507,35.596881],[133.090394,35.596565],[133.090319,35.596631],[133.090294,35.597048],[133.090232,35.597298],[133.090144,35.597381],[133.090069,35.59739],[133.089807,35.597515],[133.089332,35.597639],[133.089132,35.597756],[133.089044,35.597914],[133.089019,35.598206],[133.089057,35.598364],[133.089269,35.598623],[133.089282,35.598723],[133.089182,35.598814],[133.088857,35.598914],[133.088594,35.599089],[133.087995,35.598814],[133.087745,35.598848],[133.087595,35.598806],[133.087495,35.598848],[133.087182,35.598848],[133.08702,35.598881],[133.086882,35.598773],[133.08677,35.598731],[133.086495,35.598731],[133.086282,35.598664],[133.086195,35.598548],[133.086057,35.598539],[133.08587,35.598681],[133.085632,35.598781],[133.085532,35.598856],[133.08552,35.598914],[133.08537,35.598839],[133.085207,35.598848],[133.085082,35.598897],[133.085045,35.599031],[133.085082,35.599056],[133.085232,35.599031],[133.085445,35.599231],[133.085457,35.599389],[133.08542,35.599414],[133.085345,35.599556],[133.085057,35.599606],[133.084832,35.599864],[133.084857,35.599922],[133.084982,35.599989],[133.084932,35.600056],[133.084707,35.600014],[133.084557,35.600056],[133.084407,35.600231],[133.084407,35.600297],[133.08457,35.600339],[133.084745,35.600264],[133.08492,35.600247],[133.08482,35.600497],[133.084845,35.600606],[133.08482,35.600681],[133.084595,35.600814],[133.08427,35.600772],[133.084045,35.600989],[133.084157,35.601189],[133.084182,35.60133],[133.08442,35.601331],[133.084432,35.601422],[133.08422,35.601572],[133.08417,35.601672],[133.08422,35.601797],[133.084407,35.602005],[133.084807,35.602214],[133.085032,35.602272],[133.085182,35.602355],[133.085257,35.602555],[133.085482,35.602597],[133.085557,35.602564],[133.08557,35.602455],[133.085695,35.602397],[133.086145,35.60248],[133.086282,35.602564],[133.086495,35.60263],[133.087032,35.602647],[133.087782,35.602905],[133.088157,35.603047],[133.088482,35.603214],[133.089507,35.603572],[133.089882,35.603647],[133.090182,35.603755],[133.090457,35.603789],[133.090782,35.603739],[133.091544,35.603514],[133.091719,35.603389],[133.092519,35.603089],[133.092894,35.602989],[133.093156,35.602964],[133.093344,35.603047],[133.093431,35.603189],[133.093319,35.603672],[133.093319,35.603972],[133.093444,35.604022],[133.093594,35.603947],[133.093869,35.603656],[133.094044,35.603297],[133.094019,35.603239],[133.094169,35.603381],[133.094181,35.603564],[133.094394,35.603889],[133.094719,35.604097],[133.094894,35.604406],[133.094894,35.604481],[133.095106,35.604497],[133.095281,35.604447],[133.095431,35.604364],[133.095456,35.604231],[133.095819,35.604189],[133.095956,35.604114],[133.096031,35.604039],[133.095981,35.603814],[133.096031,35.603689],[133.096281,35.603847],[133.096381,35.603947],[133.096694,35.603947],[133.097069,35.603639],[133.097331,35.603622],[133.097481,35.603556],[133.097319,35.603331],[133.097244,35.603306],[133.097181,35.603106],[133.096744,35.603006],[133.096656,35.602831],[133.096694,35.602772],[133.096906,35.602673],[133.097269,35.602573],[133.097644,35.602639],[133.097718,35.602598],[133.097669,35.602414],[133.097394,35.602273],[133.097294,35.601673],[133.096894,35.601398],[133.096806,35.600981],[133.096856,35.600881],[133.096869,35.600723],[133.096781,35.600598],[133.096494,35.600339],[133.096644,35.600289],[133.096769,35.600198],[133.096844,35.600039],[133.096644,35.599731],[133.096656,35.599315],[133.096831,35.599165],[133.097081,35.599106],[133.097169,35.599015],[133.097556,35.599023],[133.097744,35.598965],[133.097794,35.598923],[133.097819,35.598756],[133.097681,35.598473],[133.097706,35.598323],[133.098094,35.597981],[133.098469,35.597965],[133.098656,35.59789],[133.098931,35.597865],[133.099243,35.598115],[133.099743,35.598315],[133.099943,35.598381],[133.100006,35.598598],[133.100181,35.598648],[133.100656,35.598531],[133.100831,35.598565],[133.101106,35.598956],[133.101218,35.599056],[133.101393,35.59904],[133.102006,35.598582],[133.102318,35.598448],[133.102531,35.598432],[133.102756,35.59849],[133.102956,35.598498],[133.103081,35.598432],[133.103143,35.598332],[133.103368,35.598282],[133.103456,35.59824],[133.103543,35.598123],[133.103706,35.598032],[133.103768,35.597965],[133.103943,35.597932],[133.104205,35.59794],[133.104405,35.598198],[133.104618,35.598523],[133.104668,35.598548],[133.104805,35.598473],[133.10488,35.59834],[133.104943,35.598282],[133.105068,35.598315],[133.105155,35.59864],[133.105243,35.598765],[133.105405,35.598757],[133.105468,35.598373],[133.10553,35.598307],[133.105718,35.598382],[133.10593,35.59839],[133.106155,35.598223],[133.106518,35.59789],[133.106805,35.597482],[133.106905,35.597065],[133.106768,35.596207],[133.106868,35.596049],[133.107055,35.595949],[133.107443,35.595882],[133.107755,35.595957],[133.10793,35.596149],[133.10833,35.59689],[133.108443,35.597024],[133.108643,35.597049],[133.108818,35.597024],[133.108855,35.596924],[133.109005,35.596907],[133.109493,35.59704],[133.109767,35.597174],[133.110167,35.59744],[133.11038,35.597507],[133.112105,35.597724],[133.112105,35.59749],[133.112267,35.597474],[133.112367,35.597374],[133.11238,35.596857],[133.112342,35.596741],[133.112142,35.596582],[133.111955,35.596374],[133.111717,35.596216],[133.11143,35.596116],[133.111467,35.595957],[133.111705,35.595999],[133.111767,35.595957],[133.111667,35.595766],[133.111755,35.595491],[133.111955,35.595332],[133.112017,35.595107],[133.111967,35.594941],[133.111655,35.594591],[133.111792,35.594399],[133.112005,35.594407],[133.112155,35.594524],[133.112217,35.594432],[133.112555,35.594432],[133.112667,35.594399],[133.112817,35.594516],[133.112855,35.594724],[133.11313,35.594841],[133.113417,35.594891],[133.113717,35.594866],[133.11393,35.594749],[133.11413,35.594583],[133.11433,35.594366],[133.114417,35.593991],[133.114017,35.593049],[133.113567,35.592274],[133.113417,35.591858],[133.113367,35.591316],[133.113042,35.590958],[133.11263,35.590508],[133.112542,35.590241],[133.11278,35.58975],[133.112742,35.589608],[133.112642,35.589575],[133.112517,35.5896],[133.112305,35.589408],[133.11228,35.589233],[133.11208,35.588975],[133.11208,35.588866],[133.11258,35.588716],[133.113305,35.58835],[133.113367,35.588275],[133.11338,35.588025],[133.113442,35.588],[133.113592,35.588083],[133.113742,35.588217],[133.114205,35.588242],[133.114167,35.587883],[133.114092,35.5876],[133.11448,35.58715],[133.114617,35.587117],[133.115205,35.5873],[133.115367,35.587325],[133.11553,35.587283],[133.115867,35.586925],[133.116005,35.586667],[133.116117,35.5866],[133.116142,35.58645],[133.115905,35.586342],[133.115442,35.586275],[133.115355,35.586225],[133.11533,35.586092],[133.115905,35.586117],[133.116217,35.585984],[133.11643,35.58605],[133.116655,35.58555],[133.116542,35.585259],[133.11663,35.585009],[133.116655,35.584717],[133.116755,35.584492],[133.11698,35.584176],[133.117417,35.584267],[133.117667,35.583726],[133.11778,35.583726],[133.11808,35.583051],[133.118055,35.583026],[133.118192,35.582959],[133.118292,35.582509],[133.118217,35.582509],[133.118055,35.582442],[133.117992,35.582284],[133.118055,35.582084],[133.118155,35.582017],[133.118817,35.582151],[133.118955,35.582284],[133.11898,35.582376],[133.11893,35.582534],[133.119017,35.582601],[133.119255,35.582642],[133.119505,35.582601],[133.11948,35.582376],[133.11943,35.582301],[133.119205,35.582193],[133.119067,35.582084],[133.118955,35.582101],[133.11898,35.581701],[133.11918,35.581651],[133.119455,35.581718],[133.11948,35.581584],[133.119417,35.581451],[133.11953,35.581334],[133.119555,35.581134],[133.119342,35.580976]]],"type":"Polygon"},"properties":{"kuni_id":"K46","pref":"島根県","name":"嶋根","yomi":"しまね","id":"G46004","kuni":"出雲","kuni_url":"/kg/resource/K46.html","id_url":"G46004.html"},"type":"Feature"}]}