{"features":[{"type":"Feature","properties":{"id":"G47002","kuni":"石見","id_url":"G47002.html","kuni_url":"/kg/resource/K47.html","pref":"島根県","kuni_id":"K47","yomi":"こま","name":"邇摩"},"geometry":{"coordinates":[[[132.382194,35.126219],[132.382856,35.126352],[132.383544,35.126694],[132.384581,35.127094],[132.384644,35.12721],[132.385106,35.127635],[132.385931,35.128152],[132.386593,35.128627],[132.387281,35.12921],[132.387993,35.130002],[132.388593,35.13106],[132.389093,35.131352],[132.389531,35.131827],[132.389968,35.132527],[132.390243,35.133243],[132.39058,35.134393],[132.390855,35.135185],[132.391018,35.13581],[132.39138,35.13656],[132.39138,35.137276],[132.391105,35.138768],[132.391105,35.139059],[132.39088,35.139601],[132.390805,35.140026],[132.39063,35.139959],[132.39033,35.139984],[132.390168,35.140393],[132.389805,35.141067],[132.389205,35.141292],[132.388656,35.141609],[132.388631,35.141767],[132.388356,35.141967],[132.387718,35.142242],[132.387506,35.142484],[132.387668,35.142734],[132.387743,35.143009],[132.387368,35.143409],[132.386893,35.143634],[132.386181,35.143867],[132.385768,35.14395],[132.385381,35.143884],[132.384781,35.143709],[132.384093,35.143617],[132.383218,35.14375],[132.383019,35.144],[132.382719,35.144117],[132.382469,35.1445],[132.382306,35.145175],[132.382144,35.145442],[132.382006,35.145267],[132.381756,35.145308],[132.381231,35.145983],[132.381256,35.146775],[132.381644,35.14675],[132.381706,35.146683],[132.381781,35.146683],[132.382056,35.14655],[132.382531,35.146592],[132.383043,35.146592],[132.383243,35.146325],[132.383456,35.1461],[132.383543,35.1461],[132.383868,35.146183],[132.383906,35.146258],[132.383593,35.146817],[132.383843,35.147317],[132.384118,35.147408],[132.384231,35.147358],[132.384506,35.147017],[132.384781,35.147067],[132.385106,35.147317],[132.385306,35.147317],[132.385356,35.147017],[132.385331,35.146858],[132.385556,35.146883],[132.386156,35.147333],[132.386543,35.147758],[132.386818,35.148008],[132.386893,35.147833],[132.386756,35.147558],[132.386656,35.14745],[132.386681,35.147358],[132.386931,35.147242],[132.386981,35.147108],[132.387068,35.14715],[132.387281,35.147133],[132.387581,35.147017],[132.387918,35.146992],[132.38813,35.147175],[132.388293,35.147058],[132.388155,35.14645],[132.38843,35.146367],[132.388793,35.146409],[132.389043,35.146384],[132.389018,35.14625],[132.389068,35.146159],[132.389318,35.146275],[132.38943,35.146725],[132.389593,35.146817],[132.389755,35.146542],[132.389805,35.146184],[132.39003,35.146117],[132.390468,35.146275],[132.390718,35.146609],[132.390668,35.147267],[132.390805,35.147825],[132.390993,35.14825],[132.39143,35.148633],[132.39173,35.148658],[132.392093,35.148775],[132.392368,35.148925],[132.39248,35.148925],[132.39273,35.149042],[132.393105,35.149533],[132.393355,35.149758],[132.393355,35.1501],[132.393105,35.150575],[132.392942,35.150983],[132.393005,35.151291],[132.393117,35.151516],[132.393905,35.152108],[132.394217,35.152558],[132.393967,35.153166],[132.39413,35.153366],[132.39408,35.153458],[132.393417,35.153999],[132.392942,35.154808],[132.39308,35.155258],[132.393942,35.156024],[132.394817,35.156382],[132.395692,35.156674],[132.395917,35.157082],[132.396417,35.157149],[132.39683,35.157041],[132.396905,35.156991],[132.397292,35.156949],[132.397617,35.156832],[132.397892,35.156474],[132.398617,35.156408],[132.399167,35.156991],[132.399329,35.156899],[132.399029,35.156383],[132.398804,35.156408],[132.398229,35.155733],[132.398279,35.154241],[132.398667,35.154266],[132.398504,35.155458],[132.399104,35.156108],[132.399467,35.155883],[132.400179,35.155908],[132.400479,35.156399],[132.400229,35.156541],[132.400504,35.156899],[132.401254,35.156582],[132.401804,35.157232],[132.401779,35.157166],[132.401917,35.157349],[132.402654,35.157732],[132.403454,35.158357],[132.403979,35.158899],[132.404442,35.159482],[132.404529,35.160115],[132.404529,35.160682],[132.404717,35.161107],[132.404467,35.161173],[132.404367,35.161315],[132.404092,35.161423],[132.403567,35.161382],[132.403204,35.161265],[132.402954,35.161357],[132.403017,35.161648],[132.403292,35.161923],[132.403267,35.162707],[132.403592,35.163206],[132.404304,35.163765],[132.404642,35.163973],[132.404554,35.164056],[132.403754,35.164065],[132.403267,35.16399],[132.402792,35.163681],[132.402542,35.16384],[132.402329,35.163815],[132.402129,35.163931],[132.402029,35.164106],[132.401992,35.164465],[132.402579,35.16494],[132.402329,35.165214],[132.402104,35.165214],[132.401779,35.164898],[132.401642,35.164848],[132.401229,35.165081],[132.401342,35.16519],[132.400979,35.165373],[132.400817,35.165731],[132.401167,35.165773],[132.401254,35.165706],[132.401829,35.165756],[132.402167,35.166339],[132.402854,35.166364],[132.402929,35.166656],[132.403342,35.166789],[132.403729,35.166881],[132.404142,35.167489],[132.404029,35.168114],[132.403704,35.168564],[132.403129,35.168614],[132.402929,35.168706],[132.402879,35.169156],[132.403067,35.169697],[132.403204,35.169739],[132.403479,35.169714],[132.403654,35.169672],[132.403679,35.16983],[132.403567,35.170055],[132.403729,35.170347],[132.403929,35.17053],[132.404279,35.170647],[132.404442,35.170914],[132.404854,35.17128],[132.405104,35.171439],[132.405104,35.17153],[132.405217,35.171705],[132.405404,35.171913],[132.405617,35.172005],[132.406254,35.172363],[132.406879,35.172888],[132.406967,35.17318],[132.406992,35.173472],[132.406854,35.17368],[132.406679,35.173605],[132.406404,35.173655],[132.406304,35.173563],[132.406079,35.17358],[132.406054,35.17388],[132.406292,35.174121],[132.406904,35.174305],[132.407279,35.17433],[132.407804,35.174221],[132.408079,35.17398],[132.408254,35.173663],[132.408604,35.173705],[132.408666,35.173796],[132.408491,35.174246],[132.408679,35.174471],[132.408954,35.174705],[132.409254,35.174838],[132.409779,35.174663],[132.410166,35.174596],[132.410529,35.174663],[132.410579,35.17478],[132.410766,35.174846],[132.411066,35.175046],[132.411429,35.175505],[132.411704,35.175546],[132.411979,35.175321],[132.412141,35.175146],[132.412229,35.175146],[132.412116,35.175571],[132.412054,35.175621],[132.412029,35.175821],[132.412191,35.175913],[132.412529,35.175954],[132.413179,35.175988],[132.413541,35.176079],[132.413866,35.175896],[132.414066,35.175604],[132.414116,35.175446],[132.414204,35.175404],[132.414566,35.175429],[132.414979,35.175496],[132.415104,35.175696],[132.415516,35.176038],[132.415491,35.176354],[132.416066,35.176829],[132.416278,35.176921],[132.416553,35.176971],[132.416616,35.177221],[132.416528,35.177554],[132.416391,35.177737],[132.416141,35.177962],[132.415866,35.178112],[132.415529,35.178229],[132.415429,35.178229],[132.414404,35.178696],[132.414354,35.178671],[132.414216,35.178721],[132.414179,35.179171],[132.414154,35.179437],[132.413679,35.179995],[132.413566,35.180245],[132.413654,35.180562],[132.413729,35.180654],[132.414066,35.18072],[132.414341,35.180654],[132.414754,35.180454],[132.415304,35.179712],[132.415628,35.17992],[132.415578,35.18012],[132.415303,35.180345],[132.415128,35.180545],[132.415053,35.180795],[132.415241,35.180995],[132.415466,35.181087],[132.415791,35.181137],[132.415728,35.181404],[132.415541,35.181612],[132.415428,35.18192],[132.415616,35.182062],[132.415841,35.181862],[132.416028,35.181812],[132.415866,35.18222],[132.415941,35.182487],[132.415428,35.182462],[132.415528,35.18292],[132.415691,35.183095],[132.415641,35.183228],[132.415778,35.183753],[132.415803,35.18382],[132.416128,35.183753],[132.416428,35.183887],[132.416953,35.18362],[132.417266,35.18362],[132.417566,35.183403],[132.417866,35.182928],[132.418453,35.182662],[132.418966,35.182553],[132.419328,35.182795],[132.419191,35.183178],[132.419153,35.183428],[132.419378,35.183703],[132.419766,35.18352],[132.420203,35.183212],[132.420728,35.182762],[132.421091,35.18272],[132.421715,35.18292],[132.42174,35.183287],[132.421928,35.183687],[132.421815,35.184411],[132.421515,35.184703],[132.42099,35.18452],[132.420578,35.184545],[132.420391,35.184903],[132.419916,35.185053],[132.419828,35.18517],[132.419891,35.185328],[132.420215,35.185486],[132.421153,35.185561],[132.42164,35.185745],[132.422078,35.186153],[132.422028,35.186353],[132.422278,35.186553],[132.422465,35.186536],[132.42194,35.187186],[132.42119,35.187544],[132.421003,35.187719],[132.420953,35.187586],[132.42029,35.187536],[132.42029,35.187378],[132.420728,35.187361],[132.419303,35.186428],[132.418866,35.186903],[132.418553,35.187103],[132.418278,35.187528],[132.418066,35.187728],[132.417816,35.188086],[132.417778,35.188203],[132.417803,35.188428],[132.417966,35.188719],[132.417916,35.189061],[132.418191,35.189403],[132.417778,35.189761],[132.417741,35.189961],[132.417491,35.190277],[132.417628,35.190502],[132.417878,35.190727],[132.418128,35.190819],[132.418478,35.190802],[132.418815,35.190686],[132.41934,35.190236],[132.419528,35.189877],[132.419615,35.189636],[132.419953,35.189253],[132.420003,35.189294],[132.420028,35.189886],[132.420128,35.190244],[132.420353,35.190202],[132.421265,35.189502],[132.421515,35.188961],[132.421578,35.188719],[132.421628,35.188669],[132.421903,35.188761],[132.42184,35.189078],[132.421953,35.189328],[132.422065,35.189303],[132.422315,35.188744],[132.422778,35.188611],[132.42309,35.188678],[132.42319,35.188903],[132.42339,35.188886],[132.42364,35.188678],[132.424377,35.188711],[132.426027,35.189011],[132.426627,35.189078],[132.427702,35.189311],[132.428852,35.189611],[132.429839,35.190019],[132.431177,35.190794],[132.432202,35.190702],[132.432964,35.190961],[132.433164,35.191052],[132.433926,35.191527],[132.434526,35.191977],[132.434964,35.192369],[132.435214,35.192685],[132.435239,35.192977],[132.435489,35.193044],[132.436114,35.19291],[132.436501,35.192894],[132.436451,35.192977],[132.436201,35.193185],[132.436201,35.19341],[132.436389,35.19341],[132.436863,35.19321],[132.436963,35.193927],[132.437176,35.194202],[132.437288,35.194427],[132.437676,35.194452],[132.437813,35.194652],[132.437313,35.19486],[132.437613,35.195152],[132.437776,35.195402],[132.438076,35.195402],[132.438188,35.195152],[132.438388,35.19486],[132.439126,35.194594],[132.439401,35.194577],[132.439738,35.194594],[132.439963,35.194377],[132.440176,35.19431],[132.440451,35.194735],[132.440201,35.19541],[132.440313,35.195568],[132.440613,35.19546],[132.440813,35.194785],[132.441388,35.194902],[132.442038,35.194902],[132.4424,35.194952],[132.443988,35.195835],[132.444837,35.196268],[132.445712,35.196652],[132.44635,35.197085],[132.447062,35.197452],[132.447,35.197493],[132.447225,35.197568],[132.448237,35.198018],[132.449149,35.198477],[132.451587,35.19986],[132.452237,35.200476],[132.452461,35.200993],[132.452886,35.201626],[132.452861,35.201743],[132.452724,35.201918],[132.452749,35.202193],[132.452861,35.202443],[132.453549,35.202084],[132.453761,35.202484],[132.453761,35.202668],[132.453849,35.202984],[132.453549,35.203301],[132.453624,35.203476],[132.453811,35.203368],[132.454099,35.203143],[132.454611,35.203393],[132.455274,35.203576],[132.455486,35.204051],[132.455411,35.204276],[132.455186,35.204434],[132.455324,35.204776],[132.455649,35.205001],[132.456773,35.205367],[132.457548,35.205351],[132.458011,35.205218],[132.458536,35.205484],[132.459136,35.205917],[132.459773,35.206259],[132.460398,35.206401],[132.461773,35.207417],[132.46256,35.207826],[132.463273,35.208417],[132.463735,35.208942],[132.464285,35.209234],[132.464585,35.209301],[132.465135,35.209784],[132.465685,35.210192],[132.46686,35.211434],[132.467572,35.21225],[132.468035,35.213133],[132.472539,35.209729],[132.478223,35.203258],[132.48104,35.198254],[132.481666,35.194189],[132.484326,35.191375],[132.486203,35.189343],[132.485734,35.186997],[132.483387,35.183089],[132.48323,35.178711],[132.485108,35.175428],[132.487455,35.175428],[132.494809,35.176053],[132.499347,35.17574],[132.502007,35.173395],[132.503885,35.16933],[132.506232,35.162295],[132.509205,35.156666],[132.513647,35.150527],[132.520104,35.147161],[132.525438,35.147161],[132.53414,35.147722],[132.541439,35.142393],[132.547066,35.135318],[132.549626,35.128826],[132.548366,35.123619],[132.547641,35.122695],[132.547392,35.121645],[132.547317,35.120436],[132.546267,35.119012],[132.545754,35.118537],[132.545554,35.118195],[132.544992,35.117662],[132.54433,35.117153],[132.543392,35.116654],[132.542705,35.116362],[132.541655,35.116595],[132.541142,35.117029],[132.541105,35.117162],[132.540455,35.117412],[132.539492,35.117545],[132.539317,35.117537],[132.53913,35.11602],[132.53878,35.115354],[132.538605,35.11487],[132.537893,35.114804],[132.53783,35.114554],[132.538105,35.114054],[132.537993,35.113771],[132.53723,35.113471],[132.53693,35.112962],[132.536568,35.112662],[132.535868,35.112596],[132.535393,35.112904],[132.534868,35.113904],[132.533968,35.114629],[132.533593,35.114779],[132.532793,35.114846],[132.532505,35.114529],[132.532593,35.113896],[132.532456,35.113571],[132.532056,35.113112],[132.532231,35.112637],[132.532381,35.112496],[132.532243,35.112429],[132.531743,35.111938],[132.531206,35.111871],[132.530931,35.111779],[132.530781,35.111046],[132.530556,35.110513],[132.529993,35.110146],[132.528481,35.109688],[132.528069,35.109263],[132.527981,35.108888],[132.527369,35.108571],[132.527519,35.107871],[132.527669,35.107388],[132.527556,35.107038],[132.527456,35.106263],[132.527169,35.105963],[132.526406,35.105788],[132.525456,35.106038],[132.524344,35.10638],[132.524232,35.106188],[132.524107,35.105588],[132.524494,35.105188],[132.524582,35.104663],[132.524507,35.103938],[132.524694,35.103472],[132.524557,35.103205],[132.523657,35.103055],[132.521857,35.103055],[132.521257,35.10268],[132.521145,35.102497],[132.521682,35.10188],[132.521507,35.101239],[132.52117,35.101097],[132.520757,35.100572],[132.52057,35.100231],[132.52007,35.100639],[132.519245,35.100297],[132.51882,35.100739],[132.518145,35.100839],[132.517932,35.100714],[132.517707,35.100197],[132.517545,35.099956],[132.516458,35.100247],[132.515933,35.099914],[132.514883,35.099647],[132.51407,35.099964],[132.513933,35.100072],[132.513458,35.100181],[132.513183,35.100556],[132.512833,35.100772],[132.51252,35.100872],[132.511858,35.101364],[132.511683,35.101606],[132.511558,35.100722],[132.511221,35.099581],[132.511333,35.099131],[132.511146,35.098848],[132.510558,35.098689],[132.508958,35.097806],[132.508208,35.098031],[132.507146,35.097923],[132.506646,35.097998],[132.506009,35.097956],[132.505309,35.098098],[132.505196,35.098089],[132.504996,35.097523],[132.504496,35.09729],[132.503934,35.097231],[132.503659,35.096881],[132.502709,35.094957],[132.501997,35.094773],[132.501659,35.094473],[132.501259,35.09444],[132.500809,35.094565],[132.500222,35.094673],[132.499909,35.095173],[132.499447,35.095473],[132.498997,35.095657],[132.498647,35.09619],[132.497672,35.096865],[132.49747,35.096888],[132.497147,35.096973],[132.496734,35.097515],[132.496622,35.097756],[132.496047,35.098056],[132.495572,35.098348],[132.494972,35.098481],[132.494372,35.09844],[132.493622,35.098056],[132.49286,35.098098],[132.491897,35.099048],[132.491097,35.09869],[132.490773,35.097948],[132.490598,35.097315],[132.49036,35.097248],[132.489448,35.097381],[132.488823,35.09734],[132.488373,35.097023],[132.487635,35.096865],[132.48741,35.09684],[132.486623,35.096215],[132.486286,35.095765],[132.486673,35.09524],[132.486973,35.09439],[132.486861,35.093399],[132.486748,35.09319],[132.486311,35.09279],[132.485811,35.092249],[132.485648,35.09189],[132.485736,35.091032],[132.485349,35.089432],[132.485174,35.089141],[132.485511,35.088307],[132.485836,35.087808],[132.485611,35.087541],[132.484899,35.087066],[132.484211,35.086499],[132.483786,35.086191],[132.481837,35.085591],[132.481587,35.085233],[132.481424,35.084508],[132.480837,35.083925],[132.480624,35.083408],[132.480237,35.082975],[132.478975,35.08255],[132.478425,35.082216],[132.478637,35.081691],[132.4793,35.0814],[132.479437,35.081175],[132.479275,35.080841],[132.479375,35.0807],[132.480287,35.080183],[132.48045,35.079933],[132.480312,35.079867],[132.47985,35.079775],[132.479675,35.07955],[132.4807,35.078425],[132.48125,35.078383],[132.481799,35.07865],[132.482149,35.078742],[132.482862,35.078067],[132.483862,35.07745],[132.483799,35.077383],[132.483524,35.0761],[132.483499,35.075067],[132.483412,35.074934],[132.482912,35.074975],[132.4819,35.075517],[132.481762,35.075542],[132.481025,35.075542],[132.479762,35.075767],[132.47965,35.075817],[132.4794,35.07575],[132.478387,35.0753],[132.47725,35.075142],[132.476838,35.075459],[132.476075,35.075634],[132.474838,35.075458],[132.474288,35.075142],[132.474388,35.074667],[132.474775,35.073925],[132.474975,35.073184],[132.475075,35.072909],[132.475713,35.072142],[132.476588,35.071742],[132.477163,35.071309],[132.4775,35.070251],[132.47785,35.069734],[132.478488,35.069284],[132.478725,35.068876],[132.4795,35.068743],[132.479663,35.068626],[132.479938,35.068084],[132.479775,35.067593],[132.479963,35.067001],[132.4801,35.066893],[132.481287,35.066351],[132.4818,35.065876],[132.482025,35.065176],[132.482712,35.064685],[132.484112,35.06461],[132.484912,35.064676],[132.485212,35.064051],[132.4854,35.063485],[132.485012,35.062902],[132.484637,35.062135],[132.48455,35.061777],[132.484075,35.06121],[132.483637,35.061035],[132.483312,35.059635],[132.483137,35.059252],[132.4835,35.059135],[132.483612,35.059052],[132.483775,35.058619],[132.483687,35.058127],[132.483062,35.057136],[132.4824,35.056344],[132.482063,35.055669],[132.48185,35.055111],[132.481188,35.054436],[132.480525,35.053603],[132.479975,35.052636],[132.479425,35.052003],[132.477026,35.050786],[132.476176,35.050386],[132.475513,35.049686],[132.475213,35.048961],[132.475238,35.048945],[132.475213,35.048878],[132.475401,35.046737],[132.475651,35.046012],[132.476163,35.045428],[132.476438,35.04457],[132.476413,35.043554],[132.476326,35.042479],[132.475938,35.041346],[132.475476,35.040587],[132.474701,35.039954],[132.474176,35.039254],[132.473876,35.038579],[132.473601,35.038196],[132.473489,35.037071],[132.473239,35.036529],[132.473101,35.036013],[132.472639,35.03563],[132.471489,35.035246],[132.470464,35.03498],[132.469664,35.034713],[132.469501,35.034621],[132.469289,35.033738],[132.469014,35.033405],[132.468514,35.03318],[132.467689,35.032613],[132.466639,35.032505],[132.466177,35.032096],[132.465839,35.031605],[132.466339,35.030297],[132.465977,35.029955],[132.465127,35.029847],[132.463777,35.030122],[132.462302,35.030705],[132.461227,35.03098],[132.460815,35.030955],[132.459827,35.030305],[132.459302,35.029513],[132.45889,35.029063],[132.459165,35.028813],[132.459515,35.028322],[132.459327,35.028005],[132.458915,35.027755],[132.458665,35.027264],[132.458365,35.026922],[132.458527,35.026589],[132.459027,35.02638],[132.45914,35.026064],[132.45859,35.025797],[132.45804,35.02573],[132.457727,35.025547],[132.457952,35.025297],[132.45814,35.024922],[132.458002,35.024539],[132.457677,35.024397],[132.457615,35.024239],[132.457727,35.023772],[132.45754,35.023072],[132.45754,35.022597],[132.45819,35.022781],[132.458577,35.022939],[132.458602,35.022847],[132.458115,35.021314],[132.458252,35.020748],[132.45839,35.020364],[132.457477,35.019215],[132.457502,35.01859],[132.458102,35.017773],[132.458765,35.017032],[132.458677,35.016782],[132.458602,35.016698],[132.457915,35.016857],[132.45709,35.016873],[132.456378,35.01719],[132.45574,35.017306],[132.455003,35.017665],[132.454565,35.017848],[132.454678,35.018323],[132.454203,35.018498],[132.453628,35.018881],[132.452615,35.019198],[132.45234,35.019331],[132.452203,35.019698],[132.451215,35.020464],[132.450853,35.020622],[132.450615,35.020464],[132.450778,35.020148],[132.450778,35.019764],[132.449978,35.020039],[132.449378,35.020781],[132.449728,35.021272],[132.449953,35.021772],[132.449728,35.021997],[132.449291,35.021814],[132.448853,35.021456],[132.448053,35.021731],[132.447616,35.021772],[132.447316,35.022356],[132.447728,35.022789],[132.447978,35.023147],[132.447866,35.023372],[132.447366,35.023255],[132.446191,35.023372],[132.444841,35.023172],[132.443191,35.02288],[132.441904,35.022747],[132.440329,35.021981],[132.438516,35.022705],[132.437641,35.023355],[132.437179,35.023605],[132.436604,35.023447],[132.436466,35.023339],[132.436729,35.021464],[132.436866,35.020697],[132.437341,35.020364],[132.437804,35.020364],[132.438129,35.020089],[132.438491,35.019664],[132.438379,35.018989],[132.438579,35.018781],[132.438216,35.018848],[132.437391,35.018898],[132.437092,35.018539],[132.436754,35.017931],[132.435967,35.017681],[132.434229,35.017864],[132.433817,35.017839],[132.433267,35.017481],[132.433017,35.016965],[132.432692,35.016581],[132.43168,35.016331],[132.430905,35.016531],[132.430605,35.016806],[132.429917,35.018064],[132.429867,35.018339],[132.429592,35.018906],[132.429117,35.019081],[132.42833,35.018998],[132.427642,35.018614],[132.426955,35.018631],[132.426542,35.019081],[132.426105,35.019831],[132.42588,35.019964],[132.42503,35.020322],[132.424642,35.020956],[132.424042,35.021839],[132.423842,35.021947],[132.423543,35.021931],[132.422668,35.020714],[132.422555,35.020306],[132.42223,35.019539],[132.421343,35.019114],[132.420993,35.019064],[132.419555,35.018323],[132.417993,35.018006],[132.417281,35.018189],[132.416818,35.018464],[132.415768,35.018464],[132.414893,35.018981],[132.414418,35.019114],[132.413518,35.018714],[132.412581,35.018581],[132.411481,35.018781],[132.410494,35.018739],[132.409306,35.018581],[132.408731,35.018106],[132.407307,35.017389],[132.406782,35.016981],[132.406232,35.016873],[132.405932,35.016689],[132.405469,35.016264],[132.403919,35.015448],[132.403869,35.015431],[132.40272,35.014123],[132.402357,35.013065],[132.40217,35.012032],[132.401857,35.011332],[132.40112,35.010565],[132.40032,35.009824],[132.399807,35.00944],[132.399058,35.009507],[132.398595,35.009915],[132.39832,35.010723],[132.398233,35.010857],[132.398158,35.010882],[132.397108,35.010273],[132.396258,35.01014],[132.395933,35.009865],[132.395658,35.009848],[132.394908,35.010165],[132.394033,35.010482],[132.393783,35.010615],[132.393646,35.01059],[132.392821,35.01019],[132.391971,35.009398],[132.391896,35.00929],[132.390758,35.009373],[132.390046,35.009065],[132.389584,35.008724],[132.388534,35.008749],[132.388484,35.008365],[132.388484,35.007757],[132.388159,35.00724],[132.387771,35.006266],[132.387634,35.005232],[132.387609,35.003858],[132.387521,35.003633],[132.386696,35.003316],[132.386009,35.003316],[132.385547,35.003174],[132.385447,35.003149],[132.385309,35.002699],[132.385472,35.001541],[132.385234,35.000708],[132.384759,34.999875],[132.384234,34.999216],[132.383822,34.998591],[132.383684,34.998433],[132.383522,34.998475],[132.383084,34.998883],[132.382697,34.9996],[132.381747,35.000574],[132.381685,35.000691],[132.380322,35.001474],[132.380122,35.001949],[132.379985,35.002541],[132.37991,35.003174],[132.37986,35.003299],[132.379385,35.003957],[132.379035,35.004649],[132.378872,35.005082],[132.377472,35.005757],[132.37631,35.006365],[132.375623,35.006815],[132.375273,35.007224],[132.374885,35.007474],[132.373835,35.007632],[132.373485,35.007657],[132.373148,35.007499],[132.372773,35.006999],[132.372435,35.006424],[132.372135,35.006332],[132.37206,35.00629],[132.37156,35.006332],[132.370186,35.006715],[132.369386,35.006849],[132.368836,35.006824],[132.368398,35.007074],[132.368373,35.007165],[132.368323,35.00714],[132.368423,35.00764],[132.368398,35.00859],[132.368348,35.008815],[132.368423,35.009373],[132.368561,35.009923],[132.368261,35.010281],[132.367273,35.010823],[132.365573,35.011906],[132.365411,35.012215],[132.364861,35.012873],[132.364861,35.014073],[132.364248,35.015406],[132.363873,35.015631],[132.363836,35.015739],[132.364111,35.016464],[132.363973,35.016806],[132.363673,35.017139],[132.363323,35.017772],[132.362636,35.018539],[132.362048,35.018972],[132.361561,35.019739],[132.361173,35.021614],[132.360811,35.022064],[132.360811,35.022289],[132.361148,35.02283],[132.362048,35.023622],[132.362411,35.024005],[132.362598,35.024638],[132.362623,35.025205],[132.362135,35.026538],[132.362273,35.026988],[132.362923,35.026921],[132.363173,35.02708],[132.363335,35.027446],[132.363748,35.027621],[132.36416,35.027646],[132.364185,35.027671],[132.363998,35.028096],[132.363098,35.028888],[132.362985,35.029046],[132.362073,35.029679],[132.362073,35.030329],[132.362373,35.031396],[132.362848,35.032212],[132.363223,35.032437],[132.36356,35.033004],[132.363672,35.033404],[132.362898,35.034154],[132.362123,35.03447],[132.361685,35.03487],[132.361198,35.035079],[132.360898,35.03512],[132.36001,35.03537],[132.358748,35.03557],[132.357948,35.035729],[132.357373,35.036195],[132.356061,35.037779],[132.355811,35.03852],[132.355648,35.03952],[132.355373,35.040195],[132.354736,35.040603],[132.354436,35.04137],[132.354411,35.041795],[132.354486,35.04252],[132.354761,35.042678],[132.354986,35.042745],[132.356385,35.043945],[132.355885,35.045053],[132.355223,35.045528],[132.354623,35.046161],[132.353473,35.047036],[132.353061,35.047061],[132.352098,35.046853],[132.351111,35.046919],[132.350636,35.047144],[132.349711,35.047794],[132.348711,35.048336],[132.346511,35.050011],[132.345799,35.050252],[132.345586,35.050227],[132.344949,35.050452],[132.344486,35.050752],[132.343849,35.050794],[132.342512,35.050494],[132.340524,35.050469],[132.340424,35.050336],[132.339837,35.049811],[132.339287,35.049228],[132.338712,35.049019],[132.338112,35.049294],[132.337925,35.049836],[132.337837,35.050327],[132.337562,35.050602],[132.3374,35.050644],[132.336875,35.050419],[132.336625,35.050377],[132.336162,35.050669],[132.335387,35.050844],[132.334837,35.050936],[132.334487,35.051161],[132.334587,35.051636],[132.334537,35.052377],[132.333987,35.05396],[132.3336,35.054635],[132.333213,35.055019],[132.332938,35.055069],[132.332863,35.055044],[132.332363,35.054685],[132.331813,35.054435],[132.330913,35.054319],[132.330275,35.054319],[132.330138,35.054569],[132.3297,35.055127],[132.32945,35.055735],[132.329425,35.056035],[132.327863,35.057993],[132.327551,35.058626],[132.327388,35.058718],[132.326563,35.058576],[132.326213,35.058376],[132.325501,35.057743],[132.325001,35.057085],[132.325138,35.05666],[132.325551,35.056227],[132.325826,35.055418],[132.326188,35.054602],[132.326326,35.053927],[132.326188,35.053477],[132.325338,35.053135],[132.324976,35.052769],[132.325088,35.052227],[132.325113,35.051844],[132.324788,35.051752],[132.323801,35.051777],[132.323464,35.051885],[132.322289,35.053402],[132.321876,35.054277],[132.321601,35.05466],[132.321401,35.054818],[132.321076,35.054727],[132.320576,35.054502],[132.320201,35.05441],[132.319589,35.054752],[132.318926,35.055493],[132.318901,35.055993],[132.319089,35.056577],[132.319539,35.05726],[132.319726,35.05796],[132.319564,35.058835],[132.318901,35.059626],[132.318126,35.060126],[132.317476,35.060368],[132.317089,35.060459],[132.316789,35.060776],[132.316789,35.060868],[132.316452,35.060884],[132.315902,35.060818],[132.315827,35.060843],[132.316177,35.061901],[132.316064,35.062151],[132.315652,35.062717],[132.315077,35.063126],[132.314477,35.063667],[132.314064,35.064209],[132.313477,35.064609],[132.313589,35.064659],[132.314202,35.064567],[132.314002,35.064726],[132.313839,35.06495],[132.314027,35.065084],[132.314227,35.065042],[132.314552,35.065017],[132.314852,35.065042],[132.314889,35.065159],[132.314614,35.065425],[132.314502,35.06565],[132.314639,35.065675],[132.314939,35.065584],[132.314989,35.065675],[132.314527,35.065967],[132.314639,35.066259],[132.315152,35.066334],[132.315677,35.066284],[132.316289,35.065992],[132.316426,35.066375],[132.316426,35.066717],[132.316064,35.066784],[132.315739,35.067009],[132.315602,35.067392],[132.315727,35.067617],[132.315977,35.067575],[132.316064,35.067525],[132.316251,35.067667],[132.316139,35.067917],[132.315764,35.068067],[132.315514,35.068208],[132.315377,35.068433],[132.315289,35.068725],[132.315652,35.068975],[132.315902,35.068975],[132.316039,35.068817],[132.316139,35.068975],[132.316064,35.069158],[132.315839,35.069358],[132.316276,35.069567],[132.316614,35.069492],[132.316689,35.06945],[132.316889,35.069425],[132.317051,35.069658],[132.316364,35.069967],[132.316064,35.070283],[132.316064,35.070508],[132.316414,35.070492],[132.316614,35.070717],[132.316576,35.07085],[132.317051,35.070917],[132.317576,35.070917],[132.317851,35.07085],[132.318114,35.071083],[132.318339,35.0716],[132.318089,35.071866],[132.317901,35.072025],[132.317951,35.072208],[132.317839,35.072458],[132.317701,35.073425],[132.317951,35.073816],[132.318339,35.074041],[132.318801,35.07395],[132.319139,35.07375],[132.319551,35.073816],[132.319876,35.074066],[132.320589,35.074133],[132.321089,35.074158],[132.321389,35.074133],[132.322489,35.074683],[132.322538,35.074883],[132.322601,35.074924],[132.322763,35.074858],[132.322976,35.074616],[132.323088,35.074699],[132.322951,35.074791],[132.323038,35.075108],[132.323201,35.075516],[132.323613,35.075766],[132.324213,35.075974],[132.324551,35.075974],[132.324688,35.075608],[132.324876,35.074999],[132.324901,35.074974],[132.325513,35.075116],[132.326113,35.075366],[132.326576,35.075749],[132.326776,35.075974],[132.326738,35.075999],[132.327676,35.077899],[132.327626,35.077991],[132.327263,35.078282],[132.326988,35.078641],[132.327151,35.079232],[132.327588,35.079249],[132.327726,35.079566],[132.327626,35.079657],[132.327588,35.079724],[132.327626,35.079932],[132.327813,35.080041],[132.327863,35.080499],[132.327763,35.080949],[132.327588,35.081149],[132.327076,35.080965],[132.326938,35.080949],[132.326601,35.081057],[132.326801,35.081507],[132.326876,35.081874],[132.326788,35.082032],[132.326276,35.081915],[132.326188,35.081874],[132.326026,35.081665],[132.325913,35.081465],[132.325701,35.081349],[132.325451,35.08139],[132.324876,35.081757],[132.324563,35.081707],[132.324463,35.081732],[132.324426,35.081932],[132.324738,35.08214],[132.324951,35.082457],[132.324876,35.082657],[132.324838,35.082949],[132.324701,35.083157],[132.323963,35.082932],[132.323576,35.083398],[132.323276,35.083923],[132.322938,35.085073],[132.323188,35.085048],[132.323251,35.084982],[132.323526,35.085115],[132.323851,35.085115],[132.323901,35.085098],[132.323826,35.085732],[132.323688,35.086048],[132.323638,35.086498],[132.323563,35.086673],[132.323526,35.08694],[132.323663,35.087006],[132.323776,35.086873],[132.323863,35.08669],[132.323888,35.08674],[132.323863,35.086965],[132.323888,35.087056],[132.324026,35.087123],[132.324213,35.086781],[132.324413,35.086806],[132.324438,35.087056],[132.324238,35.087481],[132.323913,35.087706],[132.323663,35.088156],[132.323576,35.088381],[132.323876,35.088431],[132.324213,35.088365],[132.324376,35.088256],[132.324538,35.088256],[132.324788,35.088031],[132.324901,35.087756],[132.325151,35.087823],[132.325138,35.087981],[132.324951,35.088123],[132.324926,35.088298],[132.324726,35.08864],[132.324476,35.088773],[132.323963,35.088931],[132.323876,35.089106],[132.323901,35.089398],[132.323976,35.089539],[132.324063,35.089514],[132.324288,35.089606],[132.324801,35.089564],[132.324976,35.089448],[132.325001,35.089273],[132.324888,35.088956],[132.324951,35.088906],[132.325363,35.088956],[132.325276,35.089089],[132.325213,35.089314],[132.325213,35.089589],[132.325351,35.089856],[132.325513,35.090014],[132.325601,35.090039],[132.325738,35.089948],[132.325826,35.089948],[132.326126,35.089589],[132.326151,35.089339],[132.326238,35.089098],[132.326351,35.089048],[132.326726,35.089114],[132.326726,35.089389],[132.326376,35.089564],[132.326176,35.089789],[132.325926,35.090289],[132.325951,35.090489],[132.326288,35.090673],[132.326363,35.090648],[132.326526,35.090564],[132.326701,35.090406],[132.326913,35.090273],[132.326976,35.090473],[132.327051,35.090498],[132.327301,35.090431],[132.327963,35.090498],[132.328238,35.090456],[132.328313,35.090523],[132.328038,35.090948],[132.3279,35.091356],[132.327813,35.091423],[132.327738,35.091781],[132.32815,35.091672],[132.328525,35.091739],[132.328638,35.091856],[132.328475,35.092039],[132.328613,35.092172],[132.328588,35.092356],[132.328988,35.092464],[132.3293,35.092422],[132.329488,35.092289],[132.329488,35.092447],[132.32965,35.092647],[132.329838,35.092789],[132.329625,35.092939],[132.3297,35.093081],[132.33025,35.092989],[132.330388,35.093197],[132.330725,35.093306],[132.3311,35.093239],[132.331375,35.093764],[132.331375,35.094081],[132.331325,35.094147],[132.331538,35.094281],[132.331538,35.094505],[132.331375,35.09493],[132.331238,35.095022],[132.331288,35.095247],[132.3314,35.095455],[132.331613,35.095589],[132.331812,35.095655],[132.331837,35.095864],[132.332112,35.095772],[132.332275,35.09568],[132.332525,35.095905],[132.332437,35.096114],[132.33205,35.096422],[132.332187,35.096605],[132.332075,35.096963],[132.332075,35.097213],[132.332125,35.097438],[132.332262,35.097513],[132.332325,35.097488],[132.332375,35.097555],[132.332725,35.097713],[132.3332,35.097605],[132.333362,35.097647],[132.333475,35.097605],[132.33375,35.097105],[132.33375,35.09688],[132.333837,35.096722],[132.33405,35.09673],[132.3343,35.096589],[132.334362,35.096347],[132.3343,35.096189],[132.334587,35.095872],[132.33475,35.095422],[132.334887,35.095372],[132.335187,35.095514],[132.335162,35.095605],[132.335437,35.09583],[132.335712,35.095922],[132.335987,35.095947],[132.336225,35.096147],[132.336562,35.096105],[132.336637,35.095697],[132.336812,35.095314],[132.336725,35.095114],[132.336725,35.09498],[132.336837,35.094522],[132.336975,35.094614],[132.337337,35.095139],[132.337499,35.09523],[132.338349,35.095097],[132.338549,35.094805],[132.338624,35.09458],[132.338487,35.094372],[132.338737,35.093606],[132.338712,35.093206],[132.338412,35.092889],[132.338249,35.092589],[132.338449,35.092589],[132.338662,35.092706],[132.338799,35.092931],[132.338887,35.092997],[132.339099,35.093064],[132.339124,35.093247],[132.339349,35.093339],[132.339512,35.093339],[132.339712,35.093206],[132.339787,35.093072],[132.339849,35.092797],[132.339924,35.092622],[132.339987,35.092639],[132.340124,35.092847],[132.340474,35.092914],[132.341224,35.092872],[132.341437,35.092897],[132.341712,35.093031],[132.341824,35.093031],[132.342011,35.092897],[132.342124,35.092606],[132.341774,35.091772],[132.341837,35.091589],[132.342024,35.091706],[132.342399,35.092339],[132.342536,35.092431],[132.342874,35.092339],[132.343061,35.092247],[132.343399,35.091956],[132.344224,35.091506],[132.344874,35.092097],[132.345011,35.092056],[132.345374,35.092189],[132.345586,35.092547],[132.345511,35.092914],[132.344574,35.093514],[132.344486,35.094147],[132.344011,35.094489],[132.343736,35.094555],[132.342974,35.094072],[132.339224,35.096339],[132.340037,35.09713],[132.341324,35.097905],[132.341161,35.09813],[132.339762,35.097447],[132.339687,35.097247],[132.339462,35.097063],[132.339249,35.097172],[132.338937,35.097263],[132.338612,35.097422],[132.338499,35.097622],[132.338474,35.097847],[132.338274,35.097938],[132.337862,35.098188],[132.337724,35.098547],[132.337612,35.098722],[132.337312,35.098997],[132.337724,35.099155],[132.338624,35.099338],[132.339149,35.099388],[132.339212,35.099272],[132.339424,35.099363],[132.340249,35.099388],[132.340499,35.09928],[132.341024,35.09948],[132.341436,35.099621],[132.341711,35.099646],[132.342061,35.099805],[132.342061,35.10003],[132.341399,35.09978],[132.341161,35.099755],[132.340886,35.099613],[132.340799,35.099638],[132.340574,35.099821],[132.340574,35.100138],[132.340686,35.100313],[132.340624,35.100455],[132.340386,35.100363],[132.340161,35.100155],[132.339887,35.099971],[132.339537,35.099971],[132.339312,35.100038],[132.339174,35.10033],[132.339149,35.100713],[132.339312,35.101013],[132.339549,35.101171],[132.340049,35.101621],[132.339986,35.101846],[132.339799,35.101963],[132.339736,35.102204],[132.339936,35.102454],[132.340099,35.102863],[132.340311,35.102863],[132.340474,35.102679],[132.340649,35.102596],[132.340974,35.102688],[132.341111,35.102779],[132.341249,35.102663],[132.341361,35.102329],[132.341499,35.102329],[132.341474,35.102554],[132.341499,35.102621],[132.341636,35.102754],[132.341774,35.102754],[132.341774,35.102729],[132.342099,35.102646],[132.342236,35.102738],[132.342399,35.102671],[132.342461,35.102604],[132.342786,35.102621],[132.342324,35.102963],[132.341961,35.103321],[132.342124,35.103346],[132.342186,35.103321],[132.342236,35.103438],[132.342724,35.103529],[132.342786,35.103346],[132.342924,35.103146],[132.343224,35.103346],[132.343549,35.103329],[132.343861,35.103196],[132.343886,35.103013],[132.344073,35.102829],[132.344136,35.103054],[132.344111,35.103129],[132.343886,35.103263],[132.343723,35.103421],[132.343548,35.103646],[132.343573,35.103938],[132.343823,35.104071],[132.344398,35.104004],[132.344511,35.104054],[132.344736,35.103988],[132.345198,35.104013],[132.345723,35.103829],[132.345948,35.103763],[132.346023,35.103788],[132.346136,35.103746],[132.346186,35.103604],[132.346223,35.103288],[132.346386,35.103246],[132.346448,35.102929],[132.346661,35.102846],[132.346798,35.103338],[132.346661,35.103629],[132.346573,35.103679],[132.346573,35.104079],[132.346761,35.104287],[132.347123,35.104537],[132.346898,35.104604],[132.346598,35.104604],[132.346373,35.104762],[132.346398,35.104937],[132.346486,35.105071],[132.345711,35.105254],[132.345548,35.105429],[132.345961,35.105771],[132.346673,35.106271],[132.347111,35.105887],[132.347198,35.105779],[132.347473,35.105621],[132.347723,35.105329],[132.347773,35.105371],[132.34811,35.105287],[132.348298,35.105079],[132.348298,35.104604],[132.348523,35.104496],[132.34866,35.104229],[132.348685,35.103913],[132.34886,35.103596],[132.348998,35.103463],[132.349135,35.103704],[132.348985,35.104112],[132.34891,35.104521],[132.34896,35.104971],[132.349285,35.105129],[132.349485,35.105129],[132.34976,35.104954],[132.350173,35.104821],[132.349973,35.105354],[132.349535,35.105154],[132.349373,35.105354],[132.34901,35.105396],[132.348898,35.105446],[132.349035,35.105712],[132.349085,35.106079],[132.348535,35.106071],[132.34826,35.106279],[132.348123,35.106637],[132.348423,35.106687],[132.34851,35.106754],[132.348698,35.106704],[132.34906,35.106754],[132.348973,35.107387],[132.348448,35.107495],[132.34831,35.107654],[132.348398,35.10792],[132.34861,35.108154],[132.349073,35.10842],[132.349323,35.10842],[132.349348,35.108404],[132.34976,35.108354],[132.350098,35.108179],[132.350048,35.107887],[132.349935,35.107679],[132.350098,35.107612],[132.35021,35.107029],[132.350435,35.106804],[132.35051,35.106845],[132.350573,35.107079],[132.35046,35.107479],[132.350485,35.107754],[132.35081,35.107729],[132.350735,35.107887],[132.350598,35.108045],[132.35051,35.108204],[132.350535,35.10877],[132.350785,35.10872],[132.35106,35.108837],[132.351023,35.109087],[132.35111,35.109312],[132.35116,35.109354],[132.351272,35.109695],[132.351522,35.109737],[132.35191,35.109379],[132.352047,35.109112],[132.352022,35.108837],[132.351885,35.108612],[132.351772,35.108137],[132.351747,35.108045],[132.351972,35.108095],[132.352272,35.108229],[132.352547,35.108095],[132.352797,35.107762],[132.35301,35.107604],[132.35301,35.107354],[132.35321,35.107329],[132.353422,35.107087],[132.353785,35.106296],[132.353897,35.106137],[132.353897,35.105896],[132.353935,35.105937],[132.354335,35.106096],[132.354335,35.106212],[132.35456,35.106387],[132.354697,35.10657],[132.354285,35.106754],[132.354385,35.106979],[132.35466,35.107312],[132.354472,35.107379],[132.354435,35.108012],[132.354385,35.108287],[132.354322,35.108329],[132.354297,35.108554],[132.354572,35.108695],[132.35501,35.108645],[132.355285,35.108512],[132.355322,35.108337],[132.355535,35.10827],[132.355784,35.10847],[132.356109,35.108537],[132.356222,35.10847],[132.356497,35.10847],[132.356609,35.108787],[132.356547,35.108837],[132.356272,35.108904],[132.356134,35.109129],[132.355285,35.109728],[132.355035,35.10982],[132.354985,35.109978],[132.355147,35.110178],[132.355247,35.110228],[132.355472,35.110412],[132.355772,35.110295],[132.355859,35.110478],[132.356047,35.110478],[132.356322,35.110345],[132.357309,35.110237],[132.357972,35.110195],[132.358197,35.11037],[132.357922,35.11082],[132.357859,35.111028],[132.357909,35.11112],[132.357909,35.11132],[132.358072,35.111437],[132.358272,35.111387],[132.358484,35.111387],[132.358797,35.111303],[132.358772,35.111078],[132.359034,35.111253],[132.359034,35.11137],[132.359122,35.111503],[132.359172,35.111528],[132.359284,35.111712],[132.359284,35.111803],[132.359034,35.11202],[132.358784,35.111795],[132.358509,35.111862],[132.358434,35.111912],[132.358184,35.112312],[132.358022,35.112378],[132.357959,35.112337],[132.357747,35.112312],[132.357609,35.112403],[132.357734,35.112945],[132.357797,35.113036],[132.358072,35.113103],[132.357984,35.113261],[132.357659,35.113353],[132.357459,35.11317],[132.357084,35.113053],[132.357022,35.113103],[132.357322,35.113728],[132.357797,35.113803],[132.358072,35.113778],[132.358397,35.11367],[132.358784,35.113736],[132.358922,35.11392],[132.359159,35.114103],[132.359434,35.114103],[132.359496,35.11412],[132.359746,35.114036],[132.359796,35.113853],[132.359746,35.113786],[132.359821,35.113536],[132.359771,35.113495],[132.359746,35.113203],[132.359771,35.113128],[132.360134,35.113086],[132.360621,35.113178],[132.361059,35.113228],[132.361371,35.113186],[132.361396,35.113136],[132.361334,35.113095],[132.361234,35.112845],[132.361284,35.112687],[132.361859,35.112712],[132.362609,35.112828],[132.362884,35.112987],[132.363159,35.113012],[132.363371,35.112987],[132.363971,35.11342],[132.365046,35.114395],[132.365146,35.114686],[132.365396,35.115045],[132.365396,35.115186],[132.365283,35.115411],[132.365233,35.115653],[132.365146,35.11577],[132.365258,35.11602],[132.365121,35.116178],[132.364846,35.116153],[132.364596,35.116086],[132.364408,35.116153],[132.364208,35.116395],[132.364208,35.116578],[132.364321,35.116761],[132.364508,35.116961],[132.364733,35.117119],[132.364896,35.117144],[132.365721,35.117461],[132.366096,35.117778],[132.366183,35.117986],[132.366046,35.117986],[132.365683,35.117578],[132.365058,35.117486],[132.364533,35.117319],[132.364421,35.117253],[132.363933,35.117186],[132.363846,35.117411],[132.363846,35.117636],[132.363958,35.117978],[132.363733,35.117953],[132.363708,35.118086],[132.363758,35.118244],[132.363983,35.118403],[132.364083,35.118744],[132.363871,35.118853],[132.363871,35.118969],[132.364146,35.118944],[132.364196,35.118903],[132.364358,35.118969],[132.364796,35.118944],[132.365158,35.118811],[132.365271,35.118928],[132.365208,35.119036],[132.364908,35.119378],[132.364858,35.119353],[132.364358,35.119486],[132.363883,35.119686],[132.363696,35.119736],[132.363696,35.119936],[132.363833,35.120052],[132.363908,35.120186],[132.364183,35.120319],[132.364321,35.120344],[132.365071,35.120211],[132.365733,35.120194],[132.366033,35.120236],[132.366108,35.120286],[132.366283,35.120261],[132.366471,35.120311],[132.366608,35.120377],[132.366083,35.120511],[132.365758,35.120461],[132.365483,35.120369],[132.364983,35.120411],[132.364771,35.120461],[132.364846,35.120777],[132.364458,35.120702],[132.364346,35.120636],[132.364021,35.120686],[132.363996,35.120769],[132.364021,35.121069],[132.364571,35.121786],[132.364671,35.121769],[132.365146,35.121386],[132.365583,35.121502],[132.365858,35.121502],[132.365908,35.121569],[132.365496,35.121702],[132.365883,35.121769],[132.366321,35.121702],[132.366633,35.121619],[132.366658,35.121502],[132.366183,35.121544],[132.366221,35.121461],[132.366821,35.121169],[132.367121,35.121119],[132.367695,35.121461],[132.367833,35.121486],[132.36817,35.121419],[132.368495,35.121394],[132.36872,35.121169],[132.36897,35.120636],[132.36902,35.120411],[132.369133,35.120319],[132.36927,35.119728],[132.369908,35.119594],[132.37027,35.119103],[132.370408,35.119328],[132.370483,35.119394],[132.37052,35.119536],[132.37032,35.119761],[132.369995,35.120003],[132.36982,35.120278],[132.369745,35.120544],[132.37002,35.120519],[132.370208,35.120594],[132.369845,35.120902],[132.369633,35.120886],[132.369345,35.121244],[132.36927,35.121494],[132.369383,35.121577],[132.369683,35.121561],[132.369783,35.121719],[132.369483,35.121877],[132.369183,35.122102],[132.368708,35.122319],[132.368633,35.122636],[132.368733,35.122936],[132.368708,35.123269],[132.36887,35.123519],[132.369145,35.123411],[132.369458,35.123069],[132.369695,35.122869],[132.369595,35.123044],[132.36972,35.123744],[132.370083,35.123927],[132.370295,35.123911],[132.370383,35.123911],[132.370433,35.123952],[132.370708,35.123886],[132.370958,35.123436],[132.37102,35.122761],[132.371408,35.122852],[132.371707,35.122877],[132.37182,35.123194],[132.37212,35.123219],[132.372445,35.123102],[132.372435,35.122992],[132.372632,35.123236],[132.372682,35.123252],[132.372882,35.123252],[132.37312,35.122761],[132.373345,35.122619],[132.373482,35.122761],[132.373595,35.123069],[132.373945,35.123294],[132.374145,35.123319],[132.374907,35.123186],[132.375382,35.123186],[132.375595,35.123344],[132.37552,35.123861],[132.37502,35.124202],[132.37357,35.124677],[132.373432,35.124827],[132.373207,35.125194],[132.37302,35.125735],[132.37307,35.126052],[132.37332,35.126027],[132.373482,35.12591],[132.373532,35.126027],[132.373782,35.126252],[132.373945,35.12616],[132.374282,35.12591],[132.37447,35.125819],[132.374495,35.125552],[132.374607,35.125419],[132.374607,35.125685],[132.374495,35.125819],[132.374607,35.126269],[132.374995,35.126094],[132.375157,35.125935],[132.375207,35.125819],[132.37552,35.125619],[132.37552,35.125802],[132.375295,35.126269],[132.375595,35.126319],[132.37582,35.12616],[132.375957,35.12591],[132.376144,35.125844],[132.376169,35.126027],[132.376144,35.126227],[132.376619,35.126252],[132.377882,35.125885],[132.377907,35.125935],[132.377519,35.126269],[132.377057,35.126544],[132.376969,35.126902],[132.377307,35.126969],[132.377382,35.127035],[132.377719,35.12706],[132.378232,35.127152],[132.378757,35.127035],[132.378982,35.127035],[132.379419,35.126877],[132.379494,35.126902],[132.379807,35.126602],[132.380132,35.126585],[132.380382,35.126602],[132.380657,35.12636],[132.381069,35.126177],[132.381756,35.126244],[132.381869,35.12631],[132.382194,35.126219]]],"type":"Polygon"}}],"type":"FeatureCollection"}