{"features":[{"type":"Feature","properties":{"kuni":"播磨","id":"G49003","id_url":"G49003.html","kuni_url":"/kg/resource/K49.html","pref":"兵庫県","kuni_id":"K49","yomi":"いんなみ","name":"印南"},"geometry":{"type":"Polygon","coordinates":[[[134.808638,34.870591],[134.809501,34.869616],[134.810463,34.868683],[134.811251,34.868058],[134.811888,34.867833],[134.812101,34.8678],[134.812901,34.867508],[134.813226,34.867291],[134.813488,34.867241],[134.813663,34.867316],[134.814138,34.86735],[134.814525,34.867258],[134.814825,34.867033],[134.815538,34.865867],[134.816038,34.865408],[134.816425,34.865092],[134.8167,34.864783],[134.816813,34.8645],[134.816813,34.864333],[134.816763,34.864192],[134.81675,34.863825],[134.8169,34.863467],[134.8168,34.86325],[134.81655,34.862925],[134.8165,34.862559],[134.816676,34.861825],[134.8165,34.860892],[134.8164,34.860567],[134.81565,34.860342],[134.815275,34.860017],[134.814925,34.859667],[134.814638,34.859442],[134.814425,34.859367],[134.814075,34.859317],[134.813201,34.859392],[134.8131,34.858409],[134.812863,34.857668],[134.8123,34.857101],[134.811988,34.856826],[134.811925,34.85671],[134.812263,34.85671],[134.813975,34.85641],[134.814425,34.85631],[134.814675,34.85611],[134.814738,34.855726],[134.814688,34.855318],[134.81475,34.854977],[134.816012,34.854085],[134.816012,34.853302],[134.816487,34.85306],[134.8175,34.852777],[134.817725,34.852802],[134.81795,34.852819],[134.817925,34.853152],[134.818087,34.853585],[134.81825,34.85371],[134.818525,34.853844],[134.818775,34.853894],[134.819412,34.853777],[134.820599,34.853627],[134.821124,34.853769],[134.821662,34.853952],[134.822449,34.854327],[134.822962,34.854335],[134.824174,34.854077],[134.824624,34.854144],[134.825474,34.854702],[134.826074,34.854927],[134.826499,34.855227],[134.827174,34.855893],[134.827324,34.856077],[134.827774,34.856193],[134.828124,34.856285],[134.828286,34.856385],[134.828436,34.856635],[134.828511,34.857018],[134.828636,34.857452],[134.828849,34.857643],[134.829074,34.857652],[134.829511,34.857543],[134.830123,34.857535],[134.830448,34.857577],[134.830748,34.85771],[134.830998,34.857727],[134.831348,34.857618],[134.833398,34.857452],[134.833685,34.857385],[134.834173,34.857085],[134.834785,34.85691],[134.835022,34.856844],[134.83611,34.856927],[134.836347,34.856861],[134.83666,34.856711],[134.836822,34.856477],[134.83706,34.855636],[134.836972,34.855378],[134.837372,34.854703],[134.837584,34.854594],[134.838297,34.854444],[134.838659,34.854453],[134.839009,34.854744],[134.839334,34.854836],[134.839934,34.854853],[134.840671,34.854903],[134.840971,34.854978],[134.842096,34.855119],[134.842396,34.855103],[134.842259,34.854653],[134.841759,34.853561],[134.841709,34.85327],[134.841996,34.85332],[134.842984,34.853595],[134.843296,34.853578],[134.843833,34.853336],[134.844133,34.853128],[134.844396,34.853012],[134.845183,34.853395],[134.845408,34.853428],[134.845946,34.853295],[134.846146,34.853362],[134.846433,34.853637],[134.847233,34.853578],[134.84767,34.853653],[134.847858,34.853737],[134.847908,34.853812],[134.848083,34.853728],[134.848208,34.853528],[134.84837,34.853145],[134.848483,34.852712],[134.84862,34.852287],[134.849333,34.851579],[134.84957,34.851037],[134.849608,34.850512],[134.849683,34.85027],[134.849833,34.850145],[134.850033,34.850112],[134.850545,34.85027],[134.851033,34.850387],[134.851495,34.850429],[134.851957,34.850545],[134.852207,34.85082],[134.852382,34.851295],[134.852345,34.851437],[134.852057,34.85177],[134.851995,34.851929],[134.852145,34.852395],[134.852332,34.852762],[134.852495,34.853003],[134.852632,34.853212],[134.852757,34.853278],[134.85357,34.852954],[134.853757,34.85287],[134.85427,34.852829],[134.855145,34.852904],[134.855745,34.853029],[134.856257,34.853212],[134.857182,34.853704],[134.857557,34.854062],[134.857619,34.854228],[134.857769,34.85432],[134.857857,34.85432],[134.858294,34.853779],[134.858544,34.85367],[134.859107,34.85317],[134.859544,34.853004],[134.860557,34.852929],[134.860994,34.852862],[134.861794,34.85262],[134.862069,34.852437],[134.862269,34.851904],[134.862581,34.851704],[134.863394,34.851604],[134.863919,34.851587],[134.864469,34.851646],[134.864819,34.851629],[134.865006,34.851579],[134.865156,34.851371],[134.865056,34.851004],[134.864606,34.850771],[134.864456,34.850579],[134.864381,34.850304],[134.864356,34.850062],[134.864719,34.849412],[134.865031,34.848363],[134.865294,34.847854],[134.865444,34.846996],[134.865369,34.846513],[134.865456,34.846279],[134.865619,34.846088],[134.866231,34.846171],[134.866481,34.846021],[134.866569,34.84588],[134.866743,34.845363],[134.866968,34.845096],[134.867081,34.844696],[134.867468,34.84428],[134.867506,34.844046],[134.867631,34.843755],[134.867981,34.843213],[134.868118,34.843122],[134.868356,34.843205],[134.868506,34.843388],[134.868656,34.843513],[134.868856,34.843596],[134.869181,34.843596],[134.869681,34.843671],[134.870456,34.843763],[134.870956,34.843746],[134.871281,34.84368],[134.871343,34.843613],[134.871456,34.843505],[134.871368,34.84338],[134.870568,34.842763],[134.870456,34.842405],[134.870606,34.841963],[134.870693,34.841838],[134.871543,34.84138],[134.871906,34.840955],[134.872256,34.840493],[134.872281,34.840564],[134.872693,34.840297],[134.872943,34.840247],[134.873518,34.840314],[134.87393,34.840447],[134.874418,34.84053],[134.87508,34.840597],[134.876393,34.840572],[134.876968,34.840638],[134.877493,34.84063],[134.878068,34.840564],[134.878942,34.840405],[134.87938,34.840264],[134.880605,34.84033],[134.881617,34.840255],[134.882255,34.840097],[134.882467,34.840005],[134.88258,34.839914],[134.88268,34.839822],[134.882742,34.839689],[134.882767,34.839439],[134.883067,34.838339],[134.883255,34.83798],[134.883355,34.837955],[134.883767,34.83768],[134.883829,34.837589],[134.884004,34.836564],[134.884167,34.835264],[134.884279,34.835056],[134.884717,34.834814],[134.885079,34.834756],[134.886529,34.834706],[134.886742,34.834589],[134.887254,34.834014],[134.887667,34.833698],[134.888029,34.833481],[134.888229,34.833148],[134.888292,34.832698],[134.888217,34.832423],[134.888279,34.831998],[134.888192,34.831698],[134.887929,34.831339],[134.887717,34.831131],[134.887642,34.830906],[134.887667,34.830815],[134.888142,34.830598],[134.888467,34.830598],[134.888867,34.830715],[134.889204,34.830765],[134.889554,34.830773],[134.889717,34.830723],[134.889679,34.830115],[134.889392,34.829506],[134.889479,34.829256],[134.889916,34.82879],[134.890279,34.828631],[134.890879,34.828623],[134.891429,34.82849],[134.892754,34.827965],[134.893441,34.82779],[134.894104,34.827706],[134.895503,34.827615],[134.896016,34.827623],[134.896753,34.827923],[134.897178,34.828315],[134.897591,34.828431],[134.897916,34.828273],[134.898091,34.828123],[134.898391,34.827623],[134.898566,34.827156],[134.898628,34.826723],[134.898616,34.826298],[134.898741,34.82569],[134.898816,34.825532],[134.899066,34.82529],[134.899478,34.825273],[134.899891,34.825298],[134.900166,34.825282],[134.900391,34.82499],[134.900753,34.82479],[134.901103,34.824748],[134.90154,34.824865],[134.901953,34.824823],[134.902253,34.824648],[134.90239,34.824632],[134.903453,34.824757],[134.903978,34.82474],[134.90494,34.824523],[134.905378,34.824373],[134.905703,34.824532],[134.906178,34.825282],[134.90629,34.825557],[134.90639,34.82569],[134.906752,34.825807],[134.907702,34.826023],[134.90849,34.826123],[134.910377,34.826148],[134.910927,34.826132],[134.911552,34.825982],[134.912889,34.825273],[134.913352,34.825148],[134.913764,34.825215],[134.914564,34.826015],[134.914889,34.826248],[134.915514,34.826257],[134.915964,34.826148],[134.916564,34.825857],[134.916727,34.825723],[134.917514,34.824899],[134.918176,34.824507],[134.918676,34.824307],[134.919339,34.824199],[134.919851,34.824182],[134.920264,34.824232],[134.920514,34.82419],[134.920651,34.82399],[134.920714,34.823657],[134.920664,34.82334],[134.920339,34.82304],[134.919964,34.822582],[134.919864,34.822157],[134.919851,34.821682],[134.920164,34.820782],[134.920089,34.820491],[134.919926,34.820149],[134.919964,34.819924],[134.920214,34.819724],[134.920601,34.819499],[134.920926,34.819233],[134.921426,34.819016],[134.921764,34.818658],[134.921789,34.818524],[134.922039,34.818366],[134.922239,34.818033],[134.922364,34.817449],[134.922614,34.817091],[134.922976,34.816708],[134.923401,34.815833],[134.924189,34.815125],[134.924714,34.814491],[134.925051,34.814225],[134.925576,34.813533],[134.926138,34.812975],[134.926676,34.812083],[134.927413,34.810309],[134.927601,34.809609],[134.927788,34.8083],[134.928413,34.806842],[134.928426,34.806551],[134.928313,34.806276],[134.928051,34.806026],[134.927401,34.805234],[134.927113,34.804751],[134.926963,34.804276],[134.926588,34.803459],[134.926376,34.803101],[134.926151,34.802484],[134.926076,34.802126],[134.925938,34.801809],[134.925701,34.801534],[134.925533,34.801284],[134.924094,34.801777],[134.9217,34.80202],[134.918137,34.802221],[134.913809,34.802221],[134.912859,34.802301],[134.912219,34.80257],[134.91131,34.80334],[134.910797,34.804411],[134.910391,34.805172],[134.910224,34.805325],[134.90989,34.805419],[134.909593,34.805288],[134.909506,34.80494],[134.910123,34.803099],[134.910287,34.802542],[134.910077,34.801756],[134.909025,34.800687],[134.908204,34.800317],[134.90708,34.800123],[134.905934,34.799835],[134.905314,34.799835],[134.903808,34.800649],[134.902694,34.801272],[134.901519,34.801074],[134.900388,34.800509],[134.89975,34.799829],[134.898317,34.799597],[134.897153,34.799266],[134.896317,34.798974],[134.895268,34.798789],[134.893129,34.799449],[134.892228,34.799727],[134.889334,34.798575],[134.886881,34.797499],[134.885143,34.795367],[134.883901,34.793845],[134.881385,34.792447],[134.879682,34.791146],[134.877317,34.789958],[134.875699,34.789329],[134.873901,34.78914],[134.87149,34.7887],[134.870704,34.787981],[134.868602,34.787638],[134.867529,34.786942],[134.863763,34.785714],[134.859624,34.784183],[134.853753,34.782519],[134.850374,34.781561],[134.846795,34.779898],[134.843368,34.776858],[134.84064,34.776415],[134.838732,34.775262],[134.836672,34.773445],[134.836296,34.771411],[134.836296,34.768622],[134.835727,34.766394],[134.835339,34.764871],[134.833781,34.762107],[134.831786,34.759547],[134.829811,34.756897],[134.829052,34.756475],[134.82684,34.755966],[134.823782,34.756767],[134.82285,34.758121],[134.821373,34.761533],[134.820557,34.762754],[134.819335,34.763717],[134.817717,34.764697],[134.815324,34.768206],[134.813462,34.771104],[134.81215,34.773147],[134.811175,34.773147],[134.809187,34.772096],[134.806256,34.771445],[134.804217,34.771445],[134.802023,34.771788],[134.799022,34.772107],[134.796892,34.772333],[134.792354,34.772049],[134.790659,34.771534],[134.788032,34.769657],[134.786387,34.767544],[134.785592,34.763614],[134.782103,34.743073],[134.768843,34.750155],[134.769555,34.751347],[134.766643,34.75268],[134.765318,34.750788],[134.765043,34.75088],[134.763618,34.748538],[134.763318,34.748472],[134.761943,34.74913],[134.761968,34.749147],[134.761968,34.749422],[134.762143,34.749597],[134.762443,34.749847],[134.762381,34.749938],[134.762331,34.749963],[134.762193,34.749805],[134.761693,34.749288],[134.757219,34.751763],[134.758081,34.753238],[134.761218,34.758446],[134.760843,34.758579],[134.760893,34.758671],[134.761443,34.758579],[134.762156,34.758979],[134.762368,34.759062],[134.764443,34.758629],[134.764955,34.758496],[134.76518,34.758471],[134.765893,34.759879],[134.76603,34.759946],[134.766355,34.760037],[134.766442,34.760121],[134.76653,34.760329],[134.766767,34.760479],[134.765905,34.760754],[134.761568,34.761937],[134.761331,34.76202],[134.761268,34.76207],[134.760943,34.762162],[134.760706,34.76227],[134.760506,34.762454],[134.759881,34.762679],[134.759643,34.762729],[134.759018,34.763128],[134.757544,34.764162],[134.757144,34.764345],[134.756569,34.764478],[134.756381,34.76442],[134.756181,34.764462],[134.755806,34.76482],[134.755531,34.765003],[134.754831,34.765336],[134.753407,34.765953],[134.753107,34.765928],[134.752682,34.766244],[134.751994,34.766578],[134.751369,34.766761],[134.750769,34.767011],[134.74957,34.767419],[134.749132,34.767461],[134.74917,34.767802],[134.747345,34.768169],[134.747271,34.76825],[134.746595,34.768602],[134.745195,34.769002],[134.744395,34.769135],[134.743633,34.769219],[134.7428,34.776701],[134.742359,34.779627],[134.741829,34.782471],[134.741829,34.784679],[134.741829,34.78822],[134.742478,34.790372],[134.742905,34.792346],[134.744519,34.794508],[134.744944,34.796532],[134.745538,34.798345],[134.74626,34.800516],[134.74682,34.803025],[134.74727,34.805037],[134.747173,34.806517],[134.746427,34.80952],[134.746147,34.814708],[134.746147,34.82039],[134.746652,34.823602],[134.748406,34.826408],[134.750397,34.828231],[134.75249,34.829404],[134.753307,34.829642],[134.757249,34.831231],[134.759586,34.832673],[134.761212,34.834266],[134.763029,34.837537],[134.763612,34.840113],[134.763409,34.841255],[134.762837,34.841863],[134.760957,34.842692],[134.759592,34.843557],[134.759352,34.844398],[134.76004,34.845068],[134.761026,34.84534],[134.762792,34.846059],[134.76405,34.847104],[134.765073,34.848393],[134.766004,34.848564],[134.767129,34.848564],[134.768633,34.848564],[134.770026,34.848202],[134.771786,34.848388],[134.772843,34.848798],[134.775585,34.84986],[134.77726,34.850706],[134.778031,34.851363],[134.778351,34.852284],[134.778136,34.854089],[134.777794,34.85502],[134.777794,34.855315],[134.778407,34.856152],[134.784854,34.859974],[134.792177,34.863055],[134.793743,34.863329],[134.79534,34.863783],[134.79519,34.864208],[134.794565,34.865458],[134.79454,34.865741],[134.79489,34.86565],[134.795052,34.865566],[134.795377,34.8655],[134.796127,34.865125],[134.797164,34.865783],[134.797577,34.865983],[134.797539,34.866066],[134.797677,34.866091],[134.798439,34.865716],[134.799257,34.865047],[134.80024,34.865489],[134.801009,34.866459],[134.802281,34.868065],[134.803608,34.869005],[134.804488,34.869354],[134.806983,34.870097],[134.808638,34.870591]]]}}],"type":"FeatureCollection"}