{"features":[{"type":"Feature","properties":{"kuni_url":"/kg/resource/K49.html","id_url":"G49002.html","id":"G49002","kuni":"播磨","name":"加古","yomi":"かこ","kuni_id":"K49","pref":"兵庫県"},"geometry":{"coordinates":[[[134.961398,34.763113],[134.961286,34.76298],[134.961173,34.762955],[134.961023,34.762705],[134.961111,34.76223],[134.961286,34.761755],[134.961561,34.761314],[134.961673,34.761264],[134.962523,34.761297],[134.963385,34.759139],[134.963785,34.757931],[134.964298,34.756831],[134.964535,34.756089],[134.96436,34.755248],[134.964548,34.754931],[134.96491,34.754556],[134.964973,34.754423],[134.965223,34.754131],[134.96571,34.753239],[134.965923,34.752965],[134.966223,34.75274],[134.966473,34.752473],[134.966548,34.752131],[134.966598,34.75164],[134.966498,34.75139],[134.966298,34.75119],[134.966023,34.750981],[134.965198,34.750156],[134.963336,34.748148],[134.960811,34.745632],[134.959811,34.744482],[134.959323,34.743965],[134.958361,34.742707],[134.956899,34.740866],[134.956211,34.739924],[134.954836,34.737899],[134.954212,34.737016],[134.953387,34.736258],[134.952812,34.735733],[134.951049,34.734366],[134.950387,34.733825],[134.948825,34.732633],[134.94855,34.732592],[134.9471,34.732475],[134.946075,34.732433],[134.945062,34.7325],[134.943712,34.732392],[134.942075,34.732125],[134.940975,34.7319],[134.938113,34.731225],[134.936438,34.730867],[134.935201,34.730575],[134.934926,34.730484],[134.935101,34.730009],[134.932563,34.729],[134.931614,34.728709],[134.928201,34.727542],[134.927714,34.727334],[134.927514,34.727292],[134.926664,34.727201],[134.926389,34.727201],[134.925977,34.727292],[134.925652,34.727451],[134.924639,34.727792],[134.924189,34.727859],[134.923814,34.727884],[134.923427,34.727834],[134.923102,34.727742],[134.922439,34.727317],[134.92184,34.727117],[134.920765,34.726934],[134.91964,34.726642],[134.91854,34.726217],[134.918127,34.725992],[134.917715,34.725659],[134.916453,34.724443],[134.91549,34.723426],[134.91469,34.722734],[134.913678,34.722101],[134.913265,34.721876],[134.91269,34.721451],[134.912416,34.721318],[134.912091,34.721185],[134.911566,34.721251],[134.911178,34.721476],[134.910741,34.721635],[134.910003,34.72181],[134.909366,34.721701],[134.909016,34.721768],[134.908628,34.721926],[134.908241,34.722193],[134.908053,34.722401],[134.907966,34.723118],[134.907691,34.723434],[134.907341,34.723634],[134.907253,34.723634],[134.907416,34.724001],[134.907441,34.724293],[134.907303,34.724534],[134.906454,34.725101],[134.905579,34.725367],[134.904954,34.725459],[134.904154,34.725642],[134.901954,34.725734],[134.900504,34.725667],[134.900004,34.725692],[134.898904,34.725642],[134.897979,34.725559],[134.897367,34.725467],[134.896792,34.725334],[134.896329,34.725151],[134.895179,34.724592],[134.894767,34.724526],[134.893805,34.724617],[134.89333,34.724592],[134.892842,34.724301],[134.892505,34.723959],[134.892155,34.723668],[134.891767,34.723426],[134.890917,34.722434],[134.890867,34.722076],[134.890892,34.721734],[134.890805,34.721326],[134.89073,34.721218],[134.89083,34.721193],[134.89133,34.720518],[134.89158,34.71996],[134.891492,34.71996],[134.890917,34.720135],[134.890255,34.720226],[134.88943,34.720293],[134.88883,34.720251],[134.889105,34.719618],[134.889168,34.719376],[134.889105,34.719351],[134.888643,34.719326],[134.88823,34.71926],[134.887818,34.719126],[134.887543,34.718943],[134.88718,34.718835],[134.88633,34.718943],[134.885543,34.718876],[134.885205,34.718743],[134.885018,34.718293],[134.884956,34.718051],[134.884856,34.716877],[134.884693,34.716093],[134.884418,34.71566],[134.884081,34.715277],[134.883693,34.714943],[134.882793,34.713927],[134.882431,34.713169],[134.882081,34.712627],[134.881893,34.712177],[134.881781,34.711702],[134.881581,34.711452],[134.881344,34.711319],[134.881094,34.711027],[134.880731,34.710394],[134.880519,34.710152],[134.880044,34.710019],[134.879444,34.709727],[134.878956,34.709411],[134.878731,34.709502],[134.878506,34.709411],[134.878106,34.709052],[134.877581,34.709161],[134.877519,34.709136],[134.876594,34.708552],[134.876257,34.708377],[134.876094,34.708394],[134.875707,34.708644],[134.875332,34.708311],[134.874694,34.707477],[134.874482,34.707027],[134.874444,34.706869],[134.874207,34.706236],[134.874094,34.706144],[134.873407,34.705836],[134.872919,34.705653],[134.872225,34.704712],[134.871982,34.704569],[134.871357,34.703986],[134.871007,34.703728],[134.870307,34.703386],[134.870082,34.703119],[134.867632,34.704969],[134.868595,34.705853],[134.868432,34.706027],[134.86747,34.705153],[134.86742,34.705178],[134.867282,34.705378],[134.866095,34.706886],[134.866045,34.707019],[134.86662,34.707536],[134.866045,34.708011],[134.865932,34.707944],[134.864433,34.709202],[134.863845,34.708394],[134.862783,34.709427],[134.861958,34.709952],[134.860858,34.710419],[134.860445,34.71056],[134.859321,34.71096],[134.859383,34.711169],[134.859795,34.711977],[134.860095,34.71231],[134.859895,34.712443],[134.858533,34.713727],[134.858421,34.713868],[134.857733,34.713435],[134.857046,34.71231],[134.852959,34.71371],[134.853234,34.713777],[134.853396,34.71391],[134.853559,34.71421],[134.853721,34.71461],[134.850159,34.71596],[134.849471,34.714726],[134.847609,34.715268],[134.847159,34.715335],[134.847022,34.715401],[134.847797,34.716818],[134.847497,34.71696],[134.847434,34.717068],[134.847547,34.717318],[134.847884,34.718126],[134.848096,34.718893],[134.848371,34.720151],[134.848096,34.720376],[134.847109,34.720717],[134.846834,34.720243],[134.847134,34.718826],[134.847034,34.718643],[134.846722,34.718734],[134.846784,34.718868],[134.846647,34.719409],[134.846372,34.719384],[134.843322,34.720442],[134.836673,34.707244],[134.828599,34.709993],[134.826787,34.706344],[134.811938,34.716643],[134.811838,34.716551],[134.809526,34.718126],[134.809638,34.718259],[134.809138,34.718601],[134.81225,34.728167],[134.81195,34.728208],[134.812088,34.728775],[134.812413,34.728725],[134.813125,34.730841],[134.81365,34.730658],[134.813925,34.7312],[134.814113,34.731691],[134.814013,34.731783],[134.813213,34.732233],[134.812575,34.732391],[134.812413,34.732599],[134.812225,34.732683],[134.81195,34.732683],[134.811313,34.732824],[134.81115,34.731808],[134.811375,34.731516],[134.8114,34.731333],[134.811288,34.731225],[134.811075,34.73125],[134.810763,34.73145],[134.810575,34.73165],[134.810388,34.732016],[134.808651,34.732108],[134.803789,34.732399],[134.803626,34.732374],[134.803489,34.732399],[134.803351,34.732308],[134.803376,34.732149],[134.803214,34.731991],[134.802426,34.731858],[134.802176,34.731908],[134.802039,34.732066],[134.802064,34.732241],[134.802251,34.732358],[134.802364,34.732358],[134.803051,34.732491],[134.803239,34.732583],[134.803439,34.732808],[134.803439,34.732941],[134.803326,34.733274],[134.803189,34.733366],[134.802976,34.733366],[134.801901,34.733208],[134.801677,34.732266],[134.801652,34.732266],[134.801327,34.732291],[134.801239,34.732358],[134.800252,34.732874],[134.799677,34.732849],[134.799614,34.734066],[134.799152,34.734183],[134.799077,34.734158],[134.799077,34.734199],[134.799677,34.735307],[134.799727,34.735466],[134.799427,34.735757],[134.799152,34.735757],[134.797202,34.732266],[134.787541,34.740015],[134.79199,34.744581],[134.78949,34.746298],[134.789653,34.746681],[134.789103,34.746973],[134.788915,34.746906],[134.788503,34.747081],[134.788503,34.747398],[134.78809,34.747673],[134.787865,34.747464],[134.787928,34.747306],[134.786903,34.746231],[134.788715,34.745015],[134.788803,34.744448],[134.785753,34.741123],[134.782103,34.743073],[134.785592,34.763614],[134.786387,34.767544],[134.788032,34.769657],[134.790659,34.771534],[134.792354,34.772049],[134.796892,34.772333],[134.799022,34.772107],[134.802023,34.771788],[134.804217,34.771445],[134.806256,34.771445],[134.809187,34.772096],[134.811175,34.773147],[134.81215,34.773147],[134.813462,34.771104],[134.815324,34.768206],[134.817717,34.764697],[134.819335,34.763717],[134.820557,34.762754],[134.821373,34.761533],[134.82285,34.758121],[134.823782,34.756767],[134.82684,34.755966],[134.829052,34.756475],[134.829811,34.756897],[134.831786,34.759547],[134.833781,34.762107],[134.835339,34.764871],[134.835727,34.766394],[134.836296,34.768622],[134.836296,34.771411],[134.836672,34.773445],[134.838732,34.775262],[134.84064,34.776415],[134.843368,34.776858],[134.846795,34.779898],[134.850374,34.781561],[134.853753,34.782519],[134.859624,34.784183],[134.863763,34.785714],[134.867529,34.786942],[134.868602,34.787638],[134.870704,34.787981],[134.87149,34.7887],[134.873901,34.78914],[134.875699,34.789329],[134.877317,34.789958],[134.879682,34.791146],[134.881385,34.792447],[134.883901,34.793845],[134.885143,34.795367],[134.886881,34.797499],[134.889334,34.798575],[134.892228,34.799727],[134.893129,34.799449],[134.895268,34.798789],[134.896317,34.798974],[134.897153,34.799266],[134.898317,34.799597],[134.89975,34.799829],[134.900388,34.800509],[134.901519,34.801074],[134.902694,34.801272],[134.903808,34.800649],[134.905314,34.799835],[134.905934,34.799835],[134.90708,34.800123],[134.908204,34.800317],[134.909025,34.800687],[134.910077,34.801756],[134.910287,34.802542],[134.910123,34.803099],[134.909506,34.80494],[134.909593,34.805288],[134.90989,34.805419],[134.910224,34.805325],[134.910391,34.805172],[134.910797,34.804411],[134.91131,34.80334],[134.912219,34.80257],[134.912859,34.802301],[134.913809,34.802221],[134.918137,34.802221],[134.9217,34.80202],[134.924094,34.801777],[134.925533,34.801284],[134.925489,34.801218],[134.925414,34.800851],[134.925376,34.799968],[134.925539,34.798685],[134.925589,34.797493],[134.925576,34.796318],[134.925664,34.795935],[134.925839,34.795552],[134.926201,34.795218],[134.926501,34.795085],[134.927076,34.794935],[134.927413,34.794918],[134.927738,34.79481],[134.927438,34.793585],[134.927201,34.792819],[134.927151,34.792477],[134.927326,34.792185],[134.927513,34.792052],[134.928226,34.791027],[134.929051,34.790336],[134.930038,34.788861],[134.930426,34.788594],[134.930626,34.788344],[134.930551,34.787936],[134.930638,34.787619],[134.931263,34.786594],[134.931351,34.786211],[134.931226,34.785578],[134.931263,34.785219],[134.931426,34.785036],[134.931751,34.784953],[134.932026,34.784819],[134.932226,34.784619],[134.932313,34.784328],[134.932475,34.784195],[134.932725,34.784153],[134.932538,34.783786],[134.932763,34.783495],[134.932888,34.783161],[134.932738,34.78237],[134.932775,34.781828],[134.932975,34.78142],[134.933225,34.781111],[134.933638,34.78082],[134.934963,34.780178],[134.9357,34.780012],[134.936113,34.779878],[134.936175,34.779837],[134.936038,34.779628],[134.935575,34.779328],[134.935088,34.779103],[134.935675,34.778795],[134.935788,34.778612],[134.93625,34.778728],[134.93645,34.778303],[134.936613,34.778103],[134.936975,34.777995],[134.93785,34.777895],[134.938088,34.778078],[134.938675,34.779028],[134.938912,34.779328],[134.939187,34.779512],[134.939625,34.779562],[134.9408,34.779528],[134.941212,34.779578],[134.941562,34.779762],[134.9418,34.77997],[134.942,34.779945],[134.943287,34.77942],[134.944924,34.778562],[134.945549,34.778295],[134.947324,34.777395],[134.947399,34.777462],[134.948224,34.778737],[134.948437,34.779012],[134.949512,34.77857],[134.950949,34.777862],[134.951086,34.77782],[134.951486,34.778303],[134.951449,34.778478],[134.951199,34.77897],[134.951199,34.779062],[134.951711,34.779337],[134.952086,34.779595],[134.952411,34.779687],[134.952636,34.77942],[134.953224,34.778978],[134.953386,34.778703],[134.953836,34.778353],[134.954299,34.778287],[134.955673,34.778278],[134.958848,34.778137],[134.959611,34.778054],[134.961673,34.777604],[134.962773,34.777345],[134.962773,34.777145],[134.962648,34.776779],[134.96246,34.77642],[134.961523,34.773654],[134.961348,34.773204],[134.960811,34.772521],[134.960273,34.771771],[134.959698,34.770313],[134.959311,34.769479],[134.959286,34.769021],[134.959473,34.767946],[134.959486,34.767496],[134.959198,34.766788],[134.959248,34.766496],[134.959448,34.766246],[134.959723,34.766005],[134.959811,34.765896],[134.960448,34.765405],[134.960623,34.765138],[134.960648,34.764797],[134.961011,34.764397],[134.961298,34.763905],[134.961611,34.76323],[134.961473,34.763113],[134.961398,34.763113]]],"type":"Polygon"}}],"type":"FeatureCollection"}