{"features":[{"type":"Feature","geometry":{"coordinates":[[[134.608755,34.950338],[134.608567,34.950963],[134.608292,34.951421],[134.608217,34.95173],[134.60828,34.952021],[134.608555,34.952405],[134.60908,34.952813],[134.609242,34.952854],[134.612429,34.955113],[134.612654,34.955429],[134.613567,34.956004],[134.613892,34.956504],[134.613817,34.956996],[134.613629,34.957221],[134.613742,34.957579],[134.613792,34.958054],[134.614017,34.958462],[134.614454,34.958904],[134.614542,34.95942],[134.614467,34.960104],[134.614479,34.960929],[134.614417,34.961312],[134.613717,34.961637],[134.613417,34.961837],[134.613004,34.962312],[134.612679,34.962495],[134.612179,34.962603],[134.612079,34.963037],[134.612217,34.963662],[134.612254,34.964162],[134.612092,34.96452],[134.612117,34.964903],[134.612454,34.965236],[134.611954,34.965778],[134.611629,34.96632],[134.611642,34.966978],[134.611892,34.968169],[134.612029,34.968411],[134.612529,34.968544],[134.613029,34.969086],[134.613054,34.969778],[134.612704,34.970319],[134.612217,34.970794],[134.611779,34.971094],[134.611454,34.971427],[134.611917,34.971744],[134.613204,34.971986],[134.614029,34.971869],[134.615729,34.971527],[134.616191,34.971569],[134.616829,34.971861],[134.617866,34.971919],[134.618279,34.971827],[134.618529,34.971986],[134.618616,34.972686],[134.618566,34.973494],[134.618591,34.974061],[134.618929,34.974619],[134.619204,34.975202],[134.619179,34.975694],[134.619404,34.97646],[134.619579,34.977402],[134.619779,34.978102],[134.620029,34.978552],[134.620116,34.979027],[134.620304,34.979452],[134.620691,34.979827],[134.620891,34.980077],[134.620566,34.98071],[134.620504,34.980868],[134.620929,34.982893],[134.620854,34.983118],[134.620229,34.983368],[134.619566,34.983485],[134.619191,34.98366],[134.618691,34.98416],[134.618454,34.984476],[134.618504,34.984901],[134.618929,34.985443],[134.619229,34.985959],[134.619391,34.986409],[134.619316,34.986859],[134.619404,34.987151],[134.619729,34.987459],[134.620179,34.987801],[134.620504,34.988159],[134.620979,34.988967],[134.621279,34.989076],[134.621666,34.989051],[134.621879,34.989101],[134.622129,34.989234],[134.622154,34.989276],[134.622277,34.989232],[134.622791,34.990017],[134.622954,34.991009],[134.622866,34.991417],[134.622641,34.9916],[134.622277,34.991681],[134.622204,34.991867],[134.621604,34.992792],[134.621204,34.99335],[134.620954,34.993983],[134.620691,34.994117],[134.620304,34.994258],[134.619979,34.994417],[134.619741,34.995275],[134.619716,34.995633],[134.619829,34.996017],[134.620266,34.9966],[134.620054,34.997],[134.619779,34.997366],[134.619591,34.997766],[134.619591,34.998308],[134.620104,34.999974],[134.619966,35.000399],[134.619479,35.001258],[134.618954,35.001666],[134.618716,35.002524],[134.618554,35.002766],[134.618229,35.003132],[134.618329,35.003207],[134.618391,35.003907],[134.618379,35.004532],[134.618316,35.004874],[134.618066,35.005324],[134.618029,35.005749],[134.618241,35.005865],[134.618741,35.006032],[134.619441,35.006215],[134.620116,35.006499],[134.620416,35.006682],[134.620878,35.007157],[134.621228,35.007615],[134.621466,35.007865],[134.621516,35.008182],[134.621703,35.008482],[134.621966,35.008665],[134.622128,35.00894],[134.622277,35.009046],[134.622341,35.00909],[134.622641,35.009165],[134.624365,35.008532],[134.625253,35.008132],[134.625565,35.00784],[134.626165,35.007832],[134.626878,35.007449],[134.627178,35.007482],[134.628265,35.007807],[134.629302,35.007866],[134.629952,35.008074],[134.63174,35.009107],[134.632302,35.009774],[134.633227,35.009849],[134.633939,35.00999],[134.634564,35.010432],[134.635339,35.01114],[134.636076,35.011307],[134.636676,35.01154],[134.637189,35.011907],[134.637264,35.012224],[134.637189,35.012782],[134.637789,35.012882],[134.638426,35.012865],[134.638914,35.013099],[134.639126,35.013457],[134.639039,35.013749],[134.638676,35.013949],[134.637701,35.014598],[134.637614,35.014798],[134.637489,35.015857],[134.637039,35.016298],[134.636839,35.016731],[134.636889,35.017131],[134.636739,35.017856],[134.636201,35.018864],[134.635726,35.019239],[134.635064,35.019506],[134.634902,35.019814],[134.635139,35.020223],[134.635489,35.020589],[134.635589,35.020889],[134.635714,35.021747],[134.635639,35.023797],[134.635814,35.02463],[134.635876,35.02563],[134.635664,35.026689],[134.634776,35.02753],[134.634414,35.028138],[134.634264,35.028538],[134.633639,35.028672],[134.633077,35.028863],[134.633052,35.029047],[134.633127,35.029405],[134.633614,35.030921],[134.633651,35.03203],[134.633389,35.032571],[134.633364,35.034329],[134.633289,35.034888],[134.633926,35.035029],[134.634439,35.035038],[134.635014,35.035338],[134.635489,35.036046],[134.636401,35.037971],[134.636201,35.038446],[134.636001,35.039071],[134.635851,35.039796],[134.636101,35.041287],[134.635901,35.041712],[134.635913,35.042254],[134.636238,35.043787],[134.636776,35.044628],[134.637251,35.045178],[134.637688,35.045587],[134.637838,35.045995],[134.637776,35.046403],[134.637963,35.046837],[134.638188,35.047628],[134.6381,35.04812],[134.638138,35.04862],[134.638725,35.049436],[134.638775,35.049936],[134.638713,35.050428],[134.638925,35.050794],[134.63935,35.051136],[134.639463,35.051428],[134.63955,35.051953],[134.639738,35.052469],[134.640063,35.052794],[134.640288,35.053744],[134.640575,35.054244],[134.641262,35.055652],[134.6418,35.055952],[134.642375,35.055977],[134.643112,35.055894],[134.643775,35.055969],[134.644262,35.056202],[134.644562,35.056211],[134.644912,35.056369],[134.645075,35.056844],[134.6452,35.057411],[134.645262,35.058044],[134.645387,35.058677],[134.645687,35.058927],[134.646087,35.059094],[134.646737,35.059527],[134.647949,35.06056],[134.648399,35.061193],[134.648749,35.061602],[134.648799,35.062035],[134.648649,35.062868],[134.648824,35.063568],[134.648537,35.06406],[134.648562,35.064335],[134.648799,35.064585],[134.649774,35.065268],[134.650174,35.065701],[134.651711,35.06816],[134.652599,35.069118],[134.652699,35.069776],[134.651774,35.071026],[134.651586,35.071793],[134.651336,35.072551],[134.651074,35.072892],[134.651424,35.073342],[134.651736,35.073984],[134.652824,35.074401],[134.653311,35.074809],[134.653573,35.075376],[134.654061,35.075767],[134.654511,35.076267],[134.654836,35.076859],[134.655323,35.0768],[134.655948,35.0769],[134.656773,35.076842],[134.657623,35.076892],[134.658273,35.077309],[134.658585,35.077784],[134.658998,35.078042],[134.659373,35.078159],[134.660023,35.07855],[134.660423,35.079275],[134.660573,35.079884],[134.660035,35.080825],[134.660035,35.081167],[134.660373,35.08205],[134.660585,35.082342],[134.660685,35.082733],[134.660623,35.083092],[134.660648,35.083425],[134.66131,35.084117],[134.661497,35.084525],[134.661635,35.085583],[134.661747,35.085925],[134.66236,35.086516],[134.662435,35.086533],[134.663172,35.087383],[134.663272,35.087658],[134.663247,35.087791],[134.66271,35.088608],[134.66261,35.089266],[134.662422,35.089558],[134.66246,35.089749],[134.662635,35.089841],[134.663197,35.089899],[134.66381,35.089908],[134.664097,35.090091],[134.66436,35.090449],[134.664635,35.090724],[134.664697,35.090724],[134.664697,35.090741],[134.665884,35.091108],[134.667622,35.092032],[134.668447,35.092041],[134.668959,35.092132],[134.669484,35.092349],[134.670221,35.092541],[134.670634,35.092682],[134.670871,35.092932],[134.671821,35.093291],[134.671896,35.093341],[134.672221,35.093399],[134.673171,35.093699],[134.673896,35.093982],[134.674471,35.094291],[134.675183,35.094432],[134.675571,35.094124],[134.675696,35.093874],[134.676146,35.093591],[134.676296,35.093549],[134.676858,35.093482],[134.677421,35.093332],[134.678533,35.093541],[134.678871,35.093499],[134.679396,35.093224],[134.679683,35.093116],[134.68042,35.093016],[134.681045,35.093041],[134.681895,35.093399],[134.682208,35.093441],[134.68247,35.093249],[134.682783,35.092883],[134.683145,35.092691],[134.683645,35.092633],[134.684595,35.092683],[134.68497,35.092658],[134.685133,35.092483],[134.685295,35.092174],[134.685458,35.091966],[134.685533,35.091716],[134.685033,35.091308],[134.684395,35.090941],[134.684258,35.090641],[134.684295,35.089658],[134.68422,35.089383],[134.684233,35.088966],[134.684083,35.088566],[134.68397,35.088408],[134.68357,35.08805],[134.683295,35.087683],[134.683195,35.087417],[134.683245,35.0873],[134.683583,35.08725],[134.683658,35.087192],[134.683695,35.086992],[134.683633,35.086608],[134.683633,35.086533],[134.683595,35.086483],[134.683595,35.08635],[134.68322,35.08555],[134.683345,35.085033],[134.684208,35.083984],[134.684858,35.083109],[134.68542,35.0824],[134.68567,35.082042],[134.68617,35.082025],[134.68677,35.081959],[134.687045,35.081901],[134.68757,35.081659],[134.688295,35.080942],[134.688733,35.080767],[134.68942,35.080734],[134.68997,35.080509],[134.690545,35.080409],[134.690732,35.080342],[134.691707,35.079626],[134.692582,35.079501],[134.693132,35.079376],[134.693845,35.079118],[134.69537,35.078368],[134.696282,35.078018],[134.697044,35.077801],[134.697707,35.077693],[134.698719,35.077568],[134.699994,35.076776],[134.700444,35.076418],[134.700532,35.07601],[134.700507,35.075468],[134.700057,35.074677],[134.699832,35.074018],[134.699444,35.073785],[134.699094,35.073493],[134.698919,35.072968],[134.698719,35.072177],[134.698419,35.071652],[134.698319,35.071335],[134.698307,35.07066],[134.698332,35.070369],[134.698244,35.06971],[134.698307,35.069035],[134.698507,35.068385],[134.698982,35.067827],[134.699494,35.067336],[134.699657,35.067202],[134.699769,35.066661],[134.700394,35.065761],[134.700507,35.065228],[134.700907,35.064894],[134.702107,35.064544],[134.702194,35.064319],[134.701819,35.064069],[134.701607,35.063744],[134.701644,35.063386],[134.701569,35.063003],[134.701382,35.062661],[134.701332,35.06237],[134.701532,35.061895],[134.700457,35.060911],[134.700844,35.06042],[134.701107,35.059953],[134.701332,35.05932],[134.701457,35.058737],[134.701457,35.058537],[134.703294,35.058103],[134.703719,35.057887],[134.704157,35.057528],[134.704582,35.056987],[134.704807,35.056545],[134.704944,35.056412],[134.705657,35.055195],[134.705794,35.054995],[134.706219,35.055204],[134.706632,35.055295],[134.707131,35.055129],[134.707594,35.054837],[134.708006,35.054687],[134.708456,35.054621],[134.708894,35.054471],[134.709556,35.054029],[134.710031,35.053779],[134.710306,35.053429],[134.710469,35.053204],[134.710444,35.053154],[134.710531,35.053154],[134.710744,35.053496],[134.711206,35.053754],[134.711556,35.053821],[134.711969,35.054054],[134.712094,35.054187],[134.712581,35.054379],[134.713418,35.055046],[134.713831,35.055296],[134.714143,35.055679],[134.714581,35.055979],[134.714831,35.055987],[134.715268,35.055879],[134.715893,35.055796],[134.716656,35.056096],[134.717093,35.056213],[134.717355,35.056421],[134.717443,35.056538],[134.718243,35.056163],[134.718255,35.055713],[134.718193,35.055596],[134.718343,35.055121],[134.718318,35.054763],[134.718443,35.054338],[134.718993,35.053888],[134.719468,35.05358],[134.72018,35.053246],[134.720243,35.053138],[134.719518,35.052455],[134.718868,35.051721],[134.718793,35.051363],[134.718943,35.050888],[134.71923,35.050213],[134.719105,35.049288],[134.719118,35.048813],[134.71943,35.048005],[134.719268,35.04773],[134.719218,35.04748],[134.71923,35.046897],[134.719006,35.046055],[134.718818,35.045789],[134.718418,35.045506],[134.718206,35.045122],[134.718068,35.044714],[134.718306,35.043747],[134.718506,35.043572],[134.719031,35.043347],[134.719468,35.042906],[134.720543,35.042581],[134.72123,35.042181],[134.721493,35.041598],[134.72158,35.041281],[134.72148,35.040873],[134.720968,35.040081],[134.721055,35.039873],[134.721505,35.039523],[134.721843,35.039098],[134.722043,35.038557],[134.72213,35.03824],[134.722105,35.038015],[134.721918,35.037673],[134.721568,35.03729],[134.721118,35.036873],[134.720981,35.036715],[134.720831,35.036332],[134.720918,35.03604],[134.720893,35.035898],[134.720618,35.035607],[134.720318,35.035582],[134.719881,35.035707],[134.719468,35.035707],[134.718593,35.035623],[134.718456,35.03549],[134.717956,35.034648],[134.717656,35.03449],[134.717168,35.03439],[134.716818,35.034248],[134.716418,35.033773],[134.715768,35.033382],[134.715356,35.033332],[134.714656,35.034023],[134.714269,35.034332],[134.714194,35.034357],[134.713806,35.034123],[134.712781,35.033707],[134.711994,35.033182],[134.711081,35.032082],[134.710256,35.031507],[134.709969,35.030673],[134.709957,35.029974],[134.709869,35.02979],[134.709094,35.028899],[134.708994,35.028515],[134.709007,35.02804],[134.708844,35.027432],[134.708969,35.02669],[134.708957,35.026374],[134.707782,35.024549],[134.707657,35.024232],[134.707882,35.023924],[134.708069,35.023541],[134.708007,35.023016],[134.707919,35.022857],[134.706257,35.021083],[134.705932,35.019858],[134.705207,35.019308],[134.70417,35.018774],[134.703382,35.018449],[134.70282,35.018149],[134.70252,35.018058],[134.702357,35.018074],[134.702107,35.018299],[134.701795,35.018658],[134.701332,35.018791],[134.700432,35.018666],[134.70002,35.018433],[134.699383,35.017816],[134.698533,35.017699],[134.69802,35.017399],[134.69767,35.016899],[134.69757,35.016666],[134.697208,35.015375],[134.696895,35.014675],[134.696608,35.014266],[134.696058,35.0139],[134.695433,35.013775],[134.695083,35.013525],[134.694846,35.013091],[134.694883,35.012733],[134.694933,35.012641],[134.695271,35.012441],[134.695546,35.012358],[134.695633,35.0122],[134.695121,35.011675],[134.695183,35.011408],[134.695508,35.011183],[134.696058,35.011058],[134.696695,35.011042],[134.696995,35.011],[134.697683,35.010733],[134.69782,35.010625],[134.69827,35.01],[134.698558,35.009417],[134.698995,35.007409],[134.69917,35.00685],[134.699658,35.005767],[134.69962,35.004826],[134.69977,35.004551],[134.700233,35.004201],[134.700458,35.004084],[134.700907,35.003551],[134.701132,35.003209],[134.701107,35.002476],[134.701058,35.001984],[134.700895,35.001551],[134.700808,35.001168],[134.70092,35.000918],[134.70112,35.000835],[134.70172,35.00081],[134.702132,35.00061],[134.702545,35.000451],[134.703195,35.000493],[134.703632,35.000493],[134.704045,35.000451],[134.704482,35.000251],[134.70462,35.000135],[134.705057,34.999843],[134.706457,34.999868],[134.706957,34.999851],[134.707632,34.999668],[134.708107,34.999418],[134.708344,34.999193],[134.708407,34.999085],[134.708457,34.998651],[134.708794,34.998068],[134.709069,34.997643],[134.709344,34.996985],[134.709719,34.996518],[134.709969,34.996085],[134.710519,34.995452],[134.711432,34.99476],[134.711619,34.994644],[134.711944,34.99431],[134.712194,34.993944],[134.712282,34.993452],[134.712169,34.992711],[134.711869,34.991536],[134.711707,34.991169],[134.711519,34.990336],[134.710945,34.989861],[134.710882,34.989661],[134.710857,34.989211],[134.711057,34.988603],[134.710945,34.987878],[134.710895,34.987719],[134.71032,34.987044],[134.710157,34.986753],[134.70982,34.986436],[134.709582,34.98607],[134.70952,34.985828],[134.709557,34.98517],[134.709445,34.983953],[134.709332,34.98357],[134.709332,34.983453],[134.709095,34.98337],[134.708595,34.98307],[134.70802,34.982212],[134.70767,34.981812],[134.70712,34.981378],[134.706133,34.980837],[134.70572,34.980495],[134.704983,34.980137],[134.704908,34.980045],[134.704983,34.979754],[134.705158,34.979395],[134.705183,34.978829],[134.705708,34.978245],[134.705895,34.977837],[134.70592,34.977746],[134.706145,34.977496],[134.706333,34.977187],[134.706258,34.976729],[134.706033,34.976346],[134.706058,34.975921],[134.706333,34.974679],[134.70637,34.974138],[134.706583,34.973779],[134.706945,34.973596],[134.707108,34.973579],[134.70752,34.973354],[134.707595,34.973238],[134.707495,34.973079],[134.707333,34.972563],[134.707383,34.971954],[134.707633,34.971371],[134.707633,34.971071],[134.707196,34.97013],[134.706596,34.969288],[134.706296,34.969046],[134.705908,34.96893],[134.705496,34.968863],[134.705146,34.968388],[134.704783,34.968205],[134.704483,34.968097],[134.703883,34.967463],[134.703646,34.966288],[134.703646,34.966088],[134.703446,34.965655],[134.702409,34.965155],[134.701921,34.964772],[134.701559,34.964214],[134.701321,34.963355],[134.701459,34.962655],[134.701621,34.962222],[134.701709,34.962139],[134.702196,34.96198],[134.702721,34.961864],[134.703134,34.961689],[134.703621,34.960872],[134.703709,34.960447],[134.703659,34.960064],[134.703384,34.959706],[134.702946,34.959406],[134.702559,34.959089],[134.702534,34.958689],[134.702621,34.957647],[134.702696,34.957014],[134.702834,34.956498],[134.702809,34.956389],[134.702509,34.956023],[134.702071,34.955864],[134.701909,34.955864],[134.701446,34.955998],[134.700971,34.956048],[134.700509,34.955981],[134.700322,34.955756],[134.700234,34.955373],[134.699772,34.954714],[134.699422,34.953973],[134.699097,34.953989],[134.698784,34.954081],[134.698597,34.954014],[134.698847,34.952665],[134.698772,34.95214],[134.698772,34.951823],[134.698822,34.951648],[134.698472,34.951398],[134.697922,34.950923],[134.697022,34.949881],[134.696335,34.949548],[134.69571,34.949273],[134.69516,34.948756],[134.695047,34.94844],[134.69521,34.947807],[134.69546,34.947332],[134.695847,34.946773],[134.695985,34.946365],[134.69601,34.945982],[134.696785,34.944807],[134.697085,34.944673],[134.697159,34.944607],[134.697384,34.944157],[134.697497,34.943665],[134.697909,34.942899],[134.698734,34.941157],[134.698759,34.941024],[134.698734,34.940641],[134.698784,34.940232],[134.699084,34.939899],[134.699497,34.939541],[134.700322,34.938482],[134.700409,34.937824],[134.700409,34.937241],[134.700297,34.936766],[134.700022,34.935908],[134.700034,34.935458],[134.700109,34.934916],[134.700084,34.934558],[134.699922,34.934083],[134.699072,34.933291],[134.698634,34.932791],[134.698309,34.932341],[134.698009,34.932075],[134.697659,34.931916],[134.697434,34.931575],[134.697297,34.93115],[134.69711,34.930766],[134.69681,34.930608],[134.696397,34.930533],[134.695685,34.930516],[134.695497,34.930358],[134.695272,34.930108],[134.694922,34.929858],[134.69451,34.929725],[134.693935,34.929633],[134.693585,34.929541],[134.692972,34.929066],[134.692372,34.928342],[134.691885,34.92785],[134.69156,34.927375],[134.691535,34.927217],[134.691635,34.926792],[134.691585,34.926358],[134.691473,34.926067],[134.691285,34.924759],[134.691148,34.924534],[134.690748,34.92415],[134.690498,34.923859],[134.690035,34.923609],[134.689435,34.923384],[134.689398,34.923334],[134.689735,34.923317],[134.690635,34.923175],[134.690823,34.923017],[134.690935,34.922817],[134.69086,34.922209],[134.69086,34.9218],[134.69091,34.921442],[134.691073,34.921084],[134.690723,34.920451],[134.69061,34.919884],[134.69051,34.919642],[134.69051,34.919484],[134.69076,34.919442],[134.691085,34.919259],[134.691735,34.918559],[134.691798,34.918309],[134.691648,34.917434],[134.691785,34.917076],[134.691835,34.916776],[134.691423,34.916284],[134.691198,34.916085],[134.691035,34.915751],[134.69081,34.915476],[134.69076,34.915343],[134.690735,34.915076],[134.690948,34.914918],[134.691335,34.914801],[134.691635,34.914643],[134.692048,34.914301],[134.692398,34.914168],[134.69261,34.913943],[134.692648,34.913826],[134.692585,34.913218],[134.692635,34.912793],[134.692885,34.912385],[134.69321,34.911618],[134.693498,34.911219],[134.693535,34.910969],[134.69336,34.910702],[134.693085,34.910519],[134.692648,34.910052],[134.692698,34.909735],[134.692973,34.909302],[134.69321,34.90901],[134.693273,34.908877],[134.693298,34.908336],[134.693373,34.907977],[134.693648,34.907769],[134.693698,34.907661],[134.693673,34.907369],[134.69386,34.906261],[134.693823,34.905744],[134.693735,34.905344],[134.693635,34.905069],[134.69431,34.903986],[134.69461,34.903736],[134.694885,34.90342],[134.69521,34.903245],[134.69551,34.902995],[134.695948,34.902495],[134.696223,34.902336],[134.696547,34.901778],[134.696597,34.901503],[134.69646,34.901187],[134.69621,34.900895],[134.69566,34.900403],[134.695435,34.900162],[134.695485,34.89987],[134.695485,34.899528],[134.695298,34.899195],[134.694773,34.898654],[134.69471,34.898562],[134.69476,34.89832],[134.694898,34.898162],[134.695148,34.897979],[134.69531,34.89717],[134.69541,34.896804],[134.69566,34.896512],[134.69591,34.896421],[134.696835,34.896621],[134.697135,34.896571],[134.697473,34.896254],[134.698148,34.895846],[134.698472,34.895579],[134.698672,34.895287],[134.698772,34.895012],[134.698822,34.894746],[134.699072,34.894562],[134.699372,34.894446],[134.699622,34.894204],[134.699785,34.894113],[134.700572,34.893838],[134.701072,34.893588],[134.70151,34.893179],[134.701497,34.892888],[134.701197,34.892646],[134.700897,34.892329],[134.700722,34.891746],[134.700172,34.891204],[134.699647,34.890896],[134.699235,34.890513],[134.699185,34.890171],[134.69951,34.889788],[134.699585,34.889255],[134.699997,34.888863],[134.70101,34.887805],[134.701472,34.887397],[134.701635,34.887013],[134.701685,34.886788],[134.701735,34.886405],[134.701697,34.88573],[134.70131,34.885038],[134.700685,34.884405],[134.69996,34.883805],[134.699735,34.883064],[134.699598,34.882322],[134.698748,34.881872],[134.69836,34.881472],[134.698323,34.880839],[134.697773,34.880056],[134.697448,34.879247],[134.69711,34.878889],[134.696723,34.878914],[134.695961,34.879297],[134.695336,34.879864],[134.694248,34.880722],[134.691917,34.877508],[134.690979,34.876637],[134.690863,34.875923],[134.690863,34.874391],[134.69166,34.871418],[134.690816,34.870261],[134.688438,34.867553],[134.688438,34.865841],[134.688765,34.862339],[134.688583,34.859131],[134.68747,34.856577],[134.686776,34.854863],[134.686862,34.853639],[134.688093,34.850476],[134.689049,34.848765],[134.689148,34.847548],[134.687774,34.845987],[134.686684,34.84452],[134.685638,34.841313],[134.685858,34.840214],[134.687278,34.838978],[134.689205,34.83657],[134.691769,34.834487],[134.693906,34.831796],[134.694234,34.830295],[134.694469,34.827832],[134.693681,34.825883],[134.692466,34.824546],[134.689658,34.822726],[134.686349,34.82027],[134.683678,34.819089],[134.681512,34.818602],[134.678499,34.8181],[134.676452,34.817374],[134.674271,34.815721],[134.672805,34.814331],[134.67147,34.811832],[134.6703,34.808943],[134.669172,34.805968],[134.668506,34.805034],[134.663391,34.784441],[134.663229,34.783824],[134.663129,34.783782],[134.663104,34.783557],[134.662904,34.783549],[134.662929,34.783957],[134.662766,34.784007],[134.662379,34.784257],[134.662304,34.784032],[134.662116,34.783749],[134.661966,34.783541],[134.661866,34.783482],[134.661754,34.783516],[134.661516,34.783616],[134.661291,34.783699],[134.661041,34.783807],[134.660891,34.783866],[134.660816,34.783924],[134.652643,34.770625],[134.65223,34.7706],[134.652205,34.770509],[134.650431,34.770584],[134.650431,34.77065],[134.650131,34.770675],[134.650093,34.77445],[134.653955,34.779574],[134.657992,34.787165],[134.657767,34.787499],[134.655817,34.788507],[134.655654,34.788482],[134.655542,34.788365],[134.654992,34.786124],[134.655355,34.785449],[134.654792,34.784266],[134.654442,34.782816],[134.65028,34.779658],[134.646181,34.779541],[134.646219,34.772567],[134.645506,34.772517],[134.645494,34.767359],[134.633383,34.767276],[134.633395,34.77255],[134.63197,34.772583],[134.631995,34.777516],[134.634257,34.779283],[134.63437,34.779508],[134.644031,34.780274],[134.643969,34.783399],[134.643019,34.783391],[134.642956,34.783641],[134.642269,34.783616],[134.642294,34.783749],[134.629833,34.78384],[134.628327,34.804408],[134.627716,34.806892],[134.626555,34.808845],[134.626071,34.812795],[134.625838,34.816297],[134.625993,34.819615],[134.626138,34.819963],[134.626904,34.820657],[134.627269,34.820861],[134.627619,34.821403],[134.627731,34.823694],[134.627956,34.824011],[134.628419,34.824328],[134.629094,34.824944],[134.629718,34.825677],[134.630043,34.826352],[134.630056,34.826969],[134.630018,34.828052],[134.629931,34.828644],[134.629793,34.82916],[134.629156,34.830219],[134.628706,34.830627],[134.628156,34.830918],[134.627693,34.831118],[134.627581,34.831226],[134.627606,34.831502],[134.627947,34.832125],[134.630161,34.834526],[134.631345,34.83482],[134.633466,34.835568],[134.634963,34.836628],[134.63613,34.838116],[134.636252,34.8391],[134.636791,34.843441],[134.638099,34.845478],[134.638621,34.846144],[134.638046,34.84694],[134.637053,34.847985],[134.635577,34.84994],[134.633285,34.855589],[134.632029,34.858551],[134.632029,34.860148],[134.632327,34.861261],[134.634679,34.862985],[134.636864,34.864303],[134.637844,34.865714],[134.638257,34.867639],[134.638257,34.870883],[134.638645,34.873465],[134.639771,34.876528],[134.640441,34.879399],[134.640183,34.881307],[134.640183,34.885086],[134.640645,34.887706],[134.640938,34.888827],[134.641259,34.890058],[134.640924,34.891952],[134.640568,34.895645],[134.640568,34.897785],[134.640837,34.901108],[134.641186,34.902203],[134.640953,34.902052],[134.640753,34.901711],[134.640428,34.901577],[134.639803,34.902461],[134.639341,34.902844],[134.638603,34.903185],[134.638078,34.903077],[134.637528,34.902336],[134.637078,34.901527],[134.636753,34.901102],[134.636116,34.901144],[134.635329,34.901394],[134.634441,34.900519],[134.633104,34.900502],[134.632579,34.900577],[134.632316,34.901094],[134.631904,34.901527],[134.631954,34.901952],[134.631879,34.902494],[134.631666,34.902877],[134.630791,34.902994],[134.630404,34.903619],[134.630079,34.903985],[134.629829,34.904344],[134.629942,34.905043],[134.629867,34.905493],[134.629542,34.905852],[134.629379,34.906418],[134.629429,34.906868],[134.629604,34.90756],[134.629629,34.907943],[134.629304,34.908101],[134.628642,34.908285],[134.628242,34.908826],[134.627992,34.90926],[134.627417,34.909485],[134.627042,34.909959],[134.626767,34.910409],[134.626529,34.911376],[134.626604,34.911943],[134.626667,34.912776],[134.627004,34.913376],[134.626954,34.914326],[134.627279,34.915017],[134.627279,34.9154],[134.627042,34.91585],[134.626992,34.916309],[134.626792,34.916534],[134.625504,34.916917],[134.624879,34.917217],[134.624304,34.918225],[134.623979,34.91825],[134.623354,34.918167],[134.622917,34.9183],[134.622392,34.918508],[134.622268,34.91865],[134.622054,34.918641],[134.621817,34.9186],[134.621592,34.918508],[134.621404,34.9186],[134.620942,34.919275],[134.62048,34.91975],[134.620155,34.919883],[134.61953,34.920591],[134.61948,34.920858],[134.619505,34.921125],[134.620392,34.922274],[134.621242,34.922858],[134.621167,34.922991],[134.620829,34.923283],[134.620592,34.923641],[134.620592,34.924049],[134.620729,34.924524],[134.620767,34.924991],[134.620742,34.925557],[134.620829,34.925916],[134.622179,34.927666],[134.622279,34.92763],[134.622679,34.927924],[134.622929,34.928065],[134.623229,34.928132],[134.623666,34.928107],[134.624479,34.927949],[134.624591,34.927999],[134.624041,34.928782],[134.623516,34.929365],[134.623054,34.929482],[134.622779,34.92964],[134.622279,34.93013],[134.621742,34.93064],[134.621717,34.930907],[134.621992,34.931423],[134.622042,34.931848],[134.621917,34.932123],[134.621154,34.932798],[134.620717,34.933248],[134.620579,34.933698],[134.620579,34.934223],[134.620367,34.934648],[134.619692,34.935548],[134.619779,34.935706],[134.620841,34.936223],[134.621291,34.936556],[134.621704,34.937098],[134.622279,34.937212],[134.622841,34.93744],[134.623166,34.937665],[134.623441,34.937998],[134.623579,34.938298],[134.623666,34.938656],[134.623466,34.939464],[134.623529,34.939831],[134.623654,34.940189],[134.623579,34.940231],[134.622541,34.940389],[134.622279,34.940504],[134.621366,34.940564],[134.620954,34.940748],[134.620666,34.941014],[134.620554,34.941356],[134.620366,34.941622],[134.619929,34.941781],[134.619491,34.941764],[134.618117,34.941406],[134.617104,34.941256],[134.616254,34.941172],[134.615679,34.941039],[134.615079,34.941064],[134.614604,34.941289],[134.613954,34.941447],[134.613354,34.941497],[134.612717,34.941789],[134.612392,34.941747],[134.612092,34.941772],[134.611817,34.941956],[134.611517,34.942581],[134.611367,34.943189],[134.611255,34.943797],[134.610955,34.944097],[134.610767,34.94448],[134.610855,34.945039],[134.61103,34.945555],[134.610317,34.946372],[134.610017,34.946772],[134.609992,34.947088],[134.610192,34.947538],[134.610217,34.948188],[134.60968,34.949097],[134.609467,34.949838],[134.60958,34.950263],[134.609167,34.95033],[134.608755,34.950338]]],"type":"Polygon"},"properties":{"id_url":"G49005.html","kuni_url":"/kg/resource/K49.html","kuni":"播磨","id":"G49005","yomi":"しきさい","name":"飾西","pref":"兵庫県","kuni_id":"K49"}}],"type":"FeatureCollection"}