{"features":[{"type":"Feature","properties":{"name":"久米南条","yomi":"くめなんでふ","kuni_id":"K50","pref":"岡山県","kuni_url":"/kg/resource/K50.html","id_url":"G50009.html","id":"G50009","kuni":"美作"},"geometry":{"coordinates":[[[133.980937,35.058867],[133.986702,35.058116],[133.991773,35.058706],[133.995609,35.059089],[134.002514,35.058195],[134.008651,35.056406],[134.012743,35.057173],[134.015029,35.058586],[134.01772,35.058981],[134.018749,35.059772],[134.018274,35.062303],[134.022578,35.06269],[134.027047,35.06288],[134.030851,35.06269],[134.031707,35.061455],[134.032277,35.059459],[134.031422,35.055564],[134.029835,35.054488],[134.029109,35.052586],[134.029109,35.050411],[134.029835,35.049051],[134.032374,35.04742],[134.034188,35.045517],[134.035276,35.043071],[134.03582,35.040443],[134.035367,35.038268],[134.034641,35.035006],[134.033808,35.033395],[134.029604,35.028871],[134.028553,35.026771],[134.028068,35.023782],[134.02823,35.019742],[134.029932,35.016654],[134.03002,35.016504],[134.030395,35.016096],[134.031057,35.015487],[134.03202,35.014404],[134.03242,35.014021],[134.03352,35.012379],[134.033545,35.012263],[134.034745,35.010263],[134.03557,35.009113],[134.037019,35.006663],[134.037119,35.006572],[134.037894,35.00538],[134.038869,35.004139],[134.039207,35.003822],[134.039882,35.003306],[134.039969,35.003081],[134.040019,35.002947],[134.040382,35.002339],[134.040455,35.001122],[134.0393,34.999144],[134.036494,34.995516],[134.034184,34.992218],[134.033359,34.988755],[134.033854,34.984797],[134.035669,34.981334],[134.03897,34.977706],[134.042435,34.974408],[134.04227,34.972759],[134.04095,34.970286],[134.04161,34.968307],[134.043921,34.966988],[134.049202,34.964185],[134.053823,34.961381],[134.057783,34.957589],[134.057453,34.955115],[134.058113,34.952477],[134.061744,34.949838],[134.066035,34.949179],[134.068015,34.947859],[134.069005,34.945221],[134.070821,34.942418],[134.072605,34.941314],[134.07228,34.940656],[134.07153,34.939331],[134.070606,34.938589],[134.070056,34.938223],[134.069418,34.937931],[134.068681,34.937798],[134.068456,34.937798],[134.067931,34.937706],[134.067543,34.937373],[134.067243,34.936765],[134.067218,34.936806],[134.066506,34.937306],[134.066006,34.937423],[134.065381,34.937423],[134.064831,34.937506],[134.064256,34.937756],[134.063506,34.938031],[134.062656,34.938206],[134.062219,34.938256],[134.061757,34.938456],[134.061069,34.938839],[134.060519,34.939022],[134.059944,34.939114],[134.059332,34.939272],[134.058944,34.939456],[134.058782,34.939231],[134.058594,34.938847],[134.058294,34.938531],[134.057844,34.938214],[134.05717,34.938097],[134.055207,34.938306],[134.054557,34.938281],[134.054082,34.938122],[134.05392,34.938014],[134.053207,34.937697],[134.051808,34.937181],[134.051195,34.937072],[134.05062,34.937006],[134.05037,34.936939],[134.049245,34.936731],[134.049108,34.936731],[134.04917,34.937322],[134.049358,34.937706],[134.049745,34.938106],[134.048783,34.938422],[134.048095,34.938739],[134.046258,34.939889],[134.045683,34.94018],[134.045346,34.940272],[134.044658,34.940338],[134.044171,34.940497],[134.043646,34.940863],[134.042683,34.94138],[134.042333,34.941788],[134.041746,34.94233],[134.041421,34.94273],[134.041208,34.943096],[134.041121,34.943321],[134.040434,34.943321],[134.040209,34.943388],[134.039659,34.943455],[134.039359,34.943521],[134.038784,34.943205],[134.038371,34.943188],[134.038209,34.94323],[134.037334,34.943413],[134.036784,34.94373],[134.036009,34.944221],[134.035547,34.944429],[134.035322,34.944471],[134.034109,34.944179],[134.033484,34.944204],[134.032247,34.944813],[134.031747,34.945171],[134.031609,34.945313],[134.031309,34.945738],[134.031147,34.946096],[134.030734,34.946279],[134.030272,34.946321],[134.029747,34.946412],[134.029272,34.946637],[134.028735,34.947071],[134.02821,34.947587],[134.026997,34.949187],[134.02651,34.949462],[134.02606,34.949487],[134.025735,34.949645],[134.025735,34.94987],[134.025822,34.950254],[134.02551,34.950495],[134.025097,34.950929],[134.023485,34.949304],[134.023148,34.948904],[134.022935,34.948537],[134.02271,34.947704],[134.02246,34.947321],[134.02211,34.946646],[134.02101,34.946062],[134.020435,34.945862],[134.020048,34.945771],[134.019473,34.945771],[134.019086,34.945862],[134.018748,34.945887],[134.018511,34.945637],[134.018336,34.945204],[134.018336,34.944962],[134.018448,34.944687],[134.018723,34.944287],[134.018836,34.944012],[134.018886,34.943629],[134.018786,34.942838],[134.018861,34.942438],[134.019086,34.942054],[134.019223,34.941913],[134.019411,34.941529],[134.019273,34.941104],[134.018811,34.940654],[134.017961,34.939621],[134.017548,34.939238],[134.015648,34.938155],[134.015373,34.937838],[134.014599,34.937121],[134.014324,34.936555],[134.014161,34.936063],[134.013974,34.935655],[134.013911,34.934713],[134.013836,34.934305],[134.013524,34.933763],[134.013311,34.933038],[134.013124,34.932772],[134.012986,34.932388],[134.012711,34.931872],[134.012486,34.931555],[134.012436,34.931397],[134.012511,34.931197],[134.013061,34.930405],[134.013499,34.92993],[134.013661,34.929614],[134.013586,34.92928],[134.013149,34.928672],[134.013086,34.927997],[134.012949,34.927655],[134.012486,34.927022],[134.011937,34.925947],[134.011874,34.92558],[134.011937,34.924431],[134.011824,34.924047],[134.011687,34.923914],[134.011249,34.923581],[134.011087,34.923331],[134.011087,34.923014],[134.011137,34.922764],[134.011249,34.922589],[134.011324,34.922047],[134.011549,34.921797],[134.011599,34.921572],[134.011524,34.921347],[134.011137,34.921031],[134.011024,34.920764],[134.011112,34.920131],[134.011024,34.919881],[134.010537,34.919423],[134.010324,34.919248],[134.011024,34.917664],[134.011037,34.91749],[134.010962,34.917323],[134.010612,34.917006],[134.009949,34.916715],[134.008987,34.916606],[134.008875,34.91654],[134.008775,34.916381],[134.008662,34.915856],[134.008587,34.915748],[134.008575,34.915473],[134.008612,34.915281],[134.008625,34.914973],[134.008562,34.914865],[134.007887,34.91489],[134.007637,34.914656],[134.00745,34.914598],[134.007387,34.914523],[134.007387,34.91439],[134.007437,34.914081],[134.007437,34.913673],[134.006837,34.912565],[134.006737,34.912265],[134.0065,34.91199],[134.005712,34.911915],[134.005288,34.912023],[134.005,34.912132],[134.0046,34.912098],[134.004488,34.911932],[134.004238,34.911848],[134.003438,34.911948],[134.002663,34.911798],[134.002013,34.911307],[134.001838,34.911048],[134.001775,34.91084],[134.001875,34.910448],[134.002313,34.910098],[134.002625,34.909532],[134.003138,34.90919],[134.003275,34.909048],[134.00325,34.908957],[134.002613,34.908565],[134.002213,34.908215],[134.001576,34.90734],[134.001501,34.90709],[134.001538,34.906832],[134.002163,34.906082],[134.002263,34.90574],[134.001988,34.90464],[134.001813,34.904149],[134.001401,34.903782],[134.000601,34.903382],[134.000438,34.903241],[134.000426,34.903166],[134.000863,34.902724],[134.001113,34.902266],[134.001251,34.901441],[134.001226,34.900349],[134.001363,34.899433],[134.001526,34.898824],[134.001913,34.898358],[134.003101,34.897391],[134.003813,34.896733],[134.004301,34.896216],[134.004538,34.895583],[134.004538,34.895158],[134.004451,34.8948],[134.004351,34.894758],[134.003951,34.894758],[134.003551,34.894825],[134.003226,34.8948],[134.003026,34.894641],[134.002776,34.894191],[134.002489,34.893992],[134.002001,34.893833],[134.001464,34.893708],[134.001014,34.89345],[134.000676,34.892133],[134.000439,34.891808],[133.999414,34.890925],[133.998901,34.8906],[133.998664,34.8905],[133.998202,34.890442],[133.997764,34.890483],[133.997336,34.89063],[133.997277,34.890675],[133.996864,34.890875],[133.996452,34.890875],[133.995927,34.89065],[133.995239,34.890183],[133.994489,34.889733],[133.994139,34.889575],[133.993639,34.889417],[133.993252,34.889075],[133.993089,34.88885],[133.992677,34.888467],[133.992102,34.888359],[133.991302,34.888384],[133.990752,34.888292],[133.990615,34.8882],[133.99034,34.8878],[133.990065,34.88755],[133.989015,34.887442],[133.988527,34.887192],[133.988277,34.887034],[133.98729,34.886717],[133.985715,34.88665],[133.984428,34.886742],[133.982528,34.8867],[133.980778,34.886542],[133.979265,34.886208],[133.97854,34.885467],[133.977741,34.8842],[133.977228,34.883667],[133.976678,34.883375],[133.976128,34.883034],[133.975791,34.882675],[133.975603,34.881867],[133.975653,34.881301],[133.976041,34.881009],[133.976341,34.880692],[133.976253,34.880442],[133.975866,34.880176],[133.975791,34.880084],[133.975653,34.879659],[133.975266,34.879026],[133.974853,34.878668],[133.974328,34.878534],[133.973891,34.878551],[133.973591,34.878443],[133.973278,34.878034],[133.973116,34.877743],[133.973004,34.877651],[133.972454,34.877451],[133.972129,34.877201],[133.971741,34.877384],[133.971466,34.877409],[133.970979,34.877343],[133.970779,34.877384],[133.970316,34.877968],[133.970179,34.877993],[133.968254,34.876868],[133.967379,34.876218],[133.966991,34.876218],[133.966966,34.876243],[133.966991,34.876259],[133.966654,34.876484],[133.965892,34.876418],[133.965204,34.876109],[133.964592,34.875609],[133.964267,34.875118],[133.964217,34.874909],[133.963967,34.874484],[133.963654,34.874301],[133.963054,34.874259],[133.962154,34.874393],[133.961129,34.874601],[133.960917,34.874418],[133.960642,34.873876],[133.960529,34.873409],[133.960304,34.873026],[133.95998,34.872751],[133.959805,34.87271],[133.959342,34.872959],[133.958355,34.873251],[133.95758,34.873343],[133.957092,34.873293],[133.956317,34.873293],[133.955767,34.873143],[133.955517,34.872934],[133.955417,34.872801],[133.95528,34.872668],[133.954693,34.872326],[133.953293,34.871793],[133.953155,34.871568],[133.952005,34.872193],[133.95143,34.872151],[133.951293,34.872109],[133.951018,34.871768],[133.950655,34.871501],[133.949968,34.871143],[133.949506,34.871076],[133.948868,34.871184],[133.948343,34.871118],[133.947768,34.871118],[133.947081,34.871051],[133.946643,34.870784],[133.946256,34.870243],[133.945706,34.869968],[133.945044,34.869743],[133.944444,34.870018],[133.943981,34.869926],[133.943369,34.870043],[133.942631,34.870376],[133.941556,34.871009],[133.941319,34.871126],[133.940869,34.871234],[133.940044,34.871126],[133.939357,34.871101],[133.938807,34.871167],[133.938232,34.870992],[133.937494,34.870951],[133.936757,34.871126],[133.936557,34.871242],[133.936007,34.871692],[133.935619,34.8721],[133.935269,34.872642],[133.934769,34.873225],[133.934357,34.873317],[133.934219,34.873267],[133.933619,34.872884],[133.933157,34.872975],[133.932682,34.87325],[133.93252,34.87395],[133.932245,34.874017],[133.932032,34.873925],[133.93167,34.874017],[133.931307,34.8742],[133.930845,34.874133],[133.930295,34.874175],[133.929745,34.874083],[133.929332,34.873792],[133.929007,34.8733],[133.92842,34.872692],[133.927932,34.872558],[133.92787,34.872667],[133.927845,34.873458],[133.927907,34.874017],[133.927795,34.874808],[133.924122,34.873448],[133.913643,34.873183],[133.903562,34.881798],[133.896267,34.890148],[133.897382,34.891644],[133.898453,34.893394],[133.900205,34.896409],[133.901664,34.899812],[133.901908,34.901605],[133.901358,34.901922],[133.900783,34.90248],[133.900296,34.903072],[133.899858,34.903771],[133.899683,34.90433],[133.899796,34.904921],[133.899721,34.905346],[133.899446,34.905755],[133.898583,34.906246],[133.898421,34.906655],[133.898146,34.907554],[133.897408,34.907671],[133.896933,34.907896],[133.896796,34.907896],[133.895808,34.908146],[133.895071,34.908479],[133.894771,34.908796],[133.894821,34.909021],[133.894821,34.909229],[133.894659,34.909296],[133.894159,34.909638],[133.894083,34.910037],[133.894058,34.910487],[133.893883,34.910987],[133.893971,34.911479],[133.894496,34.912229],[133.894358,34.913062],[133.894358,34.913604],[133.894746,34.913687],[133.895433,34.913596],[133.895946,34.913437],[133.896746,34.913554],[133.897183,34.913571],[133.897521,34.913329],[133.898233,34.913171],[133.898808,34.913346],[133.899283,34.913704],[133.900183,34.914112],[133.900595,34.914537],[133.900895,34.915262],[133.901483,34.91587],[133.902333,34.916095],[133.903707,34.915687],[133.903982,34.915779],[133.904145,34.916162],[133.904257,34.916745],[133.90462,34.91717],[133.905307,34.917445],[133.905332,34.917512],[133.905907,34.917779],[133.906207,34.918095],[133.906295,34.918137],[133.905995,34.918637],[133.905407,34.919153],[133.904257,34.919828],[133.904332,34.91987],[133.904282,34.919937],[133.90367,34.920187],[133.902082,34.920662],[133.901645,34.921045],[133.90112,34.921353],[133.900982,34.921811],[133.900707,34.922195],[133.90057,34.922328],[133.900682,34.922711],[133.901182,34.923095],[133.90192,34.923453],[133.90222,34.923861],[133.902407,34.924261],[133.903232,34.925186],[133.903482,34.925386],[133.904257,34.925186],[133.904944,34.925186],[133.905382,34.925003],[133.905907,34.92487],[133.906207,34.924828],[133.907007,34.924936],[133.907194,34.92507],[133.907857,34.925653],[133.908319,34.926311],[133.908519,34.926469],[133.908819,34.926894],[133.908432,34.927661],[133.908482,34.928744],[133.908657,34.929444],[133.909444,34.930452],[133.909581,34.930569],[133.909919,34.931086],[133.909856,34.931219],[133.909581,34.931536],[133.909531,34.932036],[133.909556,34.932486],[133.909531,34.932644],[133.909119,34.933269],[133.908494,34.933769],[133.907631,34.934194],[133.907281,34.934669],[133.907144,34.935369],[133.906594,34.936335],[133.906706,34.937019],[133.906544,34.938093],[133.906981,34.939268],[133.907119,34.939785],[133.907169,34.940327],[133.907344,34.940893],[133.907581,34.94136],[133.908169,34.941676],[133.908794,34.942285],[133.909644,34.942918],[133.910056,34.943276],[133.910169,34.94346],[133.910256,34.94386],[133.910531,34.943976],[133.911656,34.944293],[133.912831,34.944743],[133.913968,34.945418],[133.914893,34.946043],[133.915781,34.946559],[133.916906,34.946993],[133.917706,34.947443],[133.918193,34.947843],[133.918331,34.948226],[133.918493,34.948992],[133.918781,34.949784],[133.918943,34.949892],[133.919705,34.950076],[133.921005,34.950184],[133.921055,34.950251],[133.92108,34.950617],[133.921143,34.950776],[133.921655,34.950926],[133.922243,34.951176],[133.922543,34.951717],[133.923143,34.953025],[133.92328,34.953792],[133.922955,34.955367],[133.924005,34.9564],[133.924793,34.956942],[133.925043,34.957058],[133.925105,34.957033],[133.92568,34.95775],[133.926342,34.95845],[133.926617,34.959333],[133.926667,34.960025],[133.926455,34.960408],[133.926392,34.961],[133.926117,34.9614],[133.925705,34.961766],[133.925817,34.962241],[133.92628,34.962733],[133.926367,34.963091],[133.92673,34.963525],[133.928705,34.964266],[133.928842,34.964266],[133.929255,34.964016],[133.929505,34.964033],[133.930217,34.964441],[133.930679,34.964891],[133.930654,34.965325],[133.930742,34.965816],[133.930967,34.966],[133.931642,34.965975],[133.932717,34.965883],[133.933292,34.966016],[133.934117,34.96665],[133.934867,34.967341],[133.935304,34.968091],[133.935392,34.968966],[133.935117,34.969999],[133.935004,34.970791],[133.935391,34.971983],[133.935116,34.973899],[133.935554,34.974532],[133.935779,34.974941],[133.936716,34.975274],[133.937979,34.975432],[133.938279,34.975432],[133.940129,34.978399],[133.941606,34.982273],[133.944154,34.989345],[133.94741,34.997125],[133.952648,34.998964],[133.963124,35.001652],[133.969778,35.004198],[133.972185,35.005471],[133.972326,35.00731],[133.973317,35.009715],[133.972788,35.011862],[133.9724,35.011845],[133.971938,35.011979],[133.971013,35.011512],[133.969126,35.011254],[133.968338,35.011345],[133.967213,35.011412],[133.966238,35.011395],[133.965388,35.011445],[133.964251,35.011695],[133.963426,35.01177],[133.962664,35.011795],[133.962464,35.011479],[133.962351,35.010695],[133.962101,35.010087],[133.961664,35.009437],[133.961464,35.008712],[133.961189,35.008038],[133.960739,35.007638],[133.960501,35.007529],[133.959764,35.007863],[133.959277,35.008254],[133.958677,35.008412],[133.958164,35.008954],[133.957727,35.009246],[133.957177,35.009179],[133.956714,35.009204],[133.956477,35.009162],[133.955764,35.008871],[133.954827,35.008654],[133.953415,35.008771],[133.952515,35.008887],[133.951752,35.009046],[133.951177,35.009254],[133.95069,35.009745],[133.950315,35.010379],[133.949802,35.011037],[133.94959,35.011487],[133.949765,35.012812],[133.949577,35.013287],[133.949202,35.013712],[133.94899,35.014228],[133.948852,35.014953],[133.948777,35.015111],[133.948365,35.015295],[133.948065,35.015628],[133.947677,35.017278],[133.94779,35.017544],[133.94799,35.018444],[133.94939,35.020302],[133.94939,35.020511],[133.949202,35.021052],[133.949152,35.021502],[133.949989,35.02271],[133.950152,35.023294],[133.950002,35.02411],[133.950052,35.024535],[133.949814,35.024735],[133.949127,35.025077],[133.949302,35.025485],[133.949664,35.02586],[133.949939,35.02636],[133.950164,35.026985],[133.950252,35.027593],[133.949864,35.028068],[133.949814,35.028543],[133.950039,35.029193],[133.950352,35.029593],[133.950652,35.029884],[133.950952,35.030384],[133.951202,35.030518],[133.951552,35.030809],[133.952851,35.032043],[133.953176,35.032509],[133.953401,35.033142],[133.953764,35.033817],[133.954176,35.034417],[133.954464,35.035067],[133.954551,35.035726],[133.954351,35.037634],[133.954538,35.038109],[133.955313,35.038575],[133.955526,35.038867],[133.955451,35.03905],[133.955076,35.039525],[133.954888,35.039933],[133.955138,35.040583],[133.955601,35.041033],[133.956101,35.0413],[133.956326,35.041633],[133.956188,35.041908],[133.956051,35.042358],[133.956276,35.042667],[133.956688,35.042875],[133.956713,35.042917],[133.956576,35.043458],[133.956288,35.044133],[133.956313,35.044225],[133.956813,35.044533],[133.956925,35.044875],[133.956788,35.044983],[133.956025,35.045325],[133.955563,35.046341],[133.955513,35.046591],[133.955575,35.047058],[133.9558,35.047399],[133.955575,35.047666],[133.955413,35.047783],[133.95515,35.048166],[133.955125,35.048524],[133.955013,35.048883],[133.954338,35.049291],[133.953663,35.049791],[133.953201,35.050382],[133.953013,35.050691],[133.952876,35.051124],[133.952713,35.051282],[133.956737,35.052318],[133.961852,35.053979],[133.96735,35.056406],[133.971953,35.058195],[133.976429,35.059217],[133.980937,35.058867]]],"type":"Polygon"}}],"type":"FeatureCollection"}