{"type":"FeatureCollection","features":[{"type":"Feature","properties":{"kuni":"備前","id":"G51003","id_url":"G51003.html","kuni_url":"/kg/resource/K51.html","pref":"岡山県","kuni_id":"K51","yomi":"いはなし","name":"磐梨"},"geometry":{"coordinates":[[[134.034041,34.741826],[134.034041,34.742142],[134.033741,34.742709],[134.033741,34.743026],[134.034428,34.743767],[134.034928,34.744126],[134.035303,34.744326],[134.035853,34.744459],[134.036266,34.744526],[134.037253,34.744526],[134.038553,34.744484],[134.039103,34.744684],[134.039615,34.745384],[134.039703,34.745584],[134.039753,34.746034],[134.039978,34.746459],[134.040303,34.746684],[134.041378,34.747042],[134.041978,34.747334],[134.042478,34.7477],[134.042828,34.748125],[134.043165,34.748375],[134.044152,34.748842],[134.04509,34.749042],[134.045227,34.749159],[134.045252,34.74945],[134.045227,34.7499],[134.045302,34.751142],[134.046352,34.752533],[134.047389,34.753116],[134.047727,34.753225],[134.048089,34.75345],[134.047789,34.753958],[134.047389,34.754874],[134.046927,34.755933],[134.046839,34.756357],[134.046889,34.756607],[134.046977,34.756749],[134.047277,34.756949],[134.047477,34.757132],[134.047589,34.757482],[134.047589,34.757599],[134.047677,34.757716],[134.048102,34.757891],[134.048664,34.758199],[134.048802,34.758366],[134.048901,34.758691],[134.049201,34.759232],[134.049576,34.759615],[134.049789,34.759932],[134.050401,34.760665],[134.051001,34.761124],[134.051151,34.761332],[134.051151,34.761549],[134.051101,34.761974],[134.051076,34.762349],[134.050976,34.762607],[134.050701,34.763507],[134.050601,34.76359],[134.050489,34.763573],[134.050351,34.763473],[134.050176,34.763265],[134.049851,34.763082],[134.049626,34.763015],[134.049276,34.763065],[134.048564,34.763198],[134.047901,34.76389],[134.047664,34.76419],[134.047426,34.764481],[134.046989,34.764956],[134.046314,34.765856],[134.046226,34.766106],[134.046401,34.76644],[134.046664,34.766898],[134.046664,34.767115],[134.046114,34.767664],[134.045951,34.768048],[134.045864,34.768589],[134.045639,34.768973],[134.045101,34.769398],[134.044464,34.769814],[134.043439,34.770406],[134.043889,34.770781],[134.044064,34.770956],[134.044501,34.771447],[134.043676,34.772039],[134.043701,34.772147],[134.044501,34.773722],[134.044701,34.774355],[134.044801,34.774989],[134.044963,34.776472],[134.044851,34.777239],[134.044701,34.778005],[134.044426,34.778705],[134.044088,34.779288],[134.043676,34.779788],[134.043051,34.780305],[134.042063,34.78078],[134.041001,34.781113],[134.040251,34.781296],[134.039376,34.781455],[134.038201,34.781505],[134.037176,34.781463],[134.037214,34.782246],[134.037126,34.785054],[134.037213,34.785587],[134.037401,34.786087],[134.036539,34.786412],[134.035564,34.787037],[134.034826,34.788237],[134.034976,34.789412],[134.034601,34.789895],[134.034539,34.790279],[134.034714,34.791212],[134.034676,34.791387],[134.034351,34.79202],[134.033789,34.792745],[134.033314,34.793145],[134.033189,34.793362],[134.033489,34.793553],[134.034826,34.79412],[134.035088,34.794245],[134.035176,34.79522],[134.035376,34.795778],[134.035626,34.795853],[134.036126,34.795961],[134.036188,34.796095],[134.036313,34.79627],[134.036276,34.796461],[134.035988,34.796936],[134.036013,34.797111],[134.036276,34.79772],[134.036451,34.798328],[134.036426,34.798686],[134.036313,34.799028],[134.036363,34.799728],[134.036538,34.800336],[134.036813,34.800786],[134.037313,34.801336],[134.037475,34.801394],[134.037688,34.801661],[134.037788,34.802044],[134.037963,34.802494],[134.038325,34.803836],[134.038563,34.804561],[134.038925,34.805127],[134.0395,34.805711],[134.040075,34.806069],[134.040675,34.806294],[134.041612,34.80656],[134.042275,34.806627],[134.04375,34.806602],[134.044662,34.806652],[134.045,34.806627],[134.045137,34.806536],[134.045375,34.806269],[134.045712,34.806061],[134.046062,34.805902],[134.046475,34.805936],[134.046849,34.806136],[134.047212,34.806286],[134.047687,34.806377],[134.048349,34.806419],[134.049562,34.806611],[134.050037,34.806952],[134.050449,34.807386],[134.052261,34.809594],[134.052511,34.81016],[134.052761,34.811094],[134.053186,34.81166],[134.053274,34.811944],[134.053186,34.812518],[134.053049,34.812702],[134.052199,34.81366],[134.051986,34.81396],[134.051124,34.815718],[134.050961,34.81631],[134.050936,34.816568],[134.050636,34.817218],[134.050361,34.817718],[134.049674,34.818418],[134.049474,34.818843],[134.049124,34.819093],[134.049099,34.819159],[134.049161,34.819409],[134.050386,34.820243],[134.051011,34.820468],[134.051373,34.820801],[134.051986,34.821476],[134.052198,34.821542],[134.052723,34.821426],[134.053348,34.821134],[134.053898,34.820818],[134.054011,34.820784],[134.054261,34.820843],[134.054448,34.821084],[134.054935,34.822451],[134.05496,34.822876],[134.05476,34.823042],[134.054186,34.823359],[134.053686,34.823701],[134.053223,34.824442],[134.052623,34.825634],[134.052273,34.826509],[134.051898,34.826742],[134.051686,34.826758],[134.051111,34.826692],[134.050686,34.826758],[134.050248,34.826783],[134.049936,34.826675],[134.049261,34.826292],[134.048911,34.8262],[134.048411,34.826308],[134.048011,34.826342],[134.047374,34.82645],[134.046886,34.826675],[134.046399,34.826833],[134.045861,34.827825],[134.045774,34.827867],[134.045561,34.828092],[134.044511,34.828925],[134.043749,34.82965],[134.043199,34.830058],[134.042899,34.830216],[134.042487,34.830325],[134.042399,34.8303],[134.042112,34.830283],[134.041149,34.8303],[134.040974,34.8303],[134.040374,34.830216],[134.040074,34.830258],[134.039187,34.831224],[134.039025,34.831999],[134.03875,34.832399],[134.03865,34.832591],[134.039799,34.833649],[134.040312,34.834449],[134.040424,34.834749],[134.040337,34.835049],[134.040074,34.835366],[134.039512,34.835724],[134.038874,34.835782],[134.038449,34.836016],[134.038399,34.836182],[134.038474,34.836399],[134.038699,34.836549],[134.038812,34.836657],[134.039099,34.836815],[134.039574,34.837457],[134.039637,34.837624],[134.039687,34.839074],[134.039612,34.839407],[134.039437,34.83979],[134.039399,34.840115],[134.039462,34.840432],[134.039399,34.840948],[134.039349,34.841906],[134.039374,34.842456],[134.039237,34.842831],[134.038999,34.84309],[134.038762,34.843456],[134.038362,34.843731],[134.037587,34.844231],[134.036912,34.844764],[134.037074,34.844839],[134.037562,34.844998],[134.037924,34.845189],[134.038324,34.845364],[134.038724,34.845364],[134.039599,34.845564],[134.039849,34.845573],[134.040474,34.845448],[134.040786,34.845464],[134.041511,34.845764],[134.041799,34.845839],[134.042374,34.845906],[134.042636,34.845998],[134.042824,34.846164],[134.043024,34.846473],[134.043449,34.846948],[134.044311,34.847722],[134.044586,34.848022],[134.044673,34.848222],[134.044998,34.848756],[134.045098,34.849039],[134.045111,34.849322],[134.044998,34.849931],[134.044961,34.850989],[134.045336,34.852772],[134.045248,34.853147],[134.045023,34.853413],[134.044586,34.853522],[134.044073,34.853972],[134.043936,34.85423],[134.043811,34.854897],[134.043861,34.855363],[134.043811,34.855747],[134.043861,34.856396],[134.043673,34.857188],[134.043386,34.857838],[134.043436,34.857888],[134.043361,34.858255],[134.043311,34.859088],[134.043323,34.859696],[134.043198,34.860388],[134.043236,34.861013],[134.043211,34.861421],[134.042695,34.865442],[134.041609,34.868594],[134.039117,34.87185],[134.036625,34.874531],[134.034325,34.878937],[134.033941,34.884108],[134.034708,34.888322],[134.038341,34.889388],[134.046105,34.890423],[134.050676,34.89027],[134.055398,34.890575],[134.065452,34.893467],[134.070784,34.89438],[134.075811,34.89438],[134.081448,34.895446],[134.084955,34.897119],[134.085055,34.896819],[134.085305,34.896461],[134.085668,34.896119],[134.086768,34.895519],[134.08748,34.895219],[134.088205,34.894944],[134.08883,34.894802],[134.089317,34.894861],[134.089692,34.894944],[134.09018,34.895161],[134.090755,34.895519],[134.091167,34.895911],[134.091529,34.896077],[134.092179,34.896286],[134.093142,34.896652],[134.094392,34.897219],[134.095079,34.897486],[134.095654,34.897636],[134.096354,34.897661],[134.096916,34.897344],[134.097404,34.896719],[134.097591,34.896302],[134.097991,34.894794],[134.098029,34.894094],[134.097979,34.893544],[134.097754,34.892819],[134.097366,34.892203],[134.096991,34.891703],[134.095829,34.890419],[134.094217,34.888295],[134.093754,34.887753],[134.093404,34.887203],[134.093017,34.88642],[134.093004,34.885761],[134.093167,34.88517],[134.093504,34.884745],[134.094029,34.88427],[134.095654,34.883487],[134.096829,34.88307],[134.097541,34.882945],[134.099204,34.882787],[134.101928,34.882453],[134.102853,34.882212],[134.103453,34.881979],[134.103716,34.881795],[134.104016,34.881479],[134.104103,34.881212],[134.103953,34.880154],[134.103678,34.879029],[134.103641,34.878995],[134.103607,34.87757],[134.104253,34.87525],[134.105806,34.872611],[134.107826,34.869195],[134.108292,34.865004],[134.106117,34.862055],[134.099592,34.85895],[134.095553,34.855845],[134.095087,34.85243],[134.097728,34.849326],[134.103165,34.848239],[134.110622,34.850878],[134.116526,34.851033],[134.11808,34.849636],[134.119167,34.844979],[134.121653,34.841564],[134.124639,34.839084],[134.126626,34.836542],[134.127401,34.835592],[134.128526,34.834017],[134.129426,34.832276],[134.129702,34.831626],[134.129902,34.831401],[134.131072,34.828093],[134.132675,34.825079],[134.133994,34.822819],[134.135219,34.820088],[134.135408,34.817169],[134.135785,34.814438],[134.137293,34.811895],[134.139649,34.808882],[134.141345,34.803891],[134.142382,34.798428],[134.142853,34.794097],[134.142099,34.792496],[134.138895,34.792307],[134.134354,34.792972],[134.133604,34.792988],[134.132891,34.792972],[134.131654,34.792997],[134.129429,34.79313],[134.126379,34.793113],[134.122867,34.793296],[134.122329,34.793268],[134.121517,34.793305],[134.118543,34.79353],[134.11641,34.792979],[134.114624,34.791752],[134.113172,34.789298],[134.111498,34.786286],[134.110047,34.78372],[134.108372,34.781935],[134.105693,34.779704],[134.103125,34.778143],[134.099441,34.775577],[134.096315,34.7729],[134.094194,34.771338],[134.092796,34.770049],[134.092346,34.768716],[134.092071,34.768241],[134.091471,34.766575],[134.091309,34.766166],[134.091059,34.765208],[134.090284,34.762792],[134.090072,34.762367],[134.089959,34.762025],[134.089263,34.758936],[134.088676,34.756735],[134.089263,34.755121],[134.091466,34.754534],[134.097928,34.753947],[134.102921,34.752773],[134.10527,34.750278],[134.106298,34.74705],[134.106183,34.742052],[134.106158,34.741694],[134.106183,34.741061],[134.106158,34.740427],[134.106183,34.740411],[134.106021,34.739711],[134.105633,34.737436],[134.104833,34.734445],[134.104583,34.733811],[134.104333,34.732845],[134.103371,34.729745],[134.102934,34.728712],[134.102546,34.727204],[134.102321,34.726662],[134.102221,34.726279],[134.102046,34.725762],[134.101171,34.723962],[134.100184,34.722521],[134.099684,34.721896],[134.099084,34.721262],[134.097897,34.719887],[134.097684,34.719687],[134.097272,34.720004],[134.097047,34.720229],[134.096147,34.720996],[134.095784,34.721379],[134.09576,34.721471],[134.095784,34.722954],[134.095647,34.723446],[134.095522,34.724254],[134.09541,34.724437],[134.094497,34.724637],[134.093897,34.724729],[134.092547,34.724845],[134.09186,34.725137],[134.09156,34.725162],[134.09131,34.725137],[134.090823,34.724979],[134.090435,34.724754],[134.090385,34.72527],[134.090248,34.725637],[134.089973,34.725862],[134.089785,34.725879],[134.089398,34.725837],[134.088823,34.725679],[134.088236,34.725454],[134.087798,34.725204],[134.087423,34.724937],[134.087311,34.724895],[134.086898,34.725095],[134.086598,34.725137],[134.086236,34.72507],[134.085474,34.724645],[134.084999,34.724445],[134.084949,34.723929],[134.085086,34.723795],[134.086148,34.723254],[134.086623,34.722645],[134.086623,34.722462],[134.086486,34.722012],[134.085873,34.721404],[134.085411,34.72107],[134.084674,34.72062],[134.084149,34.720212],[134.083961,34.720104],[134.083899,34.720104],[134.083186,34.720304],[134.082824,34.720329],[134.082449,34.720262],[134.082087,34.719879],[134.081812,34.719495],[134.081599,34.719362],[134.081537,34.719404],[134.081287,34.719854],[134.081124,34.719904],[134.080412,34.719787],[134.078712,34.719337],[134.077975,34.719337],[134.077675,34.719612],[134.076788,34.720828],[134.0763,34.720687],[134.075363,34.720312],[134.074838,34.720328],[134.074401,34.72042],[134.074126,34.720553],[134.073738,34.720803],[134.073251,34.720803],[134.072838,34.72087],[134.072451,34.721012],[134.072151,34.720853],[134.071438,34.720353],[134.070913,34.720178],[134.070451,34.720245],[134.069989,34.72027],[134.069489,34.720153],[134.069189,34.72027],[134.068964,34.720603],[134.068476,34.721012],[134.067926,34.721195],[134.067514,34.721145],[134.067239,34.720945],[134.066901,34.72052],[134.066526,34.720312],[134.066164,34.720337],[134.065776,34.720453],[134.065501,34.720495],[134.064926,34.72047],[134.064239,34.720295],[134.063476,34.72002],[134.062926,34.71987],[134.062626,34.719978],[134.061827,34.720653],[134.061552,34.721062],[134.061064,34.72147],[134.060489,34.72167],[134.059964,34.721778],[134.058589,34.721828],[134.057002,34.721962],[134.056664,34.722078],[134.055952,34.722478],[134.055515,34.722253],[134.05389,34.721537],[134.053127,34.72122],[134.052877,34.721153],[134.05214,34.720862],[134.05184,34.720778],[134.049503,34.719762],[134.049228,34.719587],[134.048428,34.71922],[134.048378,34.71922],[134.046978,34.71862],[134.04544,34.718029],[134.044553,34.717537],[134.044365,34.71772],[134.043466,34.719112],[134.043428,34.719228],[134.043353,34.719253],[134.043078,34.719545],[134.042391,34.720487],[134.042116,34.721053],[134.041953,34.72152],[134.041541,34.722445],[134.040466,34.724295],[134.040028,34.724653],[134.039453,34.725528],[134.038303,34.727869],[134.037416,34.729177],[134.037316,34.730077],[134.037066,34.730552],[134.036692,34.732896],[134.035344,34.73804],[134.034041,34.741826]]],"type":"Polygon"}}]}