{"features":[{"type":"Feature","geometry":{"coordinates":[[[133.56434,34.866797],[133.567088,34.866645],[133.573091,34.868124],[133.574441,34.867867],[133.574184,34.866647],[133.57182,34.863899],[133.573041,34.863442],[133.580979,34.866035],[133.584184,34.865272],[133.585711,34.862069],[133.58739,34.859171],[133.591664,34.857341],[133.594411,34.856121],[133.599449,34.855205],[133.602196,34.85429],[133.603112,34.85307],[133.602501,34.850477],[133.600822,34.847732],[133.601586,34.844986],[133.604333,34.843309],[133.606817,34.841275],[133.608344,34.838682],[133.613381,34.834107],[133.617197,34.833191],[133.620097,34.832581],[133.621624,34.831361],[133.621929,34.830599],[133.621471,34.829073],[133.61964,34.826175],[133.61964,34.824498],[133.620403,34.8216],[133.620403,34.817482],[133.61964,34.813363],[133.619031,34.808099],[133.617047,34.803219],[133.61491,34.799711],[133.61262,34.796508],[133.612315,34.79361],[133.612162,34.789034],[133.610025,34.785373],[133.606209,34.783238],[133.605751,34.78095],[133.606514,34.779272],[133.608804,34.776222],[133.609414,34.770884],[133.608346,34.76585],[133.605293,34.761122],[133.604988,34.758682],[133.606514,34.757767],[133.609872,34.757919],[133.614299,34.757309],[133.617657,34.755936],[133.620312,34.753952],[133.620337,34.753835],[133.620525,34.753677],[133.62055,34.75361],[133.620687,34.753502],[133.62075,34.753368],[133.6207,34.753218],[133.620962,34.752935],[133.621787,34.751893],[133.622137,34.751502],[133.622237,34.75101],[133.6221,34.750652],[133.621625,34.750319],[133.620963,34.74966],[133.62,34.748985],[133.616164,34.746003],[133.615352,34.745644],[133.614714,34.745061],[133.614214,34.744703],[133.613664,34.744428],[133.61309,34.74427],[133.612577,34.744186],[133.612215,34.74397],[133.611915,34.743403],[133.611702,34.743136],[133.611177,34.74287],[133.610615,34.742478],[133.610303,34.742062],[133.609903,34.741103],[133.60944,34.739937],[133.609078,34.73937],[133.60884,34.739179],[133.60869,34.739154],[133.608353,34.739179],[133.608115,34.739179],[133.607965,34.73917],[133.607565,34.739079],[133.607065,34.739029],[133.606703,34.738945],[133.606378,34.738695],[133.605903,34.738246],[133.605553,34.738037],[133.60544,34.737904],[133.605315,34.737654],[133.605315,34.737454],[133.605315,34.737146],[133.605515,34.735779],[133.605528,34.735654],[133.605503,34.735579],[133.605378,34.735504],[133.605215,34.735438],[133.604653,34.735471],[133.604103,34.735471],[133.60364,34.735446],[133.603365,34.735446],[133.60324,34.735429],[133.602853,34.735429],[133.601953,34.735229],[133.601615,34.735204],[133.601353,34.735213],[133.601215,34.735271],[133.601103,34.735554],[133.600703,34.735604],[133.600365,34.735513],[133.600265,34.735454],[133.600178,34.735138],[133.599965,34.73473],[133.599578,34.734371],[133.599365,34.734263],[133.598665,34.733813],[133.59849,34.73343],[133.59839,34.732888],[133.597465,34.732038],[133.597041,34.731855],[133.596366,34.731763],[133.596253,34.731722],[133.595403,34.730963],[133.594978,34.730464],[133.594491,34.730039],[133.593191,34.728389],[133.592591,34.727381],[133.592316,34.727064],[133.591853,34.726681],[133.591766,34.726297],[133.591516,34.725822],[133.591378,34.725739],[133.590941,34.725572],[133.590441,34.725572],[133.589841,34.725689],[133.589566,34.725572],[133.589241,34.725364],[133.588704,34.725331],[133.588466,34.725364],[133.587666,34.725689],[133.587341,34.725689],[133.586954,34.725564],[133.586379,34.725472],[133.585991,34.725289],[133.585579,34.725039],[133.585142,34.724706],[133.584779,34.724639],[133.584454,34.724506],[133.584179,34.724231],[133.584079,34.723956],[133.584204,34.723647],[133.584129,34.723372],[133.583817,34.723131],[133.582867,34.722698],[133.582504,34.722364],[133.582217,34.721914],[133.582329,34.720989],[133.582242,34.720656],[133.582192,34.720114],[133.582079,34.719748],[133.581804,34.719298],[133.581504,34.719231],[133.581229,34.719123],[133.580892,34.719123],[133.580654,34.719256],[133.58008,34.719681],[133.57928,34.720339],[133.578842,34.720831],[133.578567,34.720948],[133.578205,34.720856],[133.577817,34.720606],[133.57743,34.720548],[133.577055,34.720664],[133.57653,34.720923],[133.57603,34.721106],[133.575318,34.721314],[133.574855,34.721223],[133.574518,34.721023],[133.574193,34.720956],[133.573843,34.720956],[133.572843,34.720656],[133.572455,34.720339],[133.572093,34.719915],[133.571893,34.719573],[133.571868,34.719531],[133.57183,34.719523],[133.571643,34.719523],[133.57133,34.71959],[133.57103,34.719698],[133.570855,34.719823],[133.570568,34.719948],[133.570318,34.720056],[133.570093,34.720098],[133.569793,34.720148],[133.569556,34.720148],[133.569106,34.720098],[133.568768,34.719956],[133.568731,34.719856],[133.568768,34.719573],[133.568743,34.719423],[133.568606,34.719198],[133.568456,34.719098],[133.568356,34.71909],[133.568231,34.719173],[133.568106,34.719406],[133.567918,34.719573],[133.567531,34.71984],[133.567393,34.719973],[133.567106,34.720515],[133.567006,34.720781],[133.566918,34.720814],[133.566868,34.720756],[133.566706,34.720598],[133.566593,34.720481],[133.566256,34.72024],[133.566106,34.720173],[133.565993,34.72019],[133.565756,34.72019],[133.565631,34.720156],[133.565431,34.720265],[133.565206,34.720256],[133.564944,34.720215],[133.564731,34.720131],[133.564594,34.71999],[133.564369,34.71984],[133.564056,34.719665],[133.564006,34.71959],[133.564056,34.719523],[133.564119,34.719398],[133.564019,34.719281],[133.563606,34.718706],[133.563356,34.71839],[133.563231,34.718348],[133.563144,34.718323],[133.560712,34.715765],[133.557615,34.714292],[133.55496,34.71267],[133.550093,34.709576],[133.548618,34.707955],[133.548176,34.704565],[133.548471,34.702354],[133.548176,34.700438],[133.546848,34.698375],[133.544636,34.696607],[133.542128,34.694838],[133.537999,34.694396],[133.533132,34.694691],[133.528854,34.694691],[133.52443,34.694396],[133.520447,34.693365],[133.517498,34.691891],[133.514548,34.690417],[133.51027,34.687764],[133.505698,34.686438],[133.498619,34.684227],[133.492626,34.682842],[133.492351,34.683084],[133.491801,34.683425],[133.491401,34.6839],[133.490863,34.684692],[133.490613,34.685184],[133.490488,34.685725],[133.490351,34.686058],[133.490213,34.686175],[133.489801,34.686108],[133.489038,34.685933],[133.488438,34.685908],[133.487838,34.686],[133.487076,34.68605],[133.486689,34.685875],[133.486614,34.685808],[133.486501,34.685534],[133.486301,34.685359],[133.486064,34.685309],[133.485376,34.685492],[133.484676,34.685792],[133.484101,34.686217],[133.483689,34.686742],[133.483264,34.687208],[133.482739,34.687683],[133.482389,34.68825],[133.481601,34.688725],[133.480601,34.689875],[133.480551,34.6899],[133.480252,34.689808],[133.479864,34.689941],[133.479427,34.690216],[133.479077,34.690283],[133.478552,34.690083],[133.477902,34.68955],[133.477239,34.688833],[133.476664,34.68845],[133.476502,34.688408],[133.475877,34.688383],[133.475352,34.688525],[133.473502,34.6897],[133.473315,34.690016],[133.473152,34.690191],[133.47264,34.69015],[133.47214,34.689658],[133.47179,34.689233],[133.471477,34.68905],[133.47014,34.688675],[133.469703,34.688425],[133.469403,34.688208],[133.469053,34.688],[133.468853,34.6878],[133.46864,34.687691],[133.468178,34.687733],[133.467678,34.6879],[133.467028,34.687925],[133.466678,34.6879],[133.466128,34.687741],[133.465903,34.687516],[133.465715,34.687158],[133.465715,34.6868],[133.465815,34.685858],[133.465678,34.685542],[133.465315,34.685367],[133.464691,34.685142],[133.463628,34.684675],[133.463241,34.684383],[133.463053,34.684092],[133.462853,34.683933],[133.462316,34.683908],[133.461878,34.684],[133.461766,34.684075],[133.461416,34.684475],[133.461253,34.684767],[133.461178,34.685491],[133.461203,34.685875],[133.461341,34.686258],[133.461403,34.686566],[133.461266,34.687],[133.460991,34.687466],[133.460378,34.689116],[133.459941,34.690058],[133.459678,34.690491],[133.459291,34.690666],[133.458891,34.690599],[133.458278,34.690624],[133.457853,34.690782],[133.456841,34.691441],[133.456653,34.691532],[133.456516,34.691532],[133.456428,34.691307],[133.456378,34.690316],[133.456116,34.689058],[133.456253,34.688658],[133.456741,34.688208],[133.456853,34.687891],[133.456791,34.687283],[133.456291,34.686316],[133.455904,34.68495],[133.455741,34.6849],[133.454979,34.685083],[133.454729,34.685016],[133.454079,34.684483],[133.453829,34.68435],[133.453554,34.6843],[133.453341,34.684325],[133.452516,34.684533],[133.451916,34.684716],[133.451541,34.684758],[133.451104,34.68485],[133.450641,34.685058],[133.450229,34.685283],[133.449879,34.685533],[133.449491,34.685708],[133.449091,34.686091],[133.448842,34.686049],[133.448379,34.685716],[133.448017,34.685649],[133.447592,34.685766],[133.447429,34.685924],[133.446767,34.686099],[133.446417,34.686308],[133.446092,34.686599],[133.445817,34.687024],[133.445092,34.687882],[133.444542,34.688382],[133.444442,34.688424],[133.444104,34.688474],[133.443942,34.688632],[133.443567,34.688899],[133.443054,34.689149],[133.442917,34.689357],[133.442804,34.689665],[133.442504,34.690074],[133.441779,34.690749],[133.441667,34.690799],[133.441142,34.690757],[133.440792,34.690757],[133.440267,34.69049],[133.439804,34.690374],[133.438142,34.690249],[133.43773,34.690382],[133.437467,34.690523],[133.436942,34.691065],[133.436542,34.691423],[133.436105,34.691673],[133.43578,34.691782],[133.435667,34.691873],[133.435392,34.692232],[133.435017,34.692956],[133.434717,34.693406],[133.43448,34.69359],[133.433905,34.693698],[133.433692,34.693856],[133.43353,34.694898],[133.43348,34.695706],[133.433317,34.696023],[133.43318,34.696131],[133.432555,34.695931],[133.43223,34.695798],[133.431655,34.695756],[133.430942,34.695756],[133.429418,34.695631],[133.42873,34.695656],[133.428193,34.695814],[133.427205,34.695948],[133.427043,34.696023],[133.426693,34.696264],[133.426093,34.696881],[133.425443,34.697622],[133.425055,34.697872],[133.424955,34.698206],[133.42493,34.698814],[133.424718,34.699464],[133.424443,34.70003],[133.424393,34.700255],[133.42423,34.700347],[133.423705,34.70048],[133.423355,34.700622],[133.423218,34.700772],[133.423393,34.701288],[133.42328,34.701588],[133.423068,34.701897],[133.42288,34.702505],[133.42268,34.702822],[133.422305,34.703138],[133.42133,34.70348],[133.42113,34.703638],[133.42143,34.703905],[133.42168,34.704246],[133.421993,34.705005],[133.422043,34.705321],[133.421968,34.705771],[133.421693,34.706196],[133.421555,34.706496],[133.421455,34.706579],[133.421093,34.706696],[133.420855,34.706829],[133.420743,34.707104],[133.420805,34.707754],[133.420755,34.708179],[133.420555,34.708246],[133.420255,34.708296],[133.42018,34.708338],[133.419768,34.708746],[133.41893,34.709787],[133.418768,34.709871],[133.418168,34.709829],[133.41768,34.709946],[133.41738,34.710129],[133.41708,34.710487],[133.416943,34.710846],[133.416455,34.711279],[133.416293,34.711345],[133.415943,34.71137],[133.41558,34.711462],[133.415393,34.71157],[133.414118,34.712629],[133.413106,34.713578],[133.412656,34.714078],[133.412568,34.714253],[133.412593,34.714503],[133.412818,34.715337],[133.412718,34.715737],[133.412556,34.715962],[133.411793,34.716661],[133.411606,34.716978],[133.411768,34.717811],[133.411743,34.718461],[133.411643,34.719044],[133.411805,34.719544],[133.41208,34.719719],[133.412193,34.719836],[133.411918,34.719969],[133.411206,34.720153],[133.410606,34.720219],[133.410343,34.720311],[133.410206,34.720494],[133.410118,34.720961],[133.410206,34.721411],[133.410481,34.721752],[133.410181,34.722744],[133.410268,34.723052],[133.410193,34.723661],[133.41003,34.724244],[133.40993,34.725077],[133.410005,34.725594],[133.410018,34.72591],[133.409168,34.72706],[133.408518,34.727402],[133.407781,34.727443],[133.407456,34.727402],[133.406856,34.727518],[133.405906,34.727877],[133.405581,34.72806],[133.404981,34.72831],[133.404243,34.728493],[133.404218,34.728785],[133.404406,34.729618],[133.404306,34.73036],[133.404143,34.730876],[133.403956,34.731326],[133.403956,34.731776],[133.404118,34.732201],[133.404206,34.732609],[133.404131,34.733076],[133.404218,34.733368],[133.404543,34.733593],[133.404706,34.733659],[133.405006,34.733859],[133.405093,34.734176],[133.404956,34.734559],[133.404193,34.734809],[133.403943,34.734992],[133.403731,34.735484],[133.403318,34.735709],[133.402993,34.735784],[133.402806,34.735642],[133.402468,34.735059],[133.402069,34.734842],[133.401794,34.734634],[133.401706,34.734501],[133.401544,34.733584],[133.401369,34.733334],[133.401106,34.733268],[133.400369,34.733584],[133.399719,34.734151],[133.399556,34.734467],[133.399281,34.734667],[133.398706,34.734734],[133.398381,34.734851],[133.398469,34.735276],[133.398406,34.735434],[133.398106,34.7355],[133.396794,34.73515],[133.396769,34.73515],[133.396907,34.734967],[133.396932,34.734767],[133.396682,34.734676],[133.395407,34.734542],[133.394807,34.734526],[133.39352,34.7346],[133.393082,34.734734],[133.392132,34.73525],[133.39172,34.735459],[133.391607,34.735567],[133.39142,34.735975],[133.391157,34.736317],[133.390795,34.736625],[133.389907,34.737217],[133.389408,34.737492],[133.388458,34.737675],[133.388045,34.737833],[133.387833,34.738033],[133.386995,34.739025],[133.386395,34.739566],[133.386145,34.739833],[133.386145,34.74015],[133.386395,34.740599],[133.386695,34.741024],[133.386708,34.741433],[133.386545,34.741816],[133.386183,34.742016],[133.385258,34.742041],[133.385183,34.742066],[133.384908,34.742424],[133.384695,34.742899],[133.384558,34.743416],[133.38447,34.743441],[133.383683,34.743441],[133.382971,34.743332],[133.382758,34.743266],[133.382183,34.742999],[133.381658,34.742999],[133.381058,34.743199],[133.380621,34.743224],[133.379946,34.743207],[133.379284,34.743341],[133.378746,34.743191],[133.378246,34.742899],[133.377534,34.742741],[133.376884,34.742566],[133.376422,34.742249],[133.376034,34.742049],[133.375484,34.741891],[133.375322,34.741874],[133.374772,34.741916],[133.372947,34.742174],[133.372396,34.742263],[133.372372,34.742233],[133.372022,34.742116],[133.370922,34.741974],[133.370522,34.741999],[133.370272,34.742108],[133.370022,34.742491],[133.369835,34.743049],[133.369547,34.744357],[133.369635,34.744491],[133.369922,34.745282],[133.370335,34.746632],[133.37041,34.747532],[133.370247,34.748023],[133.369885,34.748365],[133.369172,34.748632],[133.368347,34.748873],[133.367648,34.749048],[133.367285,34.74939],[133.367173,34.749565],[133.367223,34.749998],[133.367798,34.750856],[133.367985,34.751439],[133.368097,34.752064],[133.368085,34.752381],[133.367897,34.752498],[133.367648,34.752764],[133.367435,34.753081],[133.367535,34.753214],[133.36741,34.753531],[133.36666,34.754339],[133.366348,34.754597],[133.366148,34.754597],[133.365235,34.754464],[133.364473,34.754456],[133.363973,34.754539],[133.363386,34.754756],[133.362936,34.75498],[133.362211,34.755439],[133.361836,34.75563],[133.361911,34.755664],[133.362361,34.756355],[133.362523,34.75693],[133.362573,34.757513],[133.363011,34.758413],[133.363973,34.759321],[133.364448,34.759871],[133.36476,34.760155],[133.365185,34.760288],[133.365635,34.760388],[133.36586,34.760546],[133.365948,34.760905],[133.366173,34.761105],[133.367485,34.761263],[133.36766,34.761379],[133.367685,34.761721],[133.36766,34.762096],[133.36696,34.762396],[133.366485,34.762929],[133.36601,34.764004],[133.365848,34.764221],[133.365123,34.764971],[133.365098,34.765129],[133.36531,34.765246],[133.365598,34.765504],[133.365723,34.765746],[133.36566,34.765971],[133.365035,34.766679],[133.36461,34.767262],[133.36471,34.767495],[133.36501,34.767845],[133.36541,34.768212],[133.365822,34.768454],[133.36596,34.768504],[133.366822,34.76857],[133.36691,34.768695],[133.366897,34.769303],[133.367072,34.77052],[133.36706,34.770995],[133.366985,34.771445],[133.36671,34.77242],[133.36676,34.772753],[133.36691,34.773203],[133.367235,34.773969],[133.36736,34.774403],[133.36746,34.774528],[133.367884,34.774461],[133.368647,34.774203],[133.369072,34.774294],[133.369734,34.774803],[133.370147,34.775269],[133.370359,34.775628],[133.370359,34.775761],[133.370734,34.776086],[133.371009,34.776461],[133.371584,34.777127],[133.371709,34.777352],[133.371584,34.778527],[133.371696,34.778952],[133.371859,34.779335],[133.372109,34.779727],[133.372395,34.780058],[133.372421,34.780035],[133.372709,34.780085],[133.373709,34.780435],[133.374709,34.780885],[133.376358,34.781535],[133.376821,34.781694],[133.376821,34.78171],[133.376421,34.781869],[133.375421,34.782485],[133.372394,34.784116],[133.372134,34.784585],[133.371534,34.784852],[133.371034,34.785043],[133.370609,34.785251],[133.370509,34.785351],[133.370384,34.78571],[133.370347,34.786168],[133.370522,34.787151],[133.370622,34.788493],[133.370372,34.788643],[133.369734,34.788909],[133.369647,34.789226],[133.369672,34.789518],[133.369772,34.789843],[133.370159,34.790201],[133.371059,34.790793],[133.371684,34.791018],[133.372184,34.791151],[133.372271,34.791243],[133.372321,34.791467],[133.372284,34.791817],[133.372394,34.792315],[133.372921,34.792426],[133.373321,34.792292],[133.373459,34.792401],[133.373809,34.792917],[133.374409,34.793184],[133.375059,34.793367],[133.375246,34.793451],[133.375571,34.794042],[133.375709,34.794692],[133.375621,34.794851],[133.375659,34.795617],[133.375771,34.796359],[133.376371,34.796759],[133.376746,34.79685],[133.377496,34.7971],[133.377583,34.797475],[133.377583,34.797709],[133.377346,34.798334],[133.377296,34.799058],[133.377196,34.799733],[133.376821,34.800433],[133.376733,34.8007],[133.376871,34.8012],[133.377583,34.801983],[133.377908,34.802183],[133.378371,34.802541],[133.378208,34.803966],[133.378383,34.805158],[133.378221,34.805924],[133.378121,34.806174],[133.378096,34.807257],[133.378158,34.808174],[133.378046,34.808424],[133.377671,34.808899],[133.377133,34.809266],[133.376708,34.809915],[133.376146,34.810665],[133.375609,34.811524],[133.375109,34.812582],[133.374809,34.81339],[133.374471,34.813915],[133.374246,34.814048],[133.373609,34.814248],[133.372959,34.814548],[133.372796,34.814548],[133.372471,34.81439],[133.372393,34.814296],[133.372309,34.814115],[133.371959,34.813907],[133.371446,34.813807],[133.370697,34.813865],[133.370197,34.813973],[133.369497,34.814448],[133.368484,34.81489],[133.368409,34.814957],[133.368309,34.81519],[133.368197,34.815607],[133.367784,34.81644],[133.367672,34.816798],[133.367822,34.819065],[133.367509,34.819098],[133.366397,34.818965],[133.365922,34.819056],[133.365635,34.819248],[133.365285,34.819606],[133.36511,34.819715],[133.364985,34.819706],[133.36476,34.819548],[133.364472,34.819456],[133.36426,34.81954],[133.363972,34.819873],[133.363772,34.820056],[133.363522,34.820164],[133.363235,34.820165],[133.362948,34.819998],[133.36266,34.819898],[133.362573,34.819906],[133.362273,34.82009],[133.362035,34.82029],[133.361785,34.820356],[133.361573,34.820265],[133.361273,34.820015],[133.360848,34.819923],[133.360385,34.819973],[133.359785,34.81994],[133.359273,34.819765],[133.358935,34.81969],[133.358698,34.819765],[133.358373,34.820273],[133.357273,34.821848],[133.357323,34.822073],[133.357535,34.822364],[133.357648,34.822681],[133.357635,34.822831],[133.357448,34.823131],[133.356635,34.823564],[133.35636,34.824181],[133.35631,34.825047],[133.356385,34.82568],[133.356473,34.826114],[133.356335,34.826614],[133.356248,34.826747],[133.355173,34.827522],[133.354548,34.827905],[133.353998,34.828313],[133.353698,34.828647],[133.35336,34.829755],[133.35331,34.83038],[133.353173,34.830588],[133.35306,34.830663],[133.35231,34.830921],[133.351485,34.831121],[133.350723,34.831363],[133.349898,34.831504],[133.348611,34.831796],[133.347886,34.831846],[133.347248,34.831788],[133.347023,34.831638],[133.346998,34.831338],[133.347173,34.831038],[133.348011,34.830121],[133.348423,34.829446],[133.348473,34.829146],[133.348286,34.828805],[133.348073,34.828805],[133.348098,34.828821],[133.347798,34.828946],[133.347248,34.829355],[133.346698,34.82958],[133.345523,34.82963],[133.344824,34.829696],[133.343636,34.830038],[133.342499,34.830304],[133.342036,34.830438],[133.341824,34.830654],[133.341424,34.831271],[133.340974,34.831812],[133.340111,34.832496],[133.339899,34.832737],[133.339736,34.833087],[133.339549,34.833712],[133.339224,34.834062],[133.338861,34.834195],[133.338074,34.834137],[133.337349,34.834604],[133.336987,34.834712],[133.336012,34.834729],[133.335824,34.834829],[133.335787,34.835037],[133.335912,34.83542],[133.335987,34.835803],[133.335974,34.836112],[133.335749,34.836412],[133.335599,34.836537],[133.335462,34.836828],[133.335212,34.837012],[133.334362,34.837437],[133.333837,34.83762],[133.333562,34.837753],[133.333399,34.83807],[133.332912,34.839578],[133.332687,34.840119],[133.332662,34.840861],[133.332774,34.841069],[133.333712,34.841694],[133.333874,34.842219],[133.334012,34.843411],[133.334674,34.844111],[133.335249,34.844402],[133.335524,34.844694],[133.335499,34.844852],[133.335161,34.845302],[133.334861,34.84586],[133.334511,34.84731],[133.333874,34.848302],[133.333686,34.84841],[133.333049,34.848635],[133.332287,34.84886],[133.331849,34.849019],[133.330449,34.849627],[133.330412,34.849677],[133.330937,34.850218],[133.331137,34.850685],[133.331162,34.850868],[133.331137,34.851343],[133.330362,34.852427],[133.329849,34.852677],[133.329262,34.852877],[133.328887,34.85306],[133.329349,34.853326],[133.330174,34.853593],[133.330862,34.853935],[133.330974,34.854185],[133.330837,34.854426],[133.330774,34.854835],[133.330949,34.855193],[133.331299,34.855485],[133.331387,34.855693],[133.331224,34.855801],[133.330837,34.855943],[133.330699,34.85596],[133.331087,34.856526],[133.331749,34.856926],[133.332349,34.857376],[133.332436,34.857518],[133.332436,34.857851],[133.332324,34.858259],[133.332486,34.858484],[133.332874,34.858709],[133.333224,34.858551],[133.333561,34.858526],[133.333999,34.859001],[133.334661,34.859559],[133.335074,34.859993],[133.335261,34.861026],[133.335399,34.861501],[133.335536,34.861726],[133.336473,34.862151],[133.337186,34.862667],[133.337798,34.863209],[133.338286,34.863709],[133.338598,34.864201],[133.338786,34.864767],[133.338786,34.865375],[133.338711,34.865692],[133.338573,34.865984],[133.337961,34.86625],[133.337798,34.866367],[133.337636,34.8667],[133.337586,34.867109],[133.337498,34.867175],[133.336698,34.8672],[133.336323,34.86745],[133.336073,34.867809],[133.336098,34.868167],[133.336461,34.869208],[133.336786,34.869658],[133.337398,34.869925],[133.337936,34.869925],[133.338411,34.869675],[133.33896,34.869475],[133.33931,34.869383],[133.340448,34.8692],[133.340935,34.869225],[133.341185,34.869383],[133.341298,34.869383],[133.341948,34.868883],[133.342335,34.868908],[133.342948,34.86915],[133.344185,34.869533],[133.344485,34.870008],[133.344735,34.87055],[133.34506,34.870958],[133.345422,34.871267],[133.345947,34.871517],[133.346135,34.871833],[133.34641,34.87215],[133.346934,34.872416],[133.347184,34.872708],[133.347259,34.87305],[133.347009,34.873225],[133.346984,34.873366],[133.347122,34.873766],[133.347597,34.874308],[133.348084,34.874716],[133.348497,34.875325],[133.349934,34.876016],[133.351384,34.876516],[133.351996,34.876899],[133.353121,34.877841],[133.353309,34.877658],[133.353896,34.877233],[133.355021,34.876491],[133.355921,34.875991],[133.356258,34.875766],[133.357796,34.874975],[133.358446,34.874816],[133.359246,34.874816],[133.359496,34.874908],[133.360233,34.874925],[133.360758,34.87495],[133.361196,34.874816],[133.361583,34.874816],[133.362158,34.87495],[133.363458,34.8754],[133.363595,34.8754],[133.363945,34.8752],[133.364583,34.874742],[133.365133,34.874425],[133.365895,34.874183],[133.368232,34.873867],[133.368832,34.873933],[133.369307,34.874158],[133.36947,34.8742],[133.36972,34.874133],[133.370182,34.8742],[133.370795,34.874492],[133.371395,34.874533],[133.371945,34.874533],[133.372032,34.874558],[133.372392,34.874489],[133.372432,34.874492],[133.373145,34.87435],[133.373619,34.874375],[133.374057,34.874325],[133.374707,34.873992],[133.375369,34.8737],[133.376257,34.87345],[133.377219,34.873359],[133.378419,34.873375],[133.379307,34.873559],[133.379582,34.873584],[133.380044,34.873467],[133.380407,34.873125],[133.380919,34.872767],[133.381231,34.872342],[133.381506,34.872051],[133.381919,34.872001],[133.382519,34.872159],[133.382981,34.872134],[133.383419,34.872026],[133.383756,34.871567],[133.384006,34.871117],[133.384469,34.870801],[133.385244,34.870642],[133.385656,34.870667],[133.385819,34.870784],[133.386806,34.870984],[133.387569,34.870826],[133.388206,34.870417],[133.388756,34.869851],[133.389256,34.869426],[133.389718,34.869268],[133.390218,34.869309],[133.390518,34.869493],[133.390706,34.869759],[133.391068,34.869943],[133.391668,34.869984],[133.392518,34.869943],[133.392906,34.870051],[133.393343,34.870301],[133.394031,34.871201],[133.395405,34.871584],[133.395655,34.872284],[133.396068,34.872684],[133.39678,34.873184],[133.397005,34.873384],[133.39763,34.873859],[133.39808,34.874351],[133.39843,34.874984],[133.398843,34.875167],[133.399343,34.875209],[133.399443,34.875167],[133.399993,34.874667],[133.400355,34.874576],[133.400605,34.874734],[133.400793,34.875001],[133.401155,34.875142],[133.401617,34.875142],[133.402055,34.874934],[133.40228,34.874934],[133.402392,34.875142],[133.403817,34.874167],[133.404367,34.873901],[133.40448,34.873876],[133.404667,34.874076],[133.404917,34.874617],[133.405417,34.875134],[133.40613,34.875609],[133.40673,34.876059],[133.406955,34.876351],[133.407255,34.876959],[133.407617,34.877317],[133.407992,34.877475],[133.408792,34.87815],[133.410167,34.87835],[133.410254,34.8784],[133.410167,34.87885],[133.410254,34.879142],[133.410804,34.879842],[133.411217,34.879817],[133.411792,34.879975],[133.411954,34.879859],[133.412154,34.879567],[133.412592,34.879025],[133.412779,34.878667],[133.413442,34.878259],[133.414154,34.877626],[133.414654,34.877001],[133.414791,34.876726],[133.415579,34.876884],[133.416329,34.877134],[133.416954,34.877492],[133.416991,34.878367],[133.417291,34.878817],[133.417504,34.879342],[133.417541,34.880017],[133.418028,34.880334],[133.418641,34.880559],[133.419241,34.880625],[133.419491,34.880709],[133.420616,34.881458],[133.420703,34.881542],[133.420503,34.882583],[133.420528,34.883058],[133.420616,34.883142],[133.420866,34.883233],[133.42139,34.88335],[133.42199,34.883775],[133.422403,34.884333],[133.42279,34.885191],[133.423228,34.88555],[133.423665,34.885691],[133.42389,34.885708],[133.42444,34.88645],[133.42449,34.886475],[133.425265,34.8865],[133.425315,34.886408],[133.425377,34.885866],[133.42554,34.88535],[133.425927,34.884875],[133.425977,34.884583],[133.425728,34.884241],[133.425815,34.884108],[133.426477,34.883925],[133.42664,34.883908],[133.427215,34.883567],[133.427377,34.883408],[133.427877,34.883158],[133.428315,34.883208],[133.428977,34.883183],[133.429352,34.883292],[133.429665,34.883275],[133.430815,34.88255],[133.431277,34.882208],[133.432677,34.881825],[133.433227,34.881825],[133.433777,34.881734],[133.434364,34.8814],[133.434689,34.88135],[133.434852,34.881242],[133.434827,34.880925],[133.434939,34.880584],[133.435239,34.880225],[133.435239,34.880159],[133.436114,34.880559],[133.437276,34.881284],[133.437689,34.881909],[133.437901,34.882658],[133.438376,34.883083],[133.439001,34.8834],[133.439364,34.883467],[133.440764,34.883642],[133.441263,34.883867],[133.441651,34.884275],[133.441726,34.884317],[133.441951,34.884092],[133.442301,34.883533],[133.442826,34.88285],[133.443838,34.880867],[133.443788,34.880467],[133.444138,34.879792],[133.444713,34.879201],[133.445713,34.878726],[133.445988,34.878551],[133.446801,34.877693],[133.447213,34.877484],[133.447963,34.877626],[133.448288,34.877601],[133.448838,34.876784],[133.450075,34.875435],[133.450263,34.874985],[133.450288,34.874485],[133.4506,34.87406],[133.450975,34.874035],[133.451475,34.87426],[133.451913,34.874735],[133.4523,34.875343],[133.452663,34.875676],[133.453175,34.875751],[133.454087,34.875635],[133.45535,34.875518],[133.456037,34.875676],[133.45705,34.875793],[133.457937,34.875968],[133.458812,34.876076],[133.459862,34.876168],[133.460962,34.876351],[133.461424,34.87646],[133.462337,34.876735],[133.462524,34.876751],[133.463137,34.876643],[133.463786,34.876393],[133.464149,34.876368],[133.464361,34.87666],[133.464499,34.876751],[133.464911,34.876818],[133.465436,34.877068],[133.466324,34.877993],[133.467011,34.878193],[133.467836,34.878284],[133.467911,34.878326],[133.468661,34.879634],[133.468873,34.880326],[133.468798,34.881026],[133.468661,34.881542],[133.468573,34.881684],[133.468798,34.882134],[133.468773,34.882692],[133.469098,34.883592],[133.469211,34.884117],[133.469411,34.884359],[133.469961,34.8845],[133.470473,34.884767],[133.471111,34.884992],[133.471473,34.885242],[133.47166,34.8858],[133.471748,34.885917],[133.47216,34.886],[133.47251,34.885958],[133.472848,34.885667],[133.473198,34.8851],[133.473585,34.884584],[133.47391,34.884225],[133.47446,34.883434],[133.475035,34.883209],[133.475535,34.883076],[133.475698,34.882984],[133.47586,34.882709],[133.475835,34.881942],[133.475973,34.881292],[133.47641,34.880934],[133.477235,34.880701],[133.47751,34.880476],[133.477485,34.880076],[133.477148,34.879668],[133.476823,34.879151],[133.475973,34.878476],[133.475998,34.878318],[133.476598,34.877643],[133.47701,34.877035],[133.47731,34.87676],[133.477885,34.876443],[133.478635,34.876218],[133.479235,34.875993],[133.479372,34.875885],[133.479672,34.875452],[133.480172,34.875227],[133.480422,34.875052],[133.48041,34.874593],[133.480335,34.873985],[133.480447,34.873493],[133.480797,34.87291],[133.481235,34.87246],[133.48181,34.871985],[133.482247,34.871827],[133.48341,34.87196],[133.483622,34.872052],[133.483897,34.872344],[133.484372,34.872569],[133.48486,34.87286],[133.485497,34.87351],[133.486109,34.873919],[133.486572,34.87416],[133.487347,34.874793],[133.487997,34.87506],[133.488172,34.87506],[133.488609,34.874952],[133.489022,34.874902],[133.489459,34.875177],[133.489734,34.875627],[133.490034,34.875985],[133.490346,34.87691],[133.490671,34.877177],[133.491171,34.877493],[133.491521,34.87801],[133.492209,34.878593],[133.492646,34.878035],[133.493059,34.877243],[133.493334,34.876818],[133.493446,34.876727],[133.493746,34.87661],[133.494109,34.876318],[133.494346,34.875827],[133.495146,34.874652],[133.495508,34.874227],[133.495696,34.874269],[133.496083,34.874652],[133.496333,34.875127],[133.496996,34.875685],[133.497382,34.876107],[133.497558,34.876243],[133.497758,34.876335],[133.497833,34.876343],[133.498108,34.876435],[133.499033,34.876577],[133.499283,34.876552],[133.499633,34.876468],[133.499983,34.87651],[133.500133,34.876443],[133.50022,34.876218],[133.50017,34.875902],[133.500071,34.87561],[133.500046,34.875344],[133.500308,34.874802],[133.500283,34.874419],[133.499921,34.873627],[133.499921,34.873285],[133.500021,34.873036],[133.500221,34.872794],[133.500758,34.872319],[133.501483,34.871786],[133.501945,34.871519],[133.502295,34.871386],[133.50277,34.871369],[133.50332,34.871552],[133.503595,34.871594],[133.50402,34.871602],[133.504345,34.871511],[133.50472,34.871336],[133.505383,34.870869],[133.505908,34.870619],[133.506383,34.870511],[133.507232,34.870428],[133.507582,34.870453],[133.507832,34.870411],[133.508095,34.870228],[133.50832,34.869844],[133.508545,34.869628],[133.508845,34.869419],[133.509195,34.869311],[133.509632,34.869269],[133.510307,34.869319],[133.510907,34.869436],[133.511657,34.869486],[133.512832,34.868953],[133.513194,34.868595],[133.513394,34.868353],[133.513707,34.867386],[133.513682,34.867378],[133.513919,34.866395],[133.514169,34.866053],[133.514269,34.86612],[133.514744,34.866328],[133.515519,34.866812],[133.515657,34.866945],[133.517032,34.86777],[133.517432,34.867903],[133.517781,34.867953],[133.517931,34.867928],[133.518306,34.867795],[133.518606,34.867845],[133.518731,34.867911],[133.519406,34.868461],[133.520306,34.869095],[133.520994,34.869511],[133.521768,34.870145],[133.522168,34.870711],[133.522656,34.871394],[133.522781,34.871778],[133.522981,34.872144],[133.523306,34.872553],[133.523443,34.872911],[133.523568,34.873744],[133.523906,34.874519],[133.524406,34.874994],[133.524581,34.875286],[133.524556,34.875494],[133.524393,34.875719],[133.524318,34.875786],[133.523918,34.876369],[133.523856,34.876794],[133.524631,34.876977],[133.525143,34.877027],[133.525668,34.877011],[133.526068,34.876969],[133.527168,34.876702],[133.527518,34.876686],[133.528643,34.877186],[133.528993,34.877169],[133.529368,34.876927],[133.52948,34.876702],[133.52968,34.876477],[133.529905,34.876344],[133.530155,34.876277],[133.53053,34.876277],[133.531905,34.876419],[133.533105,34.876386],[133.53398,34.876661],[133.534704,34.876961],[133.535029,34.877027],[133.535379,34.876969],[133.535679,34.877011],[133.535979,34.877244],[133.536504,34.877986],[133.536654,34.878127],[133.537204,34.878402],[133.538079,34.878427],[133.538554,34.878519],[133.538954,34.878702],[133.539279,34.878952],[133.539541,34.879294],[133.539916,34.87986],[133.540166,34.88016],[133.540541,34.880344],[133.540941,34.880477],[133.541841,34.880577],[133.542241,34.880694],[133.542491,34.880944],[133.542641,34.881277],[133.542854,34.881619],[133.543229,34.881827],[133.544053,34.881877],[133.544766,34.88186],[133.545166,34.881885],[133.545666,34.881844],[133.546016,34.881894],[133.546241,34.882027],[133.546341,34.88221],[133.546428,34.882527],[133.546453,34.882552],[133.546678,34.88246],[133.547366,34.881902],[133.547691,34.881769],[133.548341,34.881685],[133.548978,34.881235],[133.549278,34.881077],[133.550078,34.880885],[133.550428,34.880927],[133.552482,34.878334],[133.553808,34.875796],[133.555945,34.874118],[133.560066,34.872593],[133.561593,34.869238],[133.56434,34.866797]]],"type":"Polygon"},"properties":{"id":"G52005","kuni":"備中","id_url":"G52005.html","kuni_url":"/kg/resource/K52.html","pref":"岡山県","kuni_id":"K52","yomi":"かはかみ","name":"川上"}}],"type":"FeatureCollection"}