{"type":"FeatureCollection","features":[{"properties":{"kuni_id":"K52","pref":"岡山県","name":"窪屋","yomi":"くぼや","id":"G52003","kuni":"備中","kuni_url":"/kg/resource/K52.html","id_url":"G52003.html"},"geometry":{"type":"Polygon","coordinates":[[[133.72155,34.689221],[133.725603,34.685439],[133.728955,34.683893],[133.731147,34.681703],[133.732565,34.681316],[133.733596,34.682089],[133.735272,34.682218],[133.737464,34.679899],[133.739914,34.676034],[133.741461,34.674746],[133.744684,34.674617],[133.748552,34.675648],[133.755514,34.675261],[133.761703,34.674231],[133.769181,34.674746],[133.77047,34.677194],[133.773436,34.680028],[133.777046,34.681703],[133.777819,34.682991],[133.781945,34.682476],[133.785297,34.68093],[133.790325,34.680157],[133.794838,34.680543],[133.795998,34.682089],[133.795869,34.68312],[133.799222,34.682089],[133.801574,34.681584],[133.801499,34.681376],[133.801549,34.681151],[133.801724,34.680859],[133.801774,34.680567],[133.801786,34.680367],[133.801337,34.679684],[133.801212,34.679234],[133.801137,34.679142],[133.801137,34.679076],[133.800712,34.679001],[133.800387,34.679001],[133.800262,34.679026],[133.799962,34.678976],[133.799362,34.678634],[133.798862,34.678518],[133.798387,34.678468],[133.797687,34.678393],[133.797062,34.678051],[133.796674,34.677668],[133.796399,34.677459],[133.7961,34.677326],[133.7958,34.677118],[133.795575,34.676918],[133.795475,34.676618],[133.795625,34.676509],[133.795712,34.675834],[133.795612,34.675451],[133.795725,34.674859],[133.7957,34.673801],[133.795663,34.673376],[133.795588,34.672926],[133.795363,34.672376],[133.795288,34.672285],[133.795013,34.672376],[133.794588,34.672643],[133.794288,34.672801],[133.793638,34.672843],[133.794063,34.672326],[133.7946,34.671901],[133.794825,34.671635],[133.794925,34.671585],[133.79525,34.671227],[133.795388,34.670868],[133.79575,34.670985],[133.795825,34.670985],[133.795838,34.67071],[133.796026,34.669893],[133.795888,34.66971],[133.795838,34.669285],[133.796526,34.668993],[133.796451,34.668585],[133.796576,34.66816],[133.797088,34.666785],[133.797313,34.666427],[133.798013,34.665919],[133.798513,34.665427],[133.799013,34.664869],[133.799739,34.663952],[133.800251,34.663211],[133.801126,34.662728],[133.801301,34.662594],[133.801376,34.662503],[133.801614,34.662103],[133.801514,34.661353],[133.801439,34.661153],[133.801414,34.660561],[133.801701,34.659886],[133.801464,34.659611],[133.801251,34.659495],[133.800926,34.659128],[133.800939,34.658386],[133.800864,34.657912],[133.800927,34.657728],[133.800877,34.657253],[133.800614,34.656803],[133.800877,34.656145],[133.800714,34.655762],[133.799514,34.655403],[133.799414,34.655295],[133.799077,34.65427],[133.798802,34.653929],[133.79879,34.653454],[133.798965,34.652687],[133.799302,34.652329],[133.799639,34.651879],[133.799614,34.651721],[133.799652,34.651229],[133.799902,34.650712],[133.800114,34.649829],[133.800377,34.649046],[133.800002,34.648813],[133.798827,34.648771],[133.798502,34.648454],[133.798177,34.647971],[133.798214,34.647796],[133.798589,34.646713],[133.798652,34.646213],[133.798552,34.645671],[133.798602,34.64563],[133.799027,34.645338],[133.799214,34.645005],[133.799214,34.644913],[133.799014,34.644363],[133.799264,34.644005],[133.799789,34.643763],[133.800314,34.643438],[133.800752,34.643105],[133.800677,34.64283],[133.800202,34.642438],[133.799764,34.642138],[133.799439,34.641838],[133.799002,34.640639],[133.798489,34.640339],[133.797777,34.640255],[133.797477,34.640189],[133.796202,34.639672],[133.795602,34.639664],[133.794864,34.639697],[133.794327,34.639397],[133.794027,34.638922],[133.793677,34.638597],[133.793514,34.638572],[133.790504,34.637298],[133.786886,34.635309],[133.784353,34.631333],[133.783268,34.626994],[133.783992,34.623198],[133.784173,34.619945],[133.782544,34.615968],[133.778926,34.609822],[133.779469,34.607833],[133.782183,34.606387],[133.788695,34.60476],[133.796112,34.605122],[133.80154,34.602591],[133.80371,34.599518],[133.802625,34.597168],[133.801178,34.594095],[133.801971,34.591567],[133.798791,34.584682],[133.794987,34.583758],[133.789024,34.586634],[133.781931,34.585093],[133.769365,34.579858],[133.75775,34.581243],[133.752029,34.581243],[133.748215,34.578991],[133.745304,34.58178],[133.743285,34.583965],[133.738576,34.586486],[133.734875,34.586822],[133.730502,34.589007],[133.728147,34.591528],[133.728147,34.595394],[133.72882,34.59657],[133.730094,34.600367],[133.730481,34.600834],[133.730781,34.601309],[133.731031,34.60185],[133.731131,34.602459],[133.731106,34.603092],[133.731031,34.60345],[133.730456,34.605117],[133.730094,34.605883],[133.729681,34.606558],[133.727906,34.609175],[133.726806,34.610416],[133.726069,34.611158],[133.725456,34.611633],[133.725044,34.612057],[133.724994,34.612266],[133.725131,34.612874],[133.725106,34.613274],[133.725131,34.613907],[133.725406,34.614607],[133.725544,34.614857],[133.726044,34.615482],[133.726819,34.61614],[133.727856,34.616832],[133.729294,34.617957],[133.729706,34.618365],[133.730006,34.618924],[133.730444,34.620482],[133.730968,34.621832],[133.731081,34.62224],[133.731081,34.622756],[133.730843,34.623681],[133.730731,34.624015],[133.730706,34.624156],[133.730506,34.624473],[133.729931,34.624964],[133.729131,34.625623],[133.728556,34.626206],[133.728043,34.627064],[133.727543,34.628281],[133.726918,34.629405],[133.726306,34.630664],[133.726231,34.631189],[133.726368,34.631813],[133.726693,34.632538],[133.727056,34.633638],[133.727256,34.63463],[133.727368,34.635446],[133.727581,34.636613],[133.727781,34.638479],[133.727781,34.639771],[133.727706,34.641371],[133.727481,34.643596],[133.727381,34.645195],[133.727243,34.646862],[133.727156,34.648487],[133.727193,34.649412],[133.727356,34.651145],[133.727518,34.651936],[133.727555,34.652853],[133.727418,34.654478],[133.727418,34.654953],[133.727468,34.655403],[133.725609,34.659747],[133.723173,34.666777],[133.723714,34.676242],[133.722091,34.683543],[133.72155,34.689221]]]},"type":"Feature"}]}