{"type":"FeatureCollection","features":[{"geometry":{"type":"Polygon","coordinates":[[[133.135527,34.852025],[133.135202,34.852008],[133.134678,34.852167],[133.134153,34.851983],[133.133878,34.851625],[133.133878,34.85065],[133.13369,34.849575],[133.133253,34.848359],[133.132753,34.847226],[133.132703,34.846284],[133.132778,34.845334],[133.132566,34.844726],[133.132066,34.844301],[133.131766,34.844143],[133.130528,34.843876],[133.129953,34.843334],[133.129429,34.841485],[133.129316,34.840943],[133.128741,34.84061],[133.127679,34.840043],[133.127404,34.83986],[133.126329,34.83941],[133.125204,34.838985],[133.122842,34.837568],[133.122415,34.837224],[133.121863,34.836869],[133.121217,34.836535],[133.120505,34.836102],[133.119842,34.835568],[133.11893,34.835027],[133.118017,34.834644],[133.11618,34.833927],[133.116018,34.833635],[133.115905,34.833094],[133.115655,34.832885],[133.114968,34.832844],[133.114443,34.832394],[133.114005,34.831761],[133.113868,34.831002],[133.113781,34.830777],[133.113668,34.830686],[133.112843,34.830552],[133.110893,34.829786],[133.110293,34.829244],[133.109793,34.828344],[133.109269,34.827536],[133.108469,34.827019],[133.107481,34.826794],[133.107206,34.826769],[133.106569,34.826519],[133.105769,34.825894],[133.105257,34.825153],[133.104869,34.824903],[133.104594,34.824769],[133.102557,34.823578],[133.101569,34.823195],[133.101257,34.822878],[133.100869,34.822745],[133.100595,34.822453],[133.10057,34.822386],[133.100182,34.821978],[133.099745,34.821661],[133.099632,34.821011],[133.099307,34.820745],[133.098645,34.82052],[133.097182,34.820311],[133.096745,34.82007],[133.096283,34.81957],[133.095783,34.819437],[133.095458,34.819437],[133.094845,34.81937],[133.094545,34.818878],[133.094433,34.818603],[133.094083,34.817995],[133.093533,34.817503],[133.093358,34.81667],[133.093495,34.816087],[133.093608,34.815879],[133.09342,34.81527],[133.093083,34.814937],[133.092758,34.814529],[133.092695,34.81412],[133.092283,34.813445],[133.092096,34.813021],[133.091483,34.812596],[133.090821,34.811987],[133.089833,34.811179],[133.089558,34.811104],[133.089171,34.810812],[133.088708,34.810587],[133.088071,34.810362],[133.087559,34.809646],[133.086784,34.808771],[133.086121,34.808496],[133.085459,34.807979],[133.085296,34.807938],[133.084221,34.808229],[133.083672,34.808029],[133.083459,34.807896],[133.083422,34.807355],[133.083347,34.806788],[133.083209,34.806455],[133.082409,34.806271],[133.081809,34.806046],[133.081659,34.805555],[133.081797,34.805121],[133.081359,34.804788],[133.080647,34.80463],[133.079847,34.804696],[133.079222,34.804497],[133.078885,34.804513],[133.078447,34.804788],[133.078085,34.804696],[133.07771,34.804721],[133.077322,34.804946],[133.07721,34.804971],[133.076197,34.804721],[133.075585,34.804771],[133.075285,34.804613],[133.075035,34.804338],[133.074522,34.804071],[133.073447,34.803888],[133.072873,34.803846],[133.07166,34.803688],[133.070973,34.803288],[133.070123,34.803013],[133.069573,34.802946],[133.069073,34.802722],[133.068935,34.802388],[133.069185,34.802205],[133.069073,34.801688],[133.068385,34.80128],[133.067173,34.801055],[133.066786,34.800922],[133.066373,34.80043],[133.065848,34.79998],[133.065436,34.799305],[133.065523,34.79883],[133.065411,34.79833],[133.064723,34.79788],[133.064148,34.797814],[133.063323,34.798272],[133.062661,34.798064],[133.061624,34.797455],[133.060486,34.796647],[133.059861,34.79633],[133.059386,34.796022],[133.058649,34.79503],[133.058461,34.794356],[133.057961,34.793831],[133.057137,34.793814],[133.055762,34.794305],[133.055162,34.794397],[133.054687,34.79393],[133.053474,34.792939],[133.053175,34.792397],[133.053375,34.791989],[133.0534,34.791581],[133.052762,34.791356],[133.051725,34.791497],[133.051112,34.792397],[133.050262,34.792064],[133.049662,34.791764],[133.049325,34.791431],[133.048912,34.791456],[133.0487,34.79258],[133.048675,34.793147],[133.048475,34.793572],[133.048087,34.793797],[133.04785,34.793689],[133.04765,34.792989],[133.047488,34.792672],[133.046638,34.792314],[133.046225,34.792222],[133.044938,34.792247],[133.044738,34.792197],[133.04435,34.791747],[133.043138,34.790622],[133.042563,34.789839],[133.042076,34.789298],[133.041226,34.788981],[133.040726,34.788598],[133.040364,34.788373],[133.039676,34.788214],[133.039126,34.788014],[133.038801,34.788306],[133.038689,34.788356],[133.038439,34.788198],[133.038089,34.788239],[133.038226,34.789231],[133.038064,34.789364],[133.037239,34.789481],[133.036489,34.789214],[133.035702,34.789189],[133.035064,34.789214],[133.034814,34.789081],[133.034427,34.788473],[133.034564,34.78779],[133.034377,34.787048],[133.034377,34.786873],[133.034627,34.786248],[133.034539,34.786106],[133.034514,34.786031],[133.034489,34.785965],[133.034414,34.785873],[133.034302,34.785815],[133.034202,34.785748],[133.034115,34.78569],[133.03404,34.785623],[133.034002,34.785556],[133.031302,34.786048],[133.030503,34.78539],[133.03014,34.785457],[133.029203,34.785273],[133.028328,34.785165],[133.02789,34.78539],[133.026241,34.786448],[133.02619,34.786923],[133.025965,34.787173],[133.025878,34.78719],[133.025141,34.786806],[133.024341,34.786448],[133.023416,34.786673],[133.022803,34.787198],[133.022503,34.787265],[133.022228,34.787173],[133.021191,34.787848],[133.020229,34.788748],[133.019979,34.788706],[133.018304,34.787581],[133.017029,34.786998],[133.016492,34.78774],[133.015992,34.787473],[133.014317,34.786748],[133.013792,34.786615],[133.013705,34.786732],[133.013517,34.787207],[133.01343,34.787923],[133.013242,34.788506],[133.01288,34.788715],[133.01288,34.788806],[133.01313,34.788823],[133.013567,34.789031],[133.013679,34.789706],[133.013517,34.790714],[133.013304,34.791173],[133.013767,34.791798],[133.014067,34.792498],[133.014042,34.792814],[133.013404,34.792814],[133.012229,34.792772],[133.011267,34.792956],[133.009554,34.793539],[133.00898,34.793789],[133.008105,34.793947],[133.007467,34.794356],[133.007642,34.794805],[133.008292,34.795455],[133.009204,34.795905],[133.009617,34.795972],[133.009617,34.796222],[133.008767,34.79728],[133.008354,34.798163],[133.007604,34.798997],[133.007004,34.79913],[133.005579,34.798971],[133.004479,34.79893],[133.003705,34.799221],[133.003079,34.800371],[133.002192,34.801071],[133.000955,34.801929],[132.999855,34.802471],[132.99838,34.802812],[132.99783,34.803104],[132.997655,34.803987],[132.997442,34.804545],[132.997392,34.804612],[132.997217,34.80477],[132.997055,34.805104],[132.996317,34.80587],[132.995905,34.806462],[132.99508,34.807312],[132.99478,34.80752],[132.993842,34.807878],[132.991955,34.80892],[132.991205,34.80917],[132.990168,34.809569],[132.98973,34.809619],[132.988543,34.809503],[132.987281,34.809353],[132.986068,34.809303],[132.984643,34.809328],[132.983506,34.808994],[132.983343,34.809019],[132.982993,34.810569],[132.983681,34.811111],[132.984206,34.811919],[132.984093,34.812052],[132.983106,34.812261],[132.982856,34.812419],[132.982443,34.812894],[132.981731,34.813227],[132.981406,34.813452],[132.981294,34.814402],[132.980606,34.81501],[132.979969,34.815169],[132.979319,34.815802],[132.978981,34.816568],[132.978681,34.81796],[132.978656,34.818868],[132.979381,34.820351],[132.979206,34.820985],[132.978744,34.822109],[132.978581,34.823009],[132.978306,34.823618],[132.977956,34.823893],[132.982848,34.827611],[132.991636,34.834635],[132.999168,34.840154],[133.006356,34.846695],[133.010299,34.8557],[133.009736,34.862735],[133.005619,34.877644],[133.007514,34.881432],[133.015412,34.884905],[133.021731,34.890587],[133.029629,34.896585],[133.037527,34.902898],[133.045425,34.911106],[133.052934,34.918466],[133.053734,34.917991],[133.054196,34.917874],[133.055796,34.917349],[133.056033,34.917058],[133.057733,34.916549],[133.058346,34.915883],[133.058896,34.9151],[133.059908,34.915749],[133.060645,34.916583],[133.061445,34.917074],[133.061733,34.917041],[133.062245,34.916899],[133.062958,34.917124],[133.063707,34.917608],[133.06377,34.917599],[133.063982,34.917316],[133.065495,34.916466],[133.066307,34.915941],[133.066495,34.915725],[133.067232,34.915383],[133.068657,34.915408],[133.069245,34.915175],[133.06952,34.914966],[133.070532,34.9146],[133.071094,34.914133],[133.071969,34.91355],[133.072207,34.913517],[133.074394,34.913525],[133.075307,34.913367],[133.075407,34.9133],[133.075619,34.913008],[133.075719,34.91295],[133.076406,34.913242],[133.077019,34.913675],[133.077244,34.913683],[133.078294,34.912633],[133.078844,34.912808],[133.079456,34.913908],[133.080719,34.914067],[133.082018,34.913875],[133.082418,34.913767],[133.082856,34.9134],[133.082868,34.9131],[133.082931,34.913017],[133.083706,34.912842],[133.083781,34.91265],[133.083631,34.911575],[133.083581,34.910834],[133.083443,34.910625],[133.083193,34.909892],[133.083618,34.909351],[133.084443,34.909026],[133.084981,34.908776],[133.085468,34.908043],[133.086718,34.907526],[133.089868,34.906476],[133.08998,34.906409],[133.09073,34.906501],[133.091843,34.906818],[133.092155,34.905643],[133.092368,34.905351],[133.093293,34.90516],[133.094268,34.904843],[133.095267,34.904401],[133.095905,34.904435],[133.096342,34.90391],[133.097317,34.903118],[133.099292,34.901185],[133.100192,34.900927],[133.100492,34.900894],[133.101079,34.900519],[133.101804,34.899835],[133.102129,34.899419],[133.101692,34.898827],[133.100592,34.898036],[133.099967,34.897636],[133.100217,34.897111],[133.10138,34.895786],[133.102017,34.895378],[133.102967,34.895503],[133.103879,34.895978],[133.104029,34.896019],[133.105329,34.895803],[133.105917,34.895636],[133.106992,34.894561],[133.107292,34.893936],[133.107467,34.893045],[133.107692,34.892861],[133.108529,34.892453],[133.109566,34.891903],[133.110629,34.891103],[133.111391,34.890337],[133.111691,34.889703],[133.112629,34.888445],[133.113466,34.88767],[133.114053,34.887262],[133.114091,34.887195],[133.113704,34.886362],[133.113191,34.885479],[133.113079,34.884862],[133.112379,34.884137],[133.111891,34.883379],[133.111141,34.882571],[133.110829,34.882129],[133.111379,34.881946],[133.112804,34.882288],[133.113179,34.882246],[133.113554,34.882704],[133.114004,34.883104],[133.114579,34.883104],[133.115453,34.883612],[133.115978,34.883596],[133.117016,34.883154],[133.118766,34.882579],[133.119803,34.882471],[133.120878,34.882479],[133.12239,34.881938],[133.122415,34.881851],[133.122428,34.881879],[133.122865,34.881854],[133.123465,34.881921],[133.123665,34.881879],[133.124402,34.881379],[133.124652,34.881338],[133.12484,34.881513],[133.124677,34.882013],[133.124702,34.882213],[133.124927,34.882413],[133.125615,34.882504],[133.126302,34.883087],[133.12669,34.883696],[133.126715,34.883879],[133.127315,34.883296],[133.127677,34.882996],[133.128139,34.883021],[133.128614,34.882863],[133.129264,34.882029],[133.129789,34.881713],[133.130589,34.881646],[133.131302,34.881329],[133.131714,34.880988],[133.131527,34.880721],[133.129789,34.879996],[133.129814,34.87973],[133.129952,34.87973],[133.130152,34.87953],[133.130889,34.879213],[133.131489,34.879096],[133.131852,34.878896],[133.132589,34.878396],[133.133064,34.878488],[133.133777,34.87853],[133.133914,34.878513],[133.134651,34.877588],[133.135501,34.877197],[133.136826,34.87668],[133.137926,34.875939],[133.139489,34.874647],[133.140126,34.873881],[133.140201,34.873589],[133.139576,34.873272],[133.139051,34.872781],[133.138864,34.872356],[133.137839,34.871947],[133.137189,34.871297],[133.136389,34.870348],[133.136114,34.869489],[133.136164,34.869131],[133.135427,34.868773],[133.135314,34.868748],[133.135289,34.868681],[133.135839,34.86769],[133.136664,34.866806],[133.136827,34.866581],[133.136602,34.86539],[133.136877,34.86449],[133.136902,34.863882],[133.136877,34.863115],[133.136189,34.86154],[133.135565,34.861132],[133.135177,34.860791],[133.134515,34.859716],[133.13399,34.858657],[133.133915,34.857824],[133.133577,34.857099],[133.134215,34.856374],[133.13419,34.855883],[133.134265,34.855766],[133.134952,34.855408],[133.135477,34.854666],[133.135665,34.853875],[133.136052,34.85345],[133.136002,34.852925],[133.135527,34.852025]]]},"properties":{"id":"G53012","kuni":"備後","kuni_url":"/kg/resource/K53.html","id_url":"G53012.html","kuni_id":"K53","pref":"広島県","name":"三上","yomi":"みかみ"},"type":"Feature"}]}