{"type":"FeatureCollection","features":[{"properties":{"id":"G53002","kuni":"備後","id_url":"G53002.html","kuni_url":"/kg/resource/K53.html","pref":"広島県","kuni_id":"K53","yomi":"ふかつ","name":"深津"},"geometry":{"coordinates":[[[133.364642,34.525409],[133.365117,34.525617],[133.365254,34.525234],[133.365467,34.52505],[133.366242,34.525475],[133.366629,34.525725],[133.366867,34.525925],[133.367117,34.526359],[133.367529,34.526759],[133.368142,34.527009],[133.369492,34.527867],[133.369842,34.528134],[133.369904,34.528134],[133.370092,34.528225],[133.371192,34.528559],[133.372316,34.529059],[133.372401,34.529005],[133.372916,34.528984],[133.373704,34.529009],[133.374379,34.528959],[133.374916,34.528825],[133.375379,34.528759],[133.375879,34.528734],[133.376529,34.528759],[133.377029,34.528667],[133.377466,34.528642],[133.379028,34.528734],[133.379766,34.528684],[133.379903,34.528642],[133.379528,34.527625],[133.379791,34.527042],[133.379703,34.526617],[133.378991,34.526167],[133.378904,34.526009],[133.379079,34.525759],[133.379429,34.525492],[133.379841,34.525309],[133.380316,34.525359],[133.381103,34.525376],[133.381403,34.525351],[133.381691,34.525492],[133.381991,34.525692],[133.382403,34.525851],[133.382903,34.525917],[133.383666,34.525867],[133.384016,34.525801],[133.384403,34.525442],[133.385041,34.525284],[133.386041,34.525534],[133.386541,34.525534],[133.387928,34.525151],[133.389015,34.524676],[133.389153,34.524651],[133.389778,34.524718],[133.389953,34.524651],[133.39089,34.524176],[133.390978,34.524043],[133.391453,34.523751],[133.392215,34.523209],[133.392503,34.522826],[133.392678,34.522193],[133.392715,34.521793],[133.392803,34.52141],[133.39294,34.52141],[133.393415,34.52181],[133.39409,34.522443],[133.394302,34.522759],[133.39459,34.523068],[133.394952,34.523159],[133.395852,34.523318],[133.396152,34.523501],[133.396327,34.523793],[133.396415,34.524709],[133.396565,34.525159],[133.396715,34.525859],[133.39704,34.526809],[133.397302,34.527167],[133.397952,34.527701],[133.39819,34.527976],[133.39834,34.528401],[133.398539,34.528717],[133.398777,34.528917],[133.399402,34.529642],[133.399489,34.530025],[133.399402,34.530492],[133.399139,34.531217],[133.399077,34.531867],[133.399377,34.532434],[133.399702,34.532767],[133.400552,34.533533],[133.401027,34.533733],[133.401377,34.533708],[133.401614,34.5336],[133.401989,34.533083],[133.402164,34.532675],[133.402439,34.532292],[133.402814,34.53195],[133.403252,34.531709],[133.403751,34.531525],[133.404401,34.531392],[133.404839,34.531367],[133.405314,34.531459],[133.405751,34.531659],[133.406551,34.53195],[133.407014,34.531975],[133.407426,34.532084],[133.407901,34.532292],[133.408314,34.532425],[133.408639,34.53265],[133.409026,34.532984],[133.409701,34.533409],[133.410201,34.53355],[133.410813,34.533475],[133.411488,34.533434],[133.412026,34.533659],[133.412401,34.533767],[133.412576,34.53375],[133.412963,34.533817],[133.413138,34.533884],[133.413438,34.534125],[133.413851,34.534717],[133.414288,34.534983],[133.414663,34.534958],[133.415076,34.5348],[133.415575,34.534533],[133.41605,34.53435],[133.4162,34.534375],[133.416988,34.534692],[133.417075,34.534692],[133.417488,34.534575],[133.418375,34.533742],[133.418875,34.53365],[133.4191,34.533517],[133.4194,34.5328],[133.41975,34.532525],[133.420213,34.532275],[133.420775,34.532034],[133.421213,34.531892],[133.42175,34.531825],[133.422188,34.531625],[133.422625,34.531559],[133.423037,34.531667],[133.423537,34.531667],[133.42395,34.531784],[133.424362,34.532075],[133.424662,34.532209],[133.425062,34.532234],[133.425512,34.531959],[133.42615,34.531417],[133.427,34.531126],[133.427125,34.531034],[133.4273,34.530717],[133.427587,34.530401],[133.428037,34.530251],[133.428762,34.530017],[133.429149,34.529726],[133.429437,34.529567],[133.429974,34.529617],[133.431174,34.529659],[133.431524,34.529909],[133.432324,34.530309],[133.432824,34.530359],[133.433349,34.530309],[133.433999,34.530151],[133.434524,34.530126],[133.434736,34.530151],[133.434999,34.530267],[133.435236,34.530601],[133.435474,34.531076],[133.435761,34.531501],[133.436061,34.53175],[133.436474,34.531975],[133.436999,34.5322],[133.437586,34.532584],[133.437736,34.532734],[133.438511,34.533884],[133.438886,34.534242],[133.439886,34.534825],[133.440248,34.535233],[133.440573,34.535525],[133.441686,34.535867],[133.442448,34.536108],[133.442773,34.53645],[133.443098,34.536675],[133.443535,34.536875],[133.443985,34.537125],[133.444723,34.537641],[133.445335,34.538108],[133.445597,34.538041],[133.445985,34.5378],[133.446597,34.5375],[133.446922,34.537458],[133.447272,34.537483],[133.447635,34.53755],[133.44781,34.537708],[133.447835,34.537841],[133.447685,34.538466],[133.44766,34.538766],[133.447697,34.539166],[133.44781,34.539483],[133.448022,34.539641],[133.448547,34.539816],[133.448722,34.539841],[133.449097,34.539125],[133.449334,34.53885],[133.449597,34.538675],[133.449772,34.538625],[133.450272,34.53865],[133.450597,34.538741],[133.450959,34.538741],[133.451222,34.538558],[133.451509,34.5382],[133.453184,34.53545],[133.453234,34.535108],[133.453172,34.534275],[133.453234,34.534008],[133.453347,34.533808],[133.453497,34.533292],[133.453472,34.532792],[133.453547,34.5325],[133.453759,34.532183],[133.454022,34.531917],[133.454397,34.5314],[133.454397,34.53135],[133.454222,34.53115],[133.454072,34.530859],[133.453984,34.5305],[133.453872,34.5302],[133.453609,34.529892],[133.452634,34.529167],[133.45186,34.528226],[133.451685,34.527884],[133.451572,34.527459],[133.451335,34.527142],[133.450535,34.526809],[133.450272,34.526559],[133.45001,34.526159],[133.449985,34.526159],[133.44986,34.525776],[133.449835,34.525392],[133.44991,34.524734],[133.44991,34.524284],[133.449822,34.523884],[133.449647,34.523543],[133.449385,34.523226],[133.448998,34.522534],[133.448698,34.521426],[133.448235,34.521134],[133.447785,34.520976],[133.447348,34.520751],[133.447135,34.520443],[133.447135,34.520101],[133.447198,34.519785],[133.447435,34.519226],[133.44766,34.518818],[133.44811,34.517918],[133.448373,34.51751],[133.44846,34.517218],[133.448423,34.516927],[133.448098,34.516093],[133.448123,34.515777],[133.448248,34.515443],[133.44866,34.514743],[133.448773,34.514427],[133.44886,34.513977],[133.44886,34.513643],[133.44901,34.513285],[133.449123,34.51316],[133.449285,34.513035],[133.44951,34.512869],[133.449748,34.512644],[133.449835,34.512452],[133.449873,34.512152],[133.449835,34.511969],[133.449685,34.511744],[133.449535,34.511635],[133.44941,34.511594],[133.449273,34.511585],[133.449136,34.511577],[133.448961,34.511619],[133.448648,34.511785],[133.448373,34.512019],[133.448136,34.512119],[133.447973,34.51211],[133.447886,34.51216],[133.447786,34.512169],[133.447673,34.512202],[133.447448,34.51221],[133.447273,34.512194],[133.447136,34.51211],[133.446936,34.512035],[133.446861,34.511977],[133.446773,34.511919],[133.446661,34.511819],[133.446536,34.511635],[133.446548,34.51141],[133.446573,34.51126],[133.446586,34.511152],[133.446598,34.51106],[133.446598,34.510885],[133.446586,34.51081],[133.446561,34.51076],[133.446348,34.51051],[133.446023,34.510269],[133.445473,34.510019],[133.445348,34.509927],[133.445149,34.509686],[133.445136,34.508352],[133.444986,34.507502],[133.444961,34.506261],[133.444986,34.506103],[133.445136,34.505969],[133.446073,34.505761],[133.446748,34.505586],[133.447098,34.505678],[133.447636,34.505969],[133.448048,34.506078],[133.448636,34.506052],[133.449311,34.506169],[133.449923,34.506461],[133.450273,34.506661],[133.450723,34.506844],[133.451185,34.506861],[133.45166,34.506819],[133.45216,34.506836],[133.452723,34.506927],[133.453135,34.506886],[133.453485,34.506727],[133.453947,34.506277],[133.45421,34.505844],[133.454772,34.505077],[133.45536,34.503936],[133.455535,34.503661],[133.455585,34.503244],[133.455547,34.503219],[133.45551,34.502869],[133.455047,34.502203],[133.455085,34.501728],[133.45516,34.501594],[133.456197,34.500353],[133.45636,34.50012],[133.456422,34.499886],[133.456422,34.49952],[133.45596,34.498511],[133.45576,34.498128],[133.455735,34.497728],[133.455935,34.49667],[133.456072,34.496245],[133.455935,34.49592],[133.455697,34.495537],[133.455435,34.495003],[133.45511,34.494637],[133.454923,34.49447],[133.45401,34.49322],[133.45366,34.492987],[133.45261,34.492537],[133.451786,34.492112],[133.451536,34.491946],[133.451236,34.491587],[133.451011,34.491071],[133.451111,34.490812],[133.451386,34.490429],[133.451123,34.490137],[133.449986,34.489412],[133.449448,34.489071],[133.448699,34.488479],[133.448524,34.488188],[133.448474,34.487938],[133.448474,34.487646],[133.448786,34.487163],[133.449074,34.485896],[133.447861,34.485496],[133.447374,34.485188],[133.446711,34.484688],[133.446187,34.483988],[133.445899,34.483297],[133.445987,34.482905],[133.446362,34.482522],[133.446499,34.482172],[133.446474,34.481813],[133.446324,34.481263],[133.446362,34.481088],[133.446624,34.480639],[133.446912,34.48028],[133.446924,34.480222],[133.446737,34.480272],[133.446199,34.480297],[133.445949,34.480497],[133.445787,34.480722],[133.445274,34.481247],[133.445224,34.481588],[133.445312,34.482138],[133.445187,34.482522],[133.444987,34.482905],[133.444837,34.483422],[133.444837,34.48358],[133.444974,34.48378],[133.445024,34.484096],[133.444912,34.484146],[133.444737,34.484488],[133.444812,34.484838],[133.444962,34.485105],[133.445037,34.485163],[133.445074,34.48543],[133.445224,34.485846],[133.444962,34.485888],[133.444649,34.486038],[133.444249,34.48633],[133.443749,34.486038],[133.443674,34.485963],[133.443687,34.48448],[133.442937,34.482813],[133.442937,34.482713],[133.442925,34.481097],[133.44285,34.481072],[133.442837,34.480097],[133.44295,34.479989],[133.442925,34.479514],[133.445362,34.477431],[133.445362,34.476181],[133.445599,34.476189],[133.445562,34.475439],[133.445374,34.475406],[133.445299,34.472473],[133.445849,34.471981],[133.445849,34.470315],[133.445687,34.470323],[133.445474,34.470215],[133.445412,34.469831],[133.445499,34.469631],[133.445737,34.469573],[133.445749,34.467732],[133.445412,34.467732],[133.445412,34.46764],[133.445237,34.467607],[133.445137,34.463824],[133.445375,34.463807],[133.44535,34.463641],[133.445662,34.463599],[133.445612,34.458266],[133.445237,34.45825],[133.44525,34.457675],[133.445075,34.457633],[133.445075,34.456042],[133.445237,34.456033],[133.445212,34.455067],[133.445187,34.455067],[133.445575,34.45485],[133.445525,34.449817],[133.4452,34.449801],[133.444975,34.449709],[133.444975,34.448418],[133.445112,34.448401],[133.445112,34.446643],[133.444937,34.44661],[133.44495,34.44621],[133.442738,34.445176],[133.426452,34.452867],[133.426402,34.452792],[133.419715,34.455917],[133.419802,34.4561],[133.417878,34.457033],[133.415065,34.459358],[133.414953,34.459274],[133.414515,34.459324],[133.414665,34.474023],[133.414465,34.474031],[133.414477,34.474873],[133.414677,34.474864],[133.414702,34.476839],[133.414927,34.476864],[133.414927,34.478414],[133.414677,34.478522],[133.41419,34.478231],[133.409503,34.479905],[133.408353,34.478539],[133.408628,34.478314],[133.408915,34.477922],[133.409015,34.477647],[133.411078,34.472889],[133.41059,34.471698],[133.411328,34.47049],[133.409841,34.466673],[133.409341,34.466465],[133.408641,34.466657],[133.406779,34.462115],[133.406541,34.461407],[133.406441,34.460466],[133.406404,34.460382],[133.408091,34.459507],[133.407391,34.458633],[133.407504,34.458574],[133.407404,34.458416],[133.408329,34.457874],[133.408154,34.457249],[133.408891,34.456816],[133.404826,34.456143],[133.398533,34.454293],[133.39372,34.454293],[133.386132,34.456143],[133.377216,34.459559],[133.363006,34.468433],[133.35531,34.479673],[133.352042,34.485673],[133.351314,34.492802],[133.352333,34.498186],[133.356993,34.504443],[133.361799,34.510991],[133.363255,34.51521],[133.363692,34.520303],[133.361071,34.524232],[133.364642,34.525409]]],"type":"Polygon"},"type":"Feature"}]}