{"type":"FeatureCollection","features":[{"geometry":{"type":"Polygon","coordinates":[[[132.065386,33.997557],[132.065249,33.997357],[132.064761,33.99709],[132.064136,33.996807],[132.063999,33.996598],[132.063999,33.996023],[132.064149,33.995365],[132.063986,33.995057],[132.063799,33.99499],[132.063249,33.99434],[132.062974,33.99394],[132.063062,33.993557],[132.063212,33.993157],[132.063537,33.992499],[132.063986,33.991199],[132.063961,33.990749],[132.063986,33.990682],[132.063762,33.990391],[132.063087,33.989974],[132.062974,33.989141],[132.062649,33.988624],[132.062212,33.988183],[132.061637,33.987849],[132.061012,33.987399],[132.060762,33.987024],[132.061012,33.986683],[132.061062,33.986508],[132.060874,33.986124],[132.060762,33.986033],[132.060674,33.985674],[132.060912,33.983883],[132.061124,33.983325],[132.061724,33.981075],[132.061749,33.980225],[132.061712,33.979908],[132.061524,33.979192],[132.061524,33.978609],[132.061812,33.978092],[132.061999,33.977509],[132.062237,33.976409],[132.062362,33.975451],[132.062574,33.974417],[132.062824,33.971609],[132.063287,33.969701],[132.063724,33.966068],[132.063987,33.965668],[132.064124,33.965243],[132.063237,33.964927],[132.06155,33.964243],[132.060012,33.963735],[132.0596,33.963418],[132.05905,33.962818],[132.057662,33.96146],[132.057475,33.960944],[132.057437,33.959485],[132.057562,33.958652],[132.057837,33.958227],[132.059287,33.957819],[132.059612,33.957461],[132.05985,33.956986],[132.059925,33.956561],[132.05985,33.956069],[132.059625,33.955619],[132.05965,33.955328],[132.059837,33.955061],[132.060162,33.954769],[132.060462,33.954903],[132.061187,33.955144],[132.06135,33.955011],[132.06175,33.955069],[132.061925,33.955253],[132.062162,33.955786],[132.062487,33.955561],[132.062812,33.955694],[132.063412,33.956303],[132.063525,33.956369],[132.064175,33.956544],[132.064362,33.956494],[132.064225,33.955961],[132.064187,33.955511],[132.064212,33.955403],[132.065,33.955353],[132.06565,33.955353],[132.066537,33.954786],[132.067049,33.954603],[132.067349,33.954694],[132.067949,33.955336],[132.068574,33.955628],[132.069299,33.955644],[132.069787,33.955378],[132.070399,33.955303],[132.071374,33.955436],[132.071974,33.955703],[132.072512,33.955836],[132.073887,33.955761],[132.074786,33.955895],[132.075586,33.955553],[132.076299,33.955461],[132.076724,33.955503],[132.077249,33.955928],[132.079174,33.957203],[132.079711,33.957445],[132.080248,33.957528],[132.081848,33.957345],[132.082573,33.957453],[132.083198,33.957761],[132.084011,33.958095],[132.085023,33.958611],[132.085286,33.958695],[132.085848,33.95847],[132.086423,33.958428],[132.086985,33.958536],[132.087335,33.958378],[132.087573,33.957861],[132.087948,33.957411],[132.088573,33.957045],[132.089023,33.956736],[132.089435,33.956712],[132.089998,33.956887],[132.090685,33.957178],[132.091223,33.957511],[132.091548,33.95762],[132.092198,33.957478],[132.09266,33.957728],[132.093685,33.95862],[132.094097,33.958778],[132.095933,33.958949],[132.10091,33.958631],[132.106311,33.957573],[132.111712,33.955774],[132.115842,33.953975],[132.118671,33.952879],[132.118821,33.952579],[132.119008,33.952221],[132.118983,33.951721],[132.118921,33.951454],[132.118733,33.951388],[132.117921,33.951213],[132.117946,33.951105],[132.118008,33.951105],[132.118108,33.951013],[132.118158,33.95063],[132.117833,33.950521],[132.118183,33.949846],[132.118208,33.94958],[132.118346,33.94933],[132.118308,33.949238],[132.118208,33.94913],[132.118471,33.948855],[132.118633,33.948771],[132.118821,33.948813],[132.119383,33.948047],[132.119658,33.947847],[132.119946,33.947688],[132.120058,33.947663],[132.120246,33.94753],[132.120271,33.947305],[132.120621,33.946655],[132.120858,33.946605],[132.121046,33.945755],[132.121033,33.94558],[132.120933,33.945505],[132.120983,33.945239],[132.121033,33.945172],[132.121146,33.94463],[132.121221,33.944389],[132.121333,33.944389],[132.121383,33.944005],[132.121433,33.943964],[132.121508,33.943964],[132.121808,33.943064],[132.122096,33.94243],[132.122529,33.941744],[132.122658,33.941747],[132.122921,33.941522],[132.122733,33.941364],[132.123296,33.940906],[132.123508,33.941106],[132.12367,33.941014],[132.123995,33.940947],[132.124295,33.940922],[132.124708,33.941031],[132.125058,33.941247],[132.125383,33.941606],[132.12547,33.941606],[132.125608,33.941447],[132.12612,33.939956],[132.126145,33.939523],[132.125933,33.938648],[132.125795,33.938473],[132.125445,33.938273],[132.125258,33.936398],[132.125445,33.934598],[132.12552,33.934373],[132.125545,33.933915],[132.125358,33.932906],[132.125408,33.931865],[132.125696,33.930132],[132.125671,33.92979],[132.125146,33.928965],[132.125258,33.927474],[132.125221,33.927382],[132.125008,33.927074],[132.125146,33.92599],[132.126421,33.924082],[132.126521,33.923807],[132.126333,33.923749],[132.126796,33.922091],[132.126683,33.922049],[132.127271,33.919958],[132.127246,33.919616],[132.127496,33.917883],[132.127558,33.917066],[132.127158,33.916983],[132.127121,33.916758],[132.127633,33.916658],[132.127608,33.91655],[132.127633,33.916116],[132.127783,33.915466],[132.127971,33.915483],[132.128108,33.915191],[132.127896,33.91515],[132.128183,33.914608],[132.128371,33.914675],[132.128633,33.914467],[132.128258,33.914267],[132.128421,33.914175],[132.128608,33.91415],[132.128708,33.914033],[132.128958,33.91365],[132.12987,33.911908],[132.13022,33.911409],[132.130358,33.911092],[132.130695,33.91075],[132.13097,33.910659],[132.131108,33.910542],[132.131295,33.910292],[132.131958,33.910042],[132.13217,33.909859],[132.132258,33.909567],[132.132195,33.90925],[132.132033,33.909],[132.131945,33.908776],[132.132045,33.908351],[132.131908,33.907992],[132.131558,33.907634],[132.131308,33.907117],[132.131333,33.906867],[132.131458,33.906392],[132.131633,33.905284],[132.131795,33.905018],[132.131845,33.904726],[132.131808,33.904568],[132.13167,33.904451],[132.13102,33.904301],[132.130808,33.904193],[132.130508,33.903968],[132.130258,33.903834],[132.129995,33.903768],[132.129421,33.903801],[132.128983,33.903668],[132.129008,33.903393],[132.128683,33.903176],[132.127883,33.902143],[132.127696,33.902101],[132.127396,33.901584],[132.127608,33.901401],[132.127446,33.901018],[132.127246,33.90026],[132.127208,33.899968],[132.127021,33.90001],[132.126958,33.899676],[132.126771,33.899676],[132.126771,33.899335],[132.126896,33.898543],[132.127108,33.898526],[132.127371,33.898185],[132.127696,33.897702],[132.126996,33.897693],[132.127071,33.897218],[132.127371,33.897235],[132.127746,33.897368],[132.127796,33.897343],[132.128708,33.896368],[132.128846,33.896302],[132.128921,33.896318],[132.129246,33.896043],[132.129208,33.895843],[132.129671,33.895343],[132.130046,33.895202],[132.130558,33.89511],[132.131095,33.895102],[132.131333,33.894877],[132.13177,33.894627],[132.132245,33.894419],[132.13252,33.894394],[132.132895,33.894185],[132.133008,33.894094],[132.13297,33.894027],[132.132733,33.893919],[132.132133,33.893544],[132.131995,33.893335],[132.131808,33.893427],[132.13167,33.893294],[132.131608,33.893294],[132.13137,33.893435],[132.131158,33.893394],[132.130995,33.893277],[132.130958,33.893119],[132.130858,33.892969],[132.130696,33.89306],[132.130471,33.89301],[132.130258,33.892877],[132.130033,33.892635],[132.129658,33.892635],[132.129333,33.89246],[132.128983,33.892194],[132.128733,33.891794],[132.128671,33.891386],[132.128696,33.891361],[132.128483,33.891319],[132.128508,33.891069],[132.128696,33.891027],[132.128683,33.890211],[132.128521,33.890194],[132.128521,33.889969],[132.128646,33.889919],[132.128658,33.888094],[132.128458,33.887986],[132.128758,33.887578],[132.129933,33.886553],[132.130546,33.886253],[132.130708,33.88632],[132.130796,33.886428],[132.130983,33.886545],[132.131396,33.886561],[132.131683,33.886245],[132.131633,33.886103],[132.131383,33.885903],[132.131221,33.885728],[132.131158,33.885595],[132.131221,33.885411],[132.131158,33.885278],[132.130996,33.88512],[132.130971,33.884895],[132.130633,33.884536],[132.130558,33.884245],[132.130471,33.884136],[132.130033,33.884045],[132.130008,33.883978],[132.130058,33.883753],[132.130321,33.883437],[132.130571,33.883228],[132.130971,33.882962],[132.132308,33.882312],[132.132908,33.881995],[132.133495,33.881737],[132.13382,33.881712],[132.134008,33.881829],[132.134195,33.88207],[132.134395,33.882162],[132.134608,33.882204],[132.134695,33.882245],[132.13472,33.882378],[132.13467,33.88252],[132.134645,33.882853],[132.134733,33.883128],[132.134708,33.883328],[132.134758,33.883462],[132.134895,33.883553],[132.135058,33.883553],[132.13522,33.883478],[132.13532,33.883237],[132.135433,33.883162],[132.135433,33.883095],[132.135533,33.882912],[132.135533,33.882712],[132.13572,33.882528],[132.135908,33.88242],[132.13607,33.882412],[132.136208,33.882462],[132.13632,33.882454],[132.136558,33.882345],[132.136633,33.882254],[132.13627,33.88162],[132.136433,33.88137],[132.136508,33.881129],[132.136045,33.880837],[132.135945,33.880654],[132.135908,33.880345],[132.136045,33.880029],[132.13617,33.87987],[132.136495,33.879837],[132.13647,33.879529],[132.13662,33.879387],[132.13652,33.879187],[132.13657,33.878937],[132.137045,33.878646],[132.137395,33.878504],[132.13812,33.878137],[132.13947,33.877562],[132.140007,33.877371],[132.14057,33.877079],[132.141557,33.876479],[132.141782,33.876413],[132.14207,33.876363],[132.142345,33.876246],[132.142557,33.876088],[132.143532,33.875763],[132.145257,33.875321],[132.146082,33.87518],[132.146332,33.875171],[132.146519,33.875446],[132.146819,33.875421],[132.147057,33.875346],[132.147257,33.875346],[132.147444,33.875213],[132.147494,33.87503],[132.147569,33.874913],[132.147807,33.874871],[132.148007,33.874913],[132.148169,33.874913],[132.148319,33.874796],[132.148382,33.874638],[132.148307,33.873421],[132.148194,33.873013],[132.148057,33.872772],[132.147882,33.872205],[132.147719,33.871872],[132.147469,33.871555],[132.147194,33.871338],[132.147057,33.871047],[132.146757,33.870755],[132.146382,33.870622],[132.146132,33.869947],[132.145982,33.869005],[132.146045,33.867964],[132.146195,33.867081],[132.146332,33.866839],[132.14652,33.866764],[132.146845,33.866564],[132.147507,33.865739],[132.147769,33.865264],[132.148007,33.864948],[132.148494,33.864514],[132.148869,33.864106],[132.149207,33.863831],[132.150207,33.86349],[132.151582,33.86289],[132.153819,33.862323],[132.154482,33.862115],[132.155756,33.861656],[132.156744,33.86119],[132.157519,33.860715],[132.157919,33.860373],[132.158131,33.86014],[132.158219,33.859898],[132.158281,33.859332],[132.158206,33.858923],[132.157956,33.858365],[132.157756,33.85814],[132.157619,33.857874],[132.157719,33.85724],[132.157906,33.856765],[132.158119,33.856449],[132.158406,33.856107],[132.158656,33.856082],[132.158781,33.855949],[132.158806,33.855724],[132.158756,33.855632],[132.158769,33.855249],[132.158719,33.855091],[132.158657,33.854166],[132.158932,33.852583],[132.158919,33.852041],[132.159369,33.851208],[132.159494,33.850616],[132.159169,33.850083],[132.159057,33.849991],[132.158132,33.849508],[132.157994,33.849258],[132.157919,33.849216],[132.157794,33.848858],[132.157769,33.84845],[132.158082,33.847458],[132.158182,33.847025],[132.158194,33.846325],[132.157919,33.84545],[132.157582,33.844825],[132.157394,33.84455],[132.156657,33.844358],[132.156582,33.844383],[132.154445,33.843909],[132.153495,33.843642],[132.15297,33.843375],[132.15267,33.843175],[132.152045,33.842684],[132.15172,33.842509],[132.151345,33.842375],[132.15082,33.8418],[132.15062,33.841525],[132.15032,33.840584],[132.150182,33.840384],[132.150095,33.840426],[132.149907,33.840451],[132.149395,33.840142],[132.149195,33.839876],[132.149145,33.839559],[132.149195,33.839309],[132.149083,33.839217],[132.148845,33.839176],[132.14867,33.839092],[132.14857,33.838934],[132.14857,33.838842],[132.14872,33.838659],[132.14872,33.838526],[132.148645,33.838484],[132.148458,33.838576],[132.148208,33.838642],[132.14712,33.838267],[132.14617,33.837826],[132.145683,33.837492],[132.145245,33.837067],[132.144858,33.836643],[132.144708,33.836168],[132.14462,33.835168],[132.144608,33.833568],[132.144595,33.833534],[132.143758,33.833043],[132.143383,33.832926],[132.142271,33.832768],[132.142221,33.832718],[132.141758,33.832718],[132.141621,33.832726],[132.141233,33.832684],[132.140146,33.832193],[132.139983,33.832035],[132.140008,33.831835],[132.139821,33.831635],[132.139733,33.831643],[132.139633,33.831735],[132.139408,33.831685],[132.139271,33.831593],[132.138846,33.831518],[132.138696,33.831418],[132.138433,33.831535],[132.138371,33.831593],[132.138046,33.831618],[132.137833,33.831851],[132.137683,33.831943],[132.137483,33.831926],[132.137246,33.832118],[132.136884,33.832176],[132.136009,33.832534],[132.135884,33.832726],[132.135634,33.832801],[132.135446,33.832801],[132.135234,33.832701],[132.135059,33.832751],[132.135009,33.832843],[132.134796,33.832959],[132.133959,33.833001],[132.133596,33.833076],[132.133434,33.833134],[132.132559,33.833126],[132.132534,33.833059],[132.132346,33.832951],[132.132134,33.832993],[132.132084,33.833051],[132.131734,33.833034],[132.130696,33.833176],[132.130384,33.833126],[132.130184,33.833209],[132.130146,33.833292],[132.130159,33.833392],[132.129971,33.833584],[132.130034,33.833742],[132.129996,33.833851],[132.129721,33.834009],[132.129496,33.834009],[132.129434,33.834034],[132.129071,33.834334],[132.128934,33.834392],[132.128422,33.834509],[132.128022,33.834517],[132.127759,33.834409],[132.126909,33.834359],[132.126709,33.834426],[132.126547,33.834326],[132.126322,33.834259],[132.126322,33.834384],[132.126384,33.834584],[132.125934,33.834626],[132.125659,33.834584],[132.125522,33.834659],[132.125409,33.834859],[132.124984,33.83505],[132.124609,33.835092],[132.122547,33.834625],[132.122497,33.834635],[132.121809,33.834592],[132.121159,33.834434],[132.120509,33.834184],[132.120522,33.834159],[132.120647,33.83375],[132.12051,33.833775],[132.120335,33.833792],[132.120235,33.833717],[132.12011,33.833642],[132.119922,33.833534],[132.119797,33.833467],[132.119722,33.833401],[132.119585,33.833267],[132.119485,33.833159],[132.119622,33.832751],[132.119397,33.832751],[132.119122,33.832434],[132.118922,33.832476],[132.118147,33.832092],[132.117572,33.831926],[132.117122,33.831967],[132.11656,33.832234],[132.11651,33.832284],[132.11641,33.832667],[132.11641,33.832734],[132.116135,33.832801],[132.11626,33.833117],[132.116622,33.833609],[132.117097,33.834109],[132.11706,33.8351],[132.11716,33.8358],[132.11686,33.836367],[132.116547,33.836433],[132.116272,33.83645],[132.116172,33.836475],[132.116172,33.836542],[132.116322,33.836633],[132.116422,33.83665],[132.117135,33.837608],[132.117297,33.837858],[132.117097,33.8381],[132.117535,33.8382],[132.11756,33.838308],[132.117685,33.838542],[132.117347,33.8396],[132.117672,33.839716],[132.117172,33.839958],[132.116885,33.839816],[132.116797,33.839683],[132.116747,33.839791],[132.116672,33.840883],[132.11651,33.841216],[132.116222,33.841549],[132.11641,33.841716],[132.116672,33.842416],[132.116634,33.842941],[132.11626,33.843183],[132.11626,33.843249],[132.116484,33.843724],[132.116509,33.844274],[132.116447,33.844607],[132.116497,33.844766],[132.116609,33.844774],[132.116797,33.844866],[132.117122,33.845116],[132.117434,33.845591],[132.118122,33.846915],[132.118247,33.84744],[132.118309,33.84814],[132.118522,33.848457],[132.118497,33.848665],[132.118334,33.848882],[132.118134,33.849015],[132.118084,33.849248],[132.118134,33.849498],[132.118234,33.849748],[132.118197,33.850107],[132.118109,33.850373],[132.117947,33.850598],[132.117734,33.85069],[132.117459,33.850732],[132.117159,33.850682],[132.116997,33.850723],[132.116834,33.850882],[132.116609,33.850923],[132.116397,33.851032],[132.116359,33.85119],[132.116597,33.85194],[132.116597,33.852098],[132.116509,33.85239],[132.116584,33.85244],[132.116722,33.852415],[132.116884,33.852356],[132.117022,33.852623],[132.117047,33.852806],[132.116897,33.853373],[132.116922,33.853706],[132.116809,33.853848],[132.116784,33.854023],[132.116834,33.854164],[132.117022,33.854139],[132.117097,33.854456],[132.117234,33.854731],[132.117284,33.854939],[132.117059,33.855298],[132.116584,33.855789],[132.116372,33.855898],[132.116147,33.856189],[132.116422,33.856239],[132.116497,33.856356],[132.116622,33.856739],[132.116734,33.856856],[132.117022,33.856989],[132.117134,33.857289],[132.117097,33.857556],[132.117122,33.857856],[132.117084,33.858147],[132.117009,33.858347],[132.116784,33.85848],[132.116272,33.858705],[132.115722,33.85903],[132.115634,33.859122],[132.115609,33.859172],[132.115172,33.859414],[132.114247,33.859897],[132.113884,33.860005],[132.113022,33.860113],[132.112522,33.86033],[132.112472,33.86053],[132.112522,33.860672],[132.112684,33.860763],[132.112734,33.860872],[132.113084,33.860947],[132.113322,33.861063],[132.113459,33.861205],[132.113672,33.861655],[132.114097,33.862313],[132.114522,33.862755],[132.115247,33.863255],[132.115759,33.863538],[132.115934,33.863788],[132.116734,33.864746],[132.117972,33.865713],[132.118359,33.86628],[132.118522,33.866671],[132.118834,33.867146],[132.119259,33.867946],[132.119396,33.86808],[132.119809,33.868696],[132.120109,33.869313],[132.120209,33.869654],[132.120284,33.869788],[132.119734,33.870013],[132.120009,33.870171],[132.120359,33.870471],[132.120671,33.870679],[132.120759,33.870771],[132.119971,33.875487],[132.119946,33.875487],[132.119809,33.875554],[132.119184,33.87577],[132.118997,33.875862],[132.118522,33.876012],[132.118172,33.87617],[132.118059,33.876187],[132.117759,33.87637],[132.117509,33.876612],[132.117259,33.877537],[132.116972,33.877937],[132.116322,33.878428],[132.115472,33.878778],[132.114884,33.878595],[132.114259,33.878453],[132.113847,33.878403],[132.113122,33.878095],[132.112959,33.87807],[132.112072,33.877836],[132.111772,33.87767],[132.11161,33.877761],[132.11156,33.877828],[132.111397,33.87787],[132.11131,33.877961],[132.111285,33.87807],[132.111172,33.878161],[132.11111,33.87837],[132.111172,33.878528],[132.111135,33.87882],[132.110822,33.87952],[132.110072,33.880544],[132.109772,33.880794],[132.109447,33.880944],[132.109097,33.880961],[132.108172,33.880928],[132.107822,33.881019],[132.107322,33.881328],[132.106885,33.881436],[132.106348,33.881702],[132.10601,33.881786],[132.105685,33.881786],[132.105285,33.881736],[132.104335,33.881852],[132.10401,33.881852],[132.103498,33.881736],[132.102635,33.881586],[132.10231,33.881586],[132.101898,33.881711],[132.10156,33.881961],[132.10126,33.882244],[132.100985,33.882585],[132.10076,33.882785],[132.100548,33.882894],[132.099761,33.882769],[132.098948,33.88281],[132.098673,33.88276],[132.098461,33.88276],[132.098098,33.883202],[132.098211,33.883319],[132.098123,33.883452],[132.097598,33.883993],[132.096748,33.88486],[132.096386,33.885018],[132.095598,33.88516],[132.094461,33.885418],[132.094023,33.885618],[132.093411,33.886135],[132.093061,33.886351],[132.092536,33.886551],[132.092211,33.886726],[132.091824,33.88706],[132.091636,33.887335],[132.091549,33.887601],[132.091324,33.887868],[132.090011,33.888943],[132.089624,33.889143],[132.089124,33.889584],[132.088799,33.889834],[132.088499,33.889984],[132.088286,33.890026],[132.087786,33.890093],[132.087736,33.890134],[132.086836,33.890326],[132.085836,33.890426],[132.085311,33.890509],[132.084174,33.890542],[132.083549,33.890626],[132.083061,33.890734],[132.082761,33.890842],[132.082599,33.890951],[132.082436,33.890817],[132.081637,33.890259],[132.081137,33.890617],[132.081087,33.890734],[132.081187,33.890892],[132.081349,33.890892],[132.081399,33.891092],[132.081774,33.891417],[132.081724,33.891526],[132.080874,33.892134],[132.079812,33.892367],[132.079324,33.892542],[132.078724,33.892509],[132.078587,33.892467],[132.078399,33.89205],[132.078299,33.892034],[132.078187,33.892167],[132.078099,33.892367],[132.078149,33.892817],[132.077649,33.893217],[132.077262,33.893825],[132.076612,33.893958],[132.076712,33.894117],[132.076849,33.894475],[132.077012,33.895567],[132.077049,33.896808],[132.077187,33.898533],[132.077237,33.900383],[132.077024,33.901583],[132.076324,33.903133],[132.076124,33.903399],[132.075962,33.903358],[132.075399,33.904524],[132.075124,33.904774],[132.075049,33.904766],[132.074687,33.904857],[132.074174,33.905099],[132.073737,33.905232],[132.073387,33.905249],[132.072999,33.905199],[132.072549,33.905074],[132.072112,33.905049],[132.071487,33.905091],[132.070974,33.905082],[132.070674,33.905032],[132.069724,33.905091],[132.068987,33.905307],[132.068712,33.905482],[132.068187,33.905999],[132.067849,33.90649],[132.067374,33.907524],[132.067024,33.90779],[132.066749,33.907882],[132.064462,33.908532],[132.0637,33.908657],[132.063075,33.908832],[132.062475,33.908957],[132.061387,33.909282],[132.060837,33.90939],[132.059912,33.90969],[132.05955,33.90994],[132.059087,33.910065],[132.058825,33.909932],[132.057737,33.910165],[132.0569,33.909882],[132.0556,33.909615],[132.054813,33.90949],[132.0544,33.909781],[132.0541,33.909731],[132.054163,33.909598],[132.05365,33.909498],[132.053513,33.90964],[132.053263,33.909606],[132.05315,33.90979],[132.052075,33.90964],[132.052338,33.908423],[132.05215,33.908373],[132.051975,33.90889],[132.050975,33.908748],[132.051013,33.908565],[132.05085,33.90854],[132.0507,33.909031],[132.050413,33.908757],[132.049975,33.908573],[132.049375,33.908498],[132.049025,33.908565],[132.0487,33.908556],[132.048463,33.908465],[132.048001,33.908481],[132.047451,33.908698],[132.047238,33.908723],[132.046963,33.908623],[132.046538,33.908598],[132.046051,33.908523],[132.045776,33.90859],[132.045426,33.908606],[132.045126,33.908673],[132.044926,33.908806],[132.044788,33.909215],[132.044788,33.909415],[132.044888,33.909623],[132.045076,33.909715],[132.045513,33.909831],[132.045801,33.910148],[132.047563,33.910515],[132.048101,33.91059],[132.050125,33.910998],[132.0505,33.91114],[132.0535,33.912081],[132.054363,33.912365],[132.0556,33.912923],[132.056113,33.91324],[132.056337,33.913831],[132.056687,33.913931],[132.056787,33.914423],[132.056812,33.914764],[132.05675,33.915081],[132.056375,33.915214],[132.056337,33.915506],[132.056387,33.915623],[132.056612,33.915664],[132.056225,33.916048],[132.056088,33.915981],[132.055975,33.915864],[132.055238,33.916356],[132.05545,33.916556],[132.055563,33.916514],[132.055863,33.916473],[132.05605,33.916614],[132.056375,33.916931],[132.056038,33.917181],[132.055763,33.917464],[132.0557,33.917806],[132.05605,33.918447],[132.056337,33.918722],[132.0569,33.919156],[132.05725,33.919339],[132.058025,33.919731],[132.05845,33.919956],[132.0587,33.920089],[132.0591,33.920222],[132.059675,33.920472],[132.0604,33.920689],[132.060812,33.920756],[132.061487,33.920772],[132.061512,33.920822],[132.061375,33.921289],[132.060662,33.922189],[132.059637,33.923364],[132.058375,33.924147],[132.056625,33.925055],[132.055975,33.924364],[132.055175,33.923089],[132.05445,33.922122],[132.054275,33.921947],[132.053925,33.922014],[132.053413,33.922172],[132.052963,33.922355],[132.052738,33.922089],[132.052663,33.921505],[132.052513,33.919956],[132.05255,33.919756],[132.0525,33.919689],[132.051825,33.919722],[132.051413,33.919814],[132.051388,33.919764],[132.051413,33.919697],[132.052313,33.919322],[132.0525,33.919281],[132.052725,33.919281],[132.053038,33.918472],[132.053263,33.917839],[132.052988,33.917656],[132.053025,33.917206],[132.053188,33.917189],[132.0532,33.917006],[132.052975,33.916956],[132.052963,33.916573],[132.0531,33.916556],[132.053075,33.915781],[132.052975,33.915756],[132.052463,33.915756],[132.051863,33.915814],[132.051788,33.915606],[132.05,33.915356],[132.050025,33.915181],[132.0497,33.915106],[132.048675,33.914956],[132.048613,33.915139],[132.048513,33.915164],[132.048226,33.915589],[132.048126,33.915606],[132.048013,33.915581],[132.048038,33.915473],[132.047988,33.915223],[132.047776,33.915131],[132.047501,33.915148],[132.046988,33.914981],[132.046913,33.914939],[132.046863,33.914781],[132.046838,33.914731],[132.045601,33.914148],[132.045388,33.913964],[132.045388,33.913764],[132.045251,33.913673],[132.045338,33.913556],[132.045338,33.913489],[132.045126,33.913356],[132.044938,33.912898],[132.044701,33.912606],[132.043926,33.911981],[132.042738,33.911631],[132.041251,33.911314],[132.040739,33.911173],[132.040439,33.911031],[132.039526,33.910481],[132.039264,33.910273],[132.039239,33.910156],[132.038376,33.909739],[132.037789,33.909348],[132.037739,33.909256],[132.037414,33.909031],[132.036926,33.90889],[132.036276,33.908765],[132.036014,33.908781],[132.035464,33.90869],[132.035176,33.908523],[132.035089,33.90834],[132.034639,33.908315],[132.034414,33.908265],[132.034127,33.908148],[132.033802,33.908173],[132.033764,33.90824],[132.033602,33.908256],[132.033014,33.907981],[132.032714,33.907615],[132.032702,33.90739],[132.032514,33.907181],[132.032239,33.907181],[132.032189,33.907198],[132.031727,33.907173],[132.031589,33.90724],[132.031364,33.907281],[132.030427,33.907023],[132.030002,33.906581],[132.029927,33.90609],[132.029827,33.905882],[132.029802,33.905748],[132.029614,33.905673],[132.029277,33.905715],[132.02899,33.90569],[132.02834,33.905298],[132.02789,33.904932],[132.027677,33.904698],[132.02744,33.904132],[132.027365,33.903815],[132.02734,33.903523],[132.027402,33.903382],[132.027252,33.90264],[132.026902,33.902407],[132.026815,33.902315],[132.02674,33.902115],[132.026615,33.901907],[132.026202,33.902107],[132.026065,33.902124],[132.025977,33.902082],[132.025877,33.901849],[132.025715,33.901824],[132.02539,33.901915],[132.02514,33.901932],[132.02499,33.90184],[132.024877,33.90184],[132.024552,33.901924],[132.02439,33.901924],[132.02419,33.90199],[132.024165,33.902124],[132.024077,33.90224],[132.023678,33.902482],[132.02339,33.902882],[132.023278,33.903224],[132.022778,33.904007],[132.022615,33.904165],[132.02204,33.90429],[132.021928,33.904448],[132.021603,33.904648],[132.021403,33.90494],[132.021428,33.90514],[132.021103,33.905457],[132.020853,33.90554],[132.020665,33.905473],[132.020165,33.905873],[132.020053,33.906057],[132.020003,33.906232],[132.01989,33.906415],[132.019828,33.906432],[132.019553,33.906656],[132.019315,33.906723],[132.018828,33.906923],[132.018578,33.90694],[132.01839,33.907031],[132.01749,33.90704],[132.016703,33.906965],[132.016428,33.907073],[132.016216,33.907223],[132.016128,33.907406],[132.015966,33.907498],[132.015278,33.907715],[132.015091,33.907556],[132.014878,33.90764],[132.014691,33.907656],[132.014328,33.907906],[132.014303,33.908081],[132.014328,33.908173],[132.014103,33.908331],[132.013866,33.90824],[132.013566,33.908281],[132.013241,33.908481],[132.012903,33.908723],[132.012253,33.909006],[132.011953,33.909073],[132.011541,33.909065],[132.011353,33.909223],[132.011316,33.909498],[132.011216,33.909606],[132.010941,33.909673],[132.010641,33.90969],[132.010566,33.909531],[132.010241,33.909456],[132.010079,33.909456],[132.009854,33.909498],[132.009716,33.90979],[132.009529,33.909881],[132.009341,33.90974],[132.009204,33.90974],[132.009004,33.909848],[132.008929,33.910006],[132.008916,33.910231],[132.008754,33.910364],[132.008404,33.910564],[132.007904,33.910923],[132.007854,33.910873],[132.007666,33.910831],[132.007466,33.910914],[132.007316,33.910848],[132.007066,33.910889],[132.006841,33.911064],[132.007004,33.911564],[132.007129,33.911656],[132.007266,33.911681],[132.007291,33.911731],[132.007154,33.911814],[132.006916,33.911864],[132.006641,33.912173],[132.006604,33.912306],[132.006791,33.912473],[132.006741,33.912673],[132.006566,33.912781],[132.006404,33.912756],[132.006216,33.912889],[132.006291,33.913256],[132.006241,33.913364],[132.005766,33.913881],[132.005654,33.913947],[132.005554,33.913881],[132.005416,33.913856],[132.005304,33.913989],[132.005216,33.914031],[132.004979,33.914072],[132.004941,33.914189],[132.004779,33.914364],[132.004779,33.914639],[132.004616,33.914814],[132.003866,33.915256],[132.002692,33.915722],[132.002367,33.915764],[132.002017,33.915689],[132.001754,33.915547],[132.001479,33.915322],[132.001429,33.915097],[132.001217,33.915022],[132.000942,33.915131],[132.000454,33.915239],[132.000429,33.915372],[132.000154,33.915414],[131.999904,33.915389],[131.999754,33.915272],[131.999554,33.915247],[131.999342,33.915314],[131.999154,33.915431],[131.999092,33.915497],[131.999092,33.915656],[131.999229,33.915764],[131.999167,33.915856],[131.998929,33.915764],[131.998704,33.915831],[131.998679,33.915964],[131.998729,33.916414],[131.998754,33.916414],[131.998467,33.917047],[131.997917,33.91783],[131.997506,33.918181],[131.997479,33.918005],[131.997317,33.917914],[131.997254,33.917914],[131.996705,33.918339],[131.99668,33.918405],[131.996817,33.918539],[131.996817,33.918605],[131.996754,33.918655],[131.996317,33.91878],[131.996105,33.918897],[131.995805,33.91898],[131.995617,33.919072],[131.995392,33.919039],[131.994992,33.919147],[131.99488,33.919289],[131.994842,33.919397],[131.994905,33.91953],[131.994842,33.919688],[131.994792,33.919738],[131.994605,33.919647],[131.994517,33.919663],[131.994492,33.919847],[131.994517,33.919888],[131.99468,33.919955],[131.994455,33.920163],[131.993255,33.921163],[131.993142,33.921188],[131.993092,33.921163],[131.99298,33.92128],[131.992917,33.921413],[131.992567,33.921563],[131.99238,33.921605],[131.99243,33.921722],[131.991792,33.922238],[131.990942,33.923063],[131.990668,33.923238],[131.990618,33.923238],[131.989868,33.92368],[131.98943,33.924038],[131.989268,33.92408],[131.989018,33.924371],[131.988943,33.924421],[131.988855,33.924413],[131.986393,33.925788],[131.98628,33.925971],[131.985705,33.926229],[131.985306,33.926296],[131.985031,33.926379],[131.984318,33.926688],[131.983693,33.927246],[131.983243,33.927896],[131.983056,33.928121],[131.982631,33.928821],[131.982193,33.929221],[131.981918,33.929354],[131.981106,33.929546],[131.980019,33.929871],[131.978519,33.929812],[131.977956,33.929737],[131.976282,33.929263],[131.976319,33.929013],[131.976294,33.928946],[131.976044,33.928879],[131.976044,33.928921],[131.975969,33.928988],[131.975744,33.928938],[131.974432,33.928513],[131.974294,33.928421],[131.974457,33.928063],[131.973982,33.927854],[131.974119,33.927654],[131.973869,33.927579],[131.973757,33.927671],[131.973794,33.927738],[131.972907,33.927188],[131.972295,33.926655],[131.971757,33.926021],[131.971495,33.92563],[131.970382,33.924346],[131.970007,33.923663],[131.969882,33.922897],[131.96992,33.922872],[131.969483,33.92278],[131.969483,33.922372],[131.96922,33.922347],[131.969308,33.922005],[131.969445,33.922055],[131.969945,33.921063],[131.97037,33.921272],[131.970595,33.92098],[131.970457,33.920847],[131.970682,33.920597],[131.971557,33.919955],[131.972095,33.919547],[131.972507,33.919322],[131.97267,33.91928],[131.972745,33.919322],[131.972957,33.919622],[131.972982,33.919755],[131.973157,33.919955],[131.973182,33.919972],[131.97322,33.919955],[131.973357,33.919897],[131.973582,33.919655],[131.973907,33.919455],[131.974407,33.919322],[131.975032,33.919222],[131.975269,33.919264],[131.975357,33.919314],[131.975857,33.919814],[131.975957,33.919955],[131.976182,33.920555],[131.976132,33.920755],[131.975694,33.920888],[131.975657,33.92113],[131.975782,33.921813],[131.975969,33.921997],[131.976644,33.922055],[131.977044,33.921447],[131.976957,33.92113],[131.976569,33.920264],[131.976382,33.919955],[131.976107,33.919455],[131.975632,33.918839],[131.975419,33.918339],[131.975369,33.918072],[131.975644,33.917872],[131.975757,33.917597],[131.975732,33.917397],[131.975657,33.917281],[131.975382,33.917256],[131.975307,33.917272],[131.975007,33.917272],[131.974657,33.917339],[131.974595,33.917381],[131.974332,33.917422],[131.973707,33.917414],[131.973357,33.917272],[131.972895,33.916839],[131.972057,33.916806],[131.971682,33.916872],[131.970995,33.916931],[131.97062,33.916789],[131.970433,33.916806],[131.970433,33.916831],[131.970245,33.916872],[131.969508,33.917181],[131.969283,33.917131],[131.969095,33.917222],[131.968933,33.917289],[131.968745,33.917289],[131.968283,33.917414],[131.966808,33.918072],[131.966071,33.918339],[131.965608,33.91833],[131.965583,33.918289],[131.965446,33.918239],[131.964921,33.918664],[131.965058,33.918822],[131.964883,33.919114],[131.964396,33.919722],[131.963921,33.919897],[131.963896,33.919955],[131.963808,33.920264],[131.963608,33.920489],[131.962958,33.92073],[131.962796,33.92073],[131.962446,33.92068],[131.962221,33.920814],[131.962358,33.921022],[131.962783,33.921155],[131.963021,33.921522],[131.962933,33.921905],[131.962558,33.927063],[131.962683,33.927646],[131.963258,33.928496],[131.963308,33.928538],[131.963446,33.928563],[131.963646,33.928496],[131.963908,33.928346],[131.964433,33.928238],[131.964683,33.928079],[131.964783,33.927946],[131.965545,33.927796],[131.965633,33.927821],[131.966033,33.928188],[131.96657,33.928538],[131.966895,33.928671],[131.967295,33.928771],[131.967808,33.928846],[131.968732,33.928854],[131.968957,33.929579],[131.969057,33.929946],[131.969082,33.930462],[131.969045,33.931079],[131.968957,33.931704],[131.968632,33.93322],[131.967882,33.935612],[131.966695,33.938511],[131.96647,33.938936],[131.963495,33.943852],[131.962658,33.944911],[131.96177,33.945935],[131.960396,33.947343],[131.959321,33.94826],[131.958383,33.948902],[131.955884,33.949918],[131.954571,33.950235],[131.954134,33.94926],[131.952934,33.949626],[131.952846,33.949518],[131.950484,33.949801],[131.949797,33.950159],[131.948047,33.950068],[131.94816,33.948393],[131.948172,33.948301],[131.948197,33.948051],[131.948397,33.948051],[131.948922,33.948068],[131.949559,33.948093],[131.949572,33.948026],[131.947722,33.947976],[131.947635,33.948568],[131.94761,33.948768],[131.947597,33.948868],[131.94671,33.948876],[131.946735,33.948693],[131.946147,33.948685],[131.946247,33.947101],[131.947497,33.947102],[131.947472,33.947027],[131.944523,33.946993],[131.939798,33.94746],[131.936273,33.947318],[131.930574,33.951042],[131.930511,33.950942],[131.930449,33.950867],[131.930386,33.9508],[131.930324,33.950709],[131.930211,33.950784],[131.930036,33.950817],[131.929824,33.950942],[131.929511,33.951067],[131.929311,33.951217],[131.929174,33.951292],[131.929049,33.951367],[131.928936,33.951408],[131.928961,33.951483],[131.929036,33.951592],[131.929174,33.951792],[131.928299,33.952358],[131.928074,33.954325],[131.927611,33.954433],[131.927399,33.957141],[131.927024,33.957157],[131.926986,33.957407],[131.927749,33.957374],[131.929211,33.959199],[131.928749,33.959507],[131.930261,33.961357],[131.930248,33.961815],[131.929586,33.96219],[131.927924,33.960065],[131.928024,33.959974],[131.927049,33.958857],[131.926886,33.958874],[131.926374,33.958241],[131.926486,33.958124],[131.925024,33.956299],[131.924624,33.956516],[131.924024,33.956107],[131.924037,33.955991],[131.924274,33.956016],[131.924562,33.953466],[131.923487,33.953358],[131.923112,33.955982],[131.925999,33.959499],[131.925849,33.959657],[131.925586,33.95979],[131.925261,33.959924],[131.925011,33.960049],[131.924911,33.960124],[131.924174,33.959957],[131.923936,33.959998],[131.923712,33.960057],[131.923499,33.960073],[131.923337,33.960115],[131.923324,33.960207],[131.922987,33.960623],[131.922887,33.960698],[131.922662,33.960965],[131.922687,33.961123],[131.922812,33.96104],[131.922912,33.960882],[131.923124,33.96074],[131.923162,33.960815],[131.923037,33.960973],[131.922762,33.961457],[131.922674,33.96174],[131.922562,33.962065],[131.922412,33.962531],[131.922337,33.96269],[131.922262,33.962798],[131.921912,33.96334],[131.921599,33.963714],[131.921237,33.964156],[131.921199,33.964289],[131.919324,33.966447],[131.917699,33.96783],[131.915637,33.969363],[131.914299,33.97023],[131.913312,33.97063],[131.912299,33.97098],[131.910774,33.971571],[131.910012,33.97183],[131.906525,33.972579],[131.905687,33.972796],[131.905162,33.972988],[131.905037,33.973013],[131.904712,33.972988],[131.904512,33.973071],[131.904212,33.973113],[131.904,33.973021],[131.903812,33.972729],[131.903787,33.972571],[131.903475,33.972288],[131.9029,33.972288],[131.90285,33.972329],[131.902325,33.972504],[131.902312,33.972229],[131.90225,33.972188],[131.902012,33.972138],[131.90165,33.972338],[131.901412,33.972421],[131.90135,33.972471],[131.9013,33.972671],[131.901337,33.973738],[131.901375,33.974187],[131.901512,33.974487],[131.901612,33.974504],[131.901475,33.974662],[131.900875,33.975062],[131.899637,33.976046],[131.8987,33.976937],[131.898425,33.977295],[131.896,33.976495],[131.892338,33.978212],[131.894437,33.980687],[131.894262,33.98077],[131.894375,33.980795],[131.894425,33.980887],[131.89475,33.981278],[131.895687,33.981986],[131.895837,33.982145],[131.89705,33.983045],[131.897587,33.983503],[131.89785,33.983978],[131.898037,33.984145],[131.898624,33.984486],[131.899287,33.985019],[131.899337,33.985269],[131.899262,33.985378],[131.898949,33.985603],[131.898874,33.985853],[131.898887,33.986186],[131.899049,33.986553],[131.899312,33.986853],[131.899224,33.987236],[131.898924,33.987752],[131.898837,33.988111],[131.898824,33.988427],[131.898649,33.988969],[131.898537,33.989052],[131.898349,33.989327],[131.898424,33.989827],[131.898524,33.989919],[131.899062,33.990535],[131.899112,33.990785],[131.899287,33.991169],[131.899999,33.991294],[131.900512,33.991319],[131.900912,33.991302],[131.901349,33.991377],[131.901674,33.991377],[131.901999,33.991269],[131.902111,33.991177],[131.902574,33.991119],[131.903199,33.991235],[131.903599,33.991219],[131.904199,33.991294],[131.904486,33.991569],[131.904574,33.991894],[131.904561,33.992252],[131.904636,33.992569],[131.904774,33.992685],[131.904911,33.99266],[131.905261,33.992735],[131.905361,33.992827],[131.905661,33.992985],[131.905761,33.993102],[131.906299,33.993469],[131.906786,33.993752],[131.907486,33.993827],[131.907786,33.993894],[131.907699,33.994419],[131.907686,33.994777],[131.908061,33.995393],[131.908161,33.995935],[131.908148,33.996318],[131.908336,33.996593],[131.908711,33.996943],[131.909011,33.996985],[131.909523,33.997018],[131.910061,33.99696],[131.910336,33.996777],[131.910698,33.996668],[131.911373,33.996677],[131.911748,33.996568],[131.912161,33.996327],[131.912461,33.996327],[131.912548,33.996352],[131.913823,33.99646],[131.914573,33.996902],[131.914785,33.996994],[131.915298,33.997044],[131.915948,33.996935],[131.916323,33.997302],[131.91651,33.997577],[131.91691,33.997968],[131.91761,33.99811],[131.917798,33.998118],[131.918273,33.997802],[131.91876,33.997627],[131.919035,33.997635],[131.919735,33.997935],[131.920298,33.99806],[131.92051,33.998169],[131.920623,33.99831],[131.920623,33.998402],[131.920873,33.999218],[131.920935,33.999193],[131.921372,33.998835],[131.921472,33.998794],[131.92256,33.99876],[131.922885,33.99886],[131.923072,33.99906],[131.92331,33.999427],[131.92366,33.99961],[131.924122,33.999777],[131.924522,34.000118],[131.925135,34.000877],[131.92561,34.001177],[131.925772,34.001385],[131.925872,34.00161],[131.926122,34.001835],[131.926497,34.002002],[131.927034,34.00221],[131.927409,34.00231],[131.927784,34.002335],[131.928009,34.002385],[131.928109,34.002568],[131.928459,34.003002],[131.928784,34.003227],[131.928959,34.003277],[131.929547,34.003777],[131.930409,34.004302],[131.931996,34.00516],[131.932971,34.005518],[131.933234,34.005727],[131.933996,34.00666],[131.934571,34.007102],[131.934646,34.007402],[131.934634,34.007943],[131.934484,34.00846],[131.934465,34.008474],[131.934371,34.008543],[131.934059,34.00871],[131.933509,34.008818],[131.933309,34.009043],[131.933321,34.00936],[131.933421,34.009843],[131.933546,34.011026],[131.933796,34.011851],[131.934008,34.012301],[131.934421,34.013184],[131.934483,34.013751],[131.934358,34.014618],[131.934471,34.015326],[131.934458,34.016409],[131.934633,34.017384],[131.934796,34.019142],[131.934733,34.01965],[131.934333,34.0202],[131.934358,34.020959],[131.934321,34.021375],[131.934108,34.021992],[131.933846,34.02245],[131.933296,34.023058],[131.932708,34.023542],[131.932508,34.023883],[131.932471,34.024283],[131.932496,34.024725],[131.932596,34.025116],[131.932946,34.025683],[131.932871,34.025758],[131.932558,34.025875],[131.931721,34.025983],[131.931196,34.026008],[131.930833,34.0261],[131.930208,34.0266],[131.929733,34.02675],[131.929508,34.026883],[131.929408,34.027108],[131.929408,34.027366],[131.929346,34.027599],[131.928983,34.027949],[131.928833,34.028291],[131.928571,34.028691],[131.928508,34.028933],[131.928508,34.029158],[131.928421,34.029241],[131.928021,34.029383],[131.927833,34.029491],[131.927733,34.029733],[131.927883,34.030482],[131.928033,34.030857],[131.928321,34.031124],[131.928633,34.031341],[131.929183,34.031632],[131.929283,34.031724],[131.929371,34.032016],[131.929271,34.032266],[131.928746,34.032574],[131.928733,34.032782],[131.929108,34.033107],[131.929158,34.033407],[131.929033,34.034157],[131.929096,34.03434],[131.929171,34.03439],[131.929671,34.035074],[131.929846,34.035574],[131.929996,34.036199],[131.930183,34.036474],[131.930508,34.036615],[131.930908,34.03674],[131.931233,34.036957],[131.931345,34.037248],[131.931433,34.037823],[131.931558,34.038048],[131.931858,34.038073],[131.932445,34.03799],[131.932858,34.037998],[131.933145,34.03804],[131.93337,34.038265],[131.933383,34.038498],[131.933008,34.039165],[131.93287,34.039573],[131.932808,34.040148],[131.93282,34.040473],[131.93302,34.041348],[131.933008,34.04169],[131.93292,34.041948],[131.932658,34.042056],[131.932145,34.04209],[131.93187,34.042315],[131.93192,34.042965],[131.932095,34.043348],[131.932395,34.043823],[131.932858,34.046089],[131.932895,34.046539],[131.932708,34.046964],[131.93227,34.047339],[131.931258,34.047923],[131.931108,34.048131],[131.930833,34.048898],[131.930358,34.049597],[131.930095,34.050122],[131.929508,34.051556],[131.928658,34.053089],[131.92837,34.053747],[131.928295,34.05423],[131.928383,34.054505],[131.928595,34.05468],[131.928895,34.054747],[131.92907,34.054755],[131.929558,34.054822],[131.93017,34.055147],[131.931183,34.055597],[131.932545,34.055947],[131.932895,34.056164],[131.933582,34.056839],[131.933907,34.056964],[131.93472,34.057064],[131.93492,34.057222],[131.935645,34.05873],[131.935857,34.059022],[131.936082,34.059222],[131.936232,34.059555],[131.936107,34.060013],[131.936032,34.060105],[131.935432,34.060422],[131.935307,34.06063],[131.935457,34.06153],[131.935482,34.061972],[131.935432,34.062363],[131.935445,34.062763],[131.935695,34.063221],[131.93577,34.063471],[131.935645,34.063613],[131.935445,34.063746],[131.935082,34.063863],[131.93467,34.063896],[131.933995,34.06378],[131.933707,34.063838],[131.933182,34.064263],[131.932982,34.064346],[131.932807,34.064355],[131.932382,34.063971],[131.93217,34.06388],[131.931907,34.06388],[131.931745,34.064055],[131.931557,34.064413],[131.931245,34.064655],[131.92947,34.064679],[131.928233,34.064804],[131.928033,34.064754],[131.927633,34.064613],[131.92737,34.064388],[131.927058,34.064321],[131.926758,34.064329],[131.926483,34.064454],[131.926295,34.064654],[131.926008,34.065113],[131.92587,34.065421],[131.92587,34.065846],[131.926083,34.066096],[131.926683,34.066463],[131.92722,34.066713],[131.927745,34.067221],[131.928283,34.068012],[131.928245,34.068271],[131.92777,34.068796],[131.927733,34.069054],[131.927995,34.069662],[131.92797,34.069854],[131.927895,34.069912],[131.92717,34.070229],[131.926995,34.070337],[131.926658,34.071062],[131.92617,34.071545],[131.92597,34.071995],[131.925845,34.072479],[131.92552,34.072795],[131.924995,34.073104],[131.924533,34.073345],[131.92412,34.073454],[131.923495,34.073429],[131.923183,34.07352],[131.922108,34.073978],[131.921645,34.074228],[131.921145,34.074803],[131.920783,34.075037],[131.920296,34.075545],[131.919846,34.075845],[131.919296,34.076161],[131.918846,34.07652],[131.917558,34.077961],[131.917271,34.078203],[131.917046,34.078286],[131.916696,34.07837],[131.916208,34.078378],[131.915558,34.078453],[131.915258,34.078445],[131.914721,34.078245],[131.914371,34.078261],[131.914146,34.078444],[131.913659,34.079219],[131.913296,34.079661],[131.913046,34.080053],[131.912871,34.080428],[131.912834,34.080703],[131.912909,34.081053],[131.913133,34.081461],[131.913383,34.081777],[131.913758,34.082061],[131.914371,34.082444],[131.914683,34.082711],[131.914771,34.082977],[131.914933,34.083244],[131.915433,34.083519],[131.915996,34.083777],[131.916408,34.084052],[131.916895,34.084544],[131.91727,34.085269],[131.917645,34.085619],[131.918658,34.086102],[131.919495,34.086602],[131.91982,34.086802],[131.919895,34.087077],[131.919783,34.08746],[131.919808,34.087619],[131.919908,34.087752],[131.920357,34.08821],[131.920407,34.088385],[131.920307,34.088569],[131.920057,34.088769],[131.919695,34.088969],[131.91932,34.089102],[131.91902,34.089169],[131.918774,34.08915],[131.91872,34.089144],[131.91867,34.089144],[131.91852,34.089344],[131.91837,34.089452],[131.91827,34.089569],[131.918245,34.089768],[131.918683,34.090177],[131.918858,34.090427],[131.918858,34.090768],[131.918395,34.091618],[131.918345,34.09196],[131.918595,34.092143],[131.91902,34.092235],[131.919145,34.092593],[131.919657,34.092893],[131.919757,34.093052],[131.919682,34.093568],[131.919832,34.093751],[131.920282,34.093985],[131.921082,34.094235],[131.921507,34.09451],[131.921719,34.09476],[131.922144,34.095101],[131.922519,34.095351],[131.922894,34.095493],[131.923294,34.095718],[131.923819,34.096193],[131.924419,34.096426],[131.924794,34.09661],[131.925032,34.09681],[131.925157,34.09706],[131.925332,34.097218],[131.925732,34.097426],[131.926157,34.097743],[131.926257,34.098018],[131.926244,34.098334],[131.926394,34.099009],[131.926419,34.099526],[131.926644,34.099759],[131.927056,34.100009],[131.928281,34.100809],[131.929456,34.101267],[131.929656,34.101401],[131.929831,34.101626],[131.930056,34.101767],[131.930781,34.101926],[131.931306,34.102117],[131.931718,34.102317],[131.932518,34.102909],[131.933043,34.103392],[131.933443,34.103659],[131.933893,34.103917],[131.934293,34.104034],[131.934943,34.103967],[131.935368,34.103992],[131.935743,34.104084],[131.936468,34.1045],[131.936818,34.1045],[131.937593,34.10435],[131.937843,34.104367],[131.937968,34.104442],[131.937918,34.1048],[131.937805,34.105134],[131.937405,34.105717],[131.937505,34.106059],[131.937668,34.106442],[131.937743,34.10685],[131.937743,34.107575],[131.93788,34.107958],[131.938205,34.1083],[131.93853,34.108433],[131.93868,34.108458],[131.938805,34.10855],[131.938605,34.108867],[131.938455,34.109225],[131.938393,34.109633],[131.938468,34.110266],[131.938418,34.110666],[131.93803,34.111233],[131.938105,34.111791],[131.937768,34.112358],[131.937718,34.113166],[131.93783,34.113574],[131.93783,34.114474],[131.937893,34.115066],[131.937868,34.115383],[131.937518,34.115891],[131.93748,34.116166],[131.93763,34.116507],[131.938105,34.117207],[131.938143,34.117482],[131.938093,34.117566],[131.937693,34.117857],[131.936993,34.117991],[131.936743,34.118124],[131.936693,34.118216],[131.93663,34.118824],[131.93683,34.119382],[131.937005,34.11959],[131.937605,34.119732],[131.937855,34.11989],[131.938343,34.12034],[131.938642,34.120507],[131.940467,34.121107],[131.940967,34.121224],[131.941342,34.121248],[131.942005,34.12109],[131.942355,34.12114],[131.943817,34.12169],[131.94463,34.121765],[131.946454,34.121932],[131.947029,34.121898],[131.947204,34.121873],[131.947629,34.121673],[131.948004,34.121382],[131.948317,34.121248],[131.948692,34.121232],[131.949092,34.121365],[131.950754,34.12224],[131.951179,34.122398],[131.951954,34.122448],[131.952279,34.12254],[131.952504,34.12254],[131.952817,34.12239],[131.953192,34.122273],[131.953717,34.122323],[131.953992,34.122573],[131.954329,34.123006],[131.954404,34.123006],[131.954591,34.122873],[131.954966,34.122698],[131.955166,34.12274],[131.955391,34.122923],[131.955441,34.12304],[131.955579,34.12324],[131.955854,34.123306],[131.956241,34.123223],[131.956691,34.122998],[131.957016,34.122773],[131.957316,34.122623],[131.957466,34.122598],[131.957591,34.122781],[131.957666,34.123048],[131.957816,34.12319],[131.958166,34.123281],[131.958566,34.123373],[131.958791,34.123214],[131.959141,34.12284],[131.959254,34.122548],[131.959179,34.12214],[131.958879,34.121365],[131.958841,34.121031],[131.958916,34.120623],[131.959329,34.11979],[131.959941,34.118623],[131.959991,34.11849],[131.959966,34.11824],[131.959816,34.118082],[131.959141,34.117782],[131.959091,34.117624],[131.959316,34.117199],[131.959579,34.116957],[131.959704,34.116707],[131.959654,34.116032],[131.959741,34.115665],[131.960191,34.114749],[131.960979,34.113516],[131.961166,34.113307],[131.961341,34.113291],[131.961979,34.113632],[131.962429,34.113774],[131.962816,34.113799],[131.963191,34.113774],[131.963516,34.113916],[131.963629,34.114166],[131.963753,34.114299],[131.963828,34.114324],[131.964203,34.114299],[131.964516,34.114032],[131.964766,34.113766],[131.964891,34.112958],[131.965028,34.112574],[131.965078,34.112274],[131.964878,34.112116],[131.964378,34.111866],[131.964153,34.111666],[131.964153,34.111416],[131.964366,34.111099],[131.964691,34.110858],[131.964791,34.110675],[131.964641,34.110491],[131.964241,34.110291],[131.963716,34.11015],[131.963566,34.109991],[131.963703,34.109608],[131.964078,34.109025],[131.964153,34.10875],[131.964116,34.10855],[131.963991,34.10835],[131.964016,34.108125],[131.964341,34.107675],[131.964591,34.107425],[131.964666,34.107317],[131.964678,34.10695],[131.964453,34.106567],[131.964378,34.106158],[131.964316,34.105075],[131.964316,34.104742],[131.964216,34.104467],[131.963928,34.103967],[131.963978,34.103767],[131.964103,34.103592],[131.964228,34.103026],[131.964166,34.102667],[131.963891,34.102117],[131.963841,34.101917],[131.964428,34.100792],[131.964941,34.100193],[131.965291,34.099243],[131.965228,34.098976],[131.964878,34.098518],[131.964753,34.098251],[131.964803,34.098093],[131.964928,34.097959],[131.965116,34.097435],[131.965191,34.096651],[131.965091,34.09631],[131.964803,34.09586],[131.964778,34.095568],[131.964928,34.095501],[131.966428,34.09546],[131.967053,34.095468],[131.967778,34.095585],[131.968153,34.09566],[131.968378,34.095635],[131.968791,34.095343],[131.969091,34.09496],[131.969141,34.09476],[131.968903,34.09406],[131.968703,34.093652],[131.968278,34.092952],[131.968191,34.092585],[131.968141,34.091369],[131.968078,34.090985],[131.968103,34.090694],[131.968003,34.090419],[131.967503,34.089969],[131.967041,34.089377],[131.966916,34.089194],[131.966991,34.089035],[131.967041,34.088994],[131.967316,34.088952],[131.967691,34.088685],[131.967853,34.088369],[131.967978,34.088036],[131.968153,34.087761],[131.968778,34.087477],[131.969366,34.087186],[131.969466,34.087186],[131.969616,34.087344],[131.969753,34.087661],[131.969853,34.087936],[131.970053,34.088111],[131.970503,34.088277],[131.970803,34.088411],[131.971178,34.088735],[131.971778,34.088735],[131.972453,34.088919],[131.972853,34.088877],[131.972953,34.08881],[131.97319,34.088094],[131.973315,34.088027],[131.973865,34.088011],[131.97439,34.088077],[131.97489,34.088194],[131.97524,34.088402],[131.975515,34.088669],[131.975765,34.088744],[131.977065,34.088369],[131.97744,34.088211],[131.97769,34.088169],[131.978065,34.088169],[131.978315,34.088019],[131.978753,34.087636],[131.979078,34.087527],[131.979303,34.087486],[131.980053,34.087577],[131.980953,34.087811],[131.981778,34.088152],[131.982078,34.088202],[131.982153,34.088177],[131.982303,34.088019],[131.982503,34.087869],[131.982903,34.087777],[131.983128,34.087669],[131.98349,34.087019],[131.983665,34.086794],[131.983865,34.086603],[131.984965,34.085878],[131.985315,34.085569],[131.985803,34.085028],[131.985903,34.084945],[131.98644,34.084703],[131.986878,34.08442],[131.987165,34.084111],[131.987415,34.084061],[131.988078,34.084186],[131.988478,34.084095],[131.988753,34.083786],[131.989203,34.083586],[131.989578,34.083561],[131.989953,34.083495],[131.99029,34.083328],[131.990653,34.083195],[131.99109,34.083086],[131.991291,34.082895],[131.991566,34.08252],[131.992303,34.082112],[131.992628,34.081853],[131.992791,34.08152],[131.992853,34.080953],[131.993003,34.080678],[131.993566,34.08042],[131.994053,34.080145],[131.994391,34.07982],[131.994641,34.079437],[131.994991,34.07902],[131.995166,34.078979],[131.995241,34.079012],[131.995653,34.079529],[131.995716,34.079554],[131.995791,34.079504],[131.995841,34.07927],[131.995716,34.07852],[131.995378,34.077704],[131.995391,34.077354],[131.995691,34.07622],[131.995691,34.075887],[131.995404,34.075154],[131.995204,34.074196],[131.994979,34.074104],[131.994616,34.074104],[131.994404,34.074062],[131.993979,34.073621],[131.993704,34.073496],[131.993354,34.073396],[131.993054,34.073237],[131.992979,34.073112],[131.992791,34.072246],[131.992629,34.072079],[131.992216,34.071979],[131.991716,34.071896],[131.991329,34.071663],[131.991016,34.071404],[131.990791,34.070929],[131.990854,34.070654],[131.991154,34.070704],[131.991829,34.070904],[131.992354,34.071029],[131.992716,34.071046],[131.993654,34.070938],[131.994079,34.071013],[131.994566,34.071213],[131.994929,34.071254],[131.995166,34.071154],[131.995304,34.071021],[131.995329,34.070821],[131.995154,34.070079],[131.995117,34.069588],[131.995317,34.069404],[131.995717,34.069246],[131.996392,34.069071],[131.996629,34.068929],[131.996679,34.068771],[131.996442,34.06803],[131.996517,34.067163],[131.996654,34.066821],[131.996829,34.066613],[131.997092,34.06648],[131.99728,34.066321],[131.997417,34.065905],[131.99728,34.065046],[131.99728,34.064788],[131.997417,34.064472],[131.997538,34.064402],[131.998417,34.064422],[131.998792,34.064463],[131.99983,34.064863],[132.000592,34.065088],[132.001017,34.064955],[132.003629,34.066338],[132.004529,34.06658],[132.005204,34.067188],[132.006104,34.067588],[132.006291,34.067563],[132.007129,34.067313],[132.008129,34.067197],[132.008179,34.06708],[132.008091,34.066022],[132.008091,34.065055],[132.008379,34.064264],[132.009516,34.063605],[132.010504,34.062997],[132.011016,34.062339],[132.011241,34.062339],[132.011804,34.062397],[132.012266,34.062489],[132.012516,34.062597],[132.012866,34.062822],[132.012629,34.064089],[132.012728,34.065864],[132.012803,34.066047],[132.013591,34.066405],[132.014841,34.06683],[132.015553,34.067272],[132.016091,34.067155],[132.016391,34.066613],[132.016791,34.066663],[132.017615,34.067263],[132.018403,34.067755],[132.01974,34.069105],[132.020253,34.069413],[132.02099,34.06968],[132.02169,34.069771],[132.022503,34.069946],[132.02324,34.069763],[132.024077,34.069513],[132.025827,34.067997],[132.026002,34.067522],[132.026727,34.066839],[132.027265,34.065939],[132.02734,34.065105],[132.027502,34.064564],[132.027552,34.064247],[132.028202,34.063431],[132.02849,34.062756],[132.028377,34.061764],[132.028127,34.061198],[132.027965,34.060956],[132.027602,34.05969],[132.02754,34.059065],[132.02729,34.058498],[132.02739,34.057623],[132.02739,34.057015],[132.02744,34.056715],[132.028502,34.053874],[132.028902,34.053357],[132.02909,34.052832],[132.028727,34.052524],[132.028315,34.051691],[132.028315,34.050724],[132.028452,34.050474],[132.02899,34.050016],[132.02979,34.049025],[132.029977,34.048325],[132.030215,34.04805],[132.030615,34.04735],[132.03069,34.046925],[132.030865,34.045209],[132.030815,34.045009],[132.030752,34.04435],[132.030452,34.043767],[132.030465,34.041851],[132.03019,34.041134],[132.02954,34.040868],[132.029102,34.040393],[132.028765,34.039226],[132.028402,34.038526],[132.028015,34.037401],[132.02774,34.035718],[132.027378,34.034793],[132.026678,34.032877],[132.026653,34.032652],[132.02629,34.031486],[132.024928,34.029236],[132.024453,34.028561],[132.024015,34.027844],[132.022928,34.027378],[132.02244,34.027203],[132.022278,34.026928],[132.022115,34.026461],[132.022215,34.025695],[132.022315,34.025195],[132.022253,34.02402],[132.02239,34.023636],[132.022628,34.02357],[132.024227,34.023878],[132.024477,34.023628],[132.02479,34.02277],[132.025215,34.02182],[132.02519,34.021128],[132.02504,34.020787],[132.025664,34.020129],[132.025927,34.019479],[132.025789,34.018712],[132.025839,34.018212],[132.026189,34.018104],[132.026402,34.018145],[132.026652,34.01812],[132.027214,34.017196],[132.027214,34.017037],[132.026852,34.016562],[132.026714,34.016137],[132.027002,34.015637],[132.027164,34.014937],[132.027189,34.014421],[132.027676,34.014421],[132.028401,34.014329],[132.030289,34.013713],[132.030814,34.013838],[132.031538,34.013838],[132.032401,34.013404],[132.033026,34.013046],[132.033401,34.012363],[132.034151,34.012046],[132.034826,34.012038],[132.035588,34.012196],[132.036363,34.011963],[132.036425,34.011921],[132.036363,34.011405],[132.036988,34.011021],[132.037275,34.010905],[132.037988,34.011055],[132.038988,34.011188],[132.040075,34.011455],[132.040863,34.011721],[132.041138,34.012121],[132.041375,34.012596],[132.041513,34.01278],[132.041738,34.013455],[132.042225,34.013763],[132.043038,34.013646],[132.043688,34.013646],[132.04385,34.013738],[132.044263,34.013621],[132.04455,34.013596],[132.045263,34.013821],[132.046213,34.01363],[132.046612,34.013021],[132.047175,34.013021],[132.047687,34.013196],[132.047825,34.013221],[132.048425,34.012921],[132.0491,34.013013],[132.050537,34.01348],[132.051375,34.013313],[132.052212,34.012996],[132.0528,34.012538],[132.053687,34.012038],[132.053987,34.012397],[132.0543,34.013388],[132.0543,34.01348],[132.054412,34.013521],[132.055362,34.014088],[132.055662,34.014063],[132.055949,34.01343],[132.056062,34.013446],[132.056324,34.01383],[132.056662,34.014413],[132.056962,34.014438],[132.057224,34.014346],[132.057474,34.014438],[132.057824,34.014363],[132.058224,34.014205],[132.058549,34.014296],[132.058712,34.01418],[132.058987,34.014205],[132.059199,34.013772],[132.060037,34.013338],[132.060199,34.013363],[132.060449,34.013838],[132.060049,34.014763],[132.060212,34.01523],[132.060512,34.015546],[132.060462,34.015638],[132.060049,34.015846],[132.059624,34.01623],[132.059712,34.016655],[132.059687,34.017238],[132.060137,34.018663],[132.060699,34.018746],[132.061549,34.019579],[132.061662,34.019529],[132.062711,34.019346],[132.062986,34.019413],[132.063799,34.019788],[132.064061,34.019563],[132.064849,34.019429],[132.065124,34.019696],[132.065699,34.020121],[132.066349,34.020163],[132.066699,34.020296],[132.066861,34.020854],[132.066899,34.021263],[132.067223,34.021304],[132.067836,34.020313],[132.068648,34.020104],[132.069148,34.019271],[132.069173,34.019271],[132.069473,34.01868],[132.069948,34.018338],[132.070786,34.017888],[132.071461,34.017388],[132.072161,34.017338],[132.072948,34.017155],[132.073485,34.016588],[132.073485,34.01648],[132.073185,34.016005],[132.072398,34.015513],[132.071736,34.014972],[132.071086,34.013897],[132.070586,34.012522],[132.070086,34.011805],[132.069623,34.010522],[132.069323,34.010164],[132.069236,34.009939],[132.069223,34.009172],[132.069061,34.008522],[132.068786,34.007864],[132.068186,34.007039],[132.067936,34.006406],[132.067436,34.005781],[132.067224,34.005414],[132.067186,34.004948],[132.066861,34.004814],[132.066624,34.004448],[132.066286,34.004364],[132.065961,34.004073],[132.065961,34.003864],[132.066199,34.003281],[132.066774,34.002889],[132.066824,34.002531],[132.066986,34.002281],[132.066986,34.002081],[132.066499,34.001615],[132.066161,34.001215],[132.065811,34.000898],[132.065724,34.00054],[132.065724,34.000115],[132.065536,33.999781],[132.065524,33.999081],[132.065474,33.998682],[132.065386,33.998615],[132.065199,33.998232],[132.065386,33.997557]]]},"properties":{"kuni_id":"K55","pref":"山口県","name":"熊毛","yomi":"くまげ","kuni":"周防","id":"G55004","kuni_url":"/kg/resource/K55.html","id_url":"G55004.html"},"type":"Feature"}]}