{"features":[{"type":"Feature","geometry":{"coordinates":[[[131.369531,34.137791],[131.370618,34.136908],[131.371006,34.136733],[131.371418,34.136592],[131.371968,34.135875],[131.372218,34.135492],[131.372293,34.135425],[131.372293,34.135083],[131.371968,34.134592],[131.371718,34.134317],[131.371418,34.134092],[131.371306,34.133867],[131.371281,34.133484],[131.371306,34.13335],[131.371418,34.13315],[131.371693,34.132992],[131.371968,34.132925],[131.372106,34.13285],[131.372568,34.132467],[131.372589,34.13243],[131.372831,34.132309],[131.373031,34.13225],[131.373556,34.132092],[131.373743,34.13205],[131.373918,34.132025],[131.374305,34.13195],[131.374368,34.131942],[131.374468,34.131925],[131.37488,34.13195],[131.375843,34.131975],[131.37613,34.131959],[131.376293,34.131942],[131.37633,34.131917],[131.376355,34.131842],[131.376368,34.131625],[131.376368,34.131417],[131.376405,34.131209],[131.376468,34.131059],[131.37648,34.130917],[131.376455,34.130609],[131.376443,34.130409],[131.376368,34.130084],[131.376343,34.129717],[131.376318,34.129559],[131.37638,34.129384],[131.376318,34.129017],[131.376193,34.128642],[131.376143,34.128359],[131.376143,34.128109],[131.376068,34.127767],[131.375968,34.127634],[131.375305,34.127159],[131.375068,34.126893],[131.374993,34.126743],[131.374955,34.126601],[131.37493,34.126476],[131.37498,34.126393],[131.37518,34.126218],[131.375268,34.126151],[131.375305,34.126143],[131.375368,34.126076],[131.376118,34.125709],[131.376468,34.125534],[131.376593,34.125509],[131.37693,34.125509],[131.37743,34.125609],[131.377605,34.125626],[131.377718,34.125618],[131.377893,34.125551],[131.377968,34.125484],[131.378055,34.125309],[131.37808,34.125143],[131.378093,34.124901],[131.378118,34.124768],[131.378168,34.124651],[131.378243,34.124351],[131.378468,34.123885],[131.378555,34.123668],[131.378755,34.123126],[131.378843,34.12281],[131.37888,34.122551],[131.379005,34.122151],[131.37913,34.121843],[131.379218,34.121643],[131.37928,34.121501],[131.379318,34.121343],[131.379293,34.121185],[131.37913,34.120985],[131.378993,34.12091],[131.378655,34.120718],[131.37813,34.120502],[131.377968,34.120452],[131.377843,34.120343],[131.37773,34.120243],[131.377668,34.120127],[131.377555,34.119885],[131.377455,34.11971],[131.377155,34.119393],[131.37688,34.11901],[131.376793,34.118877],[131.376705,34.118685],[131.376668,34.118577],[131.376655,34.118477],[131.376655,34.118418],[131.376668,34.118377],[131.376655,34.118243],[131.37668,34.118177],[131.376705,34.11786],[131.376593,34.117444],[131.376493,34.117194],[131.376405,34.117044],[131.376243,34.116852],[131.376205,34.116694],[131.37618,34.116502],[131.376168,34.116244],[131.37608,34.11586],[131.376005,34.115669],[131.375955,34.115377],[131.375943,34.11531],[131.375968,34.115252],[131.375968,34.115144],[131.375968,34.115077],[131.375968,34.115019],[131.37588,34.11491],[131.375643,34.114802],[131.375318,34.114694],[131.375118,34.114619],[131.374843,34.114477],[131.374743,34.114385],[131.374705,34.114369],[131.37468,34.114294],[131.374618,34.114202],[131.374593,34.114044],[131.374593,34.113952],[131.374593,34.113811],[131.374568,34.113719],[131.37453,34.113644],[131.373993,34.113111],[131.373731,34.112911],[131.373506,34.112836],[131.373306,34.112752],[131.373081,34.112761],[131.373006,34.112761],[131.372756,34.112836],[131.37259,34.112898],[131.372531,34.112986],[131.372118,34.113211],[131.371906,34.113277],[131.371718,34.113211],[131.371518,34.113027],[131.371406,34.112761],[131.371193,34.112511],[131.370506,34.112561],[131.369018,34.112402],[131.368281,34.112202],[131.367506,34.111752],[131.366769,34.111527],[131.366631,34.111436],[131.366431,34.111211],[131.366519,34.111027],[131.367119,34.110419],[131.367556,34.110128],[131.368793,34.109586],[131.369093,34.109403],[131.369343,34.109111],[131.369593,34.108936],[131.369693,34.108753],[131.369731,34.108369],[131.370006,34.108078],[131.369918,34.107736],[131.369581,34.107336],[131.368543,34.107311],[131.367944,34.107378],[131.367806,34.107469],[131.367606,34.107761],[131.367331,34.107944],[131.367256,34.107969],[131.366731,34.107969],[131.365631,34.107678],[131.364031,34.107878],[131.363594,34.107786],[131.363244,34.107544],[131.362382,34.107269],[131.362082,34.106978],[131.361944,34.10662],[131.361807,34.10597],[131.361619,34.105561],[131.361369,34.105403],[131.361119,34.105295],[131.361094,34.104928],[131.361069,34.104911],[131.360932,34.104928],[131.360657,34.105045],[131.360294,34.105378],[131.359994,34.105603],[131.358619,34.106103],[131.357882,34.106461],[131.357582,34.106761],[131.35722,34.107369],[131.356832,34.107678],[131.35632,34.107953],[131.355795,34.108044],[131.355357,34.108069],[131.355107,34.108178],[131.35492,34.108494],[131.354745,34.108878],[131.354532,34.108944],[131.35442,34.108944],[131.35412,34.108836],[131.35407,34.108786],[131.353757,34.108719],[131.353482,34.108769],[131.353045,34.109103],[131.35252,34.109419],[131.35222,34.109552],[131.351708,34.109486],[131.35132,34.109377],[131.349945,34.109336],[131.349283,34.109219],[131.34887,34.109194],[131.34862,34.109286],[131.348458,34.109311],[131.348295,34.109044],[131.348208,34.108769],[131.347221,34.108278],[131.346371,34.107711],[131.346308,34.107644],[131.345658,34.107803],[131.345158,34.107803],[131.345071,34.107378],[131.345183,34.106786],[131.345483,34.105886],[131.345571,34.105419],[131.345596,34.103995],[131.345646,34.103728],[131.346083,34.103386],[131.346196,34.103161],[131.346396,34.102978],[131.346746,34.10287],[131.346883,34.102528],[131.346883,34.102236],[131.346933,34.101945],[131.347183,34.101537],[131.347321,34.101378],[131.347758,34.101137],[131.34952,34.100678],[131.349933,34.100412],[131.350208,34.100028],[131.350395,34.099645],[131.35062,34.09942],[131.351583,34.099129],[131.351858,34.098904],[131.351858,34.098604],[131.351683,34.098112],[131.35177,34.097479],[131.351745,34.097054],[131.351608,34.096379],[131.351633,34.096012],[131.352145,34.095521],[131.352183,34.095337],[131.352045,34.094954],[131.351845,34.094571],[131.351733,34.094187],[131.352145,34.093063],[131.352233,34.092279],[131.35212,34.091421],[131.352308,34.090996],[131.35272,34.090363],[131.352745,34.08998],[131.352608,34.089688],[131.352358,34.089505],[131.35167,34.089371],[131.351345,34.089396],[131.351733,34.089096],[131.352033,34.088805],[131.353133,34.088021],[131.35332,34.087796],[131.353345,34.087588],[131.352583,34.087005],[131.352333,34.086588],[131.352283,34.08658],[131.352145,34.086355],[131.351783,34.086022],[131.351483,34.085838],[131.351208,34.085755],[131.350108,34.085705],[131.349746,34.085638],[131.349221,34.085397],[131.349008,34.085172],[131.348808,34.084563],[131.348621,34.084288],[131.348321,34.084038],[131.347496,34.083638],[131.347046,34.083522],[131.346858,34.083347],[131.346558,34.083147],[131.345984,34.082963],[131.345871,34.082872],[131.345946,34.082538],[131.345921,34.082222],[131.345759,34.081772],[131.345734,34.081272],[131.345759,34.080847],[131.345946,34.080597],[131.346633,34.08008],[131.346858,34.079789],[131.346858,34.079722],[131.347021,34.079447],[131.347371,34.079156],[131.347458,34.078997],[131.347483,34.078731],[131.348008,34.078456],[131.348421,34.078297],[131.348996,34.077956],[131.349358,34.077689],[131.349683,34.077172],[131.349708,34.076881],[131.349546,34.076289],[131.349621,34.075164],[131.349571,34.074848],[131.348883,34.074239],[131.348608,34.073923],[131.348171,34.073548],[131.347808,34.073139],[131.347646,34.072823],[131.347646,34.072664],[131.347608,34.072664],[131.347696,34.072348],[131.348021,34.071673],[131.347971,34.071473],[131.347671,34.071156],[131.347171,34.070573],[131.346808,34.070281],[131.346321,34.070281],[131.345846,34.070348],[131.344884,34.07064],[131.343959,34.07069],[131.343509,34.070415],[131.343134,34.070123],[131.342521,34.069806],[131.342196,34.069581],[131.341859,34.069248],[131.341646,34.068931],[131.341234,34.068598],[131.340984,34.068256],[131.340784,34.067848],[131.340572,34.067623],[131.340184,34.067398],[131.339797,34.067448],[131.339309,34.067448],[131.339059,34.067381],[131.338722,34.067132],[131.338534,34.06684],[131.338559,34.066365],[131.337959,34.06524],[131.338172,34.065015],[131.338472,34.06479],[131.338647,34.063982],[131.338584,34.062849],[131.338447,34.062399],[131.337922,34.061724],[131.337784,34.061207],[131.337534,34.060824],[131.337559,34.060649],[131.337184,34.060149],[131.337234,34.059857],[131.337372,34.059499],[131.337309,34.059132],[131.337372,34.058824],[131.337284,34.058324],[131.336297,34.056974],[131.335797,34.056008],[131.335859,34.055558],[131.336072,34.054808],[131.335847,34.054566],[131.335684,34.054474],[131.335334,34.054499],[131.33481,34.054449],[131.334197,34.054224],[131.33396,34.054066],[131.333822,34.053641],[131.333485,34.053308],[131.33316,34.052833],[131.33296,34.052358],[131.33296,34.051933],[131.333022,34.05155],[131.33236,34.050783],[131.331997,34.050466],[131.331585,34.050266],[131.331147,34.050133],[131.330572,34.049883],[131.33046,34.049792],[131.330072,34.049208],[131.330023,34.048733],[131.329573,34.048283],[131.329548,34.048308],[131.32906,34.048325],[131.328235,34.04815],[131.327573,34.047833],[131.327048,34.047792],[131.326585,34.047792],[131.32631,34.0477],[131.32611,34.047475],[131.326035,34.047142],[131.326035,34.0468],[131.325923,34.046483],[131.325698,34.046259],[131.325398,34.046308],[131.32501,34.0466],[131.324773,34.046667],[131.324686,34.046642],[131.324273,34.046325],[131.323998,34.045992],[131.323836,34.0459],[131.323473,34.0459],[131.322848,34.046017],[131.322761,34.046058],[131.321986,34.04595],[131.320923,34.045992],[131.320611,34.045817],[131.320311,34.045792],[131.319761,34.0459],[131.319486,34.045908],[131.319411,34.045883],[131.318999,34.045608],[131.318661,34.045525],[131.317899,34.045567],[131.317349,34.045525],[131.316686,34.045408],[131.316111,34.045275],[131.315611,34.045208],[131.315061,34.045183],[131.314786,34.045075],[131.314624,34.044825],[131.314787,34.044467],[131.315011,34.044109],[131.315061,34.04395],[131.315061,34.043609],[131.314949,34.043225],[131.314924,34.042892],[131.314949,34.042775],[131.315199,34.042592],[131.315724,34.042392],[131.315911,34.042209],[131.316136,34.041692],[131.316049,34.041534],[131.316024,34.041242],[131.316136,34.040992],[131.316349,34.040792],[131.317174,34.040634],[131.317261,34.040209],[131.317311,34.040026],[131.317149,34.039484],[131.317149,34.039218],[131.317061,34.038926],[131.316874,34.038626],[131.316374,34.038401],[131.316186,34.038334],[131.316099,34.038334],[131.315549,34.038159],[131.315224,34.037909],[131.314974,34.037459],[131.314649,34.037143],[131.314587,34.037051],[131.314562,34.036984],[131.314649,34.036826],[131.314974,34.036401],[131.314924,34.036285],[131.314537,34.036151],[131.313762,34.035976],[131.313574,34.03591],[131.313187,34.035685],[131.312749,34.035276],[131.311862,34.034601],[131.310937,34.034243],[131.310662,34.034018],[131.310575,34.033768],[131.310825,34.03311],[131.310787,34.033068],[131.310025,34.032485],[131.30975,34.032418],[131.30915,34.032393],[131.3086,34.032143],[131.308512,34.032143],[131.30815,34.032285],[131.307937,34.032443],[131.307575,34.03251],[131.307275,34.032393],[131.3067,34.031877],[131.306638,34.031718],[131.306675,34.03156],[131.306838,34.031268],[131.307,34.030527],[131.306975,34.030302],[131.306913,34.030277],[131.306775,34.02996],[131.306638,34.029469],[131.306663,34.029194],[131.3068,34.02886],[131.307163,34.028502],[131.30765,34.027752],[131.307738,34.027394],[131.3076,34.026219],[131.307438,34.025594],[131.307238,34.025344],[131.3071,34.025277],[131.306175,34.025319],[131.305488,34.025119],[131.3049,34.024736],[131.303951,34.024444],[131.303501,34.024419],[131.302988,34.024494],[131.302676,34.024494],[131.302488,34.024352],[131.302401,34.024244],[131.302326,34.024019],[131.302376,34.022711],[131.302563,34.021919],[131.302626,34.021494],[131.302601,34.021111],[131.302463,34.020478],[131.302288,34.019961],[131.301938,34.019511],[131.301438,34.019061],[131.301438,34.018861],[131.301638,34.018611],[131.302313,34.018361],[131.303276,34.018203],[131.303726,34.018178],[131.304001,34.018086],[131.304163,34.017953],[131.304351,34.017703],[131.304376,34.017728],[131.304876,34.017795],[131.305451,34.01802],[131.305638,34.017953],[131.305951,34.017753],[131.306001,34.017545],[131.305913,34.01737],[131.305676,34.017012],[131.305538,34.016695],[131.305451,34.01617],[131.305063,34.015137],[131.304676,34.01482],[131.303989,34.014462],[131.303614,34.014303],[131.303551,34.014303],[131.302651,34.014712],[131.302451,34.014753],[131.302014,34.014462],[131.301239,34.013837],[131.300414,34.013004],[131.299901,34.012595],[131.299539,34.01237],[131.299077,34.012262],[131.298602,34.012212],[131.298227,34.012079],[131.297677,34.011654],[131.297402,34.011495],[131.297402,34.011445],[131.297227,34.011245],[131.297039,34.011204],[131.295364,34.011112],[131.295002,34.01102],[131.294864,34.010887],[131.294789,34.010637],[131.294789,34.010162],[131.294977,34.00962],[131.295064,34.009262],[131.295027,34.009245],[131.295089,34.008629],[131.295252,34.008271],[131.295477,34.008021],[131.295552,34.007846],[131.295527,34.007796],[131.295202,34.006962],[131.295089,34.006804],[131.294652,34.006562],[131.294377,34.006337],[131.294265,34.005837],[131.294127,34.005521],[131.294065,34.005004],[131.294127,34.004738],[131.29409,34.004579],[131.29404,34.004513],[131.293852,34.004463],[131.293652,34.004354],[131.293415,34.004038],[131.293277,34.003538],[131.293077,34.003313],[131.293102,34.003263],[131.293015,34.003254],[131.293027,34.002621],[131.29294,34.002421],[131.292777,34.002221],[131.292452,34.002021],[131.292177,34.001771],[131.292002,34.001229],[131.292165,34.001004],[131.292665,34.000596],[131.29299,34.000405],[131.293465,34.000021],[131.293815,33.999946],[131.294527,34.000055],[131.294765,34.000046],[131.294877,33.999863],[131.295077,33.999321],[131.29519,33.99923],[131.295665,33.998955],[131.295802,33.998771],[131.29589,33.99778],[131.294443,33.993979],[131.293696,33.989875],[131.293136,33.985771],[131.293696,33.981294],[131.295003,33.977749],[131.29743,33.972713],[131.29911,33.968236],[131.299297,33.965997],[131.297803,33.962266],[131.294443,33.958722],[131.291269,33.95611],[131.288095,33.953499],[131.287535,33.950514],[131.288282,33.947529],[131.289095,33.94401],[131.289867,33.940663],[131.290541,33.937477],[131.290491,33.93731],[131.290466,33.937252],[131.290378,33.937119],[131.289979,33.936927],[131.289829,33.936977],[131.289816,33.93706],[131.289679,33.937094],[131.289491,33.937077],[131.289279,33.937027],[131.289016,33.936994],[131.288654,33.936877],[131.288479,33.936752],[131.288304,33.936627],[131.288216,33.936561],[131.288141,33.936511],[131.287966,33.936869],[131.287341,33.93686],[131.286941,33.937027],[131.286691,33.936985],[131.286404,33.936977],[131.286454,33.936877],[131.286479,33.936777],[131.286479,33.936702],[131.286454,33.936544],[131.286316,33.936469],[131.286354,33.936277],[131.286141,33.936211],[131.285716,33.936194],[131.285554,33.936352],[131.285391,33.936394],[131.285291,33.936469],[131.285241,33.936552],[131.285191,33.936652],[131.285204,33.936752],[131.285354,33.936744],[131.285429,33.936785],[131.285529,33.936844],[131.285504,33.937002],[131.285416,33.937094],[131.285354,33.937185],[131.285254,33.937185],[131.284841,33.937227],[131.284554,33.937277],[131.284404,33.937285],[131.284341,33.93716],[131.284391,33.937085],[131.284429,33.937002],[131.284504,33.936894],[131.284591,33.936777],[131.284679,33.936694],[131.284554,33.93661],[131.284404,33.936527],[131.284504,33.935311],[131.281929,33.934211],[131.281629,33.933944],[131.281117,33.933877],[131.280442,33.934202],[131.280429,33.934402],[131.280379,33.934602],[131.280379,33.934852],[131.280354,33.935044],[131.280304,33.935611],[131.280242,33.935977],[131.280254,33.936069],[131.280242,33.936619],[131.280304,33.93676],[131.280329,33.936827],[131.280354,33.93691],[131.280367,33.936985],[131.280342,33.937069],[131.280242,33.937144],[131.280167,33.937177],[131.280079,33.93706],[131.280092,33.936919],[131.280154,33.936827],[131.280304,33.933511],[131.281754,33.933361],[131.284679,33.934586],[131.288116,33.934819],[131.288954,33.933344],[131.287879,33.932111],[131.27118,33.924903],[131.268543,33.922878],[131.266593,33.922853],[131.265168,33.924945],[131.26493,33.924953],[131.264793,33.924903],[131.264468,33.92462],[131.264231,33.924886],[131.264693,33.925561],[131.264618,33.926061],[131.263281,33.926686],[131.262843,33.926078],[131.262681,33.926128],[131.262193,33.925653],[131.262231,33.925561],[131.262243,33.925486],[131.262256,33.92542],[131.262281,33.925311],[131.262118,33.925403],[131.261968,33.925478],[131.261756,33.925636],[131.261543,33.925795],[131.261393,33.925811],[131.261156,33.925986],[131.262068,33.927086],[131.261881,33.927194],[131.261831,33.927111],[131.261156,33.927269],[131.259831,33.926095],[131.249394,33.927478],[131.247573,33.929907],[131.246619,33.93141],[131.247573,33.931898],[131.248181,33.932144],[131.248894,33.931119],[131.249381,33.931319],[131.248719,33.932427],[131.251806,33.933994],[131.251681,33.934269],[131.252144,33.934535],[131.254731,33.931119],[131.254981,33.931252],[131.254869,33.931386],[131.256018,33.931936],[131.255281,33.933102],[131.255193,33.933077],[131.252556,33.93686],[131.251169,33.936193],[131.251031,33.936218],[131.250406,33.93591],[131.250194,33.93621],[131.249919,33.936077],[131.249969,33.93596],[131.247573,33.934739],[131.23262,33.927194],[131.232545,33.927244],[131.230383,33.930069],[131.230195,33.930244],[131.232195,33.932043],[131.232383,33.931927],[131.234882,33.934177],[131.234007,33.936435],[131.234332,33.936518],[131.235382,33.936693],[131.235332,33.936876],[131.23722,33.937276],[131.23727,33.937118],[131.243319,33.938293],[131.243219,33.93861],[131.246844,33.940535],[131.246094,33.941643],[131.247572,33.942372],[131.247731,33.942468],[131.247956,33.942584],[131.248194,33.942759],[131.248231,33.942693],[131.248281,33.942593],[131.248756,33.942826],[131.248281,33.943518],[131.248231,33.943451],[131.248169,33.943518],[131.248069,33.943593],[131.247994,33.943626],[131.247719,33.943459],[131.247572,33.943297],[131.247394,33.943026],[131.247156,33.942901],[131.247031,33.942909],[131.246869,33.943151],[131.246631,33.943426],[131.246431,33.943659],[131.246356,33.943734],[131.246281,33.943743],[131.246069,33.943634],[131.245944,33.943551],[131.245669,33.943376],[131.245294,33.943151],[131.245169,33.943034],[131.244606,33.942393],[131.244369,33.942093],[131.244144,33.941768],[131.244219,33.941651],[131.244081,33.941543],[131.243944,33.941376],[131.243782,33.941226],[131.243744,33.941209],[131.242619,33.942059],[131.242532,33.942334],[131.243731,33.943768],[131.244256,33.944559],[131.244844,33.945076],[131.246044,33.945992],[131.245181,33.946759],[131.243856,33.945884],[131.243644,33.946001],[131.243056,33.946701],[131.242406,33.947292],[131.240844,33.946192],[131.240044,33.947084],[131.242069,33.948534],[131.242281,33.948734],[131.242131,33.948825],[131.241956,33.948942],[131.241631,33.948767],[131.239881,33.950433],[131.239169,33.951417],[131.237969,33.950225],[131.237707,33.950042],[131.237182,33.950458],[131.236707,33.950758],[131.236594,33.950658],[131.236394,33.950475],[131.236632,33.950292],[131.236769,33.950083],[131.236332,33.949617],[131.236219,33.949567],[131.234869,33.9481],[131.234594,33.947859],[131.234432,33.947859],[131.233657,33.948267],[131.233244,33.948042],[131.233469,33.94795],[131.234107,33.9475],[131.234132,33.947425],[131.233557,33.94655],[131.234107,33.946642],[131.234232,33.946642],[131.234294,33.946592],[131.234732,33.943617],[131.234807,33.943284],[131.234107,33.942334],[131.234095,33.942326],[131.233945,33.942084],[131.23362,33.941659],[131.233382,33.941351],[131.233107,33.940976],[131.23292,33.940718],[131.23287,33.940618],[131.23272,33.940468],[131.232457,33.940176],[131.232345,33.940143],[131.23217,33.940251],[131.231995,33.940368],[131.231845,33.940459],[131.23002,33.939984],[131.23122,33.937834],[131.231207,33.937768],[131.226995,33.936451],[131.226708,33.936226],[131.222558,33.933743],[131.222483,33.933743],[131.221508,33.934085],[131.215221,33.936676],[131.216133,33.939242],[131.216283,33.939717],[131.209921,33.9441],[131.199385,33.942742],[131.195447,33.942192],[131.19421,33.94195],[131.192985,33.941592],[131.188073,33.940008],[131.185673,33.939208],[131.184773,33.938942],[131.184911,33.937583],[131.185178,33.933097],[131.185203,33.932172],[131.185278,33.93163],[131.185253,33.931514],[131.184548,33.931501],[131.182248,33.931509],[131.181986,33.931534],[131.181686,33.931401],[131.181273,33.930976],[131.180848,33.930617],[131.180473,33.931384],[131.179486,33.932126],[131.179324,33.932059],[131.178449,33.931526],[131.178374,33.931501],[131.176549,33.933334],[131.176311,33.933534],[131.176049,33.934125],[131.174974,33.935817],[131.174036,33.937083],[131.173661,33.937242],[131.172724,33.9379],[131.172487,33.93855],[131.172187,33.939116],[131.171949,33.939816],[131.171549,33.940675],[131.170887,33.941625],[131.169949,33.942724],[131.169387,33.943249],[131.169249,33.943499],[131.168312,33.944424],[131.167612,33.944966],[131.167112,33.945782],[131.166387,33.946641],[131.165987,33.947249],[131.165474,33.94779],[131.165074,33.947657],[131.164587,33.947774],[131.164137,33.948132],[131.163862,33.948449],[131.163674,33.948765],[131.163487,33.94924],[131.163974,33.949707],[131.163662,33.95014],[131.162824,33.950615],[131.162562,33.950682],[131.1625,33.950573],[131.162237,33.950748],[131.162262,33.950798],[131.16175,33.950932],[131.161425,33.951315],[131.161,33.952515],[131.160862,33.952515],[131.16025,33.952715],[131.160062,33.952831],[131.15775,33.953106],[131.1577,33.953898],[131.158912,33.953915],[131.158937,33.955156],[131.158325,33.955206],[131.158325,33.954998],[131.158112,33.954998],[131.158025,33.955223],[131.157662,33.955281],[131.157625,33.955589],[131.1575,33.957639],[131.158575,33.961197],[131.158925,33.961214],[131.159837,33.961189],[131.160412,33.961147],[131.160924,33.961414],[131.161187,33.961347],[131.161274,33.961364],[131.161762,33.961656],[131.161949,33.961972],[131.162324,33.961839],[131.162599,33.962064],[131.162862,33.961947],[131.162649,33.961631],[131.162912,33.961472],[131.163262,33.961656],[131.163787,33.961856],[131.163374,33.962056],[131.163299,33.962122],[131.163487,33.962647],[131.164537,33.962239],[131.164587,33.962189],[131.164674,33.962281],[131.165974,33.962839],[131.167099,33.963172],[131.167299,33.963306],[131.167624,33.963239],[131.169611,33.963481],[131.169674,33.963589],[131.166487,33.964255],[131.166586,33.966122],[131.166561,33.966197],[131.166074,33.966172],[131.164374,33.966272],[131.164262,33.965414],[131.164199,33.964689],[131.163799,33.964539],[131.162874,33.964497],[131.161824,33.964539],[131.161124,33.96468],[131.160937,33.96468],[131.160649,33.964814],[131.160612,33.96488],[131.160674,33.965222],[131.160674,33.965763],[131.160912,33.968622],[131.161774,33.969721],[131.162187,33.97013],[131.162974,33.97053],[131.163649,33.970463],[131.166824,33.970496],[131.167449,33.970613],[131.172036,33.96923],[131.172224,33.969163],[131.172361,33.969097],[131.172549,33.969022],[131.172699,33.968963],[131.172836,33.969063],[131.172974,33.96913],[131.173061,33.969163],[131.173011,33.969272],[131.172949,33.96938],[131.172974,33.969513],[131.173011,33.969705],[131.173049,33.96993],[131.173036,33.97003],[131.172936,33.970072],[131.172661,33.970155],[131.172349,33.970172],[131.171886,33.97008],[131.171149,33.970338],[131.170811,33.970413],[131.167886,33.971371],[131.167961,33.971571],[131.168861,33.972855],[131.171049,33.972913],[131.171099,33.973346],[131.171448,33.973346],[131.173936,33.973088],[131.174198,33.973088],[131.174311,33.97428],[131.174536,33.97428],[131.174611,33.974729],[131.174598,33.975246],[131.173811,33.975371],[131.173823,33.975179],[131.173648,33.975179],[131.173648,33.975388],[131.172011,33.975529],[131.171761,33.975029],[131.171573,33.974963],[131.169786,33.974946],[131.169461,33.974971],[131.169411,33.975579],[131.169224,33.975646],[131.169261,33.975896],[131.169449,33.975963],[131.169236,33.977537],[131.169161,33.978329],[131.168649,33.978287],[131.168599,33.978171],[131.167836,33.977271],[131.167074,33.976463],[131.165336,33.974763],[131.164874,33.974296],[131.162074,33.973579],[131.161812,33.973538],[131.161312,33.977562],[131.161537,33.977796],[131.161674,33.977954],[131.165199,33.978079],[131.165211,33.978237],[131.165186,33.978321],[131.166874,33.978337],[131.167036,33.978537],[131.167111,33.978829],[131.166924,33.979054],[131.166336,33.979446],[131.165824,33.980004],[131.165049,33.98102],[131.161786,33.984953],[131.160924,33.985862],[131.160587,33.98647],[131.160799,33.987011],[131.160861,33.987053],[131.160886,33.987211],[131.162511,33.989436],[131.162786,33.989661],[131.163786,33.989995],[131.166836,33.991245],[131.168136,33.991853],[131.169873,33.992519],[131.169848,33.992794],[131.169873,33.993219],[131.169773,33.994594],[131.169811,33.996061],[131.169973,33.996777],[131.169948,33.996802],[131.169548,33.996669],[131.169348,33.996536],[131.168111,33.996669],[131.167973,33.996744],[131.166386,33.996877],[131.166623,33.996386],[131.167061,33.996177],[131.167186,33.995777],[131.167136,33.995078],[131.166973,33.994944],[131.166211,33.994628],[131.165536,33.994519],[131.164674,33.994203],[131.164211,33.994519],[131.163674,33.994452],[131.162736,33.994436],[131.162436,33.994302],[131.161811,33.993719],[131.161649,33.992911],[131.161186,33.992094],[131.160399,33.991653],[131.160261,33.991469],[131.160311,33.990861],[131.160249,33.990411],[131.160174,33.990278],[131.159962,33.990078],[131.158762,33.989586],[131.158249,33.989153],[131.157599,33.989019],[131.157249,33.989044],[131.157174,33.989094],[131.156712,33.989119],[131.155687,33.989303],[131.153437,33.990569],[131.149675,33.992852],[131.148412,33.993711],[131.14715,33.994435],[131.146425,33.994935],[131.146288,33.99521],[131.146338,33.995435],[131.147862,33.998335],[131.148,33.998668],[131.1486,33.999752],[131.150212,34.00281],[131.150475,34.00326],[131.150725,34.003868],[131.148225,34.004093],[131.145787,34.004276],[131.144375,34.003326],[131.134413,34.003384],[131.134413,34.003901],[131.133826,34.003926],[131.133613,34.003268],[131.133663,34.003259],[131.135026,34.00066],[131.134826,34.000576],[131.133888,34.00066],[131.133926,34.00001],[131.133764,33.99906],[131.133939,33.999026],[131.134563,33.998893],[131.134638,33.998818],[131.134526,33.998518],[131.134638,33.998543],[131.134651,33.997635],[131.134726,33.997427],[131.134863,33.99741],[131.135513,33.997427],[131.135726,33.997135],[131.138088,33.994735],[131.138776,33.993902],[131.139263,33.993069],[131.139551,33.99241],[131.139476,33.991711],[131.139526,33.991352],[131.138738,33.991427],[131.136176,33.991727],[131.135988,33.991727],[131.135501,33.991302],[131.134939,33.991369],[131.134239,33.991577],[131.134189,33.991619],[131.134301,33.992477],[131.133714,33.99356],[131.133039,33.994552],[131.132126,33.995993],[131.132101,33.996085],[131.132426,33.996668],[131.131439,33.99726],[131.131301,33.997393],[131.130601,33.997601],[131.129389,33.998301],[131.128614,33.998935],[131.127864,33.99961],[131.126489,34.000701],[131.125664,34.001218],[131.124964,34.001518],[131.124289,34.001993],[131.123777,34.002267],[131.123677,34.002334],[131.123314,34.002526],[131.122989,34.002726],[131.122714,34.002917],[131.122582,34.003021],[131.122427,34.002942],[131.122189,34.002892],[131.121752,34.002942],[131.121514,34.003259],[131.121264,34.003576],[131.120327,34.004884],[131.119415,34.005967],[131.118652,34.006509],[131.118327,34.006825],[131.11809,34.007167],[131.118015,34.0075],[131.117915,34.008583],[131.117802,34.009217],[131.11764,34.009667],[131.116977,34.010958],[131.11679,34.011425],[131.116652,34.012108],[131.116252,34.012583],[131.11604,34.013033],[131.115852,34.013575],[131.115577,34.0138],[131.115477,34.014024],[131.115502,34.014433],[131.11539,34.014658],[131.115177,34.014791],[131.113877,34.014474],[131.113715,34.014524],[131.110265,34.018024],[131.110402,34.019224],[131.107878,34.023307],[131.108365,34.024657],[131.10789,34.025382],[131.107153,34.026123],[131.106865,34.026665],[131.106803,34.02669],[131.106453,34.02669],[131.105428,34.027415],[131.105078,34.027681],[131.10464,34.02814],[131.104465,34.028748],[131.10409,34.029623],[131.103978,34.029673],[131.103415,34.030281],[131.102903,34.030706],[131.101765,34.031522],[131.10114,34.032039],[131.100553,34.032656],[131.099816,34.033197],[131.099228,34.033539],[131.097791,34.034214],[131.095841,34.035755],[131.095416,34.036022],[131.093491,34.036972],[131.092441,34.037405],[131.092079,34.037522],[131.091979,34.037472],[131.091141,34.037722],[131.090191,34.037488],[131.090304,34.036997],[131.090516,34.03673],[131.088966,34.036638],[131.088779,34.03683],[131.088429,34.03548],[131.088341,34.03548],[131.088054,34.035505],[131.087766,34.035555],[131.087454,34.035613],[131.087141,34.035663],[131.086941,34.035722],[131.086866,34.035872],[131.086866,34.035997],[131.087091,34.037272],[131.087191,34.037613],[131.086754,34.037888],[131.084942,34.037422],[131.085129,34.037922],[131.084492,34.037963],[131.083329,34.034047],[131.083167,34.033889],[131.082704,34.033914],[131.082117,34.034097],[131.081567,34.034347],[131.081142,34.03448],[131.080404,34.034797],[131.078942,34.035272],[131.076942,34.036021],[131.076017,34.036338],[131.074717,34.036746],[131.074155,34.036955],[131.073017,34.037296],[131.07158,34.037771],[131.070305,34.038129],[131.069443,34.038454],[131.068218,34.038813],[131.067843,34.038929],[131.067818,34.038946],[131.066793,34.039196],[131.065193,34.039679],[131.064593,34.039812],[131.064018,34.039754],[131.063931,34.039762],[131.063781,34.039579],[131.063681,34.039454],[131.063543,34.039404],[131.063368,34.039412],[131.063006,34.039471],[131.062768,34.039521],[131.062418,34.039546],[131.062268,34.039587],[131.062193,34.039654],[131.062243,34.039771],[131.062243,34.039829],[131.062281,34.039921],[131.062318,34.039987],[131.062293,34.040129],[131.061606,34.040271],[131.061556,34.040404],[131.061643,34.041154],[131.061106,34.041221],[131.060906,34.040429],[131.060206,34.040454],[131.060181,34.040429],[131.047457,34.042287],[131.046169,34.043487],[131.046107,34.043662],[131.046144,34.043845],[131.048294,34.047561],[131.047819,34.050486],[131.047394,34.050553],[131.046281,34.052386],[131.045956,34.052611],[131.043382,34.052977],[131.042607,34.054127],[131.042769,34.054194],[131.043032,34.054127],[131.043432,34.05746],[131.043065,34.057524],[131.043025,34.059509],[131.042882,34.061438],[131.043206,34.064434],[131.045095,34.068499],[131.047129,34.072419],[131.048436,34.075613],[131.049018,34.079533],[131.049599,34.083743],[131.050818,34.087557],[131.051093,34.087824],[131.051368,34.088115],[131.051368,34.08839],[131.051306,34.088657],[131.051368,34.089065],[131.051643,34.089807],[131.051943,34.090282],[131.052268,34.090573],[131.052718,34.090798],[131.05403,34.09129],[131.054193,34.091315],[131.05453,34.09129],[131.054855,34.091157],[131.05518,34.09109],[131.05543,34.09109],[131.055568,34.091248],[131.055818,34.092123],[131.055955,34.092398],[131.056205,34.092531],[131.056668,34.092548],[131.057468,34.09309],[131.05783,34.093206],[131.05838,34.093223],[131.059505,34.093381],[131.05958,34.093448],[131.059555,34.09359],[131.059367,34.093948],[131.059342,34.094215],[131.059367,34.094848],[131.05948,34.09514],[131.060167,34.095773],[131.060517,34.095973],[131.061042,34.096023],[131.061917,34.096265],[131.06318,34.096715],[131.06373,34.09694],[131.064317,34.097231],[131.064617,34.097456],[131.064967,34.097889],[131.065142,34.098198],[131.065329,34.098948],[131.065354,34.099981],[131.065217,34.101131],[131.065167,34.101897],[131.065529,34.10343],[131.065642,34.103589],[131.065829,34.10363],[131.066704,34.103739],[131.067529,34.103539],[131.067967,34.103564],[131.068716,34.10408],[131.069429,34.104305],[131.069816,34.104622],[131.070066,34.104689],[131.070416,34.104622],[131.070691,34.104531],[131.070916,34.104547],[131.071604,34.10518],[131.071954,34.105405],[131.072291,34.105764],[131.072616,34.106514],[131.072891,34.10658],[131.073354,34.106622],[131.074241,34.106914],[131.074678,34.106914],[131.075003,34.106797],[131.075341,34.106572],[131.075966,34.105964],[131.076541,34.105406],[131.077041,34.104639],[131.077366,34.104497],[131.078391,34.104406],[131.078578,34.104431],[131.078766,34.104589],[131.078941,34.104864],[131.079541,34.105422],[131.079928,34.105606],[131.080478,34.105739],[131.081003,34.105989],[131.081103,34.106072],[131.081415,34.106681],[131.081903,34.107197],[131.08204,34.107881],[131.08224,34.108147],[131.082653,34.108439],[131.08314,34.108689],[131.083503,34.108822],[131.084128,34.108914],[131.084515,34.109022],[131.084953,34.109206],[131.085153,34.109247],[131.08554,34.109406],[131.085915,34.109831],[131.085952,34.109814],[131.08639,34.11098],[131.086852,34.11188],[131.087165,34.112222],[131.087852,34.112514],[131.08834,34.112647],[131.088615,34.112805],[131.088865,34.113164],[131.088977,34.113505],[131.089027,34.113863],[131.089115,34.113997],[131.089327,34.114088],[131.08999,34.114022],[131.090564,34.113772],[131.090877,34.113797],[131.091202,34.113905],[131.091477,34.114197],[131.091564,34.114339],[131.091639,34.114605],[131.091664,34.114947],[131.091589,34.115305],[131.091564,34.115663],[131.091614,34.115913],[131.092552,34.116022],[131.092689,34.116113],[131.093264,34.11663],[131.093489,34.116905],[131.093564,34.117147],[131.093489,34.11758],[131.092939,34.11823],[131.092577,34.118546],[131.092439,34.118838],[131.092477,34.11893],[131.092752,34.119313],[131.092777,34.119446],[131.092664,34.119655],[131.092577,34.119921],[131.092664,34.120188],[131.092889,34.120463],[131.093077,34.120621],[131.092939,34.120913],[131.092614,34.121138],[131.092527,34.121229],[131.092252,34.121771],[131.092064,34.121904],[131.091702,34.121946],[131.091402,34.122021],[131.091077,34.122154],[131.090777,34.122488],[131.090802,34.122896],[131.091189,34.123637],[131.091714,34.124296],[131.091764,34.124562],[131.091739,34.124787],[131.092402,34.124879],[131.092589,34.124879],[131.093114,34.124812],[131.093439,34.124721],[131.093739,34.124721],[131.094326,34.124829],[131.094814,34.124671],[131.095664,34.124512],[131.096276,34.124471],[131.096576,34.124563],[131.096876,34.124696],[131.097314,34.124804],[131.097701,34.124854],[131.097926,34.124829],[131.098139,34.124696],[131.098639,34.124129],[131.098714,34.123879],[131.098714,34.123521],[131.098851,34.123254],[131.099051,34.123096],[131.099264,34.123021],[131.099701,34.123113],[131.099876,34.123096],[131.099926,34.122979],[131.100063,34.122938],[131.100313,34.123021],[131.100388,34.123088],[131.100638,34.123204],[131.100963,34.123246],[131.101238,34.123246],[131.101376,34.123179],[131.101376,34.12298],[131.101301,34.122663],[131.100663,34.121696],[131.100363,34.121446],[131.099926,34.121196],[131.099726,34.121021],[131.099676,34.120746],[131.099889,34.12003],[131.100226,34.119488],[131.100164,34.119147],[131.099976,34.118538],[131.100026,34.118272],[131.100364,34.117997],[131.101538,34.117072],[131.101863,34.116872],[131.102276,34.116689],[131.102663,34.11638],[131.102751,34.115972],[131.102851,34.115855],[131.103488,34.115589],[131.103788,34.115589],[131.104501,34.115789],[131.105438,34.115406],[131.106101,34.115272],[131.106288,34.115206],[131.106538,34.114997],[131.106676,34.114772],[131.106838,34.114256],[131.107063,34.113739],[131.107226,34.113489],[131.107388,34.113422],[131.107663,34.113397],[131.108075,34.113423],[131.1084,34.113489],[131.108675,34.113489],[131.108838,34.113423],[131.109063,34.113148],[131.1092,34.112273],[131.109138,34.111931],[131.109088,34.111823],[131.109063,34.111348],[131.10925,34.111189],[131.110263,34.110781],[131.110763,34.110623],[131.111563,34.110423],[131.111775,34.110331],[131.111938,34.110198],[131.11205,34.110015],[131.112,34.109815],[131.111888,34.109631],[131.111938,34.109231],[131.112025,34.109023],[131.11205,34.108798],[131.11255,34.108665],[131.113125,34.108548],[131.113288,34.108415],[131.11345,34.10799],[131.11345,34.107673],[131.113338,34.10729],[131.11285,34.10679],[131.112625,34.106482],[131.112488,34.106165],[131.112463,34.105982],[131.112488,34.105648],[131.112675,34.10504],[131.1126,34.104765],[131.1126,34.104565],[131.112838,34.104157],[131.112863,34.10389],[131.112813,34.103707],[131.112488,34.103374],[131.112175,34.102674],[131.1121,34.102582],[131.111463,34.102265],[131.111113,34.10204],[131.110751,34.101724],[131.110413,34.101165],[131.110276,34.100824],[131.110201,34.100015],[131.109976,34.099674],[131.109976,34.099274],[131.110088,34.099115],[131.110251,34.099049],[131.110751,34.098682],[131.111238,34.098282],[131.111926,34.098007],[131.112176,34.097757],[131.112313,34.097374],[131.112938,34.096274],[131.113513,34.096207],[131.113738,34.096141],[131.114088,34.095916],[131.114338,34.095824],[131.114588,34.095616],[131.115075,34.094941],[131.11555,34.094541],[131.115963,34.094358],[131.11645,34.093999],[131.116913,34.093499],[131.11725,34.093408],[131.117988,34.093475],[131.1184,34.093433],[131.118975,34.093208],[131.11955,34.092216],[131.1195,34.092033],[131.119338,34.091766],[131.119025,34.0914],[131.118863,34.091133],[131.118788,34.09055],[131.118838,34.090117],[131.118913,34.089875],[131.118888,34.08965],[131.118563,34.089083],[131.1184,34.088542],[131.11845,34.088317],[131.118525,34.088208],[131.1187,34.088092],[131.118938,34.08805],[131.1193,34.08805],[131.1198,34.088117],[131.120175,34.088225],[131.120862,34.088317],[131.121387,34.088292],[131.122125,34.088092],[131.122187,34.088042],[131.122425,34.087459],[131.122537,34.0873],[131.122675,34.087234],[131.122837,34.086967],[131.122875,34.086784],[131.122725,34.086584],[131.122762,34.086467],[131.1229,34.086375],[131.123112,34.086309],[131.123587,34.086267],[131.123725,34.086109],[131.123725,34.08595],[131.12345,34.085584],[131.123387,34.08545],[131.123362,34.084934],[131.123562,34.084667],[131.123725,34.084351],[131.123937,34.084167],[131.124025,34.084142],[131.1246,34.084301],[131.124712,34.084392],[131.12485,34.084367],[131.125237,34.084184],[131.12535,34.083917],[131.125212,34.083242],[131.125312,34.083017],[131.125762,34.082859],[131.126312,34.082726],[131.126725,34.082542],[131.126962,34.082267],[131.12735,34.082068],[131.127824,34.082043],[131.128649,34.081843],[131.128949,34.081843],[131.129112,34.081909],[131.129062,34.082176],[131.129024,34.082268],[131.128887,34.082451],[131.128787,34.082518],[131.128724,34.082676],[131.128887,34.083259],[131.129024,34.083484],[131.129612,34.083551],[131.129887,34.083734],[131.130237,34.084251],[131.130349,34.084676],[131.130374,34.085351],[131.130462,34.085601],[131.130574,34.085601],[131.131087,34.085467],[131.131674,34.085467],[131.132186,34.085642],[131.132499,34.085784],[131.133674,34.086051],[131.134661,34.085984],[131.134836,34.086026],[131.135186,34.086067],[131.135824,34.086276],[131.136298,34.086584],[131.136573,34.086726],[131.136911,34.086842],[131.138548,34.087151],[131.139236,34.087309],[131.139686,34.087534],[131.139898,34.087759],[131.140173,34.087942],[131.140561,34.088059],[131.141023,34.088434],[131.141223,34.088525],[131.141323,34.088509],[131.141773,34.088276],[131.141985,34.088117],[131.142148,34.088076],[131.142623,34.088142],[131.142973,34.088034],[131.143148,34.087876],[131.143285,34.087651],[131.143473,34.087442],[131.144048,34.087334],[131.144648,34.087259],[131.14581,34.087242],[131.146185,34.087309],[131.146273,34.087351],[131.146435,34.087551],[131.146497,34.088051],[131.14646,34.088501],[131.146297,34.089384],[131.146335,34.089767],[131.14641,34.090059],[131.146385,34.090392],[131.146472,34.090734],[131.146747,34.091025],[131.147072,34.09125],[131.14721,34.091292],[131.147697,34.091359],[131.14866,34.091342],[131.14921,34.091384],[131.149597,34.091342],[131.150235,34.0912],[131.15051,34.091267],[131.151084,34.091334],[131.151634,34.091267],[131.152047,34.09125],[131.152784,34.091359],[131.153197,34.091334],[131.153584,34.0912],[131.154209,34.09075],[131.155034,34.090342],[131.155647,34.090117],[131.156297,34.089576],[131.156522,34.089509],[131.156634,34.089509],[131.157946,34.089826],[131.158446,34.090067],[131.159021,34.090434],[131.159071,34.090701],[131.159046,34.092075],[131.159271,34.092209],[131.159571,34.092259],[131.159759,34.092342],[131.159846,34.09255],[131.159871,34.093092],[131.160034,34.0932],[131.160171,34.0932],[131.161134,34.092817],[131.161709,34.092659],[131.162071,34.092659],[131.162921,34.092925],[131.163221,34.092884],[131.164321,34.092542],[131.164408,34.092542],[131.164621,34.092634],[131.164958,34.093784],[131.165146,34.094142],[131.165283,34.094509],[131.165483,34.094867],[131.165671,34.094959],[131.165921,34.095],[131.165946,34.094975],[131.166521,34.095067],[131.167346,34.095292],[131.167546,34.0954],[131.167571,34.096192],[131.167683,34.096625],[131.167895,34.09705],[131.168558,34.097658],[131.168645,34.097925],[131.16867,34.098292],[131.168783,34.098558],[131.169383,34.099591],[131.17027,34.102408],[131.170407,34.103383],[131.170345,34.104166],[131.17027,34.104458],[131.170507,34.104757],[131.170895,34.105049],[131.170895,34.105357],[131.17082,34.105832],[131.170895,34.106082],[131.171257,34.106574],[131.171332,34.106807],[131.17202,34.107682],[131.17227,34.107865],[131.172707,34.108065],[131.173457,34.10849],[131.173919,34.108849],[131.174032,34.109007],[131.173407,34.109932],[131.173294,34.110274],[131.173482,34.111057],[131.173482,34.111215],[131.173844,34.111623],[131.174507,34.112032],[131.175194,34.112723],[131.175407,34.112865],[131.175819,34.112907],[131.176157,34.112998],[131.176807,34.113448],[131.177632,34.11369],[131.177994,34.113915],[131.178381,34.114073],[131.178894,34.114207],[131.178981,34.114282],[131.179144,34.114523],[131.179094,34.114931],[131.179119,34.115248],[131.179481,34.116215],[131.179594,34.116398],[131.180031,34.117548],[131.180006,34.11759],[131.180831,34.118198],[131.181069,34.118306],[131.181294,34.118331],[131.181706,34.118306],[131.182256,34.118331],[131.182806,34.118439],[131.183194,34.118623],[131.183306,34.118914],[131.183519,34.119048],[131.183994,34.119189],[131.184506,34.119389],[131.184543,34.119431],[131.184781,34.119523],[131.184918,34.119481],[131.185331,34.119114],[131.185668,34.119048],[131.186106,34.119164],[131.186543,34.119339],[131.187206,34.119473],[131.188006,34.119589],[131.188693,34.119589],[131.189481,34.119498],[131.189931,34.119473],[131.190168,34.119431],[131.190693,34.119181],[131.190831,34.118906],[131.190806,34.118681],[131.190643,34.118215],[131.190418,34.117873],[131.190468,34.11749],[131.190718,34.11729],[131.191106,34.117198],[131.191656,34.117131],[131.192393,34.117081],[131.193143,34.116815],[131.193606,34.116698],[131.194068,34.116656],[131.194231,34.116698],[131.194431,34.117123],[131.194706,34.117281],[131.194981,34.117331],[131.195468,34.117265],[131.196106,34.11699],[131.196243,34.116898],[131.196818,34.116698],[131.197181,34.116606],[131.197831,34.116381],[131.198443,34.116248],[131.198931,34.116173],[131.199106,34.116223],[131.199406,34.116398],[131.199656,34.116606],[131.199731,34.116623],[131.200006,34.116623],[131.200581,34.116356],[131.200993,34.116306],[131.201606,34.116306],[131.202343,34.116356],[131.202868,34.116331],[131.203493,34.11599],[131.20388,34.115898],[131.204518,34.115973],[131.204868,34.115948],[131.20553,34.115965],[131.205805,34.116056],[131.20633,34.116123],[131.206543,34.116081],[131.206655,34.116015],[131.207293,34.115873],[131.207918,34.115923],[131.208255,34.115873],[131.208505,34.115648],[131.208768,34.115265],[131.209455,34.11414],[131.209893,34.113715],[131.21023,34.113307],[131.210668,34.113798],[131.210993,34.114007],[131.211993,34.114457],[131.212593,34.11479],[131.213143,34.115148],[131.213442,34.115648],[131.213555,34.116048],[131.213667,34.116298],[131.213992,34.116523],[131.21413,34.116798],[131.214167,34.117265],[131.214267,34.117715],[131.21463,34.118573],[131.214742,34.119115],[131.21483,34.120064],[131.214967,34.120081],[131.215979,34.119881],[131.217604,34.119606],[131.218292,34.119448],[131.218804,34.119406],[131.219767,34.119648],[131.220217,34.119831],[131.220429,34.120056],[131.220729,34.120464],[131.221554,34.121364],[131.221916,34.121656],[131.222254,34.122056],[131.222629,34.122423],[131.223079,34.122664],[131.223766,34.122889],[131.224204,34.122981],[131.224416,34.122981],[131.224966,34.122889],[131.225354,34.122664],[131.225679,34.122281],[131.225929,34.122173],[131.226291,34.122123],[131.227054,34.122239],[131.227579,34.122389],[131.229116,34.123114],[131.229666,34.123223],[131.230216,34.123248],[131.230578,34.123289],[131.230666,34.123448],[131.230903,34.124331],[131.231153,34.124731],[131.231453,34.124981],[131.231866,34.125231],[131.232278,34.125431],[131.23314,34.125631],[131.233415,34.125814],[131.233515,34.125922],[131.23374,34.126306],[131.233965,34.126597],[131.23424,34.126689],[131.234815,34.126731],[131.236265,34.126689],[131.237015,34.126797],[131.237403,34.126956],[131.237703,34.127206],[131.23759,34.127497],[131.23724,34.128081],[131.236902,34.13018],[131.236965,34.130605],[131.23744,34.132272],[131.23754,34.132864],[131.237577,34.133422],[131.237552,34.135138],[131.237577,34.135922],[131.237665,34.136663],[131.23774,34.136738],[131.23854,34.136872],[131.23884,34.13698],[131.238977,34.137272],[131.239064,34.138155],[131.239227,34.138713],[131.239452,34.138938],[131.240327,34.139296],[131.240639,34.139505],[131.240939,34.139955],[131.241289,34.140921],[131.241464,34.141255],[131.241814,34.141188],[131.242389,34.140988],[131.243464,34.140763],[131.245039,34.14033],[131.245639,34.140063],[131.245964,34.139838],[131.246127,34.139655],[131.246352,34.139722],[131.246677,34.13988],[131.246902,34.14008],[131.247089,34.14033],[131.247177,34.140688],[131.247289,34.141572],[131.247427,34.142022],[131.247598,34.142093],[131.248026,34.142297],[131.249101,34.142497],[131.249589,34.142522],[131.250501,34.142855],[131.251189,34.143422],[131.251464,34.143738],[131.251789,34.144005],[131.251876,34.14403],[131.252064,34.14398],[131.252476,34.143963],[131.252939,34.14398],[131.253464,34.144097],[131.253989,34.144272],[131.254426,34.144522],[131.254726,34.144788],[131.254951,34.14493],[131.255251,34.144997],[131.255688,34.14493],[131.256351,34.144655],[131.256713,34.144338],[131.257063,34.143913],[131.257751,34.143189],[131.258063,34.142989],[131.258388,34.142922],[131.259026,34.142605],[131.259463,34.142197],[131.259651,34.141839],[131.259838,34.14168],[131.260151,34.141589],[131.260313,34.141589],[131.261188,34.141205],[131.262676,34.140139],[131.262901,34.140072],[131.263388,34.140139],[131.2649,34.140681],[131.265925,34.141156],[131.266438,34.141172],[131.266638,34.141131],[131.26705,34.141106],[131.2673,34.141131],[131.26785,34.141514],[131.268525,34.141597],[131.269213,34.141597],[131.269938,34.141514],[131.271363,34.141264],[131.272275,34.141189],[131.273125,34.141173],[131.273837,34.141256],[131.274275,34.141414],[131.27475,34.141689],[131.275237,34.142089],[131.275625,34.142523],[131.276062,34.142922],[131.277225,34.144114],[131.277825,34.144972],[131.278075,34.145514],[131.27805,34.146056],[131.27785,34.146664],[131.277737,34.147114],[131.27785,34.148039],[131.277475,34.148939],[131.277337,34.149639],[131.277362,34.149997],[131.277575,34.150364],[131.278399,34.151122],[131.278899,34.151347],[131.279837,34.15198],[131.280187,34.152389],[131.280574,34.152922],[131.281537,34.154455],[131.282037,34.155472],[131.282637,34.157113],[131.282999,34.158805],[131.283799,34.161371],[131.283911,34.161846],[131.284761,34.16128],[131.285224,34.161146],[131.286024,34.161305],[131.286686,34.16153],[131.287424,34.162005],[131.287536,34.162005],[131.288061,34.161888],[131.288636,34.161705],[131.289074,34.161663],[131.289211,34.162047],[131.289211,34.162496],[131.289324,34.162896],[131.289461,34.163171],[131.290423,34.16403],[131.290673,34.164321],[131.290698,34.164588],[131.290786,34.164813],[131.291036,34.164996],[131.291361,34.165088],[131.291861,34.16513],[131.292048,34.165288],[131.292273,34.165555],[131.292461,34.165671],[131.292711,34.165755],[131.292961,34.165938],[131.293448,34.16648],[131.293811,34.166705],[131.294335,34.166613],[131.295185,34.166205],[131.295323,34.166046],[131.29551,34.165713],[131.295573,34.165688],[131.29576,34.165688],[131.296423,34.165755],[131.296748,34.165755],[131.297085,34.165638],[131.29741,34.165372],[131.29791,34.165097],[131.298235,34.164963],[131.298485,34.165013],[131.29936,34.165505],[131.299585,34.16548],[131.300023,34.165322],[131.30091,34.165138],[131.301422,34.165072],[131.301735,34.165122],[131.302247,34.165388],[131.302772,34.165497],[131.303622,34.165547],[131.30371,34.165522],[131.304235,34.165138],[131.304885,34.164255],[131.30591,34.163355],[131.306047,34.162997],[131.306322,34.162905],[131.306672,34.16293],[131.307059,34.163089],[131.307197,34.163089],[131.307584,34.162947],[131.307884,34.16288],[131.308159,34.162905],[131.308272,34.162089],[131.308547,34.16223],[131.308959,34.162497],[131.309147,34.162522],[131.309509,34.162089],[131.309897,34.161755],[131.310797,34.161147],[131.312034,34.161547],[131.314071,34.162422],[131.314596,34.162672],[131.315884,34.163097],[131.316271,34.16328],[131.316384,34.163372],[131.316634,34.16368],[131.316934,34.16418],[131.317096,34.164539],[131.317096,34.164789],[131.316796,34.165055],[131.315996,34.165263],[131.315696,34.165397],[131.315534,34.165755],[131.315396,34.166588],[131.315784,34.166638],[131.316246,34.166772],[131.316546,34.166972],[131.316933,34.166997],[131.318146,34.16688],[131.318396,34.166813],[131.318258,34.166388],[131.318196,34.166272],[131.318233,34.16598],[131.318608,34.165572],[131.318808,34.165214],[131.318883,34.164922],[131.319058,34.164605],[131.319158,34.164514],[131.319546,34.164555],[131.319683,34.164172],[131.319771,34.164064],[131.320071,34.16388],[131.320733,34.163839],[131.321358,34.16388],[131.321496,34.163772],[131.322158,34.162889],[131.322571,34.162439],[131.323171,34.161872],[131.32367,34.161647],[131.324245,34.161514],[131.324795,34.161331],[131.32507,34.161172],[131.32502,34.160881],[131.32502,34.160539],[131.324958,34.160364],[131.324746,34.160181],[131.324408,34.159597],[131.324133,34.159506],[131.323883,34.159464],[131.323671,34.159372],[131.322871,34.158472],[131.322596,34.158022],[131.322258,34.157614],[131.322121,34.157573],[131.321408,34.156989],[131.321271,34.156764],[131.321358,34.156581],[131.321771,34.156156],[131.321733,34.155906],[131.320884,34.155339],[131.320609,34.155031],[131.320396,34.154573],[131.319871,34.153923],[131.318571,34.152706],[131.318021,34.152281],[131.317671,34.151898],[131.317422,34.15149],[131.317422,34.151381],[131.317772,34.150881],[131.318109,34.150523],[131.318546,34.150256],[131.318796,34.150248],[131.319009,34.150365],[131.319371,34.150723],[131.320284,34.151331],[131.320421,34.151398],[131.320971,34.151531],[131.321959,34.151965],[131.322346,34.152048],[131.323109,34.151848],[131.324458,34.151823],[131.325121,34.151706],[131.325308,34.151598],[131.325633,34.151173],[131.325833,34.150423],[131.326183,34.150131],[131.326571,34.150065],[131.327896,34.149932],[131.328358,34.149998],[131.328608,34.150082],[131.328858,34.150398],[131.329046,34.150465],[131.329271,34.150423],[131.329483,34.15029],[131.330283,34.149523],[131.330608,34.14929],[131.331108,34.149182],[131.331633,34.149132],[131.332021,34.149023],[131.332071,34.148973],[131.332208,34.148707],[131.332296,34.14844],[131.332421,34.148165],[131.332621,34.148032],[131.332971,34.147915],[131.333221,34.147673],[131.333383,34.147398],[131.333558,34.147015],[131.333908,34.146724],[131.334408,34.146449],[131.334983,34.146182],[131.33602,34.145932],[131.33652,34.145907],[131.337395,34.145707],[131.338358,34.14579],[131.338445,34.145774],[131.338445,34.145482],[131.338633,34.145074],[131.33907,34.144874],[131.340258,34.144465],[131.340308,34.144307],[131.340008,34.14399],[131.34007,34.143699],[131.340308,34.143182],[131.34042,34.142732],[131.340445,34.142232],[131.340533,34.141982],[131.341058,34.141666],[131.34152,34.140357],[131.341545,34.140091],[131.341633,34.139841],[131.342345,34.139841],[131.343108,34.139891],[131.343608,34.139841],[131.344483,34.139391],[131.345508,34.139183],[131.345945,34.138916],[131.346433,34.138174],[131.34687,34.137874],[131.347208,34.137516],[131.34742,34.137341],[131.347758,34.137249],[131.34827,34.1372],[131.348407,34.137291],[131.348545,34.137474],[131.348557,34.137558],[131.34872,34.137783],[131.34897,34.137899],[131.349407,34.137991],[131.349982,34.138008],[131.350807,34.138141],[131.351332,34.138366],[131.352045,34.138974],[131.352407,34.139341],[131.352507,34.139724],[131.35257,34.139808],[131.353032,34.139808],[131.353282,34.139716],[131.353445,34.139358],[131.353507,34.139133],[131.354432,34.139333],[131.354707,34.139583],[131.354844,34.139783],[131.355807,34.139624],[131.356007,34.139674],[131.356257,34.139899],[131.356632,34.140033],[131.356807,34.140058],[131.356907,34.140008],[131.357132,34.139624],[131.357407,34.139491],[131.358444,34.139333],[131.358694,34.139108],[131.358919,34.138766],[131.359307,34.138408],[131.359744,34.138158],[131.360044,34.138158],[131.360207,34.138208],[131.360594,34.13845],[131.360757,34.138883],[131.360957,34.139241],[131.361507,34.139783],[131.361919,34.139983],[131.362769,34.140633],[131.363094,34.140524],[131.363206,34.140458],[131.363456,34.140183],[131.363594,34.139758],[131.363806,34.138716],[131.364031,34.138475],[131.364419,34.138175],[131.365044,34.137775],[131.366119,34.137208],[131.366444,34.137158],[131.366831,34.1373],[131.368019,34.1379],[131.368206,34.137925],[131.368431,34.13775],[131.368731,34.137658],[131.369119,34.137741],[131.369531,34.137791]]],"type":"Polygon"},"properties":{"kuni":"長門","id":"G56005","kuni_url":"/kg/resource/K56.html","id_url":"G56005.html","kuni_id":"K56","pref":"山口県","name":"厚狭","yomi":"あつさ・あさ"}}],"type":"FeatureCollection"}