{"type":"FeatureCollection","features":[{"type":"Feature","geometry":{"coordinates":[[[131.112491,34.409092],[131.112866,34.409108],[131.114303,34.409433],[131.114753,34.409767],[131.115228,34.409933],[131.115291,34.410092],[131.115141,34.410233],[131.114991,34.410425],[131.115078,34.410542],[131.115253,34.4106],[131.115353,34.410583],[131.115466,34.410867],[131.115803,34.411008],[131.116065,34.411017],[131.116353,34.410925],[131.116578,34.411017],[131.11674,34.411008],[131.11699,34.411258],[131.116903,34.411417],[131.116978,34.411583],[131.117478,34.411675],[131.117565,34.411642],[131.117528,34.411542],[131.117365,34.411383],[131.117965,34.411408],[131.118015,34.41145],[131.117978,34.411483],[131.118103,34.411575],[131.118278,34.411558],[131.118565,34.411458],[131.118953,34.4112],[131.119128,34.411175],[131.11939,34.411192],[131.119615,34.411167],[131.11994,34.410975],[131.120078,34.410933],[131.120515,34.411042],[131.120828,34.411025],[131.121015,34.410983],[131.121178,34.411],[131.12134,34.411475],[131.121303,34.411717],[131.121353,34.411792],[131.121428,34.411825],[131.12159,34.411583],[131.121628,34.411458],[131.121728,34.411442],[131.121753,34.411467],[131.12169,34.4116],[131.12159,34.411658],[131.121565,34.411717],[131.12164,34.411783],[131.121765,34.411808],[131.122028,34.411433],[131.122115,34.411433],[131.122202,34.4115],[131.122265,34.41165],[131.122365,34.411583],[131.122552,34.411242],[131.1226,34.411105],[131.122965,34.411267],[131.123302,34.411517],[131.123377,34.411542],[131.12374,34.411542],[131.123515,34.411833],[131.123465,34.411967],[131.123627,34.412125],[131.123965,34.411783],[131.12434,34.411492],[131.124702,34.411383],[131.125252,34.411375],[131.126027,34.4116],[131.126627,34.411717],[131.126714,34.411783],[131.126952,34.411875],[131.127089,34.411967],[131.127014,34.412458],[131.127039,34.412483],[131.127452,34.412367],[131.127639,34.412033],[131.127864,34.412033],[131.128164,34.4121],[131.128464,34.412208],[131.128802,34.412433],[131.128989,34.412708],[131.129189,34.413133],[131.129152,34.41345],[131.128877,34.413992],[131.128989,34.414258],[131.129152,34.41415],[131.129264,34.414125],[131.129264,34.414308],[131.129152,34.414733],[131.129214,34.414758],[131.129427,34.414691],[131.129564,34.41455],[131.129839,34.414458],[131.129927,34.414533],[131.129951,34.414733],[131.129651,34.41545],[131.129489,34.415791],[131.129189,34.41615],[131.129326,34.416175],[131.129651,34.416108],[131.129239,34.416833],[131.129076,34.416966],[131.129014,34.417074],[131.129076,34.417299],[131.129289,34.417641],[131.129464,34.417774],[131.129764,34.417416],[131.129901,34.417483],[131.130064,34.417641],[131.130289,34.417774],[131.130701,34.417841],[131.131576,34.417749],[131.132176,34.417275],[131.132264,34.417141],[131.132289,34.417008],[131.132176,34.41685],[131.132176,34.416758],[131.132401,34.41635],[131.132401,34.416108],[131.132239,34.415925],[131.131939,34.41595],[131.131576,34.416041],[131.131626,34.41595],[131.131851,34.415858],[131.131989,34.415658],[131.132039,34.415633],[131.131739,34.4155],[131.131489,34.41545],[131.131251,34.415158],[131.131164,34.414825],[131.131164,34.414508],[131.131526,34.414058],[131.131326,34.4134],[131.131351,34.413358],[131.131801,34.413333],[131.131489,34.412817],[131.131489,34.412408],[131.131139,34.411733],[131.131052,34.41135],[131.131252,34.410809],[131.131352,34.4107],[131.131464,34.410967],[131.131577,34.410992],[131.131689,34.410942],[131.131764,34.410809],[131.131802,34.410584],[131.131764,34.410425],[131.132489,34.410559],[131.132514,34.41045],[131.132426,34.409817],[131.132426,34.4095],[131.132514,34.409342],[131.132764,34.409209],[131.133801,34.408934],[131.133914,34.408776],[131.134164,34.408167],[131.134439,34.408034],[131.134901,34.407876],[131.135151,34.407651],[131.135476,34.407292],[131.135701,34.407109],[131.135889,34.407067],[131.136089,34.407151],[131.136164,34.407267],[131.136251,34.407242],[131.136301,34.407042],[131.136026,34.406026],[131.135751,34.405326],[131.135814,34.405168],[131.136026,34.405168],[131.136301,34.405218],[131.136439,34.404851],[131.136501,34.404384],[131.136801,34.404401],[131.136914,34.404334],[131.137214,34.403884],[131.137376,34.403568],[131.137601,34.403276],[131.138039,34.403026],[131.138389,34.40251],[131.138614,34.40206],[131.138939,34.401043],[131.139114,34.400702],[131.139439,34.400543],[131.139576,34.400435],[131.139689,34.400077],[131.139714,34.399193],[131.139689,34.398877],[131.139551,34.39856],[131.138914,34.398227],[131.138701,34.398044],[131.138589,34.397819],[131.138664,34.397527],[131.138801,34.397235],[131.139239,34.396535],[131.139414,34.396152],[131.139514,34.395661],[131.139489,34.395519],[131.139351,34.395277],[131.139076,34.395002],[131.138039,34.394602],[131.138001,34.394602],[131.138064,34.394552],[131.138114,34.394286],[131.137951,34.393852],[131.137264,34.392861],[131.138339,34.392436],[131.137564,34.391061],[131.136714,34.391419],[131.136827,34.391286],[131.136989,34.390994],[131.137839,34.390028],[131.139851,34.388328],[131.140676,34.387703],[131.141051,34.387362],[131.141364,34.386937],[131.141464,34.38662],[131.141739,34.386528],[131.142151,34.38592],[131.142239,34.385853],[131.142014,34.385403],[131.141989,34.385087],[131.142051,34.38477],[131.142464,34.384704],[131.142601,34.384387],[131.143039,34.384337],[131.143151,34.38372],[131.143064,34.38297],[131.143226,34.382695],[131.143314,34.382745],[131.143526,34.38272],[131.143589,34.382604],[131.143614,34.382196],[131.143476,34.382037],[131.143476,34.381862],[131.143139,34.381454],[131.142839,34.381187],[131.142839,34.381071],[131.143451,34.380371],[131.143889,34.380237],[131.144214,34.380196],[131.144601,34.380196],[131.145101,34.380346],[131.145176,34.380504],[131.145588,34.380754],[131.145838,34.380796],[131.146113,34.380796],[131.146413,34.380754],[131.146751,34.380663],[131.146938,34.380571],[131.147101,34.380796],[131.147263,34.380929],[131.147401,34.380979],[131.148063,34.380704],[131.148113,34.380704],[131.148251,34.380771],[131.148501,34.380704],[131.148663,34.380546],[131.148801,34.380304],[131.148913,34.379988],[131.148938,34.379738],[131.149051,34.379579],[131.149138,34.379538],[131.149276,34.379646],[131.149388,34.379763],[131.149463,34.379763],[131.149688,34.379329],[131.149713,34.378838],[131.149488,34.378563],[131.149551,34.37843],[131.149763,34.378338],[131.150038,34.378363],[131.150101,34.378455],[131.150288,34.378521],[131.150651,34.378538],[131.150763,34.378455],[131.150926,34.378155],[131.150976,34.37818],[131.151088,34.37838],[131.151338,34.378363],[131.151338,34.378071],[131.151525,34.377663],[131.151713,34.377663],[131.15185,34.377613],[131.151913,34.377505],[131.151888,34.377346],[131.151663,34.377055],[131.151413,34.376963],[131.151363,34.376896],[131.151525,34.376713],[131.151576,34.376488],[131.151388,34.376472],[131.151276,34.376355],[131.151388,34.376238],[131.151688,34.376288],[131.15175,34.376197],[131.151576,34.375788],[131.151388,34.37568],[131.151476,34.375563],[131.151688,34.375497],[131.151851,34.375405],[131.152188,34.375047],[131.152438,34.374663],[131.152538,34.374305],[131.152625,34.374213],[131.1529,34.37403],[131.153125,34.37358],[131.153425,34.37313],[131.153938,34.37293],[131.155213,34.372564],[131.156175,34.372364],[131.157188,34.372222],[131.158975,34.372222],[131.159875,34.372247],[131.160287,34.372181],[131.160737,34.372197],[131.1618,34.372314],[131.162687,34.372064],[131.16345,34.372014],[131.164024,34.372014],[131.165399,34.372131],[131.167462,34.372464],[131.167962,34.372581],[131.169037,34.372914],[131.169636,34.373073],[131.171949,34.373948],[131.172436,34.374106],[131.174174,34.374872],[131.174911,34.375347],[131.175223,34.375747],[131.176323,34.376856],[131.176398,34.377081],[131.176648,34.377372],[131.176898,34.377572],[131.177036,34.377639],[131.177311,34.377706],[131.177586,34.377706],[131.177723,34.377614],[131.177861,34.377122],[131.177823,34.376914],[131.177523,34.376489],[131.177273,34.376289],[131.177223,34.376289],[131.177173,34.376106],[131.177273,34.376064],[131.177223,34.375656],[131.177411,34.375231],[131.178048,34.375314],[131.178161,34.376489],[131.178573,34.376489],[131.178573,34.375839],[131.178961,34.375856],[131.178961,34.375722],[131.179261,34.375697],[131.179398,34.375747],[131.179373,34.376531],[131.179311,34.376647],[131.179148,34.376714],[131.178186,34.376914],[131.178073,34.377097],[131.178248,34.377597],[131.180985,34.377372],[131.181023,34.377389],[131.18111,34.377422],[131.181273,34.377522],[131.181073,34.377489],[131.181273,34.378131],[131.18141,34.378139],[131.181548,34.378214],[131.181623,34.378705],[131.18336,34.378622],[131.185285,34.380497],[131.188135,34.38058],[131.18891,34.38128],[131.190284,34.382497],[131.191022,34.383397],[131.191909,34.384705],[131.192297,34.385196],[131.192871,34.386096],[131.193196,34.386505],[131.193784,34.387471],[131.194409,34.388346],[131.194609,34.388663],[131.195384,34.390921],[131.195958,34.392495],[131.196871,34.395128],[131.197171,34.39632],[131.197421,34.396862],[131.197696,34.397111],[131.197996,34.397286],[131.198871,34.397428],[131.19987,34.39747],[131.20052,34.39627],[131.20132,34.396387],[131.20137,34.395845],[131.200608,34.395737],[131.200746,34.394137],[131.200608,34.394112],[131.200608,34.393229],[131.200246,34.393229],[131.200133,34.392396],[131.200683,34.392462],[131.200658,34.392621],[131.201233,34.393054],[131.201346,34.392329],[131.200821,34.392262],[131.201558,34.389696],[131.201421,34.389379],[131.201233,34.389354],[131.201833,34.388388],[131.202358,34.387663],[131.202521,34.38753],[131.202271,34.387421],[131.202496,34.386971],[131.202683,34.386671],[131.204608,34.384622],[131.205096,34.38413],[131.205458,34.384122],[131.206583,34.383222],[131.206471,34.383114],[131.207246,34.382522],[131.207708,34.382097],[131.207983,34.381689],[131.208895,34.380631],[131.209033,34.380273],[131.209058,34.379864],[131.20897,34.379231],[131.208921,34.378939],[131.208696,34.378689],[131.208258,34.378581],[131.208096,34.378923],[131.207983,34.379089],[131.206783,34.378789],[131.206758,34.379064],[131.206571,34.379039],[131.206483,34.378956],[131.206471,34.378698],[131.206421,34.378673],[131.206583,34.378223],[131.206333,34.378198],[131.205858,34.377431],[131.205996,34.376806],[131.206196,34.376848],[131.206246,34.376556],[131.206083,34.376423],[131.206221,34.37624],[131.205583,34.37559],[131.205446,34.375748],[131.205283,34.375698],[131.205171,34.375223],[131.205196,34.374756],[131.205446,34.374373],[131.205784,34.374031],[131.206684,34.373423],[131.207184,34.373265],[131.207398,34.373172],[131.208196,34.372815],[131.208858,34.372657],[131.209296,34.372565],[131.209708,34.372407],[131.210283,34.37209],[131.210946,34.37164],[131.213558,34.37119],[131.214046,34.371207],[131.214621,34.371032],[131.214596,34.370915],[131.215808,34.370799],[131.216358,34.370849],[131.216358,34.371049],[131.216571,34.371024],[131.216608,34.37134],[131.216908,34.37134],[131.216883,34.370982],[131.217158,34.370982],[131.217183,34.371074],[131.217133,34.371773],[131.217233,34.372082],[131.217483,34.372357],[131.217708,34.372673],[131.218645,34.37359],[131.218833,34.373682],[131.218995,34.373707],[131.219108,34.373798],[131.21927,34.374132],[131.21952,34.374407],[131.220095,34.374873],[131.220458,34.375123],[131.220595,34.37524],[131.222995,34.377981],[131.223757,34.378615],[131.223682,34.378748],[131.224332,34.37904],[131.224445,34.378615],[131.22477,34.378473],[131.225107,34.379131],[131.225157,34.379331],[131.225107,34.379398],[131.224745,34.379464],[131.22442,34.379623],[131.224007,34.380031],[131.223845,34.380348],[131.22382,34.380823],[131.223895,34.381523],[131.22387,34.382106],[131.223707,34.382172],[131.223245,34.383006],[131.222607,34.383522],[131.222395,34.383797],[131.222332,34.38413],[131.22237,34.384722],[131.222395,34.384789],[131.222307,34.385255],[131.222145,34.385305],[131.22207,34.38528],[131.221407,34.385305],[131.221207,34.385422],[131.221045,34.385689],[131.22107,34.385889],[131.221157,34.386072],[131.22127,34.38618],[131.22132,34.38618],[131.221432,34.386255],[131.221457,34.386322],[131.221657,34.386389],[131.22187,34.386405],[131.222145,34.386339],[131.222282,34.386164],[131.222307,34.386072],[131.222557,34.386022],[131.222807,34.386047],[131.223107,34.386139],[131.223544,34.386455],[131.223794,34.386747],[131.223957,34.387063],[131.224019,34.387555],[131.223907,34.388322],[131.223882,34.388997],[131.223832,34.389271],[131.223557,34.389446],[131.223332,34.389563],[131.223169,34.38988],[131.223169,34.390121],[131.223332,34.39033],[131.223532,34.390421],[131.223669,34.39028],[131.223907,34.390371],[131.224244,34.390621],[131.224407,34.390846],[131.224607,34.391471],[131.224632,34.39168],[131.224607,34.391996],[131.224657,34.392263],[131.224769,34.392354],[131.224819,34.392354],[131.224882,34.392488],[131.225019,34.392604],[131.225119,34.392804],[131.225019,34.393071],[131.225069,34.393188],[131.225594,34.393163],[131.225732,34.393071],[131.225869,34.393096],[131.226219,34.392963],[131.226444,34.392529],[131.227269,34.391746],[131.227207,34.391405],[131.227344,34.39098],[131.227519,34.39073],[131.227594,34.390663],[131.227844,34.390096],[131.227869,34.389938],[131.227982,34.389713],[131.228669,34.389238],[131.229457,34.388763],[131.229819,34.388655],[131.230094,34.388655],[131.230507,34.388813],[131.231244,34.389013],[131.231469,34.388988],[131.231694,34.389238],[131.232107,34.389505],[131.232494,34.389713],[131.232731,34.389913],[131.233456,34.390705],[131.233806,34.39093],[131.234444,34.391105],[131.234881,34.39113],[131.235406,34.391063],[131.235519,34.39108],[131.235756,34.390988],[131.236031,34.390788],[131.236231,34.390497],[131.236394,34.389863],[131.236831,34.389322],[131.237156,34.388938],[131.237056,34.38883],[131.237219,34.388622],[131.237631,34.388264],[131.237931,34.388064],[131.238069,34.388039],[131.238206,34.388105],[131.238319,34.38808],[131.238506,34.387855],[131.238481,34.387722],[131.238394,34.387697],[131.238456,34.387589],[131.238969,34.387339],[131.239081,34.387314],[131.239081,34.387405],[131.239219,34.387472],[131.239406,34.387472],[131.239656,34.387364],[131.239744,34.387247],[131.240344,34.38693],[131.240706,34.386905],[131.240894,34.386864],[131.240981,34.386889],[131.241231,34.386822],[131.241281,34.386772],[131.241281,34.386455],[131.241394,34.386255],[131.241744,34.386031],[131.242131,34.385064],[131.242519,34.384747],[131.242569,34.384364],[131.242569,34.384181],[131.242794,34.383956],[131.243619,34.383756],[131.243994,34.383614],[131.244381,34.383439],[131.244744,34.383348],[131.245181,34.383373],[131.245706,34.383439],[131.246419,34.383839],[131.246581,34.383906],[131.246744,34.383864],[131.247244,34.383656],[131.247244,34.383506],[131.247381,34.383189],[131.247381,34.382981],[131.247069,34.382331],[131.247019,34.382106],[131.247044,34.381973],[131.247632,34.381789],[131.247794,34.381714],[131.247957,34.381639],[131.248094,34.381523],[131.248219,34.381489],[131.248357,34.381506],[131.248582,34.381506],[131.248869,34.381556],[131.249032,34.381539],[131.249057,34.381606],[131.249094,34.381989],[131.249706,34.382006],[131.249782,34.381656],[131.251119,34.381681],[131.251969,34.381723],[131.251881,34.381856],[131.252069,34.381856],[131.252106,34.381931],[131.252069,34.382448],[131.252156,34.382731],[131.252481,34.382706],[131.252681,34.382681],[131.252844,34.382731],[131.253119,34.382839],[131.253319,34.382948],[131.253544,34.383048],[131.253681,34.383098],[131.253794,34.383139],[131.254031,34.383223],[131.254256,34.383289],[131.254569,34.383414],[131.254844,34.383498],[131.255006,34.383573],[131.255181,34.383639],[131.255356,34.383689],[131.255444,34.383731],[131.255531,34.383664],[131.255681,34.383556],[131.255869,34.383689],[131.256069,34.383839],[131.256169,34.383939],[131.256231,34.384048],[131.256281,34.384131],[131.256369,34.384306],[131.256419,34.384431],[131.256444,34.384556],[131.256469,34.384672],[131.256469,34.384772],[131.256481,34.384939],[131.256481,34.385131],[131.256469,34.385256],[131.256431,34.385372],[131.256406,34.385447],[131.256394,34.385531],[131.256156,34.385572],[131.256069,34.385597],[131.256006,34.385672],[131.255881,34.385831],[131.255819,34.385931],[131.255731,34.386089],[131.255719,34.386164],[131.255781,34.386281],[131.255856,34.386372],[131.255919,34.386464],[131.255906,34.386556],[131.255906,34.386631],[131.255881,34.386722],[131.255881,34.386839],[131.255869,34.386914],[131.255844,34.387031],[131.255856,34.387197],[131.255881,34.387355],[131.255893,34.387439],[131.255906,34.387597],[131.255931,34.387755],[131.255906,34.387839],[131.255843,34.387964],[131.255843,34.388047],[131.255856,34.388105],[131.255856,34.388222],[131.255856,34.388355],[131.255856,34.388439],[131.255856,34.388555],[131.255856,34.388714],[131.255881,34.388872],[131.255856,34.389097],[131.255831,34.389189],[131.255818,34.389347],[131.255831,34.38943],[131.255818,34.389522],[131.255831,34.389597],[131.255856,34.38968],[131.255868,34.389747],[131.255918,34.389697],[131.256168,34.390113],[131.256306,34.390155],[131.256468,34.39013],[131.256556,34.390022],[131.256693,34.390022],[131.256793,34.389905],[131.256581,34.38943],[131.256556,34.38923],[131.256681,34.389047],[131.256743,34.388872],[131.256793,34.388872],[131.256956,34.388955],[131.257068,34.389072],[131.257206,34.389072],[131.257281,34.388847],[131.257231,34.388664],[131.257118,34.388622],[131.257468,34.388414],[131.257606,34.387964],[131.257493,34.387897],[131.257493,34.387855],[131.257906,34.387314],[131.257631,34.387064],[131.257656,34.386681],[131.257868,34.386839],[131.258006,34.386722],[131.258068,34.386722],[131.258193,34.386589],[131.258556,34.386656],[131.258631,34.386547],[131.258631,34.386406],[131.258419,34.386297],[131.258231,34.386272],[131.258069,34.386297],[131.257981,34.386231],[131.258006,34.386031],[131.258119,34.385714],[131.258581,34.385489],[131.258606,34.385439],[131.258706,34.385531],[131.258956,34.385556],[131.259031,34.385531],[131.259169,34.385122],[131.259356,34.384922],[131.259681,34.384806],[131.260094,34.384764],[131.261031,34.384756],[131.261169,34.384306],[131.261419,34.384173],[131.261769,34.384106],[131.262069,34.384131],[131.262256,34.384173],[131.262331,34.384423],[131.262306,34.384489],[131.262331,34.384623],[131.262656,34.384822],[131.262818,34.384806],[131.262681,34.384556],[131.262681,34.384398],[131.262818,34.384331],[131.263206,34.384423],[131.263493,34.384623],[131.263556,34.384797],[131.263368,34.385031],[131.263206,34.385072],[131.263231,34.385181],[131.263418,34.385272],[131.263606,34.385406],[131.263718,34.385656],[131.263931,34.385947],[131.264343,34.386314],[131.264443,34.386356],[131.264531,34.386264],[131.264343,34.385839],[131.264418,34.385656],[131.264818,34.385522],[131.265043,34.385472],[131.265068,34.385339],[131.265231,34.385364],[131.265556,34.385472],[131.265668,34.385606],[131.265718,34.385856],[131.266043,34.386331],[131.266118,34.386647],[131.26623,34.386647],[131.266393,34.386489],[131.266605,34.386439],[131.26683,34.386556],[131.267043,34.386739],[131.267343,34.386781],[131.26748,34.386872],[131.26788,34.386981],[131.26823,34.387231],[131.26853,34.387297],[131.268968,34.387247],[131.269343,34.387339],[131.269668,34.387497],[131.269855,34.387656],[131.269905,34.387747],[131.269905,34.387997],[131.269855,34.388197],[131.269992,34.38838],[131.270105,34.388847],[131.27043,34.389347],[131.270692,34.389547],[131.27178,34.389997],[131.27208,34.389839],[131.272405,34.389722],[131.272805,34.389722],[131.272917,34.389747],[131.273592,34.38963],[131.273855,34.389655],[131.27413,34.389772],[131.274379,34.389722],[131.274454,34.389564],[131.274592,34.38963],[131.274829,34.389855],[131.275129,34.389972],[131.275379,34.389989],[131.276104,34.389814],[131.276429,34.389589],[131.277242,34.389672],[131.277754,34.389647],[131.278192,34.389605],[131.278542,34.389489],[131.278941,34.389289],[131.279166,34.389089],[131.279291,34.388839],[131.279379,34.388589],[131.279566,34.388247],[131.279591,34.388114],[131.279567,34.387889],[131.279592,34.387481],[131.279404,34.387147],[131.279242,34.386673],[131.279054,34.386264],[131.278829,34.385948],[131.278617,34.385339],[131.278617,34.385164],[131.278779,34.384914],[131.278879,34.384823],[131.279204,34.384664],[131.279892,34.384639],[131.280042,34.384548],[131.280342,34.384281],[131.280529,34.384031],[131.280667,34.383765],[131.280854,34.383606],[131.281042,34.383581],[131.281479,34.383606],[131.282054,34.383648],[131.282079,34.383515],[131.282316,34.383465],[131.282504,34.383581],[131.282616,34.383715],[131.282529,34.383915],[131.282404,34.384048],[131.282379,34.384298],[131.282591,34.384548],[131.282704,34.384773],[131.282941,34.385089],[131.283129,34.385089],[131.283241,34.384998],[131.283404,34.384706],[131.283479,34.38434],[131.283591,34.384323],[131.284029,34.38439],[131.284241,34.384481],[131.284641,34.384998],[131.285328,34.385739],[131.285653,34.386073],[131.285966,34.386281],[131.286191,34.386506],[131.286303,34.386889],[131.286466,34.387114],[131.286491,34.387206],[131.286703,34.386998],[131.286703,34.386864],[131.286516,34.386573],[131.286428,34.386323],[131.286678,34.386189],[131.286778,34.386031],[131.286728,34.385823],[131.286728,34.385581],[131.286941,34.385106],[131.287291,34.385081],[131.288103,34.384923],[131.288703,34.385015],[131.289028,34.384948],[131.289166,34.384765],[131.289291,34.384698],[131.289378,34.384698],[131.290428,34.384923],[131.290678,34.384806],[131.291078,34.384423],[131.291103,34.38424],[131.290728,34.383682],[131.290703,34.383432],[131.290728,34.383182],[131.29084,34.383023],[131.291053,34.382957],[131.291328,34.382798],[131.291515,34.38264],[131.291428,34.382373],[131.290828,34.381398],[131.290753,34.381082],[131.291216,34.380815],[131.291503,34.380565],[131.29164,34.380407],[131.291915,34.380249],[131.292315,34.380182],[131.292665,34.380182],[131.293028,34.38029],[131.293153,34.38029],[131.29324,34.380157],[131.293728,34.379574],[131.293753,34.37934],[131.293703,34.378807],[131.29389,34.378399],[131.29399,34.378082],[131.293853,34.377499],[131.29389,34.377249],[131.294015,34.377024],[131.294315,34.376707],[131.294803,34.376566],[131.294965,34.376432],[131.29524,34.376141],[131.29534,34.375849],[131.295315,34.375574],[131.294665,34.374699],[131.29464,34.374474],[131.294965,34.373683],[131.295065,34.372891],[131.29539,34.372191],[131.295365,34.371941],[131.295253,34.371741],[131.294803,34.371358],[131.294391,34.370975],[131.294316,34.3708],[131.294366,34.370325],[131.294141,34.369983],[131.294091,34.369783],[131.294141,34.369691],[131.294278,34.369175],[131.294278,34.368991],[131.294491,34.368583],[131.294766,34.368267],[131.295253,34.3675],[131.296366,34.3661],[131.296903,34.3652],[131.297066,34.365017],[131.297328,34.364909],[131.297678,34.364859],[131.298303,34.364884],[131.298653,34.364792],[131.299578,34.364475],[131.300278,34.364109],[131.300653,34.363842],[131.300903,34.363526],[131.30109,34.363142],[131.301328,34.362867],[131.301603,34.362642],[131.30239,34.362326],[131.302977,34.362209],[131.30339,34.362167],[131.30379,34.362351],[131.304302,34.362934],[131.304415,34.363159],[131.304577,34.363359],[131.304927,34.363634],[131.305277,34.364326],[131.305527,34.364642],[131.305902,34.365075],[131.306277,34.365342],[131.306477,34.365367],[131.306902,34.36525],[131.307502,34.365675],[131.307927,34.365817],[131.308451,34.3659],[131.310014,34.366017],[131.310501,34.3661],[131.310776,34.36635],[131.310989,34.366617],[131.311551,34.366917],[131.312938,34.367409],[131.313263,34.36745],[131.313663,34.36745],[131.314451,34.367492],[131.314613,34.367634],[131.314726,34.367859],[131.314988,34.368125],[131.315638,34.368667],[131.315863,34.368959],[131.315888,34.369275],[131.31605,34.369525],[131.316263,34.3697],[131.316588,34.369908],[131.317288,34.370125],[131.317613,34.370267],[131.317863,34.370267],[131.318588,34.37015],[131.319375,34.370175],[131.319675,34.37015],[131.319887,34.370058],[131.320187,34.369767],[131.320325,34.369467],[131.32035,34.369225],[131.320162,34.368592],[131.3201,34.368275],[131.320238,34.367867],[131.3204,34.3676],[131.320512,34.367309],[131.320513,34.367167],[131.320637,34.366901],[131.320962,34.366609],[131.321587,34.366334],[131.321862,34.366084],[131.3224,34.365276],[131.322887,34.364526],[131.32385,34.363259],[131.324262,34.362135],[131.32445,34.361793],[131.32475,34.361476],[131.325075,34.361301],[131.325237,34.361251],[131.325362,34.361318],[131.325637,34.361543],[131.325825,34.361593],[131.325937,34.361518],[131.326312,34.36116],[131.326637,34.361001],[131.328075,34.360168],[131.32845,34.36001],[131.328687,34.360027],[131.328962,34.360235],[131.329362,34.360368],[131.329887,34.360435],[131.330262,34.360385],[131.330449,34.360118],[131.330587,34.359802],[131.330687,34.359643],[131.330874,34.359593],[131.331174,34.359643],[131.331499,34.359752],[131.331799,34.359752],[131.332049,34.35971],[131.332199,34.359644],[131.332337,34.359485],[131.332612,34.35856],[131.332774,34.358552],[131.332962,34.358644],[131.333499,34.359302],[131.333849,34.359435],[131.335287,34.35941],[131.335399,34.35936],[131.335561,34.359227],[131.335749,34.358419],[131.335774,34.358052],[131.335749,34.357827],[131.335874,34.357786],[131.337011,34.358144],[131.337911,34.358277],[131.338211,34.358411],[131.338374,34.358636],[131.338499,34.358952],[131.338661,34.359069],[131.338749,34.359085],[131.338986,34.359044],[131.339236,34.358927],[131.339474,34.358861],[131.339661,34.358886],[131.339936,34.359111],[131.340211,34.359177],[131.340699,34.359194],[131.340911,34.359311],[131.341374,34.359694],[131.341449,34.359719],[131.342186,34.359711],[131.342673,34.359761],[131.343073,34.359619],[131.343373,34.359552],[131.343373,34.359419],[131.343486,34.359144],[131.343748,34.359036],[131.343861,34.358902],[131.343911,34.358652],[131.343636,34.358061],[131.343861,34.357544],[131.343961,34.357003],[131.344073,34.356736],[131.344561,34.356503],[131.344886,34.356261],[131.344961,34.356011],[131.345011,34.355653],[131.345173,34.355603],[131.345536,34.355786],[131.345698,34.355736],[131.345986,34.355328],[131.346373,34.355195],[131.346636,34.355061],[131.347073,34.354495],[131.347311,34.35407],[131.347586,34.353953],[131.348123,34.353836],[131.348748,34.353503],[131.349311,34.353253],[131.349448,34.353112],[131.349236,34.352687],[131.349036,34.35257],[131.348386,34.352528],[131.348123,34.352437],[131.347873,34.352053],[131.347548,34.351762],[131.347311,34.351628],[131.346548,34.351612],[131.346411,34.351562],[131.346361,34.351362],[131.346173,34.351312],[131.345898,34.351337],[131.345061,34.351137],[131.342057,34.350123],[131.338987,34.348954],[131.335333,34.34691],[131.331825,34.344573],[131.329487,34.342236],[131.327294,34.339461],[131.324225,34.333912],[131.321156,34.3288],[131.319537,34.326528],[131.318229,34.325054],[131.317255,34.324053],[131.316314,34.323323],[131.316101,34.323173],[131.315764,34.323056],[131.315377,34.32299],[131.315602,34.32249],[131.315489,34.322223],[131.315327,34.321348],[131.315102,34.321048],[131.315127,34.320965],[131.315077,34.32044],[131.315102,34.319882],[131.315189,34.319565],[131.315377,34.319315],[131.315289,34.319157],[131.314277,34.318932],[131.313477,34.319048],[131.312739,34.318849],[131.312102,34.318757],[131.312027,34.318715],[131.311802,34.318374],[131.311664,34.318015],[131.311777,34.317565],[131.311752,34.316932],[131.311964,34.316774],[131.311989,34.316549],[131.311915,34.316257],[131.311965,34.316057],[131.312215,34.315824],[131.311965,34.314566],[131.31174,34.314141],[131.311527,34.313441],[131.311465,34.313399],[131.311077,34.313258],[131.310727,34.313174],[131.310315,34.312833],[131.30984,34.312649],[131.30974,34.312341],[131.30954,34.312066],[131.309152,34.311933],[131.308603,34.312049],[131.30844,34.312024],[131.30809,34.311799],[131.307615,34.311349],[131.307265,34.310875],[131.306815,34.310558],[131.30594,34.310383],[131.305665,34.310358],[131.305578,34.310675],[131.305415,34.310925],[131.304816,34.311399],[131.303878,34.311874],[131.303441,34.311941],[131.303141,34.311941],[131.302841,34.312008],[131.302753,34.312141],[131.302666,34.312949],[131.302391,34.313266],[131.302041,34.313491],[131.301491,34.314374],[131.300716,34.315049],[131.300253,34.316157],[131.299866,34.316424],[131.299429,34.316582],[131.298991,34.316807],[131.298691,34.317148],[131.298329,34.318232],[131.297704,34.319131],[131.297254,34.31954],[131.296979,34.319856],[131.296629,34.320506],[131.296491,34.321164],[131.295854,34.321748],[131.295779,34.321948],[131.296029,34.322239],[131.296129,34.322622],[131.295966,34.323914],[131.295754,34.324297],[131.295617,34.32463],[131.295117,34.325355],[131.295067,34.325805],[131.294867,34.326164],[131.294404,34.32648],[131.294379,34.326613],[131.294179,34.32693],[131.293904,34.327113],[131.293667,34.327447],[131.293529,34.327922],[131.293442,34.328513],[131.293304,34.328663],[131.292842,34.328938],[131.291855,34.329346],[131.290942,34.329838],[131.290505,34.330179],[131.290142,34.330404],[131.289842,34.330496],[131.289617,34.330696],[131.289317,34.331221],[131.28893,34.331396],[131.28833,34.331462],[131.287943,34.331621],[131.28778,34.331871],[131.287643,34.332237],[131.287593,34.332612],[131.287368,34.333112],[131.287293,34.333495],[131.287318,34.333987],[131.287293,34.334353],[131.287093,34.33467],[131.28693,34.334712],[131.286155,34.334762],[131.286055,34.334803],[131.284731,34.33602],[131.284068,34.336495],[131.283918,34.336561],[131.283831,34.336586],[131.283731,34.33667],[131.283456,34.336761],[131.283218,34.336761],[131.282856,34.336695],[131.282506,34.336561],[131.282343,34.336386],[131.281931,34.336186],[131.281431,34.336111],[131.280831,34.336203],[131.280356,34.336228],[131.279731,34.336095],[131.279119,34.335778],[131.278294,34.33542],[131.277694,34.335328],[131.277257,34.335195],[131.276982,34.334945],[131.276619,34.33452],[131.275657,34.333912],[131.275319,34.333553],[131.275269,34.33292],[131.275294,34.332587],[131.275407,34.332445],[131.275657,34.33227],[131.275707,34.332062],[131.275494,34.331595],[131.275082,34.33092],[131.274632,34.330554],[131.27412,34.330329],[131.273782,34.330262],[131.273295,34.330245],[131.272907,34.330154],[131.271857,34.32952],[131.271558,34.329204],[131.271308,34.328462],[131.271195,34.32837],[131.270783,34.328195],[131.270095,34.328079],[131.26982,34.327995],[131.269633,34.327654],[131.269058,34.327387],[131.268583,34.327096],[131.268096,34.326396],[131.267921,34.326329],[131.267846,34.326329],[131.267596,34.326487],[131.267246,34.326779],[131.266796,34.327229],[131.266108,34.32777],[131.265371,34.328062],[131.265183,34.328112],[131.265096,34.328087],[131.265008,34.32802],[131.264908,34.32777],[131.264908,34.327679],[131.264796,34.327479],[131.264321,34.327254],[131.263859,34.326962],[131.263721,34.326829],[131.263196,34.326554],[131.262571,34.326629],[131.262296,34.326404],[131.262159,34.326129],[131.262159,34.326062],[131.262159,34.32597],[131.262296,34.32577],[131.262534,34.325637],[131.263521,34.325246],[131.263609,34.325021],[131.263359,34.324396],[131.263109,34.324079],[131.263009,34.324012],[131.262596,34.323604],[131.262321,34.323271],[131.261871,34.323063],[131.261734,34.323046],[131.261659,34.322971],[131.261734,34.322638],[131.261597,34.322363],[131.261184,34.322438],[131.260809,34.322004],[131.260422,34.321896],[131.259947,34.321804],[131.259709,34.321604],[131.259622,34.321196],[131.259509,34.32093],[131.259322,34.320771],[131.259022,34.320588],[131.258934,34.320496],[131.258822,34.320205],[131.258634,34.320005],[131.258334,34.319821],[131.258384,34.31953],[131.25871,34.318605],[131.258747,34.318422],[131.25871,34.318063],[131.258522,34.317613],[131.258085,34.316847],[131.25781,34.31658],[131.257372,34.316555],[131.257235,34.316397],[131.256897,34.315539],[131.256622,34.315364],[131.25621,34.315364],[131.255722,34.31548],[131.255135,34.31593],[131.254835,34.315947],[131.254673,34.315905],[131.253935,34.31593],[131.253273,34.316155],[131.252798,34.316672],[131.252473,34.316655],[131.252035,34.316563],[131.25156,34.31643],[131.251298,34.316272],[131.251485,34.314555],[131.251423,34.314147],[131.251285,34.313922],[131.251073,34.313814],[131.250086,34.31393],[131.249836,34.313839],[131.249536,34.313405],[131.248786,34.313205],[131.248136,34.31253],[131.247798,34.312172],[131.247661,34.31208],[131.247593,34.312102],[131.247573,34.31203],[131.246824,34.311505],[131.246386,34.311147],[131.245886,34.310631],[131.245724,34.310339],[131.245774,34.310114],[131.246024,34.309572],[131.245799,34.309372],[131.245636,34.308897],[131.245448,34.308764],[131.245061,34.308789],[131.244811,34.308697],[131.244811,34.308489],[131.244449,34.308022],[131.245136,34.307523],[131.245386,34.307164],[131.245436,34.306848],[131.245298,34.306439],[131.245136,34.306264],[131.244786,34.306131],[131.244673,34.306014],[131.244561,34.305748],[131.244511,34.305381],[131.244536,34.305048],[131.244586,34.304915],[131.244611,34.303873],[131.244773,34.303473],[131.244886,34.303331],[131.244773,34.303198],[131.244448,34.303106],[131.244198,34.302973],[131.244086,34.302007],[131.243898,34.301732],[131.243423,34.30144],[131.243561,34.300448],[131.243473,34.30034],[131.243148,34.300157],[131.243011,34.300157],[131.242736,34.300315],[131.242461,34.300298],[131.241936,34.300157],[131.241386,34.299823],[131.241136,34.299532],[131.240899,34.299348],[131.240561,34.299282],[131.240311,34.299107],[131.240149,34.29879],[131.239899,34.297749],[131.239786,34.29759],[131.239349,34.297415],[131.238911,34.297124],[131.238499,34.296915],[131.238249,34.296715],[131.237924,34.296557],[131.237424,34.296424],[131.236436,34.296024],[131.235999,34.295799],[131.235149,34.29519],[131.234649,34.29494],[131.234536,34.294374],[131.234449,34.294149],[131.233024,34.294382],[131.232399,34.294399],[131.232261,34.294357],[131.232111,34.293182],[131.231974,34.292665],[131.231974,34.292532],[131.231724,34.29174],[131.231399,34.291249],[131.230849,34.290799],[131.230599,34.290299],[131.230524,34.290007],[131.230299,34.289699],[131.229961,34.289474],[131.229499,34.289424],[131.228974,34.289291],[131.228836,34.289174],[131.228449,34.288724],[131.228286,34.288366],[131.228074,34.288124],[131.227436,34.287807],[131.227299,34.287532],[131.227186,34.286766],[131.226936,34.286074],[131.226612,34.285624],[131.226587,34.285466],[131.226387,34.285399],[131.225974,34.285374],[131.225562,34.285416],[131.225099,34.285416],[131.224762,34.285349],[131.224212,34.285108],[131.222899,34.284724],[131.222599,34.284383],[131.222324,34.284249],[131.221937,34.284116],[131.220912,34.283574],[131.220637,34.283349],[131.220424,34.283058],[131.220087,34.282358],[131.219925,34.282291],[131.2194,34.282224],[131.219212,34.282041],[131.219187,34.281958],[131.218912,34.281733],[131.218575,34.281574],[131.218337,34.281366],[131.218162,34.281283],[131.217925,34.281574],[131.217612,34.281749],[131.217337,34.281974],[131.217262,34.282358],[131.217262,34.282724],[131.217212,34.283083],[131.217075,34.283282],[131.216687,34.283557],[131.21635,34.283582],[131.215975,34.283491],[131.2155,34.283424],[131.214512,34.283449],[131.213825,34.283291],[131.212238,34.282707],[131.212038,34.282499],[131.211738,34.282007],[131.2113,34.281491],[131.211,34.281332],[131.210775,34.281124],[131.210575,34.280882],[131.210413,34.280791],[131.209975,34.280749],[131.20965,34.280499],[131.208963,34.280991],[131.208138,34.281291],[131.208001,34.281649],[131.208,34.282057],[131.207838,34.282641],[131.207613,34.282907],[131.206713,34.283474],[131.206351,34.283815],[131.206163,34.284107],[131.206101,34.284265],[131.205826,34.284582],[131.204976,34.284982],[131.204738,34.28519],[131.204051,34.28544],[131.203363,34.285523],[131.203026,34.285482],[131.202976,34.28544],[131.202638,34.28539],[131.201963,34.285532],[131.201326,34.285707],[131.201101,34.285732],[131.200726,34.285532],[131.199976,34.285548],[131.199513,34.285373],[131.199238,34.285148],[131.198851,34.284948],[131.198576,34.28474],[131.198164,34.28479],[131.197801,34.284948],[131.197639,34.284898],[131.197226,34.284698],[131.196814,34.284407],[131.196489,34.284248],[131.196076,34.284207],[131.195801,34.284315],[131.195576,34.284498],[131.195339,34.284607],[131.194926,34.284682],[131.194126,34.284748],[131.193576,34.284698],[131.193214,34.284548],[131.193239,34.284473],[131.192689,34.283665],[131.192389,34.283507],[131.191864,34.283348],[131.191402,34.283148],[131.190877,34.282857],[131.190352,34.282698],[131.190002,34.283015],[131.189702,34.283198],[131.189364,34.283173],[131.189064,34.283057],[131.188164,34.283215],[131.187689,34.283223],[131.187227,34.283082],[131.186614,34.28284],[131.186452,34.282815],[131.185602,34.28284],[131.185465,34.282815],[131.185327,34.282207],[131.185052,34.282023],[131.184615,34.28189],[131.184177,34.281823],[131.183865,34.281665],[131.18349,34.281357],[131.18269,34.281132],[131.182465,34.281015],[131.182302,34.280698],[131.182115,34.279982],[131.181915,34.27984],[131.181802,34.279707],[131.18184,34.279549],[131.181977,34.279257],[131.182115,34.278607],[131.182277,34.278157],[131.182277,34.27804],[131.181977,34.277815],[131.181365,34.27764],[131.181153,34.277615],[131.18079,34.277232],[131.18024,34.276465],[131.180078,34.276107],[131.180015,34.275832],[131.17994,34.275699],[131.179665,34.275524],[131.179528,34.275157],[131.179553,34.274732],[131.179415,34.274166],[131.179553,34.273307],[131.179353,34.272049],[131.179303,34.271958],[131.179028,34.271799],[131.179028,34.271641],[131.17914,34.271399],[131.179115,34.271216],[131.178865,34.271033],[131.17869,34.270674],[131.178553,34.270499],[131.178153,34.270291],[131.177216,34.270066],[131.177053,34.269866],[131.176991,34.269549],[131.177078,34.269216],[131.177266,34.2689],[131.177316,34.268716],[131.176803,34.26795],[131.176116,34.267525],[131.175916,34.267325],[131.175916,34.267025],[131.176141,34.266558],[131.176078,34.266333],[131.175803,34.26615],[131.175616,34.266017],[131.175316,34.265633],[131.175041,34.265567],[131.174703,34.265542],[131.174403,34.26545],[131.174103,34.265183],[131.173828,34.264867],[131.173578,34.264667],[131.173166,34.264458],[131.172679,34.264375],[131.172566,34.264325],[131.172479,34.264217],[131.172479,34.264075],[131.172266,34.264167],[131.172041,34.264192],[131.171691,34.26415],[131.171466,34.264008],[131.171166,34.2637],[131.170666,34.263383],[131.170479,34.26295],[131.170316,34.262725],[131.169954,34.2625],[131.169591,34.262592],[131.169316,34.262592],[131.169016,34.2625],[131.168804,34.262367],[131.168604,34.2623],[131.168329,34.262417],[131.168141,34.262525],[131.167866,34.262508],[131.167316,34.262325],[131.166742,34.262192],[131.166192,34.2621],[131.165617,34.262075],[131.164979,34.26215],[131.164129,34.262283],[131.164129,34.2626],[131.162617,34.262867],[131.161792,34.262933],[131.161517,34.263008],[131.161517,34.263142],[131.161717,34.263683],[131.161542,34.264108],[131.161054,34.265075],[131.160942,34.26515],[131.159817,34.265533],[131.159729,34.265708],[131.159767,34.266141],[131.159729,34.266433],[131.159542,34.266749],[131.159379,34.266949],[131.159517,34.267174],[131.159604,34.267516],[131.159704,34.267691],[131.159354,34.267983],[131.159404,34.268458],[131.159242,34.268666],[131.15828,34.269049],[131.157755,34.269299],[131.157205,34.269682],[131.15693,34.269991],[131.156355,34.270374],[131.15523,34.270941],[131.15493,34.271149],[131.154242,34.271007],[131.153942,34.270807],[131.153692,34.270541],[131.153467,34.270399],[131.153192,34.270382],[131.152543,34.270474],[131.152068,34.270041],[131.15133,34.269574],[131.151055,34.269499],[131.15073,34.269574],[131.14993,34.269907],[131.149793,34.269932],[131.149493,34.269682],[131.149155,34.269574],[131.148643,34.269549],[131.148143,34.269599],[131.147455,34.269891],[131.146956,34.269824],[131.146331,34.269691],[131.145756,34.269641],[131.145118,34.26969],[131.144681,34.269782],[131.144356,34.269957],[131.143906,34.27039],[131.143331,34.270549],[131.143193,34.270632],[131.143006,34.27109],[131.142506,34.271782],[131.142318,34.271924],[131.141681,34.271965],[131.141306,34.271857],[131.141218,34.271765],[131.140968,34.271607],[131.140693,34.271632],[131.140531,34.271674],[131.139931,34.272032],[131.139543,34.272348],[131.139518,34.271857],[131.139431,34.271565],[131.139356,34.271424],[131.138081,34.27084],[131.137569,34.27064],[131.136881,34.270549],[131.136681,34.270482],[131.135806,34.270032],[131.135619,34.269965],[131.135144,34.269965],[131.134519,34.270124],[131.134431,34.270124],[131.134131,34.269674],[131.133106,34.269132],[131.132644,34.268799],[131.132094,34.268457],[131.131881,34.268365],[131.131157,34.268282],[131.130644,34.268124],[131.130419,34.267965],[131.130257,34.267607],[131.129894,34.26729],[131.129544,34.267107],[131.129344,34.267082],[131.128994,34.267157],[131.128419,34.267332],[131.128057,34.267332],[131.127594,34.267199],[131.126907,34.267065],[131.125882,34.266957],[131.125194,34.267024],[131.124957,34.267115],[131.124232,34.266749],[131.123632,34.266299],[131.123332,34.266007],[131.12322,34.265716],[131.123282,34.264907],[131.123145,34.264316],[131.123082,34.264249],[131.122757,34.264432],[131.122782,34.264882],[131.122757,34.264991],[131.122645,34.265107],[131.122605,34.265103],[131.122582,34.265232],[131.122395,34.265349],[131.121757,34.265549],[131.121182,34.265624],[131.120495,34.265399],[131.120057,34.265057],[131.119945,34.264874],[131.11972,34.264674],[131.119508,34.264649],[131.11912,34.264766],[131.11857,34.265265],[131.118433,34.265665],[131.11777,34.265849],[131.117533,34.265874],[131.11712,34.265849],[131.11687,34.265715],[131.116595,34.265465],[131.11632,34.265332],[131.115683,34.265332],[131.11502,34.265215],[131.11437,34.264882],[131.11387,34.264499],[131.113296,34.26394],[131.112958,34.263849],[131.112108,34.26389],[131.111533,34.263957],[131.110658,34.264232],[131.110433,34.264232],[131.109971,34.264349],[131.109446,34.264615],[131.108896,34.264998],[131.108683,34.265115],[131.108021,34.26529],[131.107771,34.266057],[131.107721,34.26649],[131.107608,34.266823],[131.107446,34.266982],[131.106896,34.26734],[131.106296,34.26764],[131.105996,34.267748],[131.105821,34.267681],[131.105746,34.26759],[131.105659,34.267323],[131.105546,34.26714],[131.105134,34.26694],[131.105084,34.266715],[131.105246,34.266282],[131.105021,34.266082],[131.104746,34.265682],[131.104646,34.26489],[131.104584,34.264757],[131.104084,34.26444],[131.103921,34.264215],[131.103896,34.263832],[131.103784,34.263474],[131.103709,34.263332],[131.102847,34.262865],[131.102547,34.262524],[131.102409,34.262099],[131.102247,34.26194],[131.101922,34.261965],[131.101397,34.262299],[131.101009,34.262615],[131.100659,34.262823],[131.099934,34.26284],[131.099559,34.263048],[131.099059,34.26309],[131.098435,34.263048],[131.097772,34.26309],[131.097547,34.263157],[131.096922,34.263857],[131.096372,34.264223],[131.09626,34.264582],[131.09571,34.265165],[131.095022,34.26584],[131.094447,34.266498],[131.094197,34.266656],[131.09401,34.266656],[131.093685,34.266431],[131.093072,34.266223],[131.092635,34.266248],[131.092085,34.266456],[131.090848,34.267015],[131.090598,34.267156],[131.090223,34.267581],[131.09006,34.267581],[131.088848,34.267156],[131.088485,34.267131],[131.087148,34.267423],[131.08706,34.267473],[131.086648,34.267948],[131.086485,34.268256],[131.08656,34.268573],[131.086535,34.268848],[131.086348,34.269231],[131.08621,34.269947],[131.08591,34.271072],[131.085585,34.271614],[131.085635,34.272297],[131.085448,34.272497],[131.085385,34.272497],[131.085035,34.272722],[131.08446,34.273214],[131.084185,34.273597],[131.08421,34.274072],[131.084535,34.275222],[131.084648,34.276172],[131.084898,34.276597],[131.08531,34.277697],[131.085285,34.278038],[131.085173,34.278305],[131.085198,34.278355],[131.08561,34.278422],[131.085585,34.279097],[131.085485,34.279213],[131.085098,34.279371],[131.084685,34.27973],[131.084048,34.28068],[131.083698,34.281555],[131.083448,34.281896],[131.08331,34.282838],[131.083373,34.283038],[131.083698,34.283696],[131.083585,34.284188],[131.082385,34.284729],[131.081835,34.285096],[131.08136,34.285521],[131.08106,34.285904],[131.080623,34.286287],[131.080235,34.286496],[131.080098,34.286646],[131.079685,34.287437],[131.07936,34.287529],[131.07886,34.287871],[131.078648,34.288112],[131.078285,34.288271],[131.077773,34.288904],[131.07741,34.289129],[131.07716,34.289487],[131.076648,34.290712],[131.076637,34.290728],[131.076198,34.290887],[131.075873,34.291045],[131.07571,34.291179],[131.07466,34.29247],[131.074635,34.292937],[131.074723,34.29332],[131.074498,34.29332],[131.073973,34.293053],[131.073536,34.292787],[131.072936,34.292762],[131.072548,34.292603],[131.071723,34.29267],[131.070273,34.292112],[131.069636,34.291995],[131.069411,34.291995],[131.068949,34.292087],[131.068211,34.29207],[131.067411,34.291937],[131.066799,34.291953],[131.066474,34.292003],[131.065836,34.292162],[131.065786,34.292228],[131.065811,34.292295],[131.066036,34.29252],[131.066936,34.29272],[131.067049,34.292903],[131.067024,34.293078],[131.066036,34.293353],[131.065324,34.293778],[131.064849,34.294211],[131.064274,34.29457],[131.063624,34.295336],[131.062849,34.295478],[131.062711,34.295703],[131.062549,34.296194],[131.062436,34.296353],[131.061949,34.296919],[131.061699,34.297344],[131.061674,34.297478],[131.061399,34.297819],[131.061061,34.298003],[131.060849,34.298202],[131.060511,34.299036],[131.060211,34.299536],[131.059749,34.300094],[131.059499,34.300186],[131.058762,34.300161],[131.058462,34.300277],[131.058399,34.300686],[131.058462,34.30111],[131.058461,34.302735],[131.058511,34.303544],[131.058324,34.303769],[131.058049,34.303927],[131.057986,34.30436],[131.058024,34.304743],[131.057961,34.305035],[131.057774,34.305168],[131.057611,34.305143],[131.057136,34.30501],[131.056586,34.304985],[131.055212,34.305143],[131.054499,34.305193],[131.054287,34.305168],[131.054037,34.305235],[131.053324,34.30576],[131.051174,34.305785],[131.050512,34.305918],[131.049962,34.306076],[131.04975,34.306301],[131.049525,34.306685],[131.0492,34.30711],[131.04845,34.307635],[131.04785,34.307951],[131.047025,34.308243],[131.0465,34.308493],[131.046012,34.308876],[131.04475,34.309551],[131.044337,34.309868],[131.043862,34.310318],[131.043062,34.310951],[131.042925,34.311017],[131.042512,34.310634],[131.0421,34.310459],[131.04125,34.310209],[131.040588,34.310117],[131.039775,34.310501],[131.038563,34.310551],[131.037738,34.310726],[131.037075,34.310959],[131.035788,34.311501],[131.035563,34.311542],[131.035588,34.311792],[131.035813,34.312334],[131.036025,34.312575],[131.036063,34.312917],[131.0359,34.31375],[131.035488,34.314584],[131.03535,34.315642],[131.035125,34.316617],[131.034875,34.316908],[131.034488,34.3172],[131.03405,34.317608],[131.033775,34.318008],[131.033913,34.318866],[131.033588,34.319633],[131.03295,34.320491],[131.0329,34.320833],[131.032925,34.320991],[131.0329,34.321441],[131.032788,34.321708],[131.032125,34.3218],[131.0321,34.321866],[131.031775,34.322141],[131.031363,34.322249],[131.030763,34.322249],[131.030263,34.322141],[131.0299,34.322116],[131.029438,34.322249],[131.028426,34.322708],[131.027676,34.322908],[131.027263,34.322974],[131.026713,34.323608],[131.026188,34.323608],[131.025838,34.323766],[131.025426,34.324308],[131.025226,34.324441],[131.024576,34.324624],[131.023001,34.324899],[131.022126,34.324991],[131.020451,34.325374],[131.020414,34.325466],[131.020526,34.326366],[131.020938,34.327557],[131.021113,34.328299],[131.020913,34.328932],[131.020801,34.329565],[131.020563,34.330015],[131.020288,34.330398],[131.020038,34.330648],[131.019976,34.331007],[131.019876,34.331257],[131.019238,34.33164],[131.018688,34.331932],[131.018276,34.332223],[131.017889,34.332607],[131.017776,34.332923],[131.017726,34.33349],[131.017426,34.333715],[131.016651,34.333981],[131.016351,34.33414],[131.016189,34.334415],[131.015914,34.335181],[131.015639,34.335431],[131.014926,34.335748],[131.014789,34.335906],[131.014939,34.336556],[131.015051,34.337131],[131.014964,34.337356],[131.014776,34.337589],[131.014189,34.338064],[131.013901,34.338381],[131.013701,34.338922],[131.013489,34.339689],[131.013451,34.339981],[131.013364,34.340106],[131.013089,34.340281],[131.012376,34.340847],[131.012051,34.341022],[131.011814,34.341214],[131.011601,34.341489],[131.011226,34.341864],[131.010764,34.342205],[131.010401,34.342347],[131.009551,34.342422],[131.008376,34.342647],[131.007764,34.342822],[131.007289,34.343005],[131.006852,34.343313],[131.006577,34.343713],[131.006489,34.344047],[131.006277,34.344305],[131.005639,34.344521],[131.005027,34.344538],[131.004677,34.344538],[131.004364,34.344596],[131.003439,34.345096],[131.003014,34.345263],[131.002702,34.345455],[131.002477,34.345996],[131.002227,34.346471],[131.002302,34.347454],[131.002414,34.347996],[131.001989,34.348863],[131.001939,34.349046],[131.001889,34.349462],[131.001964,34.350679],[131.001902,34.351079],[131.001789,34.351412],[131.001389,34.351971],[131.001227,34.352262],[131.001089,34.352654],[131.000614,34.352637],[130.999677,34.352762],[130.999377,34.352604],[130.998914,34.352445],[130.998327,34.352337],[130.997889,34.35237],[130.997612,34.352425],[130.997539,34.35252],[130.997402,34.35257],[130.997102,34.35277],[130.996665,34.353245],[130.99644,34.353354],[130.996227,34.353537],[130.99609,34.353762],[130.995927,34.354237],[130.995727,34.354395],[130.99494,34.354753],[130.99469,34.355112],[130.99444,34.355253],[130.994302,34.355412],[130.994252,34.355653],[130.994227,34.356245],[130.993952,34.356945],[130.993865,34.357395],[130.993977,34.357661],[130.99389,34.357845],[130.993702,34.358003],[130.993315,34.358178],[130.99239,34.358453],[130.992215,34.358478],[130.991802,34.358336],[130.991615,34.358161],[130.99139,34.358045],[130.991202,34.358028],[130.990902,34.358095],[130.990565,34.358336],[130.990377,34.358636],[130.990052,34.358903],[130.98939,34.359128],[130.988977,34.359336],[130.98804,34.359853],[130.98749,34.359894],[130.986503,34.359811],[130.986315,34.359828],[130.985378,34.360328],[130.984228,34.360844],[130.983865,34.361069],[130.983565,34.361344],[130.983353,34.361453],[130.982415,34.361611],[130.981753,34.361861],[130.981478,34.362044],[130.981016,34.362602],[130.980816,34.362694],[130.980628,34.362586],[130.980466,34.362377],[130.980191,34.362202],[130.980128,34.362227],[130.980166,34.362452],[130.980466,34.363644],[130.980903,34.363736],[130.98189,34.363886],[130.982165,34.363952],[130.982778,34.364519],[130.983303,34.365194],[130.983328,34.365602],[130.983303,34.365619],[130.983078,34.365469],[130.982965,34.36551],[130.982915,34.365602],[130.98294,34.365777],[130.983028,34.365919],[130.983028,34.366319],[130.98314,34.366319],[130.98324,34.366227],[130.983328,34.366094],[130.983465,34.366002],[130.984178,34.365985],[130.98454,34.366027],[130.984753,34.366094],[130.984703,34.366185],[130.984703,34.366319],[130.984753,34.366385],[130.98484,34.366385],[130.984978,34.366344],[130.985053,34.366344],[130.985115,34.366385],[130.985065,34.366477],[130.985003,34.366544],[130.985065,34.366635],[130.985303,34.366585],[130.985365,34.366835],[130.985478,34.36686],[130.98564,34.36681],[130.98589,34.36706],[130.986165,34.367577],[130.98619,34.367735],[130.986165,34.367944],[130.986215,34.368052],[130.98619,34.368119],[130.986103,34.368119],[130.98599,34.36796],[130.985753,34.367919],[130.98564,34.367944],[130.985578,34.368027],[130.985615,34.368185],[130.985715,34.368327],[130.98589,34.368393],[130.985965,34.368485],[130.986028,34.368618],[130.986103,34.368635],[130.986352,34.368502],[130.986515,34.368502],[130.986927,34.368077],[130.987227,34.36801],[130.988027,34.368077],[130.988165,34.368027],[130.988327,34.367644],[130.988527,34.367485],[130.98874,34.367394],[130.989152,34.367327],[130.989927,34.367352],[130.990252,34.36746],[130.99069,34.36771],[130.990915,34.36771],[130.991277,34.367619],[130.991602,34.367619],[130.991877,34.36771],[130.992564,34.368185],[130.993089,34.368744],[130.993527,34.369444],[130.993664,34.369735],[130.993777,34.370093],[130.993889,34.370727],[130.994627,34.371943],[130.995077,34.372485],[130.995314,34.372552],[130.995452,34.372485],[130.995677,34.372168],[130.995952,34.371968],[130.996364,34.371852],[130.996827,34.371785],[130.997514,34.371802],[130.997583,34.371743],[130.997726,34.371743],[130.997939,34.371902],[130.998626,34.372302],[130.999001,34.372552],[130.999289,34.372827],[131.000039,34.37341],[131.000639,34.373976],[131.000814,34.374051],[131.001039,34.37406],[131.001164,34.373951],[131.001251,34.373618],[131.001326,34.373635],[131.001451,34.373702],[131.001576,34.373726],[131.001689,34.373593],[131.001739,34.37326],[131.001851,34.373293],[131.002051,34.373435],[131.002189,34.373343],[131.002314,34.372893],[131.002376,34.372793],[131.002639,34.372735],[131.002839,34.372735],[131.002988,34.372793],[131.003076,34.372868],[131.003188,34.372885],[131.003326,34.372785],[131.003388,34.372635],[131.003426,34.372385],[131.003413,34.372152],[131.003214,34.37146],[131.003264,34.371277],[131.003376,34.37111],[131.003601,34.370968],[131.004551,34.370719],[131.005688,34.370519],[131.005876,34.370544],[131.007201,34.370969],[131.007438,34.371285],[131.007588,34.37141],[131.007738,34.37146],[131.008388,34.37146],[131.008638,34.371585],[131.009175,34.372127],[131.009475,34.372185],[131.009775,34.372185],[131.010113,34.372235],[131.010488,34.372368],[131.011813,34.372993],[131.0122,34.37316],[131.012675,34.373302],[131.013038,34.373385],[131.013488,34.373293],[131.0137,34.373218],[131.013775,34.37306],[131.013888,34.372668],[131.014013,34.372585],[131.01495,34.37261],[131.0153,34.372702],[131.015612,34.372902],[131.015962,34.373218],[131.0161,34.373385],[131.016237,34.37341],[131.016675,34.373318],[131.017125,34.373377],[131.018087,34.373668],[131.018437,34.373743],[131.018637,34.37376],[131.018812,34.373668],[131.019362,34.373202],[131.01975,34.373227],[131.02055,34.373218],[131.020999,34.373268],[131.021037,34.373343],[131.021399,34.373393],[131.021799,34.373402],[131.021887,34.373393],[131.022062,34.373102],[131.021862,34.37291],[131.022474,34.373085],[131.022662,34.37311],[131.022574,34.373277],[131.023399,34.373402],[131.023499,34.373452],[131.023474,34.373327],[131.023499,34.373277],[131.023574,34.373277],[131.023724,34.373352],[131.023987,34.373418],[131.024274,34.373385],[131.024387,34.373285],[131.024437,34.373127],[131.024424,34.372885],[131.024312,34.372427],[131.024387,34.372252],[131.024737,34.372177],[131.026974,34.371285],[131.028099,34.370927],[131.028461,34.37076],[131.028711,34.370727],[131.028824,34.370752],[131.029674,34.371385],[131.030374,34.371402],[131.030761,34.371069],[131.031074,34.371002],[131.032611,34.370411],[131.032736,34.370377],[131.034836,34.370344],[131.035986,34.371136],[131.036036,34.371294],[131.036073,34.37196],[131.035911,34.372127],[131.034898,34.37291],[131.034886,34.373219],[131.034973,34.373627],[131.035123,34.376143],[131.035198,34.376635],[131.035273,34.37676],[131.035723,34.376818],[131.036486,34.376818],[131.036436,34.377876],[131.036511,34.378785],[131.034898,34.378876],[131.034836,34.378968],[131.034311,34.379026],[131.034248,34.379218],[131.034248,34.37931],[131.034361,34.379393],[131.034636,34.379593],[131.034861,34.379835],[131.035098,34.379793],[131.035136,34.379743],[131.035486,34.380176],[131.035511,34.380401],[131.035436,34.380634],[131.035261,34.380934],[131.034848,34.381251],[131.034486,34.381476],[131.034436,34.381734],[131.034073,34.382001],[131.034348,34.382901],[131.034461,34.382901],[131.034473,34.383093],[131.034486,34.383367],[131.034498,34.383584],[131.034473,34.383917],[131.034423,34.384176],[131.034373,34.384392],[131.034348,34.384601],[131.034273,34.384801],[131.034198,34.385017],[131.034148,34.385134],[131.034023,34.385259],[131.033873,34.385317],[131.033673,34.385342],[131.033386,34.385367],[131.032986,34.385426],[131.032023,34.385742],[131.031648,34.386009],[131.031236,34.386534],[131.030748,34.387017],[131.030523,34.387275],[131.030411,34.387484],[131.030323,34.387825],[131.030148,34.388184],[131.029361,34.388983],[131.029123,34.389242],[131.028986,34.389275],[131.027611,34.389167],[131.026999,34.389233],[131.026774,34.38935],[131.026749,34.389458],[131.026874,34.389683],[131.026511,34.389658],[131.026236,34.389683],[131.025849,34.389817],[131.025574,34.389692],[131.025299,34.3897],[131.025286,34.389817],[131.025374,34.389975],[131.025711,34.390175],[131.025799,34.390267],[131.025761,34.390317],[131.025349,34.390308],[131.025361,34.390492],[131.025699,34.390767],[131.025611,34.390966],[131.025236,34.391258],[131.024861,34.391358],[131.024549,34.39135],[131.024261,34.391258],[131.024049,34.391116],[131.023761,34.391041],[131.023561,34.391025],[131.023599,34.390916],[131.023549,34.390733],[131.023324,34.3906],[131.022786,34.390558],[131.022711,34.390683],[131.022874,34.3911],[131.022836,34.39125],[131.022649,34.391316],[131.022349,34.391316],[131.021511,34.391033],[131.021399,34.390983],[131.021024,34.390925],[131.020961,34.39095],[131.020786,34.391116],[131.020811,34.391741],[131.020774,34.391866],[131.020536,34.392216],[131.020399,34.392225],[131.019961,34.392191],[131.019899,34.392325],[131.019961,34.3925],[131.020299,34.392791],[131.020399,34.393025],[131.020124,34.393541],[131.020024,34.393974],[131.019999,34.394591],[131.020099,34.395416],[131.019861,34.396049],[131.019699,34.396874],[131.019674,34.396891],[131.019236,34.396882],[131.018749,34.396799],[131.018736,34.396916],[131.018786,34.396982],[131.018211,34.397282],[131.018186,34.397666],[131.018124,34.397982],[131.017874,34.400049],[131.017686,34.400557],[131.017436,34.400874],[131.016836,34.401174],[131.016499,34.401249],[131.016461,34.401282],[131.016574,34.402723],[131.016686,34.402915],[131.017311,34.403423],[131.017399,34.40374],[131.017274,34.404057],[131.017061,34.40429],[131.016074,34.40494],[131.016011,34.40434],[131.015836,34.404365],[131.015886,34.40459],[131.015724,34.404673],[131.013899,34.404715],[131.013924,34.404582],[131.013724,34.404573],[131.013649,34.404807],[131.012637,34.404598],[131.012712,34.404398],[131.012474,34.40439],[131.012424,34.40454],[131.012174,34.404498],[131.011712,34.404307],[131.011574,34.403973],[131.011787,34.403873],[131.011824,34.403765],[131.011174,34.402257],[131.010912,34.401907],[131.010749,34.40184],[131.009512,34.401657],[131.009062,34.401523],[131.008787,34.401324],[131.008375,34.400857],[131.008125,34.400307],[131.008037,34.400249],[131.007862,34.400249],[131.007525,34.40044],[131.007112,34.400457],[131.0067,34.400307],[131.006025,34.400174],[131.005675,34.400015],[131.0055,34.399799],[131.005337,34.399507],[131.005475,34.399415],[131.005325,34.399165],[131.005175,34.399082],[131.004787,34.399007],[131.004612,34.399007],[131.004425,34.399199],[131.004137,34.399174],[131.003512,34.399624],[131.003075,34.39944],[131.00295,34.39929],[131.002613,34.399015],[131.002288,34.39874],[131.002113,34.39874],[131.00195,34.398632],[131.001863,34.398582],[131.001788,34.398515],[131.001638,34.398565],[131.001563,34.398624],[131.00155,34.398607],[131.00115,34.39854],[131.000825,34.39854],[131.000325,34.398749],[131,34.398715],[130.99985,34.398724],[130.9994,34.398915],[130.9991,34.398849],[130.998913,34.398832],[130.99875,34.398732],[130.9985,34.398674],[130.998263,34.398824],[130.998188,34.39924],[130.997738,34.399565],[130.997582,34.399523],[130.99745,34.39969],[130.997013,34.399849],[130.996851,34.399849],[130.996401,34.399399],[130.996126,34.399307],[130.995688,34.39929],[130.995163,34.398949],[130.995001,34.398907],[130.994176,34.399132],[130.993826,34.399249],[130.992613,34.399315],[130.992313,34.399224],[130.991789,34.398999],[130.991401,34.399049],[130.991151,34.399115],[130.990914,34.399132],[130.990801,34.399115],[130.990501,34.39914],[130.990001,34.399448],[130.989476,34.399832],[130.989126,34.399948],[130.988626,34.399857],[130.988301,34.399723],[130.987439,34.399565],[130.987139,34.39959],[130.986952,34.399707],[130.986427,34.40024],[130.986177,34.40029],[130.985489,34.400265],[130.984939,34.400423],[130.984664,34.400448],[130.984364,34.400382],[130.983877,34.400132],[130.983564,34.400248],[130.983264,34.400565],[130.983077,34.400657],[130.982602,34.400515],[130.982327,34.400565],[130.982089,34.400565],[130.981864,34.400515],[130.981565,34.40014],[130.981227,34.399982],[130.980927,34.39989],[130.980515,34.399848],[130.980327,34.399757],[130.980165,34.399598],[130.97999,34.399548],[130.979665,34.399573],[130.979552,34.399665],[130.979577,34.399732],[130.979527,34.39989],[130.979302,34.399982],[130.97879,34.399982],[130.978477,34.400048],[130.978377,34.400165],[130.978202,34.400523],[130.977715,34.400948],[130.977527,34.401173],[130.977352,34.401448],[130.976502,34.402123],[130.976377,34.402573],[130.976028,34.403023],[130.97479,34.403681],[130.974065,34.403614],[130.97354,34.403723],[130.973378,34.404089],[130.97269,34.404581],[130.972603,34.404672],[130.972578,34.405214],[130.972965,34.406047],[130.973128,34.406314],[130.973353,34.406497],[130.973628,34.406856],[130.973265,34.407131],[130.973103,34.406972],[130.972953,34.407172],[130.972565,34.40753],[130.972165,34.40768],[130.972003,34.407547],[130.971978,34.407614],[130.971653,34.40773],[130.971303,34.407564],[130.971378,34.407522],[130.97149,34.407439],[130.97154,34.407239],[130.971315,34.407097],[130.971128,34.407006],[130.971065,34.407139],[130.970853,34.407322],[130.970653,34.407022],[130.969891,34.406639],[130.969553,34.406547],[130.968316,34.405714],[130.967853,34.405531],[130.967628,34.405514],[130.966778,34.405239],[130.966303,34.405222],[130.965816,34.405264],[130.965291,34.405422],[130.964854,34.405756],[130.964704,34.405647],[130.964579,34.405647],[130.964241,34.405789],[130.963604,34.405947],[130.962766,34.406189],[130.962579,34.40623],[130.962341,34.406239],[130.961941,34.406239],[130.961454,34.406272],[130.961241,34.406264],[130.961091,34.406522],[130.961066,34.406714],[130.960092,34.40678],[130.959904,34.406847],[130.959204,34.407205],[130.958804,34.407105],[130.958592,34.407863],[130.956617,34.407139],[130.955454,34.406664],[130.955629,34.406364],[130.955704,34.40583],[130.955317,34.405705],[130.954842,34.405455],[130.95453,34.405505],[130.954117,34.405622],[130.953692,34.405864],[130.953555,34.406022],[130.953547,34.406024],[130.952667,34.405839],[130.952155,34.405547],[130.951292,34.404922],[130.95058,34.404197],[130.950118,34.403614],[130.949805,34.402872],[130.949943,34.402714],[130.950305,34.402714],[130.95033,34.402464],[130.95008,34.402439],[130.950468,34.401114],[130.950168,34.400997],[130.950355,34.400348],[130.950518,34.400256],[130.951455,34.400164],[130.952117,34.399964],[130.95388,34.399623],[130.954155,34.399506],[130.954667,34.399123],[130.95503,34.398673],[130.95558,34.39809],[130.95593,34.397815],[130.956267,34.397456],[130.95648,34.397298],[130.956542,34.397031],[130.956517,34.396215],[130.956405,34.396057],[130.95593,34.395948],[130.955767,34.395815],[130.955467,34.395407],[130.954805,34.394665],[130.95458,34.394323],[130.954392,34.393182],[130.954442,34.393065],[130.954917,34.392974],[130.95508,34.392865],[130.955155,34.392724],[130.955192,34.392415],[130.955105,34.391874],[130.95488,34.391215],[130.954967,34.390832],[130.955355,34.389841],[130.95538,34.389191],[130.955242,34.388874],[130.954655,34.388582],[130.952818,34.387949],[130.952568,34.387999],[130.952155,34.388182],[130.951918,34.388224],[130.951605,34.388199],[130.950618,34.388024],[130.949743,34.387999],[130.949356,34.387891],[130.948643,34.387507],[130.947818,34.387391],[130.947456,34.387307],[130.946993,34.387349],[130.945918,34.387624],[130.945043,34.387507],[130.944656,34.387649],[130.944018,34.387732],[130.943718,34.387874],[130.943119,34.388349],[130.942756,34.38839],[130.942406,34.388549],[130.942344,34.388615],[130.942094,34.388749],[130.941881,34.388957],[130.941331,34.389182],[130.940719,34.389115],[130.940144,34.389224],[130.939106,34.390057],[130.938881,34.39029],[130.938744,34.390532],[130.938581,34.391073],[130.938444,34.391348],[130.938231,34.391523],[130.937894,34.39164],[130.937569,34.391707],[130.937131,34.39164],[130.936794,34.391532],[130.936406,34.39144],[130.936081,34.391415],[130.935756,34.391465],[130.935444,34.391615],[130.935069,34.391932],[130.934957,34.39209],[130.934757,34.392182],[130.934407,34.392182],[130.933994,34.39214],[130.933357,34.39214],[130.933357,34.391982],[130.933194,34.391982],[130.932944,34.39194],[130.932694,34.391957],[130.932482,34.392181],[130.932757,34.39234],[130.932369,34.392406],[130.932257,34.392481],[130.932157,34.392723],[130.932182,34.39279],[130.932507,34.39284],[130.932807,34.39279],[130.932732,34.392973],[130.932944,34.393015],[130.933307,34.392906],[130.933357,34.392856],[130.933832,34.392698],[130.934294,34.392565],[130.934594,34.39254],[130.934819,34.39259],[130.935644,34.393331],[130.936169,34.39394],[130.936356,34.394298],[130.936281,34.39464],[130.936056,34.394931],[130.935919,34.39504],[130.935619,34.395539],[130.935506,34.395881],[130.935481,34.396239],[130.935644,34.396506],[130.936256,34.396848],[130.936856,34.397073],[130.937156,34.397248],[130.937319,34.397539],[130.937406,34.398198],[130.937519,34.398531],[130.937631,34.398648],[130.937981,34.399322],[130.938119,34.399681],[130.938319,34.400656],[130.938319,34.400922],[130.938069,34.401439],[130.937744,34.40178],[130.937519,34.402072],[130.937269,34.402322],[130.936606,34.402572],[130.936481,34.402772],[130.936444,34.402972],[130.936619,34.403105],[130.936944,34.403264],[130.937056,34.403422],[130.937031,34.403647],[130.937581,34.403922],[130.937744,34.403964],[130.937774,34.403956],[130.938068,34.403989],[130.939006,34.404214],[130.939368,34.40428],[130.939831,34.40423],[130.940268,34.40403],[130.941181,34.403755],[130.942581,34.403105],[130.943381,34.402897],[130.943843,34.40288],[130.944256,34.402897],[130.94533,34.403097],[130.946155,34.403347],[130.946205,34.403389],[130.94668,34.403547],[130.947005,34.403772],[130.947418,34.40398],[130.947943,34.404155],[130.948243,34.40443],[130.948718,34.404947],[130.94923,34.405189],[130.949818,34.405397],[130.950555,34.40573],[130.951292,34.406005],[130.95163,34.406314],[130.951955,34.406522],[130.952392,34.406722],[130.952942,34.406897],[130.953555,34.407197],[130.95388,34.40773],[130.954155,34.408455],[130.954429,34.408997],[130.954742,34.409238],[130.955617,34.409555],[130.955954,34.409713],[130.956192,34.409897],[130.956442,34.410138],[130.956579,34.410363],[130.956804,34.410571],[130.957267,34.410771],[130.958179,34.411288],[130.958617,34.411763],[130.958841,34.412055],[130.959029,34.41253],[130.959116,34.413221],[130.959441,34.413313],[130.959191,34.413404],[130.959054,34.413521],[130.959029,34.413679],[130.959091,34.414013],[130.959341,34.414129],[130.959166,34.414688],[130.959004,34.415588],[130.958591,34.416829],[130.958516,34.417212],[130.958516,34.417554],[130.958316,34.417979],[130.957991,34.418587],[130.957029,34.419879],[130.956991,34.420087],[130.957029,34.420245],[130.957141,34.42042],[130.957404,34.420637],[130.957566,34.42092],[130.957591,34.421395],[130.957516,34.421587],[130.957966,34.422553],[130.958216,34.422678],[130.958329,34.42267],[130.958466,34.422928],[130.958591,34.423245],[130.959453,34.42497],[130.959603,34.425361],[130.959591,34.425511],[130.959691,34.42577],[130.959778,34.425811],[130.959978,34.426103],[130.960403,34.42692],[130.960678,34.42737],[130.961303,34.427678],[130.961928,34.427778],[130.962103,34.427961],[130.962253,34.427911],[130.962353,34.427919],[130.962353,34.428028],[130.962453,34.428219],[130.962416,34.428361],[130.96289,34.428436],[130.96289,34.428286],[130.963028,34.428169],[130.963228,34.428086],[130.963665,34.428111],[130.96414,34.428186],[130.96444,34.428086],[130.96464,34.427978],[130.965928,34.427695],[130.966428,34.427695],[130.96714,34.427795],[130.968527,34.427861],[130.96874,34.427995],[130.968952,34.428311],[130.969002,34.428511],[130.969165,34.428661],[130.969277,34.428536],[130.969465,34.428428],[130.969902,34.428453],[130.970127,34.428403],[130.97044,34.42862],[130.971315,34.429361],[130.971902,34.429969],[130.972252,34.430578],[130.972527,34.431161],[130.972764,34.431428],[130.973139,34.431719],[130.973364,34.431994],[130.973339,34.432386],[130.973227,34.432786],[130.972989,34.432919],[130.972727,34.433136],[130.972589,34.433302],[130.972602,34.433469],[130.972664,34.433627],[130.972777,34.433761],[130.972514,34.434027],[130.972339,34.434344],[130.972389,34.434644],[130.972564,34.434786],[130.972727,34.434844],[130.972977,34.434852],[130.973077,34.434936],[130.973114,34.435027],[130.973089,34.435286],[130.972927,34.435594],[130.972652,34.435785],[130.972527,34.43601],[130.972477,34.436044],[130.972452,34.436335],[130.972564,34.436585],[130.972989,34.436644],[130.973027,34.436719],[130.972927,34.437177],[130.972914,34.437519],[130.972777,34.438035],[130.973114,34.438227],[130.973339,34.438285],[130.973302,34.438443],[130.973327,34.438702],[130.973364,34.43871],[130.973551,34.438627],[130.973851,34.438577],[130.974001,34.438752],[130.973914,34.438993],[130.973739,34.439277],[130.973264,34.439635],[130.972864,34.43981],[130.972664,34.440093],[130.972527,34.440393],[130.972289,34.440535],[130.972052,34.440752],[130.971727,34.441126],[130.971689,34.441335],[130.971739,34.441518],[130.971952,34.441793],[130.972127,34.441826],[130.972314,34.441926],[130.972289,34.442335],[130.972401,34.442426],[130.972476,34.442393],[130.972501,34.442201],[130.972601,34.442018],[130.972901,34.441668],[130.973051,34.441418],[130.973264,34.441435],[130.973351,34.441501],[130.973464,34.441701],[130.973414,34.442151],[130.973264,34.442318],[130.973351,34.442418],[130.973564,34.442368],[130.973701,34.442301],[130.973939,34.442401],[130.974126,34.442368],[130.974401,34.442168],[130.974526,34.441968],[130.974714,34.441751],[130.974776,34.441543],[130.974839,34.440768],[130.974801,34.44071],[130.974389,34.440502],[130.974389,34.440268],[130.974451,34.440035],[130.974589,34.440077],[130.974676,34.43996],[130.974651,34.439735],[130.974801,34.439577],[130.975026,34.439577],[130.975101,34.439743],[130.975401,34.439793],[130.975426,34.439627],[130.975564,34.439477],[130.975714,34.439377],[130.975814,34.439602],[130.975976,34.439652],[130.976289,34.439593],[130.976301,34.439368],[130.976214,34.43936],[130.976239,34.43921],[130.976501,34.438944],[130.976589,34.438752],[130.976701,34.438685],[130.976814,34.438969],[130.976776,34.439135],[130.976814,34.439185],[130.976939,34.439035],[130.976989,34.438877],[130.977164,34.438777],[130.977151,34.438969],[130.977264,34.438819],[130.977314,34.438177],[130.977501,34.437994],[130.977626,34.438044],[130.977701,34.438277],[130.977864,34.438294],[130.977964,34.438244],[130.978176,34.438394],[130.978451,34.438444],[130.978613,34.438277],[130.978251,34.437777],[130.978414,34.437577],[130.978689,34.43746],[130.978726,34.437585],[130.978801,34.437635],[130.978951,34.437635],[130.978951,34.437702],[130.979138,34.43761],[130.979288,34.437469],[130.979363,34.437469],[130.979326,34.437635],[130.979351,34.437835],[130.979376,34.437835],[130.979538,34.437435],[130.979726,34.437227],[130.979788,34.436944],[130.980151,34.436885],[130.980238,34.436735],[130.980238,34.436619],[130.980163,34.436744],[130.980038,34.436727],[130.980026,34.436661],[130.980176,34.436577],[130.980163,34.436369],[130.979963,34.436244],[130.979976,34.436102],[130.980276,34.435769],[130.980613,34.435552],[130.981626,34.435052],[130.981826,34.435077],[130.982051,34.435144],[130.982438,34.435236],[130.982538,34.435352],[130.982401,34.435552],[130.982426,34.435636],[130.982513,34.435652],[130.982563,34.435761],[130.982763,34.435661],[130.982813,34.435486],[130.982713,34.435144],[130.982726,34.435052],[130.983076,34.434994],[130.983501,34.434894],[130.984226,34.434669],[130.984676,34.434669],[130.984938,34.434736],[130.985025,34.434786],[130.98505,34.434911],[130.985138,34.435069],[130.985275,34.435119],[130.985325,34.435111],[130.985575,34.435252],[130.9856,34.435044],[130.985663,34.435011],[130.9861,34.435086],[130.986663,34.434861],[130.9869,34.434894],[130.9871,34.434853],[130.9869,34.433986],[130.9871,34.433694],[130.987425,34.433394],[130.987963,34.433036],[130.98835,34.432836],[130.99,34.432703],[130.990325,34.432753],[130.990775,34.432728],[130.99135,34.432553],[130.9922,34.432403],[130.992612,34.432278],[130.9958,34.431145],[130.997,34.43057],[130.997581,34.430352],[130.999499,34.430062],[130.999937,34.429945],[131.000362,34.429753],[131.001449,34.429087],[131.002112,34.428629],[131.002987,34.428129],[131.003412,34.427854],[131.003762,34.427429],[131.003912,34.427104],[131.003999,34.426779],[131.003999,34.426404],[131.004049,34.426096],[131.003837,34.425296],[131.003749,34.424854],[131.003762,34.424437],[131.003624,34.423696],[131.003399,34.423004],[131.003074,34.422413],[131.002762,34.421921],[131.002874,34.421846],[131.003024,34.421838],[131.003237,34.420238],[131.003037,34.420221],[131.003024,34.42008],[131.002987,34.42008],[131.002824,34.41988],[131.002937,34.419705],[131.003212,34.419771],[131.003549,34.418905],[131.004399,34.417063],[131.004799,34.41693],[131.004837,34.416813],[131.005324,34.417038],[131.005487,34.417022],[131.005712,34.41648],[131.004449,34.41608],[131.004362,34.415688],[131.004724,34.415455],[131.004999,34.415205],[131.005312,34.415014],[131.005587,34.414972],[131.005974,34.415247],[131.006374,34.415322],[131.006537,34.41543],[131.006637,34.415688],[131.006774,34.415647],[131.007212,34.415297],[131.007324,34.415089],[131.007349,34.414639],[131.007487,34.414505],[131.007699,34.414447],[131.007912,34.414222],[131.008062,34.414022],[131.008162,34.413955],[131.009512,34.413522],[131.011324,34.412981],[131.012499,34.412681],[131.013074,34.412581],[131.013274,34.412781],[131.013399,34.412747],[131.013674,34.412414],[131.013999,34.412297],[131.014349,34.412247],[131.014674,34.412297],[131.014861,34.412389],[131.015086,34.412831],[131.015161,34.412864],[131.015274,34.412797],[131.015411,34.412414],[131.015474,34.412347],[131.015599,34.412372],[131.015786,34.412481],[131.016086,34.412814],[131.016236,34.412822],[131.016299,34.412622],[131.016324,34.412322],[131.016399,34.412172],[131.016586,34.412281],[131.016824,34.412306],[131.016936,34.412189],[131.017074,34.411831],[131.017274,34.411572],[131.017523,34.411414],[131.017873,34.411372],[131.018898,34.411389],[131.019761,34.411189],[131.020836,34.411148],[131.021386,34.411239],[131.021698,34.411389],[131.021961,34.411556],[131.022186,34.411639],[131.022486,34.411614],[131.023298,34.411339],[131.023661,34.411248],[131.024448,34.411339],[131.025048,34.411381],[131.02541,34.411439],[131.025598,34.411806],[131.025685,34.411864],[131.025773,34.411856],[131.025873,34.411639],[131.025785,34.411389],[131.025798,34.411348],[131.026185,34.411256],[131.026735,34.411181],[131.027535,34.411139],[131.027848,34.410948],[131.028198,34.410714],[131.028935,34.410564],[131.029573,34.410539],[131.029985,34.410648],[131.03036,34.410573],[131.030685,34.410439],[131.031147,34.410306],[131.03186,34.410181],[131.032422,34.410156],[131.032897,34.410215],[131.033335,34.410323],[131.03386,34.410523],[131.034222,34.410773],[131.034997,34.411439],[131.03536,34.411639],[131.035835,34.411839],[131.036335,34.411998],[131.037809,34.412206],[131.038447,34.412198],[131.038609,34.412106],[131.039197,34.41149],[131.039797,34.41139],[131.041522,34.410615],[131.042609,34.410381],[131.043022,34.410306],[131.043422,34.410306],[131.043984,34.410415],[131.044946,34.410673],[131.046221,34.410898],[131.046884,34.411198],[131.046884,34.411273],[131.046671,34.411406],[131.046634,34.411531],[131.046659,34.411581],[131.046971,34.41169],[131.047196,34.411698],[131.047309,34.411606],[131.047346,34.411406],[131.047309,34.411281],[131.047584,34.411206],[131.047759,34.411423],[131.048046,34.41124],[131.048621,34.411348],[131.049121,34.411573],[131.049196,34.41219],[131.049521,34.41234],[131.049883,34.412798],[131.050258,34.413473],[131.050558,34.413873],[131.050883,34.414189],[131.051233,34.414456],[131.052021,34.414881],[131.052633,34.415273],[131.053021,34.415414],[131.05402,34.415589],[131.054833,34.415756],[131.055133,34.415689],[131.055695,34.415514],[131.057033,34.415248],[131.057433,34.415239],[131.057583,34.415281],[131.05782,34.415431],[131.05822,34.415806],[131.058858,34.416306],[131.059108,34.416723],[131.059157,34.416756],[131.05927,34.416714],[131.059407,34.416706],[131.059507,34.416773],[131.059632,34.416906],[131.05972,34.417348],[131.059795,34.417573],[131.060057,34.417748],[131.060157,34.417864],[131.060445,34.417798],[131.060595,34.417681],[131.060732,34.417656],[131.060545,34.418298],[131.06067,34.418398],[131.060782,34.418348],[131.060907,34.418164],[131.061007,34.418098],[131.061132,34.418131],[131.061307,34.418256],[131.061382,34.418464],[131.06137,34.418789],[131.061407,34.418848],[131.06162,34.418881],[131.061782,34.418781],[131.06187,34.418781],[131.061845,34.419231],[131.061945,34.419514],[131.062145,34.419764],[131.062307,34.419881],[131.062495,34.420097],[131.06237,34.420597],[131.062507,34.420781],[131.063332,34.421339],[131.063432,34.421097],[131.063569,34.420872],[131.063719,34.420739],[131.063932,34.420731],[131.064194,34.420789],[131.064419,34.420764],[131.064607,34.420664],[131.064819,34.420472],[131.065069,34.420464],[131.065194,34.420347],[131.065482,34.419881],[131.065657,34.419756],[131.066032,34.419698],[131.066569,34.419323],[131.067207,34.418864],[131.067607,34.418548],[131.067982,34.418414],[131.068794,34.418289],[131.068769,34.418531],[131.069044,34.418548],[131.069057,34.419039],[131.069594,34.419156],[131.069481,34.419631],[131.069206,34.419881],[131.068981,34.420106],[131.068669,34.420722],[131.068719,34.421389],[131.068644,34.421581],[131.068706,34.421697],[131.068831,34.421706],[131.069106,34.421614],[131.069319,34.421639],[131.069469,34.421722],[131.069706,34.421756],[131.069894,34.421731],[131.069906,34.421856],[131.069919,34.422014],[131.070219,34.422464],[131.070181,34.422639],[131.070231,34.422856],[131.070356,34.423014],[131.070569,34.423014],[131.070794,34.422964],[131.070931,34.422964],[131.070981,34.423106],[131.070956,34.423297],[131.070856,34.423439],[131.070806,34.423656],[131.070831,34.423847],[131.070956,34.423914],[131.071106,34.423914],[131.071356,34.423789],[131.071519,34.423639],[131.071556,34.423397],[131.071506,34.423272],[131.071531,34.423147],[131.071644,34.422972],[131.072144,34.422839],[131.072956,34.422897],[131.073056,34.423006],[131.072956,34.423464],[131.073131,34.423656],[131.073393,34.423789],[131.073468,34.423872],[131.073356,34.423956],[131.073206,34.424014],[131.073181,34.424114],[131.073281,34.424197],[131.073806,34.424156],[131.073993,34.424331],[131.074293,34.424389],[131.074506,34.424389],[131.074881,34.424214],[131.074918,34.424414],[131.074981,34.424439],[131.075106,34.424397],[131.075268,34.424256],[131.075368,34.424089],[131.075331,34.423856],[131.075181,34.423697],[131.075218,34.423472],[131.075268,34.423447],[131.075393,34.423472],[131.075643,34.423764],[131.075768,34.423822],[131.075893,34.423797],[131.076081,34.423639],[131.076131,34.423406],[131.076081,34.423156],[131.076156,34.422639],[131.076281,34.422539],[131.076406,34.422556],[131.076831,34.422756],[131.076943,34.422764],[131.077143,34.422698],[131.077256,34.422573],[131.077368,34.422356],[131.077543,34.422206],[131.077743,34.422089],[131.077993,34.422023],[131.078206,34.421998],[131.078406,34.422164],[131.078556,34.422023],[131.078806,34.421948],[131.079193,34.421906],[131.079493,34.421948],[131.079568,34.421856],[131.07968,34.421806],[131.079918,34.421773],[131.080368,34.421581],[131.081068,34.421089],[131.081355,34.420973],[131.081843,34.421081],[131.08213,34.421056],[131.08238,34.420989],[131.08283,34.420698],[131.083055,34.420656],[131.08318,34.420715],[131.08318,34.42089],[131.08328,34.420973],[131.083418,34.420948],[131.08363,34.420756],[131.084168,34.420565],[131.084318,34.420615],[131.084443,34.421006],[131.08463,34.420965],[131.084705,34.420515],[131.084955,34.420423],[131.08563,34.420315],[131.086005,34.420273],[131.086042,34.420065],[131.086217,34.419881],[131.086417,34.419765],[131.087792,34.419398],[131.088367,34.419323],[131.089317,34.419323],[131.089955,34.419257],[131.090655,34.419148],[131.091242,34.419407],[131.091854,34.419582],[131.091879,34.419615],[131.091854,34.419882],[131.092017,34.420115],[131.092417,34.420223],[131.092554,34.420048],[131.092642,34.42024],[131.092654,34.420315],[131.092554,34.420348],[131.092554,34.420456],[131.092842,34.420681],[131.093042,34.420598],[131.093204,34.42049],[131.093329,34.420457],[131.093667,34.420582],[131.094004,34.420607],[131.094092,34.420423],[131.094029,34.420332],[131.094167,34.42044],[131.094329,34.42064],[131.094517,34.42079],[131.094604,34.420723],[131.094767,34.420432],[131.094817,34.420123],[131.094767,34.419882],[131.094742,34.419798],[131.094767,34.419707],[131.094929,34.419782],[131.095042,34.419882],[131.095104,34.420032],[131.095192,34.420065],[131.095229,34.420048],[131.095267,34.419882],[131.095379,34.41974],[131.095467,34.419373],[131.095629,34.419215],[131.095792,34.419348],[131.095892,34.41959],[131.096004,34.419665],[131.096142,34.41964],[131.096329,34.419507],[131.096392,34.419365],[131.096504,34.41934],[131.096654,34.419423],[131.096704,34.419557],[131.096629,34.419732],[131.096667,34.41979],[131.096854,34.419773],[131.096942,34.419873],[131.096954,34.419882],[131.097154,34.420023],[131.097622,34.420164],[131.097822,34.420089],[131.097929,34.419882],[131.09791,34.419847],[131.097941,34.419765],[131.097841,34.419523],[131.097529,34.419115],[131.097629,34.419073],[131.097954,34.419265],[131.098141,34.419315],[131.098304,34.419248],[131.098241,34.418807],[131.098179,34.418457],[131.098279,34.41839],[131.098392,34.418432],[131.098666,34.418674],[131.098891,34.418707],[131.098979,34.418674],[131.099191,34.418457],[131.099279,34.418482],[131.099354,34.41874],[131.099591,34.418899],[131.099729,34.419057],[131.099879,34.419049],[131.099954,34.419015],[131.099866,34.41869],[131.099866,34.418449],[131.099916,34.41834],[131.099954,34.418324],[131.100079,34.418374],[131.100241,34.418565],[131.100791,34.418465],[131.100854,34.418399],[131.100829,34.418307],[131.100616,34.418065],[131.100616,34.418049],[131.100804,34.418124],[131.100991,34.418149],[131.101141,34.41809],[131.100891,34.417382],[131.100991,34.417224],[131.101404,34.41709],[131.101716,34.417032],[131.102041,34.416915],[131.102291,34.416765],[131.102416,34.416757],[131.102704,34.416924],[131.102829,34.41689],[131.102929,34.416749],[131.103104,34.415982],[131.103216,34.415866],[131.103479,34.415757],[131.103616,34.415791],[131.103991,34.416341],[131.104079,34.416366],[131.104266,34.416007],[131.104329,34.416032],[131.104429,34.416116],[131.104529,34.416141],[131.104566,34.416007],[131.104579,34.415557],[131.104616,34.415374],[131.105591,34.414882],[131.105779,34.414716],[131.105929,34.414474],[131.105991,34.414233],[131.106054,34.414116],[131.106154,34.414108],[131.106779,34.414233],[131.107104,34.414241],[131.107378,34.414133],[131.107978,34.413766],[131.108391,34.413641],[131.108703,34.413608],[131.108941,34.413549],[131.109091,34.413283],[131.108991,34.413216],[131.108978,34.413066],[131.109103,34.412883],[131.109216,34.412574],[131.109278,34.412541],[131.109416,34.412558],[131.109503,34.412649],[131.109653,34.412649],[131.109841,34.41255],[131.110241,34.41225],[131.110291,34.412133],[131.110141,34.412091],[131.110141,34.411941],[131.110353,34.411741],[131.110591,34.4118],[131.110878,34.41165],[131.111178,34.411233],[131.111291,34.411216],[131.111341,34.411141],[131.111316,34.410941],[131.111178,34.410791],[131.111153,34.410425],[131.111328,34.409733],[131.111691,34.409308],[131.111978,34.409183],[131.112491,34.409092]]],"type":"Polygon"},"properties":{"kuni":"長門","id":"G56003","kuni_url":"/kg/resource/K56.html","id_url":"G56003.html","kuni_id":"K56","pref":"山口県","name":"大津","yomi":"をほつ"}}]}