{"features":[{"type":"Feature","geometry":{"coordinates":[[[135.145928,34.282653],[135.146253,34.283102],[135.146903,34.283644],[135.147178,34.283736],[135.14764,34.283802],[135.148265,34.283736],[135.148428,34.283644],[135.149028,34.283019],[135.149352,34.282878],[135.149465,34.282878],[135.15069,34.282361],[135.151127,34.282253],[135.151827,34.282344],[135.152027,34.282203],[135.152327,34.282094],[135.15309,34.282344],[135.153465,34.282344],[135.15369,34.282161],[135.153815,34.281894],[135.153852,34.281594],[135.153952,34.281353],[135.154227,34.281261],[135.154665,34.28117],[135.154965,34.281011],[135.15489,34.280745],[135.15469,34.280428],[135.15434,34.280061],[135.153627,34.27947],[135.153502,34.279136],[135.15344,34.278728],[135.153502,34.278345],[135.153852,34.277711],[135.15404,34.277237],[135.154152,34.276803],[135.154077,34.276537],[135.153877,34.276287],[135.153365,34.27527],[135.152602,34.275087],[135.152465,34.274878],[135.152352,34.274587],[135.152352,34.274428],[135.15304,34.274387],[135.153502,34.27427],[135.153802,34.274253],[135.15424,34.274345],[135.15459,34.274595],[135.155002,34.274978],[135.155865,34.275703],[135.15649,34.276495],[135.156927,34.276812],[135.157365,34.277037],[135.157915,34.277128],[135.158402,34.27702],[135.158977,34.276995],[135.159789,34.277562],[135.160064,34.277812],[135.160464,34.277903],[135.160627,34.277812],[135.160902,34.27752],[135.160927,34.277453],[135.161064,34.277453],[135.161264,34.277562],[135.161527,34.277812],[135.161914,34.278037],[135.162377,34.278103],[135.162652,34.278178],[135.162914,34.278312],[135.163189,34.278495],[135.163652,34.278628],[135.164777,34.278653],[135.165702,34.278745],[135.166027,34.278953],[135.166326,34.279495],[135.166589,34.279812],[135.166976,34.279945],[135.167551,34.280012],[135.168151,34.280037],[135.169376,34.280262],[135.169776,34.280178],[135.170189,34.279928],[135.170489,34.279995],[135.170926,34.28022],[135.171364,34.280495],[135.171714,34.280628],[135.172126,34.280628],[135.172389,34.28052],[135.172664,34.280295],[135.172726,34.280203],[135.173314,34.280203],[135.174926,34.27987],[135.175363,34.27982],[135.175801,34.279895],[135.176338,34.27987],[135.176888,34.279779],[135.177301,34.27962],[135.177701,34.279354],[135.178226,34.279079],[135.178551,34.278945],[135.178738,34.278904],[135.179363,34.27897],[135.179613,34.27917],[135.179851,34.279537],[135.180313,34.279895],[135.180426,34.279895],[135.181138,34.279762],[135.181488,34.279537],[135.181926,34.279404],[135.182438,34.279337],[135.182851,34.279179],[135.18315,34.278904],[135.1835,34.278754],[135.184025,34.278754],[135.184563,34.278912],[135.1847,34.279112],[135.184813,34.279479],[135.184888,34.279954],[135.184888,34.280604],[135.184975,34.281062],[135.185213,34.281262],[135.18595,34.281445],[135.186088,34.281537],[135.186388,34.281962],[135.186775,34.282329],[135.188,34.283237],[135.188238,34.283212],[135.188813,34.282962],[135.189363,34.282787],[135.189688,34.282762],[135.1899,34.283012],[135.190087,34.283354],[135.19075,34.28432],[135.190875,34.285095],[135.19115,34.285453],[135.191537,34.286137],[135.191775,34.286453],[135.1921,34.286678],[135.193062,34.286928],[135.1936,34.28702],[135.194012,34.28697],[135.194062,34.286928],[135.19475,34.286862],[135.19545,34.286204],[135.19595,34.286029],[135.196437,34.285979],[135.196737,34.28612],[135.196925,34.28637],[135.197474,34.286687],[135.197937,34.287362],[135.198287,34.287795],[135.198587,34.287978],[135.198887,34.288045],[135.199162,34.287953],[135.199399,34.287687],[135.199649,34.287479],[135.199762,34.287454],[135.200162,34.287529],[135.201637,34.288229],[135.201937,34.288137],[135.202262,34.287887],[135.202786,34.28762],[135.202911,34.28762],[135.203436,34.288095],[135.203649,34.288145],[135.204061,34.28807],[135.204436,34.288054],[135.204799,34.288079],[135.205074,34.288212],[135.205261,34.288437],[135.205286,34.28857],[135.205199,34.28887],[135.204824,34.289703],[135.204524,34.290178],[135.204411,34.29052],[135.204736,34.291378],[135.204761,34.291762],[135.204686,34.292645],[135.204824,34.293453],[135.204799,34.293953],[135.204874,34.29502],[135.204824,34.295336],[135.204849,34.295736],[135.204924,34.29617],[135.204799,34.296553],[135.204599,34.296919],[135.204324,34.297728],[135.204386,34.298136],[135.204736,34.298994],[135.205011,34.299877],[135.205198,34.300311],[135.205448,34.300536],[135.206286,34.300786],[135.206698,34.301077],[135.207048,34.301419],[135.208036,34.302277],[135.208411,34.302752],[135.208636,34.303344],[135.208636,34.303752],[135.208473,34.304135],[135.208273,34.304877],[135.208223,34.305852],[135.20846,34.306668],[135.208523,34.307251],[135.20841,34.307685],[135.208298,34.307868],[135.208035,34.308135],[135.20871,34.30811],[135.209123,34.308068],[135.209585,34.307868],[135.209935,34.307551],[135.21021,34.307235],[135.210623,34.306877],[135.21086,34.306718],[135.211685,34.306468],[135.212935,34.306285],[135.21331,34.306044],[135.213723,34.30586],[135.214348,34.30566],[135.215772,34.305119],[135.216197,34.305077],[135.217022,34.305094],[135.217897,34.305169],[135.218322,34.305169],[135.21896,34.305119],[135.219447,34.305011],[135.220422,34.304653],[135.220922,34.304269],[135.221572,34.303928],[135.221947,34.303795],[135.222934,34.303095],[135.224109,34.302078],[135.224672,34.301428],[135.224809,34.300995],[135.224897,34.300928],[135.225472,34.30097],[135.226359,34.301312],[135.227884,34.301654],[135.230996,34.302521],[135.231784,34.302654],[135.232609,34.302837],[135.233309,34.303046],[135.234071,34.303229],[135.235571,34.303637],[135.235521,34.303746],[135.235321,34.303954],[135.235571,34.304129],[135.235734,34.304362],[135.235959,34.304854],[135.236121,34.305512],[135.236196,34.305629],[135.236608,34.305695],[135.236858,34.305854],[135.237621,34.30617],[135.237783,34.306353],[135.237996,34.306512],[135.238271,34.306645],[135.238546,34.307053],[135.239283,34.307645],[135.239683,34.307895],[135.240046,34.308028],[135.240608,34.308411],[135.241321,34.308461],[135.241621,34.308961],[135.241833,34.30912],[135.242133,34.309186],[135.242333,34.309386],[135.242521,34.309703],[135.242796,34.310003],[135.243071,34.310111],[135.243533,34.310111],[135.243696,34.310161],[135.244021,34.310703],[135.244458,34.310911],[135.244558,34.311111],[135.244833,34.311336],[135.24532,34.311561],[135.245795,34.311927],[135.246058,34.312244],[135.246308,34.312627],[135.24647,34.313286],[135.246445,34.313327],[135.247045,34.313219],[135.247229,34.313124],[135.247333,34.313061],[135.24792,34.312927],[135.24822,34.312919],[135.248495,34.312986],[135.248858,34.31371],[135.24902,34.314319],[135.24932,34.314335],[135.249733,34.314319],[135.249858,34.314335],[135.250158,34.314469],[135.250408,34.314535],[135.250708,34.314519],[135.251145,34.314602],[135.251583,34.314735],[135.252008,34.31476],[135.252182,34.31471],[135.252557,34.314685],[135.252695,34.314735],[135.25302,34.315119],[135.25362,34.315177],[135.254132,34.315518],[135.25447,34.315677],[135.254682,34.315652],[135.255032,34.31556],[135.255607,34.315577],[135.255982,34.315693],[135.25612,34.315668],[135.256745,34.31546],[135.257095,34.31546],[135.257695,34.315568],[135.258082,34.315502],[135.258645,34.315027],[135.259245,34.314618],[135.259707,34.314235],[135.260295,34.313852],[135.261219,34.312944],[135.261544,34.312577],[135.261844,34.312352],[135.261982,34.312335],[135.262144,34.312377],[135.262657,34.312669],[135.263119,34.312977],[135.263507,34.313044],[135.263857,34.313027],[135.264507,34.31311],[135.265182,34.312902],[135.265644,34.312652],[135.265782,34.31261],[135.266032,34.312585],[135.266294,34.31261],[135.267981,34.31251],[135.268669,34.312444],[135.269256,34.312419],[135.269856,34.312194],[135.270294,34.312277],[135.271131,34.312319],[135.271244,34.312119],[135.271381,34.311686],[135.271344,34.311327],[135.270906,34.310652],[135.270744,34.310319],[135.270694,34.309977],[135.270706,34.309169],[135.270919,34.307903],[135.270944,34.307519],[135.270894,34.307228],[135.270731,34.307028],[135.270556,34.306886],[135.270419,34.306619],[135.270581,34.306078],[135.270531,34.306036],[135.270281,34.305944],[135.270069,34.305695],[135.269681,34.30507],[135.269519,34.304686],[135.269519,34.304545],[135.269706,34.304028],[135.269894,34.303803],[135.269994,34.303528],[135.269994,34.303303],[135.270056,34.30317],[135.270156,34.303128],[135.270544,34.303395],[135.270794,34.30362],[135.270981,34.303711],[135.271494,34.303436],[135.271706,34.302803],[135.271819,34.302395],[135.272056,34.302062],[135.272106,34.302062],[135.272381,34.301745],[135.272456,34.301445],[135.272294,34.300862],[135.272319,34.300053],[135.272369,34.29962],[135.272506,34.29922],[135.272669,34.298879],[135.272881,34.298562],[135.273581,34.297362],[135.273581,34.29707],[135.273281,34.296304],[135.273106,34.295762],[135.272719,34.294979],[135.271819,34.293654],[135.271656,34.293354],[135.271619,34.292663],[135.271431,34.292071],[135.271369,34.291779],[135.271619,34.291146],[135.271694,34.291013],[135.272369,34.290421],[135.272481,34.290246],[135.272419,34.290021],[135.271906,34.290088],[135.271369,34.290246],[135.271344,34.290154],[135.271494,34.289888],[135.271719,34.289663],[135.272181,34.289271],[135.272306,34.288963],[135.272581,34.288596],[135.272819,34.28803],[135.272844,34.287696],[135.272819,34.287488],[135.272894,34.287088],[135.273519,34.285822],[135.273731,34.28503],[135.273831,34.284172],[135.273994,34.283764],[135.274044,34.283747],[135.274044,34.283697],[135.274206,34.283539],[135.274319,34.283497],[135.274506,34.283589],[135.274694,34.283605],[135.274756,34.283539],[135.274781,34.283405],[135.274744,34.282047],[135.274819,34.281647],[135.274981,34.28128],[135.276119,34.279614],[135.276169,34.279247],[135.276106,34.278481],[135.276169,34.278347],[135.276194,34.277989],[135.276131,34.277698],[135.275781,34.276998],[135.275744,34.276639],[135.275331,34.275514],[135.275194,34.275014],[135.274806,34.27409],[135.274694,34.273665],[135.274344,34.272765],[135.274144,34.272381],[135.274006,34.271973],[135.273894,34.271323],[135.275581,34.27129],[135.276968,34.271156],[135.277018,34.270948],[135.276993,34.270682],[135.276856,34.270073],[135.276394,34.269957],[135.276144,34.269732],[135.276169,34.269215],[135.276081,34.268882],[135.275619,34.268115],[135.276381,34.267748],[135.277106,34.267432],[135.276431,34.266715],[135.276231,34.26644],[135.276256,34.266149],[135.275881,34.265907],[135.275544,34.265699],[135.275144,34.265274],[135.275031,34.265007],[135.275031,34.264874],[135.275456,34.264549],[135.275731,34.264324],[135.275869,34.264149],[135.275894,34.26399],[135.275806,34.263557],[135.275594,34.263424],[135.274944,34.263157],[135.274206,34.262641],[135.273869,34.262166],[135.273569,34.261424],[135.273569,34.261091],[135.273756,34.260632],[135.274056,34.260458],[135.274294,34.260433],[135.274081,34.260074],[135.273944,34.259641],[135.273631,34.258966],[135.272844,34.258366],[135.272081,34.257958],[135.271457,34.257424],[135.272081,34.257124],[135.272206,34.257033],[135.272369,34.256266],[135.272394,34.255858],[135.272731,34.253583],[135.274319,34.253691],[135.276056,34.253883],[135.276919,34.253908],[135.279531,34.254258],[135.281331,34.25445],[135.282281,34.254425],[135.283505,34.254283],[135.285318,34.253966],[135.287143,34.253708],[135.287718,34.253708],[135.288255,34.25375],[135.291305,34.254325],[135.29228,34.25455],[135.293867,34.254966],[135.294817,34.255141],[135.296392,34.255366],[135.296929,34.255366],[135.297341,34.255316],[135.299054,34.254833],[135.300241,34.2544],[135.301579,34.254016],[135.302853,34.253742],[135.303716,34.253442],[135.304041,34.2533],[135.305803,34.252667],[135.30764,34.252292],[135.30759,34.250317],[135.30749,34.24955],[135.307465,34.248984],[135.307415,34.24885],[135.30804,34.248784],[135.308615,34.248625],[135.309078,34.2484],[135.309403,34.248067],[135.309928,34.247351],[135.310365,34.247151],[135.310715,34.247151],[135.310965,34.247151],[135.311203,34.247151],[135.311478,34.247167],[135.311678,34.247109],[135.31179,34.246984],[135.311465,34.246401],[135.31154,34.246084],[135.311828,34.245767],[135.31234,34.245251],[135.312528,34.245351],[135.312715,34.245576],[135.312977,34.245684],[135.313127,34.245784],[135.313327,34.245809],[135.31354,34.245726],[135.313652,34.245551],[135.313865,34.245284],[135.313902,34.244809],[135.31384,34.244726],[135.312678,34.244843],[135.312453,34.244601],[135.31234,34.244326],[135.312178,34.244168],[135.312515,34.243876],[135.312915,34.243784],[135.31359,34.243568],[135.313852,34.243068],[135.313902,34.242434],[135.313865,34.242009],[135.31349,34.241101],[135.31319,34.240626],[135.313003,34.240551],[135.31259,34.240526],[135.312128,34.240435],[135.311828,34.240251],[135.311728,34.240143],[135.311453,34.239976],[135.311278,34.239951],[135.311065,34.240085],[135.310878,34.240085],[135.310653,34.239976],[135.31049,34.239701],[135.310465,34.239476],[135.311453,34.23966],[135.312215,34.239843],[135.314277,34.240176],[135.314415,34.240176],[135.314577,34.239993],[135.31469,34.239568],[135.314752,34.238885],[135.314215,34.237502],[135.314078,34.237302],[135.31359,34.237435],[135.313228,34.237435],[135.31299,34.237477],[135.312653,34.237627],[135.312528,34.237627],[135.311603,34.237785],[135.311103,34.237918],[135.310828,34.238235],[135.310528,34.238485],[135.309903,34.238868],[135.309728,34.238885],[135.309166,34.238743],[135.309091,34.237976],[135.308903,34.237793],[135.308491,34.23761],[135.308303,34.237627],[135.307828,34.237768],[135.307428,34.237835],[135.306366,34.237527],[135.305904,34.237352],[135.305554,34.237052],[135.305254,34.236418],[135.305179,34.236352],[135.304466,34.236252],[135.303641,34.236268],[135.303241,34.236427],[135.302779,34.236268],[135.302454,34.236243],[135.301979,34.236268],[135.301254,34.235693],[135.301067,34.23531],[135.301042,34.234585],[135.300954,34.234302],[135.300754,34.234069],[135.300392,34.233835],[135.299929,34.233702],[135.299254,34.233427],[135.297654,34.231819],[135.297192,34.23156],[135.296405,34.23121],[135.295917,34.231094],[135.295555,34.231069],[135.294792,34.231369],[135.294355,34.23161],[135.293892,34.231769],[135.292992,34.231852],[135.292642,34.23171],[135.292092,34.231302],[135.291255,34.230302],[135.290668,34.229827],[135.290443,34.229536],[135.29018,34.229411],[135.289955,34.229436],[135.289768,34.229502],[135.289518,34.229486],[135.288255,34.228836],[135.287893,34.228702],[135.287493,34.228752],[135.287093,34.228877],[135.286381,34.22931],[135.285981,34.229419],[135.285543,34.229435],[135.285268,34.229394],[135.285181,34.229344],[135.285031,34.228985],[135.284931,34.228169],[135.284731,34.227944],[135.283818,34.227569],[135.283481,34.227411],[135.282806,34.226969],[135.282781,34.226844],[135.282831,34.226611],[135.282644,34.226077],[135.282456,34.225752],[135.282181,34.225503],[135.281806,34.225369],[135.281369,34.225278],[135.281181,34.225119],[135.281069,34.224936],[135.280481,34.224636],[135.278907,34.224061],[135.277469,34.223194],[135.277132,34.223061],[135.276594,34.222994],[135.276257,34.222853],[135.275394,34.222328],[135.27482,34.222144],[135.274232,34.221894],[135.274532,34.221011],[135.27482,34.218828],[135.274932,34.218428],[135.274882,34.218003],[135.274645,34.216962],[135.275657,34.21637],[135.276282,34.216403],[135.277044,34.216154],[135.277369,34.215887],[135.277544,34.215537],[135.278194,34.214554],[135.279507,34.214087],[135.280444,34.213587],[135.280856,34.213412],[135.281206,34.213321],[135.281281,34.213279],[135.281369,34.213171],[135.281006,34.212212],[135.280707,34.210813],[135.280194,34.209763],[135.280257,34.209038],[135.280182,34.208638],[135.280094,34.208496],[135.280019,34.208046],[135.279982,34.207588],[135.280244,34.207471],[135.280669,34.20728],[135.280969,34.207171],[135.281057,34.207163],[135.281219,34.207121],[135.281606,34.207171],[135.282031,34.207171],[135.282256,34.207055],[135.282256,34.206855],[135.282194,34.20663],[135.282231,34.206405],[135.282394,34.20613],[135.282319,34.205763],[135.282344,34.205405],[135.282569,34.20418],[135.282681,34.203847],[135.282819,34.203597],[135.283019,34.20348],[135.283181,34.20348],[135.283394,34.203622],[135.283506,34.203847],[135.283581,34.204163],[135.283519,34.20448],[135.283419,34.20478],[135.283381,34.205047],[135.283431,34.20523],[135.283569,34.205255],[135.283931,34.20428],[135.284069,34.204147],[135.284231,34.204147],[135.284944,34.204372],[135.285019,34.20433],[135.284956,34.204189],[135.284369,34.204005],[135.284069,34.20398],[135.283769,34.203897],[135.283631,34.20378],[135.283606,34.203647],[135.283669,34.203597],[135.283969,34.203514],[135.284269,34.20333],[135.284619,34.202972],[135.285144,34.20293],[135.285244,34.202905],[135.286056,34.202505],[135.286506,34.20243],[135.286831,34.202522],[135.287043,34.20253],[135.287568,34.202347],[135.288006,34.202281],[135.288793,34.202489],[135.289181,34.202497],[135.289506,34.202539],[135.289718,34.202606],[135.290781,34.202681],[135.291268,34.202664],[135.291743,34.202506],[135.292043,34.202306],[135.292368,34.201989],[135.292805,34.201447],[135.29318,34.201264],[135.294193,34.201022],[135.29513,34.200914],[135.295618,34.200998],[135.295805,34.200964],[135.296005,34.200606],[135.29618,34.200531],[135.296405,34.200531],[135.29663,34.200581],[135.296905,34.200148],[135.297093,34.199523],[135.297255,34.199298],[135.297393,34.198981],[135.29748,34.198665],[135.29773,34.198506],[135.29808,34.198573],[135.298242,34.198548],[135.298467,34.19844],[135.298655,34.198423],[135.298792,34.198281],[135.298817,34.198006],[135.299255,34.197815],[135.300705,34.197298],[135.30068,34.19709],[135.300792,34.196898],[135.301005,34.196773],[135.301255,34.196673],[135.301392,34.196673],[135.301442,34.196848],[135.301417,34.197273],[135.301492,34.197406],[135.301555,34.197431],[135.301717,34.19739],[135.30188,34.197206],[135.302142,34.197007],[135.302455,34.19694],[135.302755,34.196965],[135.30273,34.197173],[135.302767,34.197373],[135.302992,34.197373],[135.303504,34.197173],[135.303779,34.197107],[135.304054,34.197107],[135.304329,34.197065],[135.304554,34.196973],[135.304579,34.196923],[135.304467,34.196815],[135.304304,34.19679],[135.304254,34.196673],[135.304442,34.196473],[135.304579,34.196207],[135.304604,34.196073],[135.304667,34.196015],[135.305292,34.195865],[135.306004,34.195148],[135.306142,34.195032],[135.306517,34.195265],[135.306754,34.195582],[135.307517,34.19624],[135.307979,34.196582],[135.308441,34.197107],[135.309054,34.19824],[135.309141,34.19844],[135.308629,34.198623],[135.308479,34.19894],[135.308441,34.201164],[135.308704,34.202364],[135.308766,34.202448],[135.308954,34.202573],[135.310591,34.202756],[135.310754,34.202831],[135.311066,34.202939],[135.311391,34.202956],[135.311454,34.202906],[135.311429,34.202589],[135.311104,34.202148],[135.311079,34.202056],[135.311104,34.201898],[135.311379,34.201806],[135.311816,34.201748],[135.312466,34.201773],[135.312828,34.201656],[135.313178,34.201481],[135.313403,34.201298],[135.313566,34.201031],[135.313591,34.200481],[135.313953,34.199781],[135.314216,34.199331],[135.314241,34.19909],[135.314153,34.198873],[135.314291,34.198382],[135.314316,34.19799],[135.314191,34.197157],[135.314416,34.19664],[135.314603,34.19639],[135.314803,34.195865],[135.314803,34.19564],[135.314666,34.195432],[135.314666,34.195165],[135.314741,34.194899],[135.314803,34.194832],[135.315216,34.194624],[135.315703,34.194265],[135.315816,34.194224],[135.316228,34.194199],[135.316516,34.194274],[135.316678,34.194274],[135.31754,34.193982],[135.318078,34.193782],[135.31824,34.193591],[135.316303,34.191208],[135.315916,34.190883],[135.315703,34.190666],[135.314953,34.189208],[135.314841,34.188758],[135.314578,34.188508],[135.314491,34.188208],[135.314653,34.188033],[135.314791,34.187425],[135.314791,34.18715],[135.314641,34.186833],[135.314178,34.186283],[135.313878,34.185767],[135.313741,34.185483],[135.313666,34.184967],[135.313941,34.184767],[135.314103,34.1845],[135.314128,34.184242],[135.313841,34.183858],[135.313616,34.183333],[135.313291,34.182809],[135.313029,34.18225],[135.312754,34.181359],[135.312604,34.181109],[135.312604,34.180909],[135.312679,34.1805],[135.312654,34.180251],[135.312579,34.180051],[135.312416,34.179859],[135.312366,34.179684],[135.312504,34.179476],[135.312691,34.179342],[135.312904,34.179117],[135.312991,34.178917],[135.312916,34.178709],[135.312754,34.178459],[135.312504,34.178234],[135.311579,34.177726],[135.311454,34.177709],[135.310866,34.177767],[135.310467,34.177884],[135.310167,34.177926],[135.309867,34.177767],[135.309592,34.177584],[135.309354,34.177492],[135.309192,34.177251],[135.308917,34.177059],[135.308317,34.176901],[135.307829,34.176901],[135.307317,34.176801],[135.306767,34.176551],[135.306529,34.176518],[135.306417,34.176567],[135.306229,34.176776],[135.30568,34.177017],[135.30543,34.176976],[135.30508,34.176767],[135.304842,34.176701],[135.304567,34.176742],[135.304067,34.176951],[135.303642,34.177034],[135.30288,34.176967],[135.302555,34.176826],[135.30228,34.176667],[135.302092,34.176617],[135.301567,34.176751],[135.300868,34.176201],[135.30043,34.176226],[135.300018,34.176384],[135.299855,34.175701],[135.299893,34.175209],[135.30038,34.174318],[135.300443,34.173793],[135.300393,34.173509],[135.300168,34.173243],[135.29993,34.173051],[135.299843,34.172934],[135.299718,34.172576],[135.29953,34.172235],[135.299343,34.172118],[135.29893,34.172018],[135.298443,34.171793],[135.297818,34.17156],[135.297581,34.171318],[135.297118,34.170385],[135.297031,34.170118],[135.296918,34.169976],[135.296768,34.169735],[135.296468,34.169377],[135.296143,34.169285],[135.295318,34.169177],[135.294431,34.168885],[135.293606,34.168727],[135.293356,34.168635],[135.292781,34.168327],[135.291356,34.167943],[135.290944,34.167535],[135.290506,34.166752],[135.290169,34.166344],[135.290144,34.166227],[135.290306,34.165602],[135.290556,34.164969],[135.291081,34.164177],[135.291269,34.162644],[135.291494,34.162103],[135.291656,34.161969],[135.293006,34.161786],[135.293656,34.161786],[135.294456,34.161719],[135.294868,34.161628],[135.295418,34.161903],[135.296168,34.162011],[135.296656,34.162328],[135.297293,34.162644],[135.298118,34.163136],[135.29888,34.163902],[135.29963,34.164419],[135.300455,34.164686],[135.301918,34.165336],[135.302568,34.165652],[135.302817,34.165652],[135.303017,34.165544],[135.303042,34.165044],[135.302955,34.163378],[135.30318,34.163178],[135.303005,34.162886],[135.302568,34.162611],[135.302493,34.162228],[135.302568,34.161528],[135.302568,34.160695],[135.302593,34.160628],[135.30293,34.160428],[135.303005,34.160295],[135.302755,34.160153],[135.302817,34.159686],[135.303005,34.159095],[135.30328,34.15887],[135.303255,34.158712],[135.302867,34.15847],[135.302818,34.158103],[135.302455,34.157453],[135.302093,34.15752],[135.301955,34.157478],[135.30163,34.157478],[135.301243,34.157045],[135.301493,34.15637],[135.301355,34.156195],[135.301243,34.155945],[135.301468,34.155879],[135.301518,34.15567],[135.301818,34.155629],[135.301743,34.15522],[135.301768,34.15502],[135.30163,34.154637],[135.301355,34.15412],[135.30143,34.152837],[135.30163,34.152271],[135.30273,34.150354],[135.30273,34.149904],[135.302143,34.148555],[135.30198,34.147855],[135.302205,34.146888],[135.30228,34.14628],[135.30193,34.145555],[135.301268,34.144613],[135.30083,34.144522],[135.30063,34.144405],[135.299968,34.144363],[135.299068,34.144413],[135.298456,34.144272],[135.298181,34.144272],[135.297906,34.14403],[135.298018,34.143264],[135.298318,34.142814],[135.298731,34.142339],[135.298843,34.14173],[135.298731,34.141164],[135.298243,34.140447],[135.297743,34.139856],[135.297356,34.139231],[135.297168,34.138689],[135.296831,34.137339],[135.296893,34.136906],[135.297056,34.136189],[135.297106,34.136098],[135.296118,34.135148],[135.295569,34.135015],[135.295019,34.134406],[135.294794,34.134231],[135.294694,34.134023],[135.294719,34.133665],[135.294631,34.133573],[135.294169,34.133373],[135.294169,34.133215],[135.295093,34.132065],[135.294993,34.131615],[135.294406,34.131048],[135.294194,34.130623],[135.294356,34.129207],[135.293944,34.12889],[135.293644,34.12884],[135.293144,34.128465],[135.293031,34.12799],[135.292206,34.126974],[135.292131,34.126415],[135.291994,34.125941],[135.291769,34.125732],[135.291356,34.125741],[135.291169,34.125649],[135.290481,34.125516],[135.289681,34.125449],[135.289181,34.125532],[135.288631,34.125307],[135.288032,34.125174],[135.287507,34.124749],[135.286907,34.124299],[135.286769,34.123982],[135.286707,34.123666],[135.286082,34.123016],[135.285919,34.122607],[135.285744,34.122474],[135.285444,34.122132],[135.285169,34.121482],[135.284432,34.120308],[135.284507,34.120199],[135.284782,34.119524],[135.284619,34.119433],[135.284094,34.119566],[135.283544,34.119524],[135.283032,34.119549],[135.282257,34.119416],[135.281795,34.119166],[135.280007,34.118783],[135.27932,34.118874],[135.279145,34.118941],[135.279007,34.119141],[135.278495,34.119666],[135.27822,34.119866],[135.277258,34.119349],[135.276983,34.119283],[135.276183,34.119166],[135.275683,34.118408],[135.274808,34.117816],[135.274145,34.117325],[135.273546,34.117166],[135.272608,34.117508],[135.272008,34.117483],[135.271596,34.117125],[135.271346,34.116491],[135.270846,34.1164],[135.270021,34.116358],[135.269121,34.116491],[135.268571,34.116316],[135.267834,34.1162],[135.267471,34.116633],[135.267334,34.117466],[135.267146,34.117641],[135.266834,34.117666],[135.265821,34.117558],[135.265684,34.117575],[135.265459,34.11735],[135.265084,34.117266],[135.264884,34.116975],[135.264809,34.116566],[135.264696,34.116433],[135.263896,34.116366],[135.263709,34.116316],[135.263184,34.115866],[135.262934,34.1156],[135.262547,34.11585],[135.262222,34.1163],[135.261972,34.116541],[135.261172,34.116791],[135.260659,34.116816],[135.260497,34.117108],[135.260084,34.117475],[135.259497,34.117783],[135.258984,34.117741],[135.257959,34.117766],[135.257885,34.117741],[135.257497,34.117808],[135.256972,34.118416],[135.256535,34.119008],[135.25466,34.120249],[135.253922,34.120499],[135.253372,34.120857],[135.253147,34.121199],[135.252197,34.121599],[135.251197,34.121757],[135.250323,34.121807],[135.249173,34.122482],[135.24856,34.122507],[135.247798,34.122482],[135.247685,34.122507],[135.247234,34.122478],[135.246873,34.122516],[135.246573,34.122449],[135.24616,34.122274],[135.245723,34.122007],[135.245623,34.122007],[135.245485,34.122099],[135.24521,34.122191],[135.244835,34.122191],[135.244623,34.122082],[135.244173,34.121699],[135.243548,34.121566],[135.243311,34.121449],[135.243111,34.121249],[135.243036,34.121249],[135.242873,34.121591],[135.242636,34.121907],[135.242561,34.122157],[135.242311,34.122249],[135.242011,34.12214],[135.241798,34.121957],[135.241548,34.121849],[135.241336,34.121799],[135.241061,34.121799],[135.240811,34.121915],[135.240573,34.122099],[135.240111,34.122165],[135.239673,34.12219],[135.239348,34.122149],[135.239086,34.122015],[135.238873,34.122674],[135.238736,34.122924],[135.238523,34.123148],[135.238411,34.123373],[135.238211,34.124232],[135.238261,34.124457],[135.238186,34.124773],[135.237886,34.125315],[135.237836,34.125565],[135.237148,34.126431],[135.237173,34.126906],[135.237336,34.127198],[135.237698,34.127623],[135.237998,34.127939],[135.238386,34.128256],[135.238623,34.128523],[135.238848,34.129223],[135.239023,34.129473],[135.239023,34.129556],[135.238648,34.130464],[135.238548,34.131231],[135.238386,34.131597],[135.237986,34.132139],[135.237748,34.132655],[135.237586,34.132772],[135.237011,34.132847],[135.236723,34.133047],[135.236661,34.133139],[135.236286,34.133389],[135.236073,34.133597],[135.235911,34.133914],[135.235648,34.134205],[135.235111,34.134505],[135.234111,34.135255],[135.233599,34.135413],[135.233249,34.135463],[135.232974,34.135347],[135.232511,34.135213],[135.231836,34.135305],[135.231174,34.135288],[135.230799,34.135355],[135.230061,34.13523],[135.228736,34.135297],[135.227899,34.135372],[135.227212,34.13533],[135.226787,34.13578],[135.226324,34.135946],[135.225762,34.136063],[135.225437,34.136171],[135.225249,34.136196],[135.224974,34.136113],[135.224537,34.136063],[135.224262,34.136113],[135.223649,34.136388],[135.223212,34.13648],[135.222912,34.136438],[135.222724,34.13628],[135.221112,34.135946],[135.2206,34.135813],[135.22035,34.135563],[135.220137,34.135455],[135.219912,34.13548],[135.219462,34.135596],[135.219162,34.135546],[135.218612,34.135713],[135.218162,34.135913],[135.21805,34.136146],[135.218025,34.136796],[135.217925,34.137138],[135.21755,34.137571],[135.216762,34.137863],[135.216362,34.137796],[135.215762,34.137754],[135.215025,34.137871],[135.21465,34.137854],[135.214375,34.137696],[135.21405,34.137604],[135.213238,34.137654],[135.212913,34.137571],[135.212713,34.137429],[135.212413,34.137346],[135.212088,34.137304],[135.211488,34.136896],[135.210025,34.136563],[135.209526,34.136429],[135.209263,34.136388],[135.208963,34.136454],[135.208738,34.136413],[135.208613,34.136346],[135.208526,34.136346],[135.208201,34.136438],[135.207638,34.136663],[135.207201,34.136738],[135.206413,34.136646],[135.205051,34.136338],[135.204426,34.136163],[135.203501,34.136079],[135.202876,34.136171],[135.202176,34.136079],[135.201389,34.136063],[135.200951,34.136112],[135.200514,34.136204],[135.200189,34.136321],[135.199601,34.136679],[135.199601,34.136729],[135.199326,34.136929],[135.199114,34.136937],[135.199064,34.136912],[135.198951,34.136754],[135.198889,34.136212],[135.198701,34.135896],[135.198126,34.135379],[135.197789,34.135271],[135.197252,34.135179],[135.196977,34.135096],[135.196814,34.134912],[135.196564,34.134804],[135.196352,34.134529],[135.196077,34.134463],[135.195564,34.134488],[135.195289,34.134421],[135.194964,34.134421],[135.194202,34.134521],[135.193877,34.134454],[135.193602,34.134296],[135.193227,34.134187],[135.192877,34.134229],[135.192714,34.134437],[135.192502,34.135004],[135.192227,34.135229],[135.191827,34.135412],[135.191427,34.135846],[135.191202,34.135929],[135.190852,34.135912],[135.189927,34.135737],[135.18939,34.135737],[135.188815,34.135695],[135.187915,34.135545],[135.187565,34.13552],[135.187352,34.135587],[135.187165,34.13582],[135.18684,34.136404],[135.186815,34.136679],[135.186677,34.13697],[135.186327,34.137037],[135.185053,34.137003],[135.18459,34.13712],[135.18424,34.137278],[135.183778,34.13737],[135.18264,34.137303],[135.181928,34.137062],[135.181578,34.136862],[135.181303,34.13677],[135.181203,34.136795],[135.180978,34.136995],[135.18074,34.137003],[135.180353,34.136912],[135.180028,34.136753],[135.179653,34.13662],[135.179378,34.13667],[135.179028,34.136895],[135.178866,34.137395],[135.178691,34.138111],[135.178691,34.138228],[135.178053,34.139678],[135.178053,34.140469],[135.178003,34.140719],[135.177891,34.140853],[135.178228,34.140986],[135.178653,34.141003],[135.179065,34.140961],[135.179253,34.140819],[135.179303,34.140728],[135.179303,34.140461],[135.179353,34.140345],[135.179415,34.140328],[135.17974,34.14037],[135.180178,34.14057],[135.180228,34.140636],[135.180178,34.141019],[135.180228,34.141203],[135.180528,34.141244],[135.180828,34.141353],[135.181078,34.141603],[135.181165,34.141803],[135.181165,34.141919],[135.181003,34.142394],[135.181065,34.142436],[135.181253,34.142486],[135.18144,34.142569],[135.181603,34.142528],[135.18184,34.142319],[135.182115,34.141961],[135.18214,34.141736],[135.182653,34.141886],[135.182953,34.142044],[135.183015,34.142203],[135.18304,34.142494],[135.183203,34.142678],[135.183503,34.142653],[135.183878,34.142519],[135.18429,34.142469],[135.18424,34.142603],[135.18424,34.142853],[135.184353,34.143169],[135.184577,34.143553],[135.184902,34.143753],[135.18514,34.143636],[135.18544,34.143436],[135.185627,34.143161],[135.185677,34.142869],[135.185627,34.142594],[135.185977,34.142461],[135.186402,34.142411],[135.186865,34.142595],[135.187465,34.142545],[135.187715,34.14277],[135.187615,34.143286],[135.18764,34.143761],[135.187915,34.143919],[135.188052,34.143894],[135.188402,34.143961],[135.188815,34.143936],[135.189165,34.143844],[135.18924,34.143778],[135.189315,34.14342],[135.18964,34.143328],[135.190327,34.143345],[135.190402,34.143386],[135.190652,34.143795],[135.190927,34.144044],[135.191114,34.144153],[135.191364,34.144103],[135.191439,34.144061],[135.191552,34.143928],[135.191827,34.143836],[135.191927,34.143678],[135.192014,34.143445],[135.192227,34.14327],[135.192489,34.143195],[135.193152,34.14322],[135.193102,34.143761],[135.193502,34.143803],[135.193452,34.144545],[135.193702,34.144545],[135.193702,34.144411],[135.193939,34.144436],[135.193939,34.14412],[135.194189,34.14407],[135.194164,34.144428],[135.194764,34.144428],[135.194727,34.143936],[135.195027,34.143928],[135.195052,34.144153],[135.195327,34.144153],[135.195314,34.143386],[135.197251,34.14342],[135.197189,34.142795],[135.197864,34.142812],[135.198164,34.142903],[135.198814,34.143278],[135.199526,34.143437],[135.199876,34.143612],[135.200101,34.143637],[135.199476,34.146819],[135.199476,34.147119],[135.199614,34.147294],[135.200489,34.148086],[135.200301,34.148219],[135.200639,34.148603],[135.200901,34.148511],[135.202251,34.149927],[135.202651,34.150011],[135.204563,34.150161],[135.204938,34.150136],[135.209088,34.149511],[135.209575,34.149353],[135.209625,34.149461],[135.20935,34.151902],[135.204926,34.151627],[135.204926,34.151402],[135.203001,34.151302],[135.202863,34.151369],[135.202801,34.151486],[135.202238,34.151552],[135.201913,34.151685],[135.201239,34.151694],[135.201201,34.151485],[135.201101,34.151311],[135.200851,34.151061],[135.199939,34.150052],[135.199726,34.149711],[135.199476,34.149444],[135.198551,34.148969],[135.197114,34.148936],[135.197101,34.148644],[135.190889,34.148336],[135.190839,34.148561],[135.185677,34.148244],[135.185665,34.147902],[135.185127,34.147952],[135.185152,34.148269],[135.18424,34.148385],[135.184377,34.148994],[135.18414,34.14911],[135.183815,34.149335],[135.183728,34.149452],[135.183815,34.14961],[135.18414,34.149943],[135.184965,34.150568],[135.186777,34.155784],[135.192839,34.157026],[135.193414,34.156934],[135.193527,34.157351],[135.192952,34.157818],[135.193039,34.158209],[135.193339,34.158326],[135.193452,34.158393],[135.193589,34.158659],[135.193289,34.158709],[135.193027,34.158776],[135.192664,34.158934],[135.192564,34.158867],[135.192564,34.158776],[135.192852,34.158459],[135.192802,34.158326],[135.192739,34.158284],[135.192527,34.158259],[135.192152,34.158468],[135.192064,34.158443],[135.191777,34.158692],[135.191852,34.158801],[135.191951,34.160797],[135.192199,34.163795],[135.192381,34.169207],[135.192607,34.173903],[135.192607,34.177031],[135.191102,34.180399],[135.190236,34.184008],[135.190236,34.186888],[135.190981,34.191426],[135.193136,34.1973],[135.19543,34.199162],[135.19672,34.200785],[135.197556,34.202887],[135.196909,34.20537],[135.196092,34.206867],[135.194287,34.207377],[135.192891,34.209787],[135.191697,34.213566],[135.19101,34.215739],[135.191352,34.218883],[135.192515,34.220284],[135.19296,34.221567],[135.18881,34.221567],[135.185074,34.221567],[135.183821,34.222506],[135.183339,34.224216],[135.180438,34.227872],[135.180438,34.234738],[135.178445,34.236237],[135.17584,34.238196],[135.173358,34.238808],[135.172745,34.24138],[135.170311,34.242299],[135.164026,34.242781],[135.15947,34.243181],[135.157339,34.242639],[135.15586,34.241457],[135.150831,34.241457],[135.143539,34.240511],[135.132605,34.229858],[135.122968,34.241523],[135.123143,34.241631],[135.134965,34.252134],[135.138012,34.257835],[135.139963,34.262352],[135.141824,34.270467],[135.142892,34.27575],[135.145928,34.282653]]],"type":"Polygon"},"properties":{"kuni":"紀伊","id":"G57001","id_url":"G57001.html","kuni_url":"/kg/resource/K57.html","pref":"和歌山県","kuni_id":"K57","yomi":"なぐさ","name":"名草"}}],"type":"FeatureCollection"}