{"type":"FeatureCollection","features":[{"properties":{"kuni":"紀伊","id":"G57003","kuni_url":"/kg/resource/K57.html","id_url":"G57003.html","kuni_id":"K57","pref":"和歌山県","name":"那賀","yomi":"なが"},"geometry":{"type":"Polygon","coordinates":[[[135.40923,34.341934],[135.410505,34.341959],[135.411317,34.342026],[135.412067,34.342001],[135.412617,34.341892],[135.413192,34.341551],[135.413817,34.341276],[135.414017,34.341167],[135.415167,34.340126],[135.415829,34.339834],[135.416954,34.339726],[135.417366,34.339834],[135.417891,34.340126],[135.418354,34.340326],[135.418954,34.340259],[135.419754,34.340126],[135.420254,34.340101],[135.420829,34.340009],[135.421429,34.339784],[135.421904,34.339809],[135.422478,34.340059],[135.423053,34.340259],[135.423741,34.340326],[135.424841,34.339943],[135.425253,34.340101],[135.425853,34.340576],[135.426491,34.340751],[135.426903,34.341001],[135.42704,34.341317],[135.427115,34.341926],[135.427803,34.342534],[135.428165,34.343184],[135.428328,34.343567],[135.428053,34.344109],[135.428115,34.344534],[135.42839,34.3449],[135.428828,34.345617],[135.429178,34.345909],[135.430115,34.346384],[135.430278,34.3467],[135.430665,34.346992],[135.431302,34.347283],[135.431515,34.34735],[135.431765,34.347375],[135.43229,34.347283],[135.432952,34.347392],[135.43369,34.347617],[135.434127,34.347908],[135.434327,34.348208],[135.434515,34.348317],[135.434815,34.348408],[135.435202,34.348583],[135.435939,34.348608],[135.436327,34.34845],[135.436627,34.348133],[135.436764,34.348042],[135.437202,34.348],[135.437727,34.348025],[135.438939,34.347684],[135.439427,34.347659],[135.439814,34.347775],[135.439952,34.347842],[135.440589,34.347884],[135.441026,34.3477],[135.441489,34.347392],[135.441576,34.347367],[135.442126,34.347409],[135.442726,34.347567],[135.443464,34.347592],[135.444189,34.3477],[135.443914,34.347142],[135.443876,34.346667],[135.443989,34.346151],[135.444214,34.345626],[135.444926,34.345176],[135.445114,34.345084],[135.445364,34.344884],[135.445714,34.344368],[135.445689,34.342993],[135.445826,34.341884],[135.446076,34.341301],[135.446538,34.340559],[135.447038,34.340034],[135.447176,34.339809],[135.447501,34.337651],[135.447438,34.337201],[135.447201,34.336626],[135.447076,34.33656],[135.446764,34.336218],[135.446676,34.335901],[135.446714,34.335676],[135.446876,34.335501],[135.447926,34.334918],[135.447976,34.334876],[135.448188,34.334851],[135.448763,34.33511],[135.449751,34.33516],[135.451088,34.33501],[135.451576,34.334927],[135.452376,34.33491],[135.453025,34.334985],[135.453875,34.334927],[135.45505,34.334818],[135.4553,34.33446],[135.45525,34.334235],[135.45525,34.33396],[135.4554,34.333335],[135.455463,34.33236],[135.4556,34.332069],[135.455988,34.331527],[135.4561,34.331235],[135.456275,34.330519],[135.456388,34.330244],[135.456775,34.329819],[135.456938,34.329502],[135.456975,34.329252],[135.45695,34.32901],[135.457,34.328761],[135.4572,34.328311],[135.4572,34.327969],[135.457288,34.327702],[135.457513,34.327519],[135.458,34.327386],[135.458438,34.327186],[135.459325,34.326111],[135.459963,34.325578],[135.460325,34.325353],[135.460625,34.325019],[135.460912,34.324361],[135.461275,34.323803],[135.461325,34.323511],[135.461312,34.322919],[135.461425,34.322495],[135.46105,34.322061],[135.461,34.321678],[135.4613,34.321161],[135.461575,34.320661],[135.461987,34.320303],[135.462375,34.319853],[135.462487,34.31977],[135.462787,34.319636],[135.463612,34.319395],[135.463912,34.319195],[135.464337,34.31847],[135.4644,34.318137],[135.46445,34.31802],[135.464475,34.31782],[135.465037,34.317328],[135.46525,34.317145],[135.46545,34.31692],[135.46565,34.316362],[135.465837,34.316137],[135.465925,34.316087],[135.4662,34.31557],[135.466775,34.315279],[135.4676,34.31472],[135.4678,34.314504],[135.468075,34.314295],[135.468675,34.313945],[135.468925,34.313762],[135.469112,34.31352],[135.46915,34.313404],[135.468987,34.313062],[135.468362,34.312812],[135.467787,34.312737],[135.467625,34.312737],[135.467437,34.312396],[135.4673,34.312304],[135.467137,34.312262],[135.4667,34.312212],[135.466137,34.312071],[135.466025,34.311887],[135.465975,34.311704],[135.465837,34.311637],[135.4654,34.311571],[135.465212,34.311404],[135.46505,34.311179],[135.464912,34.310929],[135.464337,34.310904],[135.464175,34.310854],[135.4641,34.310679],[135.4641,34.310337],[135.463837,34.309321],[135.464137,34.309321],[135.464125,34.309004],[135.464212,34.308554],[135.4641,34.308054],[135.464213,34.307604],[135.464188,34.307496],[135.463925,34.307488],[135.463975,34.307313],[135.4637,34.307288],[135.463538,34.307213],[135.463375,34.306879],[135.463088,34.306488],[135.46225,34.305871],[135.461513,34.305255],[135.4609,34.304646],[135.460388,34.304071],[135.459788,34.303255],[135.459576,34.302913],[135.459313,34.302213],[135.459238,34.302097],[135.459176,34.302122],[135.459013,34.30203],[135.458588,34.301488],[135.458476,34.301255],[135.458338,34.299855],[135.457901,34.299247],[135.457063,34.298405],[135.456801,34.29808],[135.456638,34.297972],[135.456101,34.297472],[135.455764,34.297355],[135.455464,34.297347],[135.455226,34.297305],[135.454551,34.29653],[135.454039,34.295914],[135.453764,34.295689],[135.453526,34.295414],[135.452564,34.293872],[135.452514,34.293714],[135.452289,34.293397],[135.452051,34.292856],[135.452089,34.292673],[135.451527,34.291714],[135.451064,34.291056],[135.450514,34.289814],[135.450214,34.288865],[135.450164,34.288481],[135.450014,34.287931],[135.449689,34.287206],[135.449377,34.286706],[135.449027,34.286365],[135.448102,34.285682],[135.448052,34.285682],[135.447827,34.285548],[135.448002,34.285298],[135.447589,34.28514],[135.447564,34.284823],[135.447689,34.284032],[135.447764,34.28374],[135.448164,34.283157],[135.448464,34.282799],[135.448664,34.282507],[135.448739,34.282257],[135.448739,34.282124],[135.448539,34.281507],[135.448127,34.280832],[135.447952,34.280332],[135.447927,34.280032],[135.447952,34.279724],[135.448102,34.279357],[135.448289,34.279066],[135.448677,34.278732],[135.449177,34.278374],[135.450277,34.277408],[135.450602,34.277166],[135.451402,34.276766],[135.451239,34.276316],[135.451302,34.276108],[135.451739,34.275733],[135.451852,34.27535],[135.452051,34.274916],[135.452251,34.274625],[135.453126,34.273975],[135.454176,34.272992],[135.454839,34.272142],[135.455339,34.272008],[135.456063,34.2721],[135.456338,34.272108],[135.457138,34.271792],[135.458776,34.271625],[135.459126,34.271584],[135.459676,34.271359],[135.460413,34.271209],[135.460638,34.271075],[135.460813,34.270559],[135.46155,34.270175],[135.461713,34.270025],[135.461963,34.269684],[135.46265,34.269242],[135.46285,34.269017],[135.4631,34.268451],[135.463213,34.268342],[135.463488,34.268159],[135.46425,34.267734],[135.464688,34.267534],[135.465237,34.267201],[135.465925,34.266668],[135.465825,34.265943],[135.465912,34.265668],[135.466137,34.265218],[135.466337,34.264926],[135.466475,34.264635],[135.4665,34.264343],[135.466475,34.264118],[135.466137,34.263143],[135.465575,34.262327],[135.465012,34.261618],[135.464875,34.261527],[135.464712,34.261277],[135.464662,34.26096],[135.46505,34.26006],[135.46525,34.25941],[135.46515,34.258802],[135.465075,34.258552],[135.46505,34.258277],[135.4653,34.257852],[135.465437,34.257652],[135.465525,34.257402],[135.465612,34.256927],[135.465887,34.256069],[135.466287,34.255011],[135.466325,34.254519],[135.466575,34.253661],[135.466825,34.253386],[135.466962,34.253303],[135.467012,34.253078],[135.466975,34.252895],[135.467475,34.252961],[135.4678,34.25312],[135.468,34.253303],[135.468325,34.253403],[135.468675,34.253403],[135.468787,34.253386],[135.46885,34.253303],[135.469975,34.253153],[135.470525,34.252995],[135.471887,34.252245],[135.472412,34.251861],[135.472812,34.251503],[135.472925,34.251145],[135.472987,34.250753],[135.4732,34.250487],[135.473449,34.250328],[135.473774,34.250262],[135.474187,34.250128],[135.474287,34.24992],[135.474237,34.249603],[135.474262,34.249153],[135.474562,34.248179],[135.474812,34.247912],[135.475224,34.247595],[135.475637,34.247187],[135.476074,34.246845],[135.476862,34.246054],[135.477324,34.245721],[135.478224,34.245512],[135.478774,34.245312],[135.479074,34.245246],[135.479424,34.245112],[135.479699,34.244837],[135.480049,34.244571],[135.480812,34.244212],[135.481362,34.243596],[135.481774,34.243371],[135.482286,34.243171],[135.482861,34.242904],[135.483274,34.242629],[135.484174,34.241888],[135.484586,34.241479],[135.484686,34.241096],[135.484724,34.240663],[135.484586,34.239846],[135.484611,34.239438],[135.484836,34.23883],[135.485074,34.238555],[135.485561,34.238172],[135.485836,34.237905],[135.486249,34.237272],[135.486224,34.23718],[135.486249,34.237047],[135.486411,34.236955],[135.486474,34.236838],[135.486436,34.236663],[135.486524,34.236455],[135.486686,34.23628],[135.487036,34.236047],[135.486936,34.235822],[135.487074,34.23553],[135.487374,34.234555],[135.487561,34.234147],[135.487699,34.233722],[135.487699,34.233339],[135.487886,34.232497],[135.487924,34.232139],[135.487786,34.231747],[135.487761,34.231547],[135.487624,34.231114],[135.487461,34.230848],[135.487186,34.230548],[135.487074,34.230281],[135.487049,34.229981],[135.486961,34.229689],[135.487099,34.229148],[135.487074,34.229081],[135.486774,34.228806],[135.486499,34.228623],[135.485911,34.227831],[135.485686,34.227781],[135.485274,34.227765],[135.485036,34.227606],[135.484736,34.226898],[135.484574,34.226156],[135.484224,34.224907],[135.484112,34.22484],[135.483899,34.224882],[135.483674,34.224998],[135.483537,34.225157],[135.483674,34.225815],[135.483837,34.226215],[135.483812,34.226306],[135.483724,34.226331],[135.483512,34.226215],[135.483099,34.22549],[135.483049,34.225107],[135.483124,34.22484],[135.483299,34.224565],[135.484087,34.224157],[135.484736,34.223998],[135.485036,34.224023],[135.485261,34.22414],[135.485336,34.224073],[135.485361,34.223865],[135.485261,34.223057],[135.485499,34.221582],[135.485212,34.220832],[135.485149,34.220474],[135.485174,34.220174],[135.485099,34.220107],[135.484912,34.220065],[135.484499,34.219724],[135.484174,34.219765],[135.483899,34.219582],[135.483762,34.219424],[135.483574,34.219357],[135.483187,34.219332],[135.482349,34.219082],[135.481912,34.218924],[135.481637,34.218791],[135.481449,34.218291],[135.481287,34.217474],[135.481174,34.217116],[135.481212,34.215891],[135.481012,34.214483],[135.480987,34.214074],[135.481075,34.213741],[135.481262,34.213358],[135.48145,34.213083],[135.481512,34.212808],[135.481425,34.212091],[135.48165,34.211341],[135.481675,34.21105],[135.481625,34.21075],[135.4814,34.210275],[135.481212,34.209917],[135.481075,34.209283],[135.480862,34.208717],[135.480425,34.208142],[135.4804,34.2079],[135.480587,34.207267],[135.480675,34.206875],[135.48065,34.206492],[135.480425,34.205859],[135.480512,34.204909],[135.4807,34.204159],[135.481137,34.203209],[135.481112,34.203126],[135.480837,34.202784],[135.4806,34.202551],[135.480375,34.202151],[135.480325,34.202076],[135.480137,34.201984],[135.480025,34.201984],[135.48035,34.201401],[135.48065,34.201193],[135.480837,34.200993],[135.480975,34.200476],[135.4812,34.200093],[135.4818,34.199318],[135.481962,34.19896],[135.481987,34.19871],[135.48175,34.198101],[135.481725,34.197893],[135.48295,34.195927],[135.483462,34.195252],[135.483687,34.194885],[135.48385,34.19416],[135.484037,34.193802],[135.484612,34.193127],[135.485187,34.191902],[135.485237,34.191652],[135.485562,34.191544],[135.486437,34.191519],[135.48685,34.191435],[135.487037,34.191319],[135.487525,34.190819],[135.488375,34.190444],[135.488562,34.190127],[135.48865,34.189827],[135.488562,34.189536],[135.488537,34.189194],[135.488675,34.188944],[135.488812,34.188836],[135.489,34.188877],[135.489525,34.189194],[135.489875,34.189336],[135.490287,34.189269],[135.490525,34.189111],[135.490687,34.188677],[135.49105,34.188636],[135.491487,34.188527],[135.49165,34.188436],[135.491625,34.187936],[135.491787,34.187686],[135.492275,34.187236],[135.49265,34.187011],[135.493037,34.186878],[135.493549,34.186761],[135.493937,34.186628],[135.494374,34.186378],[135.494537,34.186244],[135.494674,34.186044],[135.494624,34.185336],[135.494649,34.184936],[135.494562,34.184753],[135.494587,34.184636],[135.494924,34.184386],[135.495224,34.184094],[135.495412,34.183844],[135.495924,34.183578],[135.496287,34.183261],[135.496687,34.182811],[135.496987,34.182561],[135.49721,34.182234],[135.497574,34.182486],[135.497774,34.182553],[135.498099,34.182553],[135.498374,34.18242],[135.498787,34.182053],[135.499424,34.180953],[135.500924,34.180137],[135.501399,34.179953],[135.501999,34.179778],[135.502436,34.179712],[135.502711,34.179462],[135.502824,34.17887],[135.503124,34.178487],[135.503236,34.178445],[135.503874,34.177928],[135.504249,34.17777],[135.504636,34.177479],[135.505074,34.176912],[135.505936,34.175645],[135.506286,34.175262],[135.506999,34.174679],[135.507661,34.173979],[135.508124,34.173412],[135.508261,34.173346],[135.508124,34.173146],[135.507749,34.172921],[135.507361,34.172787],[135.507061,34.172629],[135.506811,34.172446],[135.506536,34.172087],[135.506011,34.171229],[135.505462,34.170221],[135.505349,34.170129],[135.505137,34.170038],[135.504749,34.170079],[135.504524,34.170263],[135.504224,34.170738],[135.503974,34.170963],[135.503324,34.171213],[135.502912,34.171279],[135.502524,34.171213],[135.502087,34.170829],[135.501924,34.170604],[135.501612,34.170313],[135.501337,34.169979],[135.5011,34.169746],[135.500637,34.169071],[135.500087,34.167696],[135.499725,34.167113],[135.499362,34.166838],[135.499012,34.166796],[135.4984,34.166797],[135.49785,34.166955],[135.497438,34.166955],[135.497201,34.166806],[135.497088,34.166672],[135.496063,34.16603],[135.495338,34.165705],[135.495038,34.165538],[135.494563,34.165013],[135.493788,34.164855],[135.493101,34.164822],[135.492863,34.164838],[135.492226,34.164938],[135.491976,34.164947],[135.491813,34.164572],[135.491613,34.163839],[135.491526,34.16328],[135.491313,34.162539],[135.491263,34.161747],[135.491326,34.160881],[135.491576,34.159889],[135.492701,34.158873],[135.491826,34.158323],[135.491113,34.157523],[135.490476,34.156964],[135.489501,34.15619],[135.489151,34.155731],[135.489001,34.155381],[135.488976,34.154748],[135.488551,34.15439],[135.487326,34.153473],[135.486602,34.153357],[135.486052,34.153365],[135.484677,34.15329],[135.484227,34.152782],[135.483264,34.15204],[135.481715,34.151265],[135.48114,34.150774],[135.480215,34.15034],[135.47919,34.149732],[135.478477,34.149232],[135.477515,34.14879],[135.476665,34.14854],[135.476403,34.148407],[135.476015,34.147899],[135.475315,34.147249],[135.474028,34.146132],[135.472253,34.145099],[135.471453,34.144516],[135.470553,34.144216],[135.469916,34.143633],[135.468304,34.142116],[135.467691,34.141666],[135.466754,34.141316],[135.466441,34.14125],[135.465841,34.141016],[135.465016,34.14045],[135.464217,34.139708],[135.463967,34.139541],[135.463279,34.139266],[135.461904,34.138541],[135.461029,34.137991],[135.460005,34.137175],[135.459292,34.136667],[135.458867,34.136058],[135.458505,34.135617],[135.458305,34.135142],[135.458167,34.133825],[135.458267,34.133417],[135.457955,34.132659],[135.45733,34.132125],[135.456717,34.131884],[135.454918,34.130792],[135.45358,34.130192],[135.452805,34.129967],[135.451868,34.129384],[135.451255,34.128517],[135.450705,34.127951],[135.450243,34.127051],[135.449781,34.126409],[135.449068,34.125734],[135.448693,34.125476],[135.447193,34.124584],[135.446206,34.124068],[135.445431,34.123551],[135.444831,34.123351],[135.444319,34.123334],[135.443706,34.123418],[135.442806,34.123826],[135.442206,34.123784],[135.442119,34.123726],[135.441419,34.123668],[135.440944,34.123734],[135.440756,34.123693],[135.440619,34.123226],[135.439919,34.122368],[135.439731,34.12221],[135.438756,34.121743],[135.438319,34.121476],[135.438194,34.121268],[135.437607,34.120526],[135.436344,34.119152],[135.434844,34.117385],[135.434182,34.116885],[135.433569,34.116702],[135.433194,34.116419],[135.432644,34.116252],[135.431682,34.115827],[135.430145,34.115377],[135.42917,34.115552],[135.42862,34.11556],[135.42832,34.115602],[135.428032,34.115819],[135.42752,34.116369],[135.426545,34.117285],[135.425745,34.117893],[135.425045,34.118085],[135.42367,34.118168],[135.423157,34.117968],[135.42247,34.11761],[135.421895,34.117402],[135.42082,34.117327],[135.420045,34.117418],[135.41952,34.117818],[135.41912,34.118318],[135.418895,34.11881],[135.41737,34.119785],[135.417358,34.119877],[135.416745,34.11986],[135.415145,34.120126],[135.414445,34.119993],[135.412621,34.119577],[135.411883,34.119668],[135.410621,34.119876],[135.409671,34.119893],[135.408921,34.119785],[135.407646,34.120285],[135.405534,34.120668],[135.404634,34.120935],[135.403771,34.12161],[135.403609,34.12161],[135.403146,34.121343],[135.402234,34.121185],[135.401596,34.120918],[135.400772,34.120885],[135.399297,34.120951],[135.398859,34.120843],[135.398197,34.120585],[135.397634,34.12056],[135.396559,34.12066],[135.395547,34.120876],[135.394272,34.120918],[135.39361,34.121026],[135.393022,34.121251],[135.39226,34.121501],[135.391197,34.121601],[135.390185,34.121568],[135.389073,34.121484],[135.387235,34.121234],[135.385935,34.120743],[135.38496,34.120726],[135.383811,34.120926],[135.382973,34.120951],[135.382498,34.121076],[135.381648,34.121376],[135.380861,34.121251],[135.380236,34.120968],[135.379386,34.120901],[135.378948,34.120734],[135.378586,34.120776],[135.377811,34.120968],[135.376924,34.121034],[135.375999,34.120801],[135.375349,34.120776],[135.374686,34.120843],[135.374211,34.120543],[135.373886,34.119968],[135.373936,34.119501],[135.374149,34.11916],[135.374011,34.118643],[135.373986,34.11836],[135.374112,34.117351],[135.374312,34.116668],[135.373849,34.115718],[135.373662,34.115427],[135.373487,34.114877],[135.373737,34.114368],[135.374562,34.113368],[135.374624,34.113218],[135.374087,34.112902],[135.372937,34.112377],[135.372387,34.112244],[135.372199,34.112194],[135.371999,34.112219],[135.371612,34.112402],[135.371287,34.112668],[135.370874,34.113077],[135.370799,34.11321],[135.370437,34.113552],[135.370275,34.11366],[135.369475,34.113885],[135.368487,34.114002],[135.367912,34.114043],[135.3673,34.113935],[135.366337,34.113552],[135.365687,34.113393],[135.36535,34.113527],[135.3645,34.114185],[135.364037,34.11461],[135.3636,34.114793],[135.36335,34.114768],[135.362937,34.114502],[135.3626,34.114368],[135.3625,34.114368],[135.362062,34.114593],[135.3617,34.114727],[135.3609,34.11486],[135.360325,34.114885],[135.36005,34.114726],[135.35925,34.114976],[135.358813,34.115068],[135.358188,34.114751],[135.357,34.113918],[135.356888,34.11381],[135.356313,34.113585],[135.3559,34.113852],[135.355625,34.114193],[135.354963,34.114526],[135.354888,34.114526],[135.354,34.114393],[135.353313,34.114443],[135.352051,34.114418],[135.351726,34.114693],[135.351563,34.114893],[135.351013,34.115251],[135.349613,34.115593],[135.348763,34.115843],[135.348426,34.115976],[135.347826,34.11616],[135.346613,34.116385],[135.346263,34.11636],[135.345438,34.115868],[135.344801,34.115551],[135.344164,34.115551],[135.343426,34.11526],[135.342239,34.114993],[135.341451,34.11461],[135.340351,34.114251],[135.339689,34.114068],[135.339189,34.113843],[135.338526,34.113668],[135.338039,34.113485],[135.337789,34.112968],[135.337427,34.111368],[135.337239,34.11026],[135.336989,34.110085],[135.336414,34.109435],[135.336414,34.108644],[135.336189,34.107311],[135.335964,34.106952],[135.335589,34.106169],[135.335389,34.105644],[135.335389,34.105561],[135.334977,34.105178],[135.334727,34.105086],[135.334102,34.105044],[135.333252,34.105061],[135.332727,34.104994],[135.331602,34.104994],[135.330877,34.105111],[135.330202,34.105677],[135.329677,34.105902],[135.329477,34.105902],[135.329015,34.105719],[135.328415,34.105336],[135.327477,34.105019],[135.325578,34.104436],[135.32484,34.104352],[135.323378,34.104419],[135.32214,34.104394],[135.32179,34.104419],[135.320741,34.104577],[135.319916,34.104644],[135.318853,34.104552],[135.318191,34.104402],[135.317366,34.104602],[135.316129,34.105419],[135.315604,34.10591],[135.315529,34.10636],[135.315529,34.10706],[135.315141,34.107693],[135.314204,34.10841],[135.312229,34.109876],[135.312016,34.110193],[135.312016,34.110693],[135.311629,34.111343],[135.311654,34.111859],[135.312129,34.112834],[135.312154,34.113576],[135.311717,34.114742],[135.311517,34.114817],[135.310454,34.114901],[135.309429,34.115359],[135.308442,34.115559],[135.307817,34.115359],[135.307479,34.115492],[135.30718,34.116075],[135.30668,34.116509],[135.306142,34.116892],[135.30608,34.117275],[135.307155,34.118692],[135.307817,34.119417],[135.308229,34.120225],[135.308692,34.120992],[135.308642,34.121533],[135.308479,34.121758],[135.307979,34.122275],[135.307517,34.122925],[135.307217,34.123741],[135.306855,34.125049],[135.306505,34.125699],[135.305867,34.126199],[135.305567,34.126691],[135.305017,34.127124],[135.30458,34.128116],[135.303705,34.128607],[135.30298,34.128924],[135.302268,34.129149],[135.301943,34.129149],[135.301918,34.129199],[135.30208,34.129965],[135.301805,34.130524],[135.301643,34.130707],[135.301505,34.13179],[135.30153,34.131882],[135.301805,34.132107],[135.301993,34.132198],[135.30238,34.132715],[135.30263,34.133115],[135.302793,34.133232],[135.302818,34.133207],[135.303068,34.133457],[135.303268,34.134015],[135.303268,34.134315],[135.302968,34.134806],[135.30238,34.135081],[135.301893,34.13499],[135.301418,34.134673],[135.299993,34.134515],[135.299743,34.134515],[135.299168,34.134448],[135.298456,34.134565],[135.297568,34.134973],[135.297243,34.135306],[135.297106,34.136098],[135.297056,34.136189],[135.296893,34.136906],[135.296831,34.137339],[135.297168,34.138689],[135.297356,34.139231],[135.297743,34.139856],[135.298243,34.140447],[135.298731,34.141164],[135.298843,34.14173],[135.298731,34.142339],[135.298318,34.142814],[135.298018,34.143264],[135.297906,34.14403],[135.298181,34.144272],[135.298456,34.144272],[135.299068,34.144413],[135.299968,34.144363],[135.30063,34.144405],[135.30083,34.144522],[135.301268,34.144613],[135.30193,34.145555],[135.30228,34.14628],[135.302205,34.146888],[135.30198,34.147855],[135.302143,34.148555],[135.30273,34.149904],[135.30273,34.150354],[135.30163,34.152271],[135.30143,34.152837],[135.301355,34.15412],[135.30163,34.154637],[135.301768,34.15502],[135.301743,34.15522],[135.301818,34.155629],[135.301518,34.15567],[135.301468,34.155879],[135.301243,34.155945],[135.301355,34.156195],[135.301493,34.15637],[135.301243,34.157045],[135.30163,34.157478],[135.301955,34.157478],[135.302093,34.15752],[135.302455,34.157453],[135.302818,34.158103],[135.302867,34.15847],[135.303255,34.158712],[135.30328,34.15887],[135.303005,34.159095],[135.302817,34.159686],[135.302755,34.160153],[135.303005,34.160295],[135.30293,34.160428],[135.302593,34.160628],[135.302568,34.160695],[135.302568,34.161528],[135.302493,34.162228],[135.302568,34.162611],[135.303005,34.162886],[135.30318,34.163178],[135.302955,34.163378],[135.303042,34.165044],[135.303017,34.165544],[135.302817,34.165652],[135.302568,34.165652],[135.301918,34.165336],[135.300455,34.164686],[135.29963,34.164419],[135.29888,34.163902],[135.298118,34.163136],[135.297293,34.162644],[135.296656,34.162328],[135.296168,34.162011],[135.295418,34.161903],[135.294868,34.161628],[135.294456,34.161719],[135.293656,34.161786],[135.293006,34.161786],[135.291656,34.161969],[135.291494,34.162103],[135.291269,34.162644],[135.291081,34.164177],[135.290556,34.164969],[135.290306,34.165602],[135.290144,34.166227],[135.290169,34.166344],[135.290506,34.166752],[135.290944,34.167535],[135.291356,34.167943],[135.292781,34.168327],[135.293356,34.168635],[135.293606,34.168727],[135.294431,34.168885],[135.295318,34.169177],[135.296143,34.169285],[135.296468,34.169377],[135.296768,34.169735],[135.296918,34.169976],[135.297031,34.170118],[135.297118,34.170385],[135.297581,34.171318],[135.297818,34.17156],[135.298443,34.171793],[135.29893,34.172018],[135.299343,34.172118],[135.29953,34.172235],[135.299718,34.172576],[135.299843,34.172934],[135.29993,34.173051],[135.300168,34.173243],[135.300393,34.173509],[135.300443,34.173793],[135.30038,34.174318],[135.299893,34.175209],[135.299855,34.175701],[135.300018,34.176384],[135.30043,34.176226],[135.300868,34.176201],[135.301567,34.176751],[135.302092,34.176617],[135.30228,34.176667],[135.302555,34.176826],[135.30288,34.176967],[135.303642,34.177034],[135.304067,34.176951],[135.304567,34.176742],[135.304842,34.176701],[135.30508,34.176767],[135.30543,34.176976],[135.30568,34.177017],[135.306229,34.176776],[135.306417,34.176567],[135.306529,34.176518],[135.306767,34.176551],[135.307317,34.176801],[135.307829,34.176901],[135.308317,34.176901],[135.308917,34.177059],[135.309192,34.177251],[135.309354,34.177492],[135.309592,34.177584],[135.309867,34.177767],[135.310167,34.177926],[135.310467,34.177884],[135.310866,34.177767],[135.311454,34.177709],[135.311579,34.177726],[135.312504,34.178234],[135.312754,34.178459],[135.312916,34.178709],[135.312991,34.178917],[135.312904,34.179117],[135.312691,34.179342],[135.312504,34.179476],[135.312366,34.179684],[135.312416,34.179859],[135.312579,34.180051],[135.312654,34.180251],[135.312679,34.1805],[135.312604,34.180909],[135.312604,34.181109],[135.312754,34.181359],[135.313029,34.18225],[135.313291,34.182809],[135.313616,34.183333],[135.313841,34.183858],[135.314128,34.184242],[135.314103,34.1845],[135.313941,34.184767],[135.313666,34.184967],[135.313741,34.185483],[135.313878,34.185767],[135.314178,34.186283],[135.314641,34.186833],[135.314791,34.18715],[135.314791,34.187425],[135.314653,34.188033],[135.314491,34.188208],[135.314578,34.188508],[135.314841,34.188758],[135.314953,34.189208],[135.315703,34.190666],[135.315916,34.190883],[135.316303,34.191208],[135.31824,34.193591],[135.318078,34.193782],[135.31754,34.193982],[135.316678,34.194274],[135.316516,34.194274],[135.316228,34.194199],[135.315816,34.194224],[135.315703,34.194265],[135.315216,34.194624],[135.314803,34.194832],[135.314741,34.194899],[135.314666,34.195165],[135.314666,34.195432],[135.314803,34.19564],[135.314803,34.195865],[135.314603,34.19639],[135.314416,34.19664],[135.314191,34.197157],[135.314316,34.19799],[135.314291,34.198382],[135.314153,34.198873],[135.314241,34.19909],[135.314216,34.199331],[135.313953,34.199781],[135.313591,34.200481],[135.313566,34.201031],[135.313403,34.201298],[135.313178,34.201481],[135.312828,34.201656],[135.312466,34.201773],[135.311816,34.201748],[135.311379,34.201806],[135.311104,34.201898],[135.311079,34.202056],[135.311104,34.202148],[135.311429,34.202589],[135.311454,34.202906],[135.311391,34.202956],[135.311066,34.202939],[135.310754,34.202831],[135.310591,34.202756],[135.308954,34.202573],[135.308766,34.202448],[135.308704,34.202364],[135.308441,34.201164],[135.308479,34.19894],[135.308629,34.198623],[135.309141,34.19844],[135.309054,34.19824],[135.308441,34.197107],[135.307979,34.196582],[135.307517,34.19624],[135.306754,34.195582],[135.306517,34.195265],[135.306142,34.195032],[135.306004,34.195148],[135.305292,34.195865],[135.304667,34.196015],[135.304604,34.196073],[135.304579,34.196207],[135.304442,34.196473],[135.304254,34.196673],[135.304304,34.19679],[135.304467,34.196815],[135.304579,34.196923],[135.304554,34.196973],[135.304329,34.197065],[135.304054,34.197107],[135.303779,34.197107],[135.303504,34.197173],[135.302992,34.197373],[135.302767,34.197373],[135.30273,34.197173],[135.302755,34.196965],[135.302455,34.19694],[135.302142,34.197007],[135.30188,34.197206],[135.301717,34.19739],[135.301555,34.197431],[135.301492,34.197406],[135.301417,34.197273],[135.301442,34.196848],[135.301392,34.196673],[135.301255,34.196673],[135.301005,34.196773],[135.300792,34.196898],[135.30068,34.19709],[135.300705,34.197298],[135.299255,34.197815],[135.298817,34.198006],[135.298792,34.198281],[135.298655,34.198423],[135.298467,34.19844],[135.298242,34.198548],[135.29808,34.198573],[135.29773,34.198506],[135.29748,34.198665],[135.297393,34.198981],[135.297255,34.199298],[135.297093,34.199523],[135.296905,34.200148],[135.29663,34.200581],[135.296405,34.200531],[135.29618,34.200531],[135.296005,34.200606],[135.295805,34.200964],[135.295618,34.200998],[135.29513,34.200914],[135.294193,34.201022],[135.29318,34.201264],[135.292805,34.201447],[135.292368,34.201989],[135.292043,34.202306],[135.291743,34.202506],[135.291268,34.202664],[135.290781,34.202681],[135.289718,34.202606],[135.289506,34.202539],[135.289181,34.202497],[135.288793,34.202489],[135.288006,34.202281],[135.287568,34.202347],[135.287043,34.20253],[135.286831,34.202522],[135.286506,34.20243],[135.286056,34.202505],[135.285244,34.202905],[135.285144,34.20293],[135.284619,34.202972],[135.284269,34.20333],[135.283969,34.203514],[135.283669,34.203597],[135.283606,34.203647],[135.283631,34.20378],[135.283769,34.203897],[135.284069,34.20398],[135.284369,34.204005],[135.284956,34.204189],[135.285019,34.20433],[135.284944,34.204372],[135.284231,34.204147],[135.284069,34.204147],[135.283931,34.20428],[135.283569,34.205255],[135.283431,34.20523],[135.283381,34.205047],[135.283419,34.20478],[135.283519,34.20448],[135.283581,34.204163],[135.283506,34.203847],[135.283394,34.203622],[135.283181,34.20348],[135.283019,34.20348],[135.282819,34.203597],[135.282681,34.203847],[135.282569,34.20418],[135.282344,34.205405],[135.282319,34.205763],[135.282394,34.20613],[135.282231,34.206405],[135.282194,34.20663],[135.282256,34.206855],[135.282256,34.207055],[135.282031,34.207171],[135.281606,34.207171],[135.281219,34.207121],[135.281057,34.207163],[135.280969,34.207171],[135.280669,34.20728],[135.280244,34.207471],[135.279982,34.207588],[135.280019,34.208046],[135.280094,34.208496],[135.280182,34.208638],[135.280257,34.209038],[135.280194,34.209763],[135.280707,34.210813],[135.281006,34.212212],[135.281369,34.213171],[135.281281,34.213279],[135.281206,34.213321],[135.280856,34.213412],[135.280444,34.213587],[135.279507,34.214087],[135.278194,34.214554],[135.277544,34.215537],[135.277369,34.215887],[135.277044,34.216154],[135.276282,34.216403],[135.275657,34.21637],[135.274645,34.216962],[135.274882,34.218003],[135.274932,34.218428],[135.27482,34.218828],[135.274532,34.221011],[135.274232,34.221894],[135.27482,34.222144],[135.275394,34.222328],[135.276257,34.222853],[135.276594,34.222994],[135.277132,34.223061],[135.277469,34.223194],[135.278907,34.224061],[135.280481,34.224636],[135.281069,34.224936],[135.281181,34.225119],[135.281369,34.225278],[135.281806,34.225369],[135.282181,34.225503],[135.282456,34.225752],[135.282644,34.226077],[135.282831,34.226611],[135.282781,34.226844],[135.282806,34.226969],[135.283481,34.227411],[135.283818,34.227569],[135.284731,34.227944],[135.284931,34.228169],[135.285031,34.228985],[135.285181,34.229344],[135.285268,34.229394],[135.285543,34.229435],[135.285981,34.229419],[135.286381,34.22931],[135.287093,34.228877],[135.287493,34.228752],[135.287893,34.228702],[135.288255,34.228836],[135.289518,34.229486],[135.289768,34.229502],[135.289955,34.229436],[135.29018,34.229411],[135.290443,34.229536],[135.290668,34.229827],[135.291255,34.230302],[135.292092,34.231302],[135.292642,34.23171],[135.292992,34.231852],[135.293892,34.231769],[135.294355,34.23161],[135.294792,34.231369],[135.295555,34.231069],[135.295917,34.231094],[135.296405,34.23121],[135.297192,34.23156],[135.297654,34.231819],[135.299254,34.233427],[135.299929,34.233702],[135.300392,34.233835],[135.300754,34.234069],[135.300954,34.234302],[135.301042,34.234585],[135.301067,34.23531],[135.301254,34.235693],[135.301979,34.236268],[135.302454,34.236243],[135.302779,34.236268],[135.303241,34.236427],[135.303641,34.236268],[135.304466,34.236252],[135.305179,34.236352],[135.305254,34.236418],[135.305554,34.237052],[135.305904,34.237352],[135.306366,34.237527],[135.307428,34.237835],[135.307828,34.237768],[135.308303,34.237627],[135.308491,34.23761],[135.308903,34.237793],[135.309091,34.237976],[135.309166,34.238743],[135.309728,34.238885],[135.309903,34.238868],[135.310528,34.238485],[135.310828,34.238235],[135.311103,34.237918],[135.311603,34.237785],[135.312528,34.237627],[135.312653,34.237627],[135.31299,34.237477],[135.313228,34.237435],[135.31359,34.237435],[135.314078,34.237302],[135.314215,34.237502],[135.314752,34.238885],[135.31469,34.239568],[135.314577,34.239993],[135.314415,34.240176],[135.314277,34.240176],[135.312215,34.239843],[135.311453,34.23966],[135.310465,34.239476],[135.31049,34.239701],[135.310653,34.239976],[135.310878,34.240085],[135.311065,34.240085],[135.311278,34.239951],[135.311453,34.239976],[135.311728,34.240143],[135.311828,34.240251],[135.312128,34.240435],[135.31259,34.240526],[135.313003,34.240551],[135.31319,34.240626],[135.31349,34.241101],[135.313865,34.242009],[135.313902,34.242434],[135.313852,34.243068],[135.31359,34.243568],[135.312915,34.243784],[135.312515,34.243876],[135.312178,34.244168],[135.31234,34.244326],[135.312453,34.244601],[135.312678,34.244843],[135.31384,34.244726],[135.313902,34.244809],[135.313865,34.245284],[135.313652,34.245551],[135.31354,34.245726],[135.313327,34.245809],[135.313127,34.245784],[135.312977,34.245684],[135.312715,34.245576],[135.312528,34.245351],[135.31234,34.245251],[135.311828,34.245767],[135.31154,34.246084],[135.311465,34.246401],[135.31179,34.246984],[135.311678,34.247109],[135.311478,34.247167],[135.311203,34.247151],[135.310965,34.247151],[135.310715,34.247151],[135.310365,34.247151],[135.309928,34.247351],[135.309403,34.248067],[135.309078,34.2484],[135.308615,34.248625],[135.30804,34.248784],[135.307415,34.24885],[135.307465,34.248984],[135.30749,34.24955],[135.30759,34.250317],[135.30764,34.252292],[135.305803,34.252667],[135.304041,34.2533],[135.303716,34.253442],[135.302853,34.253742],[135.301579,34.254016],[135.300241,34.2544],[135.299054,34.254833],[135.297341,34.255316],[135.296929,34.255366],[135.296392,34.255366],[135.294817,34.255141],[135.293867,34.254966],[135.29228,34.25455],[135.291305,34.254325],[135.288255,34.25375],[135.287718,34.253708],[135.287143,34.253708],[135.285318,34.253966],[135.283505,34.254283],[135.282281,34.254425],[135.281331,34.25445],[135.279531,34.254258],[135.276919,34.253908],[135.276056,34.253883],[135.274319,34.253691],[135.272731,34.253583],[135.272394,34.255858],[135.272369,34.256266],[135.272206,34.257033],[135.272081,34.257124],[135.271457,34.257424],[135.272081,34.257958],[135.272844,34.258366],[135.273631,34.258966],[135.273944,34.259641],[135.274081,34.260074],[135.274294,34.260433],[135.274056,34.260458],[135.273756,34.260632],[135.273569,34.261091],[135.273569,34.261424],[135.273869,34.262166],[135.274206,34.262641],[135.274944,34.263157],[135.275594,34.263424],[135.275806,34.263557],[135.275894,34.26399],[135.275869,34.264149],[135.275731,34.264324],[135.275456,34.264549],[135.275031,34.264874],[135.275031,34.265007],[135.275144,34.265274],[135.275544,34.265699],[135.275881,34.265907],[135.276256,34.266149],[135.276231,34.26644],[135.276431,34.266715],[135.277106,34.267432],[135.276381,34.267748],[135.275619,34.268115],[135.276081,34.268882],[135.276169,34.269215],[135.276144,34.269732],[135.276394,34.269957],[135.276856,34.270073],[135.276993,34.270682],[135.277018,34.270948],[135.276968,34.271156],[135.275581,34.27129],[135.273894,34.271323],[135.274006,34.271973],[135.274144,34.272381],[135.274344,34.272765],[135.274694,34.273665],[135.274806,34.27409],[135.275194,34.275014],[135.275331,34.275514],[135.275744,34.276639],[135.275781,34.276998],[135.276131,34.277698],[135.276194,34.277989],[135.276169,34.278347],[135.276106,34.278481],[135.276169,34.279247],[135.276119,34.279614],[135.274981,34.28128],[135.274819,34.281647],[135.274744,34.282047],[135.274781,34.283405],[135.274756,34.283539],[135.274694,34.283605],[135.274506,34.283589],[135.274319,34.283497],[135.274206,34.283539],[135.274044,34.283697],[135.274044,34.283747],[135.273994,34.283764],[135.273831,34.284172],[135.273731,34.28503],[135.273519,34.285822],[135.272894,34.287088],[135.272819,34.287488],[135.272844,34.287696],[135.272819,34.28803],[135.272581,34.288596],[135.272306,34.288963],[135.272181,34.289271],[135.271719,34.289663],[135.271494,34.289888],[135.271344,34.290154],[135.271369,34.290246],[135.271906,34.290088],[135.272419,34.290021],[135.272481,34.290246],[135.272369,34.290421],[135.271694,34.291013],[135.271619,34.291146],[135.271369,34.291779],[135.271431,34.292071],[135.271619,34.292663],[135.271656,34.293354],[135.271819,34.293654],[135.272719,34.294979],[135.273106,34.295762],[135.273281,34.296304],[135.273581,34.29707],[135.273581,34.297362],[135.272881,34.298562],[135.272669,34.298879],[135.272506,34.29922],[135.272369,34.29962],[135.272319,34.300053],[135.272294,34.300862],[135.272456,34.301445],[135.272381,34.301745],[135.272106,34.302062],[135.272056,34.302062],[135.271819,34.302395],[135.271706,34.302803],[135.271494,34.303436],[135.270981,34.303711],[135.270794,34.30362],[135.270544,34.303395],[135.270156,34.303128],[135.270056,34.30317],[135.269994,34.303303],[135.269994,34.303528],[135.269894,34.303803],[135.269706,34.304028],[135.269519,34.304545],[135.269519,34.304686],[135.269681,34.30507],[135.270069,34.305695],[135.270281,34.305944],[135.270531,34.306036],[135.270581,34.306078],[135.270419,34.306619],[135.270556,34.306886],[135.270731,34.307028],[135.270894,34.307228],[135.270944,34.307519],[135.270919,34.307903],[135.270706,34.309169],[135.270694,34.309977],[135.270744,34.310319],[135.270906,34.310652],[135.271344,34.311327],[135.271381,34.311686],[135.271244,34.312119],[135.271131,34.312319],[135.271681,34.312452],[135.271981,34.312069],[135.272169,34.312044],[135.272306,34.31216],[135.272519,34.312227],[135.272769,34.31216],[135.273481,34.312944],[135.273831,34.313235],[135.274406,34.313369],[135.274731,34.313502],[135.275006,34.31366],[135.275168,34.313819],[135.275306,34.31386],[135.275843,34.313927],[135.276281,34.314035],[135.276693,34.31426],[135.277018,34.314602],[135.277406,34.315543],[135.277656,34.315635],[135.277956,34.315702],[135.278818,34.31601],[135.279181,34.315918],[135.279481,34.315985],[135.279968,34.31646],[135.28018,34.316502],[135.280505,34.31641],[135.280943,34.316477],[135.28138,34.316885],[135.281868,34.317127],[135.282305,34.317735],[135.282418,34.317827],[135.282643,34.317893],[135.282855,34.317868],[135.283205,34.317668],[135.283943,34.316877],[135.284105,34.31676],[135.28478,34.316077],[135.285393,34.314819],[135.285555,34.31441],[135.285793,34.314002],[135.28633,34.313277],[135.28663,34.312602],[135.28668,34.312244],[135.286542,34.311652],[135.286105,34.310577],[135.286043,34.310211],[135.28613,34.309828],[135.286418,34.309403],[135.28653,34.309111],[135.286555,34.308361],[135.286718,34.307753],[135.28688,34.307528],[135.28693,34.307053],[135.287055,34.306645],[135.287217,34.306511],[135.287767,34.306311],[135.287867,34.306061],[135.28793,34.305653],[135.287917,34.305336],[135.28803,34.304953],[135.288217,34.304595],[135.288592,34.304053],[135.28943,34.303103],[135.289617,34.302712],[135.28978,34.302103],[135.290267,34.301495],[135.290642,34.301203],[135.290892,34.300887],[135.291505,34.299804],[135.291805,34.299529],[135.292454,34.299304],[135.293054,34.299162],[135.293329,34.299187],[135.293467,34.299412],[135.293492,34.299612],[135.293679,34.29997],[135.293742,34.30002],[135.293904,34.300062],[135.294529,34.300154],[135.294717,34.300445],[135.294829,34.300512],[135.295204,34.300237],[135.295642,34.30017],[135.295779,34.300212],[135.295892,34.300462],[135.296004,34.301178],[135.296079,34.301337],[135.296304,34.30127],[135.297054,34.300928],[135.297441,34.300795],[135.297579,34.30077],[135.297766,34.300862],[135.298041,34.301153],[135.298254,34.30147],[135.298479,34.302528],[135.298729,34.302703],[135.299241,34.302612],[135.300766,34.30252],[135.300978,34.302587],[135.301091,34.302787],[135.301041,34.30297],[135.301041,34.30317],[135.301091,34.303278],[135.301503,34.303503],[135.301691,34.303728],[135.301691,34.304137],[135.301641,34.304203],[135.301666,34.304387],[135.301828,34.304478],[135.302403,34.304453],[135.302653,34.304495],[135.302841,34.304878],[135.302878,34.306136],[135.302928,34.30657],[135.303216,34.307403],[135.303428,34.30787],[135.303653,34.308186],[135.303816,34.308528],[135.304003,34.309203],[135.304203,34.309469],[135.304415,34.309878],[135.304503,34.310286],[135.304528,34.310778],[135.304478,34.311453],[135.304078,34.312244],[135.303916,34.312761],[135.303978,34.313711],[135.305315,34.314044],[135.306053,34.314269],[135.30714,34.314486],[135.307603,34.314419],[135.308677,34.313944],[135.308815,34.313719],[135.30884,34.313494],[135.309027,34.313403],[135.309365,34.313419],[135.30979,34.313328],[135.309927,34.313353],[135.310202,34.313644],[135.310252,34.313594],[135.310415,34.313578],[135.310852,34.313777],[135.311015,34.313819],[135.311265,34.313619],[135.311502,34.313686],[135.311777,34.313952],[135.311865,34.313994],[135.31214,34.314044],[135.312839,34.314019],[135.313139,34.314102],[135.313339,34.314469],[135.313827,34.314761],[135.313902,34.314961],[135.313914,34.315119],[135.314014,34.315186],[135.314727,34.315161],[135.314914,34.315319],[135.315164,34.315336],[135.315427,34.315427],[135.315727,34.315627],[135.315952,34.315652],[135.316352,34.315519],[135.316577,34.315511],[135.316902,34.315694],[135.317314,34.315694],[135.317614,34.315802],[135.317876,34.315961],[135.318051,34.316161],[135.318126,34.316344],[135.318264,34.316411],[135.319189,34.316494],[135.319514,34.316627],[135.319839,34.316811],[135.320176,34.317127],[135.320801,34.317486],[135.321314,34.317686],[135.322163,34.317911],[135.322301,34.317977],[135.322376,34.318202],[135.322538,34.318427],[135.322813,34.318602],[135.323826,34.319052],[135.324151,34.319136],[135.325951,34.319152],[135.326901,34.318927],[135.327463,34.318744],[135.327901,34.318677],[135.3286,34.318361],[135.329175,34.318036],[135.329663,34.317361],[135.330363,34.316769],[135.33055,34.316678],[135.3305,34.317203],[135.330238,34.317811],[135.330125,34.318328],[135.33015,34.318686],[135.330575,34.319661],[135.330538,34.319794],[135.330088,34.320111],[135.329975,34.320336],[135.329325,34.321036],[135.32925,34.321194],[135.329138,34.321311],[135.328651,34.321511],[135.328463,34.322419],[135.328301,34.322735],[135.328088,34.32321],[135.328013,34.323752],[135.328126,34.324019],[135.328451,34.324219],[135.329263,34.324327],[135.329513,34.324419],[135.33,34.325052],[135.3303,34.325185],[135.3312,34.325319],[135.331613,34.325469],[135.3318,34.325469],[135.3324,34.325602],[135.332725,34.325627],[135.332863,34.32556],[135.333213,34.325485],[135.3336,34.325694],[135.3337,34.325669],[135.334025,34.32551],[135.334512,34.32551],[135.334762,34.32566],[135.335012,34.325935],[135.335525,34.32636],[135.335612,34.326519],[135.335662,34.32681],[135.335837,34.327035],[135.336537,34.327485],[135.337225,34.327685],[135.338125,34.328585],[135.338999,34.329235],[135.339212,34.329477],[135.339274,34.329793],[135.339199,34.330651],[135.339199,34.331101],[135.339312,34.33151],[135.339524,34.331985],[135.339424,34.332185],[135.339212,34.33246],[135.339074,34.332776],[135.338887,34.333743],[135.338749,34.334034],[135.338124,34.334509],[135.337637,34.334809],[135.337474,34.334968],[135.337912,34.335234],[135.338249,34.335368],[135.338412,34.335393],[135.338624,34.335251],[135.338762,34.335118],[135.338999,34.335026],[135.339487,34.335068],[135.340037,34.335251],[135.340424,34.335293],[135.340749,34.335268],[135.341562,34.335293],[135.341937,34.335268],[135.342124,34.335176],[135.342324,34.334993],[135.342424,34.334809],[135.342724,34.334493],[135.343699,34.33316],[135.344099,34.33271],[135.344449,34.332418],[135.344611,34.332368],[135.344886,34.332118],[135.345236,34.331535],[135.345424,34.330876],[135.345661,34.330543],[135.345824,34.330468],[135.346124,34.330402],[135.346424,34.330651],[135.346724,34.330985],[135.346949,34.331118],[135.347086,34.331118],[135.347299,34.331026],[135.347436,34.33101],[135.348011,34.331118],[135.348174,34.33121],[135.348549,34.331676],[135.349348,34.331968],[135.349773,34.33181],[135.350123,34.331785],[135.350323,34.331826],[135.351386,34.332235],[135.352386,34.332451],[135.353286,34.332251],[135.353361,34.332176],[135.353698,34.332085],[135.353886,34.33216],[135.354186,34.332335],[135.354348,34.33256],[135.354486,34.332876],[135.355498,34.333551],[135.355735,34.333659],[135.355898,34.333659],[135.356148,34.333318],[135.356335,34.33321],[135.356748,34.333201],[135.357185,34.33336],[135.357585,34.333559],[135.357698,34.333584],[135.357835,34.333385],[135.358098,34.333243],[135.358785,34.333201],[135.359135,34.333126],[135.359673,34.332718],[135.360023,34.332176],[135.360273,34.332043],[135.360435,34.33186],[135.360485,34.331435],[135.360623,34.33116],[135.36091,34.330868],[135.361073,34.33051],[135.36151,34.33001],[135.361722,34.329535],[135.362135,34.32926],[135.362372,34.329193],[135.362647,34.329218],[135.363247,34.32971],[135.363297,34.329818],[135.363497,34.32996],[135.363922,34.329843],[135.364385,34.32991],[135.364635,34.32986],[135.365035,34.329677],[135.366022,34.329702],[135.366422,34.32981],[135.366672,34.329968],[135.366922,34.330618],[135.367084,34.330868],[135.367497,34.331068],[135.367934,34.331201],[135.368334,34.331201],[135.368472,34.331135],[135.368797,34.330885],[135.369209,34.33066],[135.370184,34.33036],[135.370971,34.330218],[135.371434,34.330202],[135.372209,34.330292],[135.372371,34.33026],[135.372771,34.330418],[135.373259,34.33056],[135.374109,34.330968],[135.374508,34.331068],[135.375358,34.331118],[135.375658,34.331076],[135.375908,34.330868],[135.376158,34.33056],[135.376433,34.330335],[135.376821,34.330227],[135.377721,34.330143],[135.378071,34.330035],[135.378733,34.329468],[135.379045,34.329135],[135.379595,34.328735],[135.380008,34.32856],[135.380308,34.328493],[135.380658,34.32861],[135.381445,34.329043],[135.381933,34.32916],[135.382458,34.329318],[135.383058,34.329418],[135.383357,34.329418],[135.38412,34.329518],[135.384607,34.329477],[135.386332,34.329193],[135.38677,34.329177],[135.386982,34.329243],[135.38717,34.32981],[135.387357,34.330218],[135.387994,34.332051],[135.388182,34.332393],[135.388532,34.33251],[135.389294,34.33256],[135.390194,34.332701],[135.390732,34.332951],[135.391194,34.333001],[135.391557,34.332693],[135.391919,34.332493],[135.392269,34.332268],[135.392469,34.332068],[135.392769,34.331843],[135.393481,34.331551],[135.393594,34.331376],[135.393894,34.331101],[135.394206,34.330901],[135.394481,34.330818],[135.394694,34.330885],[135.395081,34.330935],[135.395406,34.330843],[135.395756,34.330802],[135.396119,34.330693],[135.396331,34.330535],[135.396644,34.330402],[135.396969,34.330385],[135.397243,34.330477],[135.397506,34.330635],[135.397993,34.331568],[135.398156,34.331726],[135.398968,34.332368],[135.399393,34.332593],[135.399718,34.33266],[135.400268,34.332576],[135.400918,34.332851],[135.401056,34.332876],[135.401306,34.33286],[135.401468,34.332768],[135.401831,34.332676],[135.401931,34.332701],[135.402181,34.332885],[135.402456,34.333026],[135.402555,34.333293],[135.402718,34.333543],[135.403018,34.333751],[135.403205,34.333843],[135.40378,34.33401],[135.404293,34.334076],[135.404818,34.334018],[135.40558,34.333843],[135.405718,34.334018],[135.405893,34.334651],[135.40608,34.334926],[135.406705,34.335385],[135.406768,34.335451],[135.40678,34.335726],[135.407068,34.336626],[135.407093,34.336643],[135.406955,34.338126],[135.406955,34.338651],[135.407343,34.339234],[135.40833,34.340109],[135.408517,34.340451],[135.408742,34.341392],[135.408992,34.341826],[135.40923,34.341934]]]},"type":"Feature"}]}