{"type":"FeatureCollection","features":[{"geometry":{"type":"Polygon","coordinates":[[[135.54811,34.068192],[135.548422,34.068184],[135.549297,34.068251],[135.550722,34.068434],[135.551222,34.068409],[135.55131,34.068434],[135.55136,34.067576],[135.551609,34.066834],[135.551984,34.065884],[135.552434,34.065393],[135.553147,34.065051],[135.553859,34.064851],[135.555559,34.06431],[135.556797,34.063968],[135.557597,34.06381],[135.558671,34.06381],[135.559684,34.063735],[135.560809,34.063718],[135.562046,34.063693],[135.563146,34.063552],[135.563671,34.063102],[135.564109,34.062318],[135.564571,34.060852],[135.564684,34.060194],[135.564746,34.06006],[135.565258,34.05956],[135.565971,34.059094],[135.566383,34.058619],[135.566471,34.058369],[135.566883,34.057536],[135.567133,34.057444],[135.568396,34.057536],[135.569221,34.058027],[135.570133,34.058344],[135.571258,34.058452],[135.57222,34.058452],[135.574495,34.058811],[135.57562,34.058744],[135.576695,34.058519],[135.577633,34.058228],[135.578595,34.058219],[135.579807,34.058153],[135.58032,34.057928],[135.580432,34.057903],[135.580407,34.057069],[135.580632,34.056261],[135.581557,34.055745],[135.58167,34.055428],[135.581482,34.054886],[135.581645,34.054228],[135.58222,34.053778],[135.58252,34.053287],[135.58332,34.052403],[135.583895,34.051595],[135.584032,34.051345],[135.584545,34.050037],[135.584907,34.049679],[135.585782,34.049204],[135.586719,34.048554],[135.586857,34.048254],[135.587219,34.047671],[135.587457,34.047154],[135.587869,34.046812],[135.588944,34.046721],[135.590294,34.046721],[135.591394,34.046629],[135.591557,34.046587],[135.592132,34.046246],[135.592657,34.045612],[135.593181,34.045146],[135.593944,34.044646],[135.594494,34.044146],[135.594844,34.043246],[135.594819,34.042546],[135.594681,34.042304],[135.594656,34.04163],[135.594956,34.041021],[135.594956,34.040521],[135.594844,34.040296],[135.594706,34.039396],[135.595169,34.038588],[135.595469,34.037747],[135.595806,34.03703],[135.595944,34.03683],[135.597231,34.036038],[135.597694,34.035405],[135.597781,34.035139],[135.598719,34.034214],[135.598881,34.034005],[135.599206,34.033239],[135.599531,34.032005],[135.599456,34.031781],[135.599481,34.031639],[135.599319,34.031639],[135.598319,34.031214],[135.597169,34.030514],[135.596594,34.030022],[135.595494,34.028781],[135.594857,34.027906],[135.594769,34.027548],[135.594882,34.027006],[135.595132,34.026531],[135.595594,34.026081],[135.595757,34.025673],[135.595844,34.025048],[135.595707,34.024323],[135.595294,34.023331],[135.594444,34.022273],[135.593032,34.020948],[135.592507,34.020357],[135.592132,34.020048],[135.591444,34.019573],[135.591494,34.019215],[135.592482,34.01689],[135.592782,34.015873],[135.592995,34.014882],[135.593495,34.01349],[135.593932,34.012899],[135.594644,34.01234],[135.595244,34.011907],[135.595694,34.011682],[135.595857,34.011665],[135.597532,34.012224],[135.598494,34.012357],[135.599594,34.012332],[135.600769,34.012424],[135.602094,34.012624],[135.602756,34.012624],[135.603219,34.012715],[135.603681,34.012757],[135.604119,34.012715],[135.604569,34.012624],[135.605169,34.012649],[135.605444,34.01269],[135.606844,34.013182],[135.607419,34.013274],[135.608056,34.013524],[135.608306,34.013565],[135.608656,34.013474],[135.609231,34.013024],[135.609869,34.012824],[135.610556,34.012532],[135.610881,34.012349],[135.611319,34.011899],[135.611731,34.010324],[135.612056,34.010165],[135.613131,34.009982],[135.614368,34.009574],[135.615543,34.009374],[135.616481,34.009257],[135.616818,34.009165],[135.617806,34.009165],[135.618631,34.009349],[135.621293,34.009682],[135.622093,34.00959],[135.622203,34.009498],[135.62333,34.008824],[135.623968,34.008257],[135.624755,34.007682],[135.625105,34.007316],[135.62523,34.007057],[135.625293,34.006107],[135.625268,34.005599],[135.625055,34.004599],[135.62468,34.003558],[135.624593,34.003333],[135.624243,34.003166],[135.623731,34.002783],[135.623456,34.002491],[135.623368,34.002358],[135.623418,34.002016],[135.623668,34.001749],[135.623931,34.001008],[135.624081,34.000333],[135.624168,34.00015],[135.62443,34.000016],[135.625405,33.999941],[135.62573,33.999941],[135.626055,33.99985],[135.626843,33.9994],[135.627543,33.998925],[135.627668,33.998291],[135.62778,33.9982],[135.62848,33.998],[135.628717,33.997975],[135.628942,33.997858],[135.629017,33.9977],[135.629092,33.997183],[135.629205,33.996867],[135.62923,33.996533],[135.629492,33.995858],[135.629942,33.995025],[135.63008,33.994417],[135.629905,33.993559],[135.62988,33.993134],[135.62998,33.991967],[135.63008,33.991609],[135.630267,33.991267],[135.63073,33.991067],[135.63113,33.991042],[135.632567,33.991217],[135.633054,33.991209],[135.633542,33.991184],[135.634704,33.991426],[135.635117,33.991401],[135.635467,33.991317],[135.635979,33.990951],[135.636479,33.990051],[135.636667,33.989801],[135.636804,33.989509],[135.636854,33.989151],[135.636792,33.988518],[135.636841,33.988209],[135.636979,33.987843],[135.637429,33.987126],[135.637891,33.986534],[135.638629,33.985051],[135.638791,33.98431],[135.638816,33.983726],[135.638866,33.983477],[135.639029,33.983185],[135.639179,33.98271],[135.638991,33.982352],[135.638504,33.981835],[135.638141,33.981277],[135.638166,33.981118],[135.638441,33.98076],[135.638516,33.980419],[135.638479,33.980085],[135.638229,33.979227],[135.638141,33.978335],[135.637541,33.976627],[135.637504,33.976244],[135.637954,33.975228],[135.638091,33.974803],[135.638229,33.974644],[135.639241,33.974053],[135.639678,33.973586],[135.639778,33.973111],[135.639778,33.972795],[135.639691,33.972186],[135.639491,33.970795],[135.639591,33.970412],[135.639728,33.970162],[135.639753,33.969895],[135.639641,33.969378],[135.639641,33.969128],[135.639803,33.968745],[135.639828,33.968595],[135.639991,33.968295],[135.640141,33.96787],[135.640166,33.967195],[135.640128,33.965912],[135.640016,33.965171],[135.639816,33.964771],[135.638891,33.963446],[135.638866,33.963246],[135.638966,33.962529],[135.638853,33.961721],[135.638653,33.961379],[135.638303,33.960955],[135.638091,33.960796],[135.637866,33.960688],[135.637404,33.96033],[135.636779,33.95968],[135.636479,33.95948],[135.636154,33.959321],[135.635879,33.95928],[135.635691,33.959105],[135.635604,33.958896],[135.635491,33.958272],[135.635616,33.957105],[135.635541,33.956697],[135.635591,33.956497],[135.635666,33.956405],[135.636016,33.955164],[135.636004,33.954264],[135.636291,33.953164],[135.636641,33.952331],[135.636866,33.951098],[135.637029,33.950848],[135.637166,33.950731],[135.637116,33.950573],[135.636891,33.950506],[135.636566,33.950489],[135.635754,33.950381],[135.635466,33.950381],[135.634966,33.950273],[135.634242,33.949873],[135.633342,33.949539],[135.631742,33.949231],[135.631417,33.949098],[135.631117,33.949031],[135.63088,33.949098],[135.630367,33.949389],[135.630042,33.949531],[135.629805,33.949573],[135.629155,33.949556],[135.628742,33.949464],[135.627767,33.949514],[135.62613,33.950039],[135.62553,33.950039],[135.625318,33.950131],[135.625205,33.950289],[135.625268,33.950672],[135.625218,33.950856],[135.625105,33.951014],[135.624105,33.951739],[135.623843,33.951897],[135.623606,33.952122],[135.623143,33.952822],[135.622856,33.953047],[135.622468,33.953138],[135.622205,33.953162],[135.622181,33.953197],[135.621931,33.953213],[135.621118,33.95313],[135.620431,33.953097],[135.620118,33.953147],[135.619344,33.953638],[135.618956,33.95398],[135.618706,33.954272],[135.618506,33.954588],[135.618369,33.954647],[135.618094,33.95458],[135.617719,33.954372],[135.616906,33.953847],[135.616706,33.953597],[135.616031,33.95228],[135.615994,33.95198],[135.615869,33.951505],[135.615869,33.951205],[135.615932,33.950939],[135.616044,33.94993],[135.616031,33.949464],[135.615882,33.949239],[135.615594,33.948972],[135.615407,33.948672],[135.615469,33.948314],[135.615719,33.947814],[135.615994,33.947348],[135.616306,33.947048],[135.616694,33.946764],[135.617531,33.945989],[135.617831,33.945531],[135.618269,33.944698],[135.618556,33.944273],[135.618619,33.943965],[135.618531,33.94314],[135.618381,33.94259],[135.618444,33.94144],[135.618331,33.941123],[135.617881,33.940674],[135.617506,33.939974],[135.617269,33.939724],[135.617056,33.939565],[135.616856,33.939249],[135.616731,33.938957],[135.616744,33.938449],[135.616831,33.938157],[135.617019,33.937841],[135.617169,33.937474],[135.617069,33.937249],[135.616831,33.936924],[135.616631,33.936899],[135.616194,33.936924],[135.615707,33.936907],[135.615407,33.936832],[135.615194,33.936824],[135.614919,33.936932],[135.614144,33.937474],[135.614019,33.937524],[135.613582,33.937549],[135.61267,33.937432],[135.612095,33.937174],[135.611357,33.936932],[135.611082,33.936732],[135.610932,33.936474],[135.610845,33.936199],[135.610795,33.935874],[135.610832,33.935557],[135.61082,33.935266],[135.609757,33.933149],[135.60947,33.932366],[135.609445,33.932083],[135.60982,33.931608],[135.61022,33.931283],[135.610932,33.930858],[135.611757,33.930508],[135.612595,33.930066],[135.612782,33.9299],[135.612945,33.929516],[135.612995,33.9292],[135.613295,33.928517],[135.613594,33.927983],[135.613857,33.927575],[135.613919,33.92715],[135.613894,33.926875],[135.614119,33.925309],[135.614044,33.925109],[135.613557,33.92485],[135.612807,33.924334],[135.612532,33.924042],[135.61242,33.923767],[135.612345,33.923334],[135.612307,33.922626],[135.612332,33.922242],[135.612607,33.921626],[135.61262,33.921426],[135.612482,33.921167],[135.612157,33.920759],[135.611657,33.920009],[135.611445,33.919701],[135.611332,33.919209],[135.611245,33.919101],[135.611032,33.918968],[135.610757,33.918676],[135.610732,33.918451],[135.610857,33.91721],[135.610195,33.91546],[135.610132,33.915185],[135.610157,33.91496],[135.610645,33.913885],[135.610632,33.913502],[135.61047,33.913093],[135.610232,33.912827],[135.610032,33.91271],[135.609732,33.912643],[135.608632,33.912652],[135.60782,33.912385],[135.607658,33.912318],[135.60662,33.91171],[135.606045,33.911193],[135.605745,33.910794],[135.605583,33.910685],[135.605208,33.910552],[135.60447,33.910194],[135.604308,33.910169],[135.603983,33.91006],[135.603383,33.909944],[135.602958,33.909727],[135.602708,33.909635],[135.602083,33.909569],[135.601546,33.909252],[135.601296,33.909035],[135.600783,33.908744],[135.600484,33.908652],[135.599996,33.908427],[135.600021,33.908227],[135.600496,33.907527],[135.600558,33.907344],[135.600746,33.906986],[135.601783,33.905744],[135.601946,33.905136],[135.601971,33.904802],[135.601858,33.904061],[135.601746,33.903653],[135.601521,33.903253],[135.601171,33.902711],[135.601083,33.902644],[135.600658,33.902461],[135.600433,33.902419],[135.600333,33.902444],[135.599896,33.902403],[135.598784,33.902178],[135.597621,33.901753],[135.596671,33.901403],[135.595959,33.90102],[135.595684,33.900795],[135.595034,33.899961],[135.594459,33.899586],[135.594134,33.89947],[135.593872,33.89947],[135.593622,33.899428],[135.593384,33.899336],[135.592859,33.898845],[135.591422,33.897344],[135.591472,33.89687],[135.591484,33.895545],[135.590597,33.892937],[135.590509,33.892471],[135.590159,33.891187],[135.589934,33.890154],[135.589847,33.890104],[135.589197,33.890087],[135.587284,33.890204],[135.586759,33.890004],[135.585597,33.890146],[135.585247,33.890121],[135.584922,33.890262],[135.58471,33.890421],[135.584197,33.890621],[135.583772,33.890712],[135.583385,33.890712],[135.583035,33.890604],[135.58266,33.890537],[135.582248,33.890562],[135.581923,33.890671],[135.58176,33.890787],[135.581523,33.890404],[135.581548,33.890021],[135.58151,33.889704],[135.581185,33.889304],[135.580773,33.889038],[135.580048,33.888454],[135.579773,33.888338],[135.579423,33.888096],[135.578935,33.887621],[135.578873,33.887538],[135.57866,33.887404],[135.578035,33.887179],[135.577711,33.886863],[135.577323,33.886321],[135.576886,33.885829],[135.576211,33.885763],[135.575836,33.885679],[135.575536,33.885563],[135.574823,33.88523],[135.574286,33.88503],[135.573961,33.884788],[135.573386,33.884405],[135.572549,33.884588],[135.572099,33.884746],[135.571036,33.885221],[135.570612,33.885246],[135.570237,33.885313],[135.569687,33.885496],[135.569337,33.885679],[135.569199,33.885613],[135.568774,33.885254],[135.568612,33.885046],[135.568387,33.88453],[135.567837,33.883546],[135.567812,33.88328],[135.567837,33.883096],[135.567812,33.882896],[135.567637,33.882555],[135.567399,33.882171],[135.566762,33.880897],[135.565787,33.879905],[135.565187,33.879188],[135.564912,33.878922],[135.564637,33.878538],[135.564525,33.877997],[135.563625,33.877214],[135.563575,33.87713],[135.562487,33.876322],[135.56205,33.876122],[135.561375,33.875855],[135.561,33.875672],[135.560775,33.875472],[135.5608,33.874439],[135.560338,33.873806],[135.560113,33.873581],[135.559875,33.873431],[135.559188,33.873139],[135.557975,33.872806],[135.557488,33.872739],[135.5571,33.872714],[135.556488,33.872498],[135.555313,33.871889],[135.554388,33.871514],[135.553476,33.870998],[135.552651,33.870389],[135.552226,33.870148],[135.551513,33.869856],[135.551051,33.869764],[135.550139,33.869498],[135.549751,33.869523],[135.549351,33.869598],[135.548814,33.869756],[135.548001,33.869848],[135.547564,33.869806],[135.547401,33.869756],[135.546751,33.869831],[135.546076,33.869831],[135.545702,33.869764],[135.545402,33.869806],[135.544814,33.869973],[135.544377,33.869989],[135.543977,33.869948],[135.542889,33.869931],[135.542377,33.869864],[135.541614,33.869798],[135.541027,33.869823],[135.540402,33.869898],[135.53959,33.869939],[135.539265,33.869873],[135.53859,33.869631],[135.53794,33.869498],[135.53629,33.869456],[135.535827,33.869373],[135.53534,33.869398],[135.534828,33.869489],[135.534015,33.869673],[135.533315,33.869714],[135.532965,33.869648],[135.532503,33.869198],[135.531715,33.868306],[135.530815,33.867406],[135.53059,33.86734],[135.53049,33.867406],[135.530165,33.867481],[135.528303,33.867615],[135.527591,33.867598],[135.527141,33.867506],[135.526866,33.867398],[135.526541,33.867198],[135.525266,33.866257],[135.524903,33.866165],[135.524528,33.866173],[135.523478,33.866265],[135.522203,33.866223],[135.522178,33.866248],[135.521778,33.866223],[135.521091,33.86609],[135.519991,33.865732],[135.519529,33.865648],[135.518816,33.865557],[135.518391,33.865448],[135.518229,33.865382],[135.517741,33.865065],[135.517141,33.864623],[135.516867,33.864532],[135.516404,33.86469],[135.515792,33.864807],[135.515329,33.864807],[135.514704,33.864857],[135.514279,33.864832],[135.513567,33.864882],[135.51233,33.865015],[135.511842,33.864882],[135.511567,33.864773],[135.511405,33.864823],[135.51033,33.865181],[135.509767,33.865298],[135.509467,33.865256],[135.508892,33.864981],[135.508817,33.864915],[135.50833,33.864806],[135.508055,33.864831],[135.507105,33.865148],[135.506818,33.865306],[135.506355,33.865448],[135.505918,33.865515],[135.504793,33.865631],[135.504543,33.865723],[135.50333,33.86649],[135.502468,33.867281],[135.502093,33.867531],[135.501768,33.867689],[135.501393,33.867756],[135.501068,33.867756],[135.500393,33.867823],[135.500256,33.867898],[135.499606,33.868031],[135.499318,33.868031],[135.498581,33.867989],[135.498318,33.868081],[135.497806,33.868373],[135.497217,33.868554],[135.497119,33.868489],[135.496319,33.868239],[135.496156,33.868131],[135.495819,33.867631],[135.495269,33.867298],[135.494694,33.867089],[135.494369,33.866889],[135.494031,33.866348],[135.493869,33.866214],[135.493406,33.866056],[135.492994,33.865606],[135.492581,33.865356],[135.492269,33.865065],[135.492131,33.864981],[135.491969,33.864998],[135.491694,33.865115],[135.491344,33.865181],[135.490932,33.865156],[135.489582,33.864798],[135.488894,33.864481],[135.488419,33.86419],[135.487707,33.863831],[135.487107,33.863606],[135.486357,33.863723],[135.48622,33.863698],[135.485482,33.863406],[135.48512,33.863298],[135.484195,33.863223],[135.48367,33.863231],[135.483207,33.86309],[135.482757,33.862665],[135.48252,33.862573],[135.482132,33.862623],[135.48142,33.862415],[135.480895,33.86244],[135.480208,33.862556],[135.47952,33.862506],[135.479195,33.862581],[135.47892,33.86274],[135.47867,33.862965],[135.478283,33.86319],[135.477958,33.863456],[135.477708,33.863415],[135.476658,33.862606],[135.476408,33.862331],[135.475808,33.861407],[135.475558,33.860957],[135.47512,33.860465],[135.474845,33.860215],[135.474508,33.86004],[135.474233,33.85979],[135.474021,33.859498],[135.473908,33.859432],[135.473133,33.859157],[135.472783,33.85884],[135.472533,33.858532],[135.472283,33.858282],[135.471958,33.858124],[135.470971,33.857899],[135.470358,33.857674],[135.470108,33.857424],[135.469896,33.856974],[135.469596,33.856774],[135.469534,33.856524],[135.469596,33.856257],[135.469696,33.855982],[135.469696,33.855599],[135.469646,33.855216],[135.469809,33.855057],[135.470221,33.854791],[135.470383,33.854591],[135.470383,33.854449],[135.470059,33.854274],[135.469621,33.854224],[135.469209,33.854274],[135.468871,33.854249],[135.468521,33.854182],[135.468384,33.854116],[135.467934,33.854074],[135.467496,33.853982],[135.467246,33.853891],[135.466396,33.853308],[135.465934,33.853149],[135.465134,33.853083],[135.464834,33.853083],[135.464784,33.852674],[135.464421,33.851891],[135.463759,33.850833],[135.463047,33.849841],[135.462409,33.848575],[135.462222,33.847792],[135.462084,33.84705],[135.461797,33.845942],[135.461797,33.84565],[135.461722,33.845359],[135.461472,33.845],[135.461109,33.844792],[135.460922,33.844617],[135.460784,33.844167],[135.460584,33.843084],[135.460484,33.842584],[135.460447,33.842317],[135.460647,33.841592],[135.460809,33.841284],[135.461059,33.840534],[135.461109,33.839859],[135.460834,33.838601],[135.460772,33.838034],[135.460534,33.837926],[135.460309,33.837901],[135.459872,33.838059],[135.459047,33.838176],[135.457922,33.838243],[135.457047,33.838268],[135.456385,33.838243],[135.45591,33.838284],[135.45471,33.838243],[135.454547,33.838443],[135.454435,33.838668],[135.45421,33.838901],[135.453885,33.839076],[135.453547,33.839209],[135.452622,33.839826],[135.452485,33.840026],[135.452285,33.840134],[135.451847,33.840209],[135.451272,33.840226],[135.450585,33.840318],[135.450198,33.840434],[135.449898,33.840634],[135.44971,33.840701],[135.449548,33.840659],[135.449323,33.840501],[135.44831,33.840009],[135.44806,33.839868],[135.446848,33.839918],[135.446498,33.840009],[135.446248,33.840184],[135.446023,33.840409],[135.44586,33.840709],[135.445723,33.841251],[135.445423,33.841492],[135.444985,33.841542],[135.443973,33.841267],[135.443061,33.840976],[135.442698,33.840801],[135.442123,33.840259],[135.441386,33.839851],[135.441136,33.839651],[135.440361,33.839401],[135.440223,33.839226],[135.440148,33.839176],[135.439823,33.839176],[135.439548,33.839359],[135.438999,33.839468],[135.438636,33.839384],[135.437836,33.838951],[135.436849,33.838593],[135.436574,33.838593],[135.436361,33.838684],[135.435886,33.839109],[135.435449,33.839584],[135.435199,33.839742],[135.434824,33.839884],[135.434324,33.839926],[135.433637,33.840084],[135.433337,33.840042],[135.433037,33.839884],[135.432762,33.839634],[135.432212,33.839293],[135.431824,33.839159],[135.431574,33.839026],[135.431187,33.838601],[135.431087,33.838351],[135.430999,33.838009],[135.431087,33.837701],[135.431024,33.837676],[135.430887,33.837701],[135.430362,33.838084],[135.430149,33.838326],[135.429762,33.838443],[135.429599,33.838326],[135.429512,33.838126],[135.429187,33.837793],[135.428987,33.837718],[135.428662,33.837876],[135.428312,33.838243],[135.427625,33.838668],[135.427175,33.838784],[135.427012,33.838734],[135.4266,33.838334],[135.42625,33.838126],[135.425862,33.838176],[135.4254,33.838426],[135.42515,33.838493],[135.4246,33.838443],[135.424212,33.838334],[135.424075,33.838268],[135.423775,33.837993],[135.423388,33.837476],[135.4232,33.837276],[135.422538,33.836918],[135.422238,33.836684],[135.422175,33.836534],[135.422038,33.836359],[135.422288,33.835676],[135.422238,33.835434],[135.422013,33.83516],[135.421713,33.835001],[135.42135,33.83496],[135.420138,33.835168],[135.419838,33.835168],[135.419725,33.835184],[135.41935,33.835168],[135.417938,33.83481],[135.417313,33.83456],[135.416626,33.83456],[135.416351,33.834426],[135.415713,33.833768],[135.415276,33.833568],[135.414913,33.833551],[135.414588,33.833635],[135.414176,33.833935],[135.413788,33.834318],[135.413026,33.835418],[135.412713,33.835709],[135.412389,33.835668],[135.412139,33.835534],[135.411476,33.834968],[135.410926,33.834809],[135.409776,33.834634],[135.409039,33.834409],[135.408539,33.834318],[135.408314,33.834185],[135.408176,33.833918],[135.408039,33.833735],[135.407851,33.833643],[135.407551,33.83371],[135.406777,33.834434],[135.406389,33.834726],[135.406114,33.835068],[135.405539,33.836468],[135.405402,33.836667],[135.404627,33.836992],[135.404102,33.837334],[135.403714,33.837492],[135.403064,33.837651],[135.402402,33.837876],[135.402102,33.837917],[135.401802,33.837901],[135.40149,33.837767],[135.40119,33.837584],[135.40084,33.837467],[135.39999,33.837334],[135.399515,33.837092],[135.399352,33.837067],[135.399127,33.837109],[135.398852,33.837226],[135.398502,33.837292],[135.397703,33.837359],[135.397378,33.837426],[135.397103,33.837451],[135.396965,33.837426],[135.396878,33.837359],[135.396465,33.836801],[135.396353,33.836651],[135.396253,33.836492],[135.396053,33.836342],[135.39594,33.836292],[135.39559,33.836226],[135.395153,33.836251],[135.39474,33.836409],[135.394465,33.836592],[135.394353,33.836684],[135.394128,33.836751],[135.393853,33.836826],[135.39334,33.836892],[135.393116,33.836959],[135.392566,33.837409],[135.391853,33.837684],[135.391603,33.837725],[135.391078,33.8377],[135.390841,33.837634],[135.390616,33.837459],[135.390341,33.837092],[135.390203,33.836984],[135.389853,33.836826],[135.389441,33.836684],[135.389428,33.836484],[135.389266,33.836342],[135.388441,33.836367],[135.387941,33.836192],[135.387366,33.835901],[135.387004,33.835676],[135.386541,33.835451],[135.386104,33.835109],[135.384891,33.834367],[135.383929,33.833917],[135.383517,33.833584],[135.382992,33.833284],[135.382529,33.833218],[135.382004,33.833084],[135.381292,33.832659],[135.380292,33.831801],[135.379417,33.831376],[135.379005,33.831059],[135.378755,33.830809],[135.378542,33.830501],[135.378455,33.830134],[135.378342,33.82991],[135.378042,33.829735],[135.376967,33.829526],[135.376555,33.829443],[135.376168,33.82946],[135.375843,33.829551],[135.375655,33.829551],[135.375018,33.82931],[135.374693,33.829018],[135.374555,33.828318],[135.374443,33.828001],[135.374443,33.827643],[135.374493,33.827235],[135.37438,33.826985],[135.373755,33.826127],[135.37323,33.825252],[135.372868,33.824868],[135.372493,33.824577],[135.372293,33.82451],[135.372228,33.824533],[135.372081,33.824535],[135.371756,33.824402],[135.371556,33.824202],[135.371281,33.824002],[135.370981,33.823843],[135.369968,33.823119],[135.369331,33.822535],[135.369168,33.822285],[135.369406,33.821769],[135.369631,33.821435],[135.369818,33.82091],[135.369906,33.82026],[135.369656,33.820152],[135.369468,33.820102],[135.368781,33.819811],[135.368468,33.819477],[135.367943,33.818661],[135.367644,33.818302],[135.366706,33.817427],[135.366456,33.817019],[135.366269,33.816594],[135.365769,33.815853],[135.365606,33.815511],[135.365056,33.814878],[135.364831,33.814544],[135.364556,33.814361],[135.363319,33.814053],[135.363181,33.813844],[135.362931,33.813619],[135.362144,33.813353],[135.361482,33.812811],[135.360244,33.812386],[135.360082,33.81212],[135.359994,33.81187],[135.359632,33.811845],[135.359357,33.811303],[135.359194,33.811195],[135.358832,33.811195],[135.358619,33.810995],[135.358457,33.810695],[135.358182,33.810403],[135.357244,33.80982],[135.356382,33.809187],[135.356057,33.809012],[135.355645,33.80897],[135.355145,33.809012],[135.354632,33.809128],[135.353782,33.809753],[135.352407,33.809511],[135.35152,33.80942],[135.351082,33.809328],[135.35067,33.809328],[135.35042,33.809403],[135.350033,33.809603],[135.349545,33.809961],[135.349108,33.810186],[135.348745,33.810253],[135.348333,33.810186],[135.34792,33.810078],[135.347783,33.810011],[135.347758,33.80992],[135.347808,33.809561],[135.347783,33.809062],[135.347733,33.80902],[135.34742,33.809087],[135.346983,33.809245],[135.346845,33.80927],[135.346683,33.808978],[135.34652,33.808162],[135.34652,33.80807],[135.346158,33.807645],[135.34602,33.807395],[135.345745,33.807237],[135.345658,33.807037],[135.345833,33.806628],[135.346183,33.806162],[135.346545,33.805979],[135.347333,33.805779],[135.347995,33.805212],[135.348408,33.804804],[135.348958,33.804012],[135.349558,33.803479],[135.349695,33.803096],[135.349758,33.802504],[135.349533,33.802171],[135.34937,33.801804],[135.349258,33.801429],[135.349483,33.801087],[135.349308,33.800837],[135.349008,33.800596],[135.348645,33.800412],[135.348408,33.800029],[135.348295,33.799621],[135.34837,33.799171],[135.348945,33.797554],[135.348895,33.797238],[135.348945,33.796946],[135.349195,33.796738],[135.349795,33.796421],[135.349883,33.79633],[135.349908,33.795838],[135.350183,33.795188],[135.350095,33.794888],[135.35002,33.794755],[135.349633,33.794355],[135.34917,33.793922],[135.34897,33.793672],[135.348945,33.793497],[135.34902,33.793063],[135.349408,33.792438],[135.349545,33.792147],[135.349545,33.791872],[135.349383,33.791605],[135.34867,33.791014],[135.348445,33.790722],[135.348358,33.79048],[135.34867,33.79023],[135.34957,33.789639],[135.349683,33.789505],[135.349683,33.789347],[135.349383,33.78903],[135.34897,33.788947],[135.348445,33.788855],[135.348358,33.788739],[135.348145,33.788064],[135.34817,33.787706],[135.34842,33.787481],[135.348583,33.787189],[135.348683,33.786739],[135.34872,33.786306],[135.348495,33.785614],[135.348433,33.785273],[135.34857,33.784914],[135.348795,33.784531],[135.349283,33.783806],[135.349345,33.783473],[135.34912,33.782206],[135.348821,33.781531],[135.348683,33.780656],[135.348683,33.780298],[135.348458,33.779573],[135.348508,33.77939],[135.349096,33.779282],[135.349233,33.779215],[135.349258,33.779098],[135.349233,33.778782],[135.349308,33.778673],[135.349283,33.778515],[135.349083,33.778382],[135.348983,33.778223],[135.349083,33.777682],[135.349083,33.777432],[135.349008,33.777048],[135.348346,33.776215],[135.347958,33.776015],[135.347633,33.77599],[135.347471,33.775832],[135.347433,33.775765],[135.347496,33.77554],[135.347383,33.775157],[135.347046,33.774907],[135.346771,33.774774],[135.346283,33.774799],[135.345621,33.774915],[135.345271,33.774915],[135.345183,33.774707],[135.345321,33.774149],[135.345483,33.773766],[135.345508,33.773424],[135.344771,33.772457],[135.344871,33.772324],[135.345146,33.772099],[135.345421,33.771782],[135.345696,33.771283],[135.345758,33.771083],[135.345808,33.770091],[135.345621,33.769824],[135.345371,33.769599],[135.345033,33.7691],[135.345096,33.768716],[135.345171,33.768541],[135.345121,33.768241],[135.344621,33.76755],[135.345771,33.76705],[135.346158,33.766916],[135.346433,33.766758],[135.346496,33.766533],[135.346408,33.766283],[135.346158,33.766083],[135.345833,33.765992],[135.344983,33.765858],[135.344783,33.76565],[135.344646,33.765117],[135.344808,33.764933],[135.344846,33.76475],[135.344671,33.764417],[135.344896,33.76405],[135.345171,33.763742],[135.345246,33.7634],[135.345146,33.762884],[135.344946,33.762567],[135.344534,33.762184],[135.344371,33.762184],[135.344346,33.762159],[135.343871,33.762234],[135.343634,33.762209],[135.343084,33.761667],[135.342909,33.761334],[135.342971,33.761017],[135.343159,33.760517],[135.343159,33.760026],[135.343109,33.759551],[135.342996,33.759276],[135.341996,33.758151],[135.341621,33.757926],[135.341146,33.757276],[135.340959,33.756984],[135.340621,33.756801],[135.340384,33.756534],[135.340209,33.755901],[135.340159,33.755493],[135.340321,33.75446],[135.340021,33.753827],[135.339859,33.753585],[135.339634,33.75336],[135.339484,33.753327],[135.339309,33.753168],[135.339097,33.753127],[135.338597,33.753218],[135.337947,33.753102],[135.337572,33.752993],[135.337009,33.753035],[135.336659,33.753102],[135.336397,33.75306],[135.336422,33.752702],[135.336334,33.752477],[135.336359,33.752027],[135.336334,33.751593],[135.336447,33.751368],[135.336322,33.750744],[135.336472,33.75061],[135.336909,33.750494],[135.337122,33.750069],[135.337822,33.749552],[135.337822,33.749394],[135.337734,33.749169],[135.337434,33.749052],[135.337084,33.748802],[135.336784,33.748535],[135.335847,33.748044],[135.335784,33.747636],[135.335934,33.747319],[135.335872,33.746894],[135.335722,33.746619],[135.335872,33.746311],[135.336347,33.745544],[135.335547,33.745386],[135.335197,33.745136],[135.334697,33.744911],[135.33451,33.744894],[135.334022,33.744961],[135.333747,33.745044],[135.33371,33.744694],[135.332997,33.744603],[135.333085,33.743753],[135.332085,33.743669],[135.332097,33.744453],[135.331697,33.744378],[135.330547,33.744128],[135.32986,33.743203],[135.330447,33.742936],[135.329922,33.742578],[135.32901,33.743028],[135.328835,33.742711],[135.32851,33.741653],[135.328123,33.741903],[135.32766,33.742128],[135.327748,33.742286],[135.327535,33.742686],[135.328073,33.742869],[135.32816,33.743094],[135.328135,33.743744],[135.328223,33.743903],[135.328285,33.744286],[135.328248,33.744736],[135.328398,33.745277],[135.32861,33.745636],[135.328698,33.746019],[135.328723,33.746402],[135.328635,33.746761],[135.328235,33.747727],[135.327848,33.748294],[135.327585,33.748477],[135.327348,33.748519],[135.326848,33.749035],[135.327085,33.749235],[135.326448,33.750368],[135.326273,33.750543],[135.325798,33.75061],[135.324623,33.751018],[135.324361,33.751177],[135.324036,33.751135],[135.323798,33.751043],[135.323536,33.751018],[135.323361,33.751043],[135.323236,33.751177],[135.323211,33.75136],[135.323298,33.751535],[135.323598,33.751852],[135.324298,33.752776],[135.324423,33.752885],[135.324448,33.753335],[135.324523,33.75336],[135.324998,33.754651],[135.32511,33.755734],[135.32521,33.756118],[135.325135,33.757534],[135.325048,33.757693],[135.324835,33.757893],[135.325135,33.758009],[135.32511,33.758392],[135.324948,33.758417],[135.324635,33.759476],[135.324535,33.759676],[135.323735,33.76125],[135.322498,33.762809],[135.322036,33.763284],[135.321648,33.763758],[135.320861,33.764633],[135.319836,33.765608],[135.319286,33.766033],[135.317811,33.767116],[135.317148,33.7675],[135.316598,33.767775],[135.316111,33.767975],[135.315661,33.768291],[135.315249,33.768491],[135.314874,33.768624],[135.314399,33.768741],[135.313911,33.768941],[135.313249,33.769124],[135.312424,33.769283],[135.311461,33.769399],[135.310386,33.769399],[135.310086,33.769374],[135.308712,33.769083],[135.308324,33.769041],[135.306899,33.768633],[135.306649,33.767983],[135.306437,33.767641],[135.306162,33.7674],[135.305199,33.766833],[135.304899,33.766766],[135.304649,33.766883],[135.304287,33.767533],[135.304075,33.767691],[135.303462,33.767733],[135.302975,33.767624],[135.302362,33.767125],[135.30195,33.766833],[135.301675,33.766791],[135.3013,33.766791],[135.300962,33.766633],[135.300775,33.766458],[135.3003,33.766141],[135.300112,33.765958],[135.299612,33.765825],[135.299175,33.7654],[135.299012,33.765175],[135.2992,33.764858],[135.299512,33.764475],[135.299425,33.764291],[135.299237,33.764158],[135.299062,33.764158],[135.298787,33.764025],[135.2986,33.763866],[135.298275,33.763816],[135.2981,33.764],[135.297963,33.764316],[135.297725,33.7645],[135.297388,33.764583],[135.29725,33.764516],[135.2972,33.764408],[135.297088,33.764316],[135.297063,33.764066],[135.29695,33.764041],[135.296788,33.764066],[135.296788,33.763908],[135.296675,33.763866],[135.296563,33.763708],[135.2961,33.763683],[135.296013,33.763825],[135.296238,33.764025],[135.296288,33.764133],[135.296425,33.764225],[135.2964,33.764475],[135.296513,33.764675],[135.296538,33.764675],[135.296425,33.764833],[135.296563,33.764858],[135.296563,33.764991],[135.29635,33.765058],[135.296263,33.765191],[135.296375,33.765625],[135.2966,33.76565],[135.296738,33.765875],[135.29715,33.765958],[135.297388,33.766208],[135.297388,33.766566],[135.297588,33.766683],[135.297775,33.766933],[135.297912,33.767608],[135.297862,33.767941],[135.297675,33.768374],[135.297425,33.768733],[135.297225,33.768708],[135.297088,33.768758],[135.297013,33.768916],[135.2969,33.769024],[135.296988,33.769116],[135.296925,33.769341],[135.295363,33.771007],[135.294588,33.771599],[135.294013,33.771891],[135.29245,33.77254],[135.291926,33.772657],[135.291276,33.772657],[135.290201,33.772707],[135.289451,33.77284],[135.288501,33.772974],[135.288326,33.772974],[135.287863,33.772882],[135.287701,33.772907],[135.287151,33.773132],[135.287013,33.773357],[135.286851,33.773807],[135.286676,33.773924],[135.286239,33.774082],[135.285864,33.774265],[135.285314,33.774423],[135.284489,33.774873],[135.283939,33.775123],[135.283464,33.775415],[135.283026,33.775748],[135.282639,33.775998],[135.282401,33.776273],[135.282201,33.776565],[135.282039,33.777215],[135.281764,33.77774],[135.281052,33.778415],[135.279952,33.779181],[135.279702,33.779473],[135.279427,33.779539],[135.279039,33.779589],[135.278527,33.779723],[135.277564,33.780198],[135.276814,33.780489],[135.276439,33.780514],[135.275527,33.780606],[135.275065,33.780606],[135.274565,33.780647],[135.274102,33.780806],[135.27289,33.781531],[135.272315,33.781981],[135.271377,33.782614],[135.270965,33.782839],[135.270415,33.782972],[135.269953,33.783039],[135.26959,33.782997],[135.268928,33.783022],[135.268765,33.782905],[135.26869,33.78288],[135.26794,33.782955],[135.266103,33.78298],[135.265941,33.78293],[135.265778,33.782839],[135.264953,33.782797],[135.264703,33.782455],[135.263928,33.782372],[135.263853,33.782322],[135.263553,33.782255],[135.262753,33.782214],[135.262203,33.782255],[135.261566,33.782255],[135.260829,33.782305],[135.260166,33.782397],[135.259016,33.782647],[135.257754,33.782713],[135.257304,33.782597],[135.256842,33.78253],[135.256379,33.782555],[135.255829,33.782463],[135.254317,33.782397],[135.253742,33.782447],[135.252642,33.782422],[135.251567,33.782088],[135.25113,33.782022],[135.250055,33.781797],[135.249142,33.781663],[135.248405,33.781413],[135.247555,33.78128],[135.24733,33.781213],[135.247223,33.781225],[135.247093,33.781205],[135.24663,33.78093],[135.245843,33.780272],[135.245818,33.78023],[135.24563,33.78023],[135.245543,33.780163],[135.24498,33.780205],[135.244568,33.780047],[135.24433,33.780097],[135.244168,33.780097],[135.24408,33.780138],[135.24278,33.780572],[135.242318,33.780655],[135.241781,33.780638],[135.240618,33.780705],[135.239781,33.78068],[135.239456,33.780613],[135.238043,33.780472],[135.237531,33.780547],[135.237018,33.780655],[135.236556,33.780788],[135.236068,33.780997],[135.235856,33.781221],[135.235718,33.781313],[135.235281,33.781446],[135.234844,33.781513],[135.234719,33.78163],[135.234719,33.781896],[135.234494,33.782288],[135.234256,33.782605],[135.234094,33.782963],[135.233656,33.783529],[135.233306,33.784163],[135.233206,33.784754],[135.233094,33.785163],[135.233206,33.785271],[135.233281,33.785271],[135.233556,33.785479],[135.233769,33.785704],[135.234144,33.786337],[135.234319,33.787012],[135.234231,33.787421],[135.234069,33.787696],[135.233744,33.787896],[135.233719,33.788196],[135.233669,33.788287],[135.233581,33.788621],[135.233556,33.788962],[135.233606,33.789279],[135.233769,33.789595],[135.233993,33.78982],[135.234531,33.790187],[135.235456,33.790595],[135.235756,33.790687],[135.236106,33.790729],[135.236831,33.791045],[135.237081,33.791679],[135.237356,33.79272],[135.237431,33.793312],[135.237406,33.793837],[135.237131,33.794895],[135.236893,33.795486],[135.236681,33.796161],[135.236131,33.797411],[135.235806,33.797928],[135.235456,33.798403],[135.235056,33.798836],[135.234243,33.799536],[135.233481,33.800077],[135.232318,33.800694],[135.231293,33.801144],[135.230718,33.801327],[135.230131,33.80146],[135.229231,33.801619],[135.228794,33.801619],[135.227169,33.801819],[135.227119,33.802027],[135.226956,33.802027],[135.226681,33.802502],[135.226356,33.802835],[135.225981,33.803043],[135.225444,33.803202],[135.223894,33.803427],[135.223519,33.803402],[135.223332,33.803468],[135.222869,33.803993],[135.222657,33.804102],[135.222407,33.804327],[135.222144,33.804468],[135.222082,33.804535],[135.221944,33.804602],[135.221657,33.804602],[135.221269,33.804668],[135.220757,33.804693],[135.220544,33.804852],[135.220482,33.805051],[135.220544,33.805285],[135.220844,33.805776],[135.220919,33.806168],[135.220807,33.80666],[135.220644,33.807026],[135.220807,33.807593],[135.220757,33.80786],[135.220781,33.808068],[135.220869,33.808176],[135.220781,33.808226],[135.220682,33.808135],[135.220294,33.808201],[135.219969,33.808335],[135.219219,33.808543],[135.218619,33.808901],[135.218594,33.809176],[135.218619,33.809218],[135.218132,33.809534],[135.218132,33.809809],[135.218432,33.810918],[135.218519,33.811526],[135.218319,33.812776],[135.218381,33.812884],[135.216994,33.814201],[135.216344,33.813609],[135.215807,33.814067],[135.213369,33.812117],[135.212769,33.812434],[135.212582,33.811909],[135.212532,33.811617],[135.212307,33.811367],[135.212207,33.811117],[135.211382,33.810618],[135.211145,33.810351],[135.210795,33.809734],[135.210707,33.809626],[135.210357,33.809309],[135.20992,33.808984],[135.209657,33.808943],[135.209632,33.808876],[135.209432,33.808876],[135.208757,33.808784],[135.208657,33.808826],[135.208195,33.808826],[135.207757,33.808893],[135.207432,33.809009],[135.207057,33.809209],[135.206645,33.809551],[135.206595,33.809684],[135.206545,33.810143],[135.206595,33.810393],[135.206595,33.810617],[135.20667,33.810892],[135.20667,33.811209],[135.206482,33.811592],[135.206182,33.811909],[135.205732,33.812242],[135.20527,33.812451],[135.204132,33.812651],[135.203507,33.812676],[135.202858,33.812492],[135.20267,33.812517],[135.202558,33.812609],[135.202233,33.812676],[135.201745,33.812651],[135.201283,33.812492],[135.200795,33.812426],[135.200395,33.812492],[135.199633,33.812809],[135.199195,33.812942],[135.19847,33.813167],[135.196733,33.813534],[135.19652,33.8136],[135.196133,33.813917],[135.195483,33.814434],[135.195408,33.814575],[135.19532,33.815209],[135.195333,33.815617],[135.195133,33.81595],[135.194758,33.816358],[135.193895,33.816925],[135.193546,33.817133],[135.193433,33.817058],[135.193158,33.817042],[135.191971,33.817558],[135.191371,33.817783],[135.190833,33.817925],[135.190446,33.817925],[135.189996,33.817833],[135.189421,33.81785],[135.188796,33.817992],[135.187683,33.818325],[135.187234,33.818533],[135.187096,33.818625],[135.186471,33.819183],[135.186146,33.819341],[135.185846,33.819575],[135.185684,33.819933],[135.185471,33.820683],[135.184846,33.822041],[135.184596,33.822383],[135.184521,33.822674],[135.184596,33.823033],[135.184759,33.823533],[135.184846,33.824349],[135.184896,33.824641],[135.184934,33.825457],[135.184896,33.825932],[135.184734,33.826366],[135.184446,33.826724],[135.183759,33.827249],[135.183309,33.827541],[135.183171,33.827582],[135.183221,33.827832],[135.182871,33.827791],[135.182434,33.827857],[135.181434,33.828149],[135.180734,33.828241],[135.179109,33.828782],[135.178509,33.829032],[135.177047,33.830257],[135.176722,33.830457],[135.176259,33.83064],[135.175847,33.830982],[135.175559,33.831298],[135.174709,33.832015],[135.174547,33.832315],[135.174497,33.832657],[135.174584,33.833557],[135.174584,33.834057],[135.174634,33.834665],[135.174422,33.836023],[135.174447,33.836431],[135.174559,33.836615],[135.174509,33.836681],[135.174597,33.836806],[135.174697,33.836873],[135.174809,33.836881],[135.174922,33.836923],[135.174972,33.837123],[135.174947,33.837398],[135.174997,33.837423],[135.175209,33.837939],[135.175397,33.838123],[135.175234,33.838281],[135.175234,33.838364],[135.175072,33.838656],[135.174959,33.839023],[135.174622,33.839673],[135.174359,33.839964],[135.174059,33.840189],[135.173509,33.840389],[135.172672,33.840539],[135.171834,33.840831],[135.171322,33.840939],[135.170722,33.840981],[135.170484,33.840931],[135.170347,33.840972],[135.170259,33.841089],[135.170009,33.841672],[135.169497,33.842281],[135.169172,33.842547],[135.168485,33.842931],[135.16811,33.843081],[135.167735,33.843106],[135.166597,33.843364],[135.165622,33.843497],[135.164235,33.843914],[135.164147,33.844005],[135.16431,33.84423],[135.16431,33.844364],[135.164147,33.84448],[135.164072,33.844614],[135.163872,33.844722],[135.16371,33.84488],[135.163172,33.84488],[135.163085,33.844989],[135.162785,33.845122],[135.162785,33.84528],[135.162923,33.845397],[135.162948,33.845489],[135.163135,33.845622],[135.163197,33.845847],[135.163085,33.845939],[135.16311,33.846072],[135.16321,33.84628],[135.163372,33.84648],[135.16356,33.846572],[135.16411,33.84673],[135.164297,33.84673],[135.164347,33.846713],[135.164647,33.84678],[135.164835,33.846688],[135.165185,33.846697],[135.165622,33.846763],[135.16681,33.84688],[135.166997,33.846972],[135.167185,33.847338],[135.16721,33.847588],[135.16716,33.847922],[135.167022,33.848238],[135.166797,33.848505],[135.166097,33.848772],[135.16566,33.848997],[135.164597,33.849688],[135.164622,33.849821],[135.16481,33.84998],[135.165085,33.850346],[135.165347,33.85053],[135.165672,33.851388],[135.165647,33.851705],[135.165497,33.852038],[135.16531,33.85233],[135.164597,33.853138],[135.164247,33.853379],[135.163922,33.853496],[135.163597,33.853538],[135.16336,33.853604],[135.16311,33.853713],[135.162922,33.854004],[135.162672,33.854838],[135.162447,33.855113],[135.162147,33.855379],[135.16076,33.856387],[135.16041,33.857104],[135.159948,33.857637],[135.159748,33.857704],[135.159485,33.857754],[135.159398,33.857996],[135.159285,33.858112],[135.159098,33.858062],[135.158673,33.858196],[135.158235,33.858487],[135.158048,33.858579],[135.157885,33.858737],[135.157685,33.858804],[135.157635,33.859004],[135.157773,33.859112],[135.157935,33.859162],[135.158123,33.859295],[135.158448,33.859462],[135.158685,33.859462],[135.158573,33.859754],[135.15996,33.860079],[135.159785,33.861045],[135.159972,33.86107],[135.159785,33.861654],[135.15881,33.86147],[135.158698,33.86187],[135.159372,33.862012],[135.158798,33.86377],[135.157523,33.863537],[135.157498,33.863712],[135.158748,33.865295],[135.158835,33.865611],[135.158797,33.865978],[135.15866,33.866378],[135.158473,33.86667],[135.157935,33.866853],[135.157823,33.866936],[135.157823,33.867145],[135.15831,33.867486],[135.158248,33.867486],[135.158497,33.867728],[135.158547,33.867961],[135.158397,33.868994],[135.158235,33.869511],[135.157823,33.870294],[135.157473,33.870744],[135.155648,33.872627],[135.155235,33.872986],[135.154935,33.873302],[135.154585,33.873594],[135.154098,33.873952],[135.152973,33.874594],[135.152573,33.875002],[135.152323,33.87536],[135.151611,33.876302],[135.151286,33.876935],[135.149598,33.878768],[135.147661,33.880785],[135.146236,33.882134],[135.145261,33.882868],[135.144224,33.883543],[135.142899,33.884251],[135.141836,33.884951],[135.140636,33.885526],[135.139149,33.886126],[135.138174,33.886592],[135.136837,33.886992],[135.135887,33.887417],[135.13405,33.888059],[135.132575,33.888658],[135.130762,33.889233],[135.129812,33.889475],[135.129275,33.88965],[135.128025,33.889942],[135.127538,33.890158],[135.126988,33.890358],[135.126475,33.890492],[135.12585,33.8906],[135.122325,33.891575],[135.12223,33.891534],[135.121088,33.891916],[135.120626,33.891983],[135.118938,33.892391],[135.117038,33.892883],[135.115138,33.893241],[135.113701,33.893425],[135.111839,33.893308],[135.111701,33.893191],[135.111539,33.89315],[135.111101,33.893191],[135.110751,33.893125],[135.110676,33.893008],[135.110614,33.892825],[135.110539,33.892716],[135.110314,33.892625],[135.110026,33.8926],[135.109914,33.892575],[135.109614,33.8926],[135.109339,33.892733],[135.109201,33.8926],[135.109264,33.89235],[135.109239,33.892283],[135.109126,33.892216],[135.109014,33.892191],[135.108989,33.892058],[135.108826,33.891966],[135.108851,33.8919],[135.108801,33.891716],[135.108564,33.891675],[135.108364,33.891675],[135.108264,33.891875],[135.107414,33.891625],[135.107527,33.891425],[135.107289,33.891283],[135.106689,33.891308],[135.106277,33.891283],[135.105764,33.891075],[135.105364,33.890875],[135.104927,33.890583],[135.104364,33.89035],[135.103539,33.890083],[135.103489,33.889992],[135.103139,33.88985],[135.103027,33.889742],[135.102565,33.88965],[135.10224,33.889692],[135.101865,33.889558],[135.10084,33.8891],[135.100402,33.888967],[135.100215,33.888742],[135.100102,33.888492],[135.099427,33.888375],[135.099477,33.888442],[135.099502,33.888583],[135.099315,33.888583],[135.09929,33.888667],[135.099152,33.888742],[135.098965,33.888783],[135.09859,33.888783],[135.09829,33.888733],[135.098065,33.888758],[135.097965,33.88885],[135.097827,33.888825],[135.09764,33.888533],[135.097577,33.888558],[135.097252,33.888508],[135.096853,33.888392],[135.09674,33.888417],[135.096528,33.888308],[135.09634,33.888142],[135.09604,33.888217],[135.095828,33.888142],[135.095665,33.888167],[135.095253,33.888458],[135.09504,33.888417],[135.09484,33.8883],[135.09449,33.888258],[135.094053,33.888275],[135.093928,33.888392],[135.09379,33.888658],[135.093215,33.888775],[135.092103,33.888633],[135.091753,33.888458],[135.091803,33.888275],[135.092053,33.887959],[135.091915,33.887709],[135.091753,33.887575],[135.091753,33.887509],[135.091678,33.887434],[135.091328,33.887484],[135.091053,33.88755],[135.091128,33.887275],[135.091078,33.887209],[135.090891,33.887167],[135.090453,33.887167],[135.090353,33.886867],[135.090266,33.886867],[135.089641,33.88705],[135.089528,33.887025],[135.089403,33.886917],[135.089366,33.886734],[135.089291,33.886684],[135.088666,33.886684],[135.088366,33.886842],[135.088416,33.88725],[135.088341,33.887342],[135.088178,33.887317],[135.088128,33.887184],[135.088016,33.887142],[135.088016,33.887025],[135.087928,33.887],[135.087803,33.887092],[135.087853,33.88725],[135.087828,33.887367],[135.087666,33.887367],[135.087503,33.887317],[135.087253,33.887292],[135.087178,33.887317],[135.087066,33.887409],[135.086603,33.887067],[135.086528,33.887134],[135.086578,33.887434],[135.086441,33.887434],[135.086228,33.8872],[135.085978,33.8872],[135.085816,33.887159],[135.085628,33.886867],[135.085491,33.886725],[135.085416,33.886775],[135.085353,33.886934],[135.085066,33.886975],[135.084978,33.887159],[135.084891,33.8872],[135.084766,33.887225],[135.084566,33.887109],[135.084441,33.887159],[135.084216,33.887159],[135.083979,33.887042],[135.083791,33.886834],[135.083654,33.88675],[135.083304,33.886817],[135.083104,33.886992],[135.082866,33.887084],[135.082479,33.887084],[135.082404,33.887109],[135.082291,33.887217],[135.081829,33.887059],[135.081704,33.887175],[135.081641,33.887442],[135.081941,33.887534],[135.080991,33.888167],[135.081104,33.88835],[135.082291,33.887625],[135.082591,33.887925],[135.082704,33.8879],[135.083191,33.88835],[135.083079,33.888442],[135.083154,33.888575],[135.082129,33.889283],[135.082666,33.889892],[135.082529,33.890233],[135.082291,33.8905],[135.081929,33.890658],[135.081391,33.890792],[135.080854,33.890883],[135.079954,33.890883],[135.079716,33.890767],[135.079254,33.890342],[135.079066,33.889975],[135.077254,33.888642],[135.076492,33.888025],[135.076279,33.887934],[135.075167,33.887642],[135.074542,33.887434],[135.073642,33.887184],[135.073079,33.886984],[135.072617,33.886775],[135.072242,33.886501],[135.07148,33.885801],[135.070505,33.884259],[135.07053,33.884217],[135.070505,33.884101],[135.070367,33.884059],[135.070205,33.883942],[135.070105,33.883743],[135.070042,33.883718],[135.069942,33.883584],[135.069942,33.883426],[135.069717,33.883359],[135.069592,33.883151],[135.069342,33.882993],[135.069205,33.882834],[135.069155,33.882609],[135.068642,33.882451],[135.068555,33.882384],[135.068455,33.882134],[135.068255,33.882268],[135.068092,33.882243],[135.06688,33.881901],[135.06663,33.881809],[135.066305,33.881543],[135.06593,33.881293],[135.065718,33.881268],[135.065418,33.881376],[135.065305,33.881376],[135.065168,33.881268],[135.065043,33.881084],[135.064255,33.880901],[135.064118,33.880993],[135.064005,33.880968],[135.063768,33.880793],[135.063355,33.880701],[135.062568,33.880401],[135.062405,33.880268],[135.062118,33.880176],[135.062055,33.880201],[135.061868,33.880201],[135.061218,33.879951],[135.060918,33.879901],[135.060868,33.879793],[135.060618,33.879676],[135.060456,33.879718],[135.060056,33.879768],[135.058456,33.879743],[135.058431,33.879626],[135.058456,33.879493],[135.058231,33.879468],[135.057693,33.879785],[135.057668,33.879826],[135.057643,33.879943],[135.057881,33.879943],[135.058068,33.879876],[135.058181,33.879901],[135.057943,33.88006],[135.058043,33.880168],[135.058018,33.880351],[135.057768,33.880576],[135.057531,33.880643],[135.057306,33.881326],[135.057281,33.881551],[135.057368,33.881576],[135.057581,33.881501],[135.057581,33.881684],[135.057693,33.881751],[135.058231,33.883176],[135.058306,33.883543],[135.058168,33.883926],[135.057706,33.883926],[135.057581,33.883884],[135.057493,33.883951],[135.057543,33.884084],[135.057743,33.884176],[135.057793,33.884176],[135.057818,33.884267],[135.057656,33.884359],[135.057443,33.884267],[135.057443,33.884376],[135.057543,33.884559],[135.057768,33.884676],[135.057681,33.884851],[135.057731,33.885126],[135.057706,33.885309],[135.057293,33.885892],[135.057356,33.886526],[135.057268,33.886751],[135.057243,33.887142],[135.057131,33.887317],[135.056856,33.887384],[135.056831,33.887659],[135.056893,33.88775],[135.056668,33.887775],[135.056456,33.88795],[135.056368,33.888159],[135.056593,33.888334],[135.056831,33.888475],[135.056831,33.888609],[135.056918,33.8887],[135.057156,33.888634],[135.057618,33.888859],[135.057856,33.889067],[135.058243,33.889267],[135.058831,33.889517],[135.058918,33.889492],[135.058943,33.889542],[135.059381,33.8897],[135.059805,33.889817],[135.060268,33.889858],[135.061443,33.890333],[135.06163,33.890383],[135.061843,33.890608],[135.062005,33.890883],[135.062305,33.891108],[135.06303,33.891492],[135.063868,33.891675],[135.06428,33.891717],[135.064468,33.891858],[135.06468,33.8922],[135.064793,33.892516],[135.064718,33.892875],[135.064543,33.892916],[135.064118,33.892916],[135.064005,33.892966],[135.06373,33.893008],[135.063493,33.893141],[135.063355,33.89335],[135.06363,33.893416],[135.063705,33.893483],[135.06368,33.893758],[135.063543,33.894008],[135.063568,33.894025],[135.06373,33.894025],[135.063955,33.894075],[135.064705,33.894366],[135.064843,33.894666],[135.064955,33.895549],[135.064943,33.895908],[135.064843,33.896249],[135.06408,33.896766],[135.063868,33.896807],[135.063568,33.896966],[135.06313,33.897282],[135.062343,33.897599],[135.061993,33.897691],[135.06188,33.897691],[135.061505,33.897966],[135.061305,33.898032],[135.060818,33.898507],[135.060443,33.898507],[135.060493,33.898707],[135.060468,33.89884],[135.060218,33.898932],[135.060055,33.899115],[135.05973,33.899365],[135.059868,33.899474],[135.059755,33.899724],[135.05968,33.900157],[135.059593,33.900407],[135.059243,33.900724],[135.058618,33.90099],[135.058268,33.90099],[135.058206,33.901015],[135.058156,33.900899],[135.058018,33.900807],[135.057968,33.900807],[135.057918,33.900874],[135.057881,33.901082],[135.057968,33.901307],[135.058293,33.901582],[135.058018,33.901557],[135.057993,33.901573],[135.058043,33.901648],[135.058043,33.901715],[135.058181,33.901757],[135.058343,33.901898],[135.058293,33.902007],[135.058293,33.902165],[135.058368,33.902282],[135.058343,33.902348],[135.058393,33.902665],[135.058343,33.902732],[135.058318,33.903023],[135.058343,33.903256],[135.058643,33.903956],[135.058768,33.904156],[135.058718,33.904381],[135.058606,33.904456],[135.058881,33.904748],[135.05918,33.904723],[135.059205,33.904748],[135.059368,33.904998],[135.059505,33.905106],[135.060393,33.905631],[135.061268,33.905773],[135.062155,33.90604],[135.06243,33.906198],[135.063568,33.906181],[135.065355,33.906073],[135.065867,33.906073],[135.06688,33.90614],[135.067067,33.906115],[135.067442,33.905956],[135.067805,33.90569],[135.068267,33.905465],[135.068855,33.905281],[135.069567,33.905173],[135.069992,33.905265],[135.070454,33.905515],[135.070804,33.90599],[135.071079,33.90619],[135.071329,33.906165],[135.071567,33.906031],[135.071567,33.905831],[135.071792,33.905806],[135.072004,33.905715],[135.072817,33.905806],[135.073004,33.905515],[135.073629,33.905381],[135.073204,33.90484],[135.073717,33.904315],[135.073579,33.904132],[135.073167,33.904515],[135.073254,33.904607],[135.073142,33.904723],[135.073092,33.904657],[135.072817,33.904923],[135.072579,33.904881],[135.072579,33.904698],[135.072742,33.904632],[135.072467,33.90384],[135.072492,33.903473],[135.072604,33.903248],[135.072904,33.903315],[135.073854,33.90309],[135.073992,33.902823],[135.074367,33.902823],[135.074204,33.903165],[135.076079,33.903123],[135.076204,33.904115],[135.076804,33.904165],[135.077241,33.903732],[135.077566,33.903307],[135.077754,33.90344],[135.078054,33.903573],[135.078329,33.903573],[135.078566,33.903648],[135.078729,33.903557],[135.079279,33.903915],[135.079329,33.90419],[135.079304,33.90439],[135.079491,33.904665],[135.079729,33.904823],[135.079891,33.905023],[135.079954,33.905165],[135.080379,33.905506],[135.080604,33.905731],[135.080654,33.905731],[135.081066,33.905915],[135.081516,33.906315],[135.082141,33.907131],[135.082603,33.907881],[135.082953,33.908806],[135.083141,33.909581],[135.083953,33.910239],[135.083903,33.910397],[135.083466,33.910306],[135.083328,33.910872],[135.083653,33.911256],[135.083891,33.911372],[135.083728,33.911481],[135.083603,33.911372],[135.083466,33.911322],[135.083328,33.911506],[135.083103,33.911481],[135.082616,33.912522],[135.081916,33.912472],[135.081853,33.912564],[135.081478,33.912564],[135.081079,33.912447],[135.080666,33.912589],[135.080529,33.912472],[135.080316,33.912472],[135.079966,33.912564],[135.078791,33.912989],[135.078466,33.913197],[135.078441,33.913397],[135.078304,33.913755],[135.078466,33.913897],[135.078879,33.914055],[135.079279,33.91408],[135.079629,33.914239],[135.079904,33.91453],[135.080366,33.914739],[135.081578,33.91553],[135.081741,33.915664],[135.082178,33.916388],[135.082666,33.916638],[135.082391,33.916797],[135.082691,33.91698],[135.082903,33.916863],[135.083016,33.917272],[135.082928,33.917772],[135.082803,33.91773],[135.082666,33.918113],[135.082766,33.91818],[135.082628,33.918522],[135.082578,33.918905],[135.082578,33.919238],[135.082491,33.919605],[135.082303,33.919313],[135.082041,33.919396],[135.082066,33.919513],[135.081953,33.919555],[135.081866,33.919488],[135.081028,33.919855],[135.080078,33.919196],[135.080378,33.918988],[135.080216,33.918788],[135.080403,33.918647],[135.079791,33.917997],[135.079566,33.91808],[135.077054,33.917313],[135.076854,33.917063],[135.076754,33.916997],[135.076266,33.916947],[135.075941,33.916947],[135.075829,33.916922],[135.075616,33.916972],[135.075741,33.917197],[135.075666,33.917263],[135.075391,33.917355],[135.075179,33.917488],[135.075204,33.917672],[135.075829,33.918238],[135.076091,33.918263],[135.076579,33.91878],[135.076504,33.919188],[135.076554,33.919305],[135.076504,33.919371],[135.076204,33.919388],[135.076066,33.91948],[135.076091,33.919638],[135.076341,33.919846],[135.076341,33.919888],[135.076441,33.91998],[135.076554,33.920005],[135.076716,33.920221],[135.076904,33.92033],[135.077066,33.920738],[135.077416,33.921163],[135.077441,33.92148],[135.077179,33.921929],[135.076604,33.922046],[135.076229,33.922046],[135.076316,33.922204],[135.076666,33.922404],[135.076666,33.922471],[135.076366,33.922496],[135.075929,33.922654],[135.076179,33.922788],[135.076229,33.922879],[135.076041,33.922971],[135.075441,33.922788],[135.075366,33.922788],[135.075579,33.923063],[135.075929,33.923288],[135.076279,33.923371],[135.077066,33.923396],[135.078204,33.923329],[135.079078,33.923371],[135.079503,33.923688],[135.079691,33.924254],[135.079616,33.924771],[135.079453,33.924746],[135.079053,33.924879],[135.079153,33.925037],[135.079266,33.925087],[135.079378,33.925487],[135.078891,33.925829],[135.078429,33.925762],[135.078204,33.925512],[135.078129,33.925512],[135.077879,33.925404],[135.077754,33.925537],[135.077641,33.925562],[135.077316,33.925804],[135.077179,33.925962],[135.076941,33.926146],[135.077154,33.926329],[135.077291,33.926396],[135.077566,33.926704],[135.077666,33.927021],[135.077204,33.927471],[135.076991,33.927612],[135.076129,33.927904],[135.074991,33.92797],[135.074154,33.927904],[135.073204,33.927029],[135.072854,33.926571],[135.072904,33.926237],[135.073229,33.926187],[135.073166,33.925404],[135.072841,33.925404],[135.072766,33.925379],[135.072766,33.924979],[135.072679,33.924412],[135.072717,33.924321],[135.072604,33.924254],[135.072167,33.924096],[135.071954,33.924071],[135.071867,33.923988],[135.071679,33.923913],[135.071579,33.923938],[135.071354,33.924054],[135.071167,33.923871],[135.070867,33.923846],[135.070729,33.924571],[135.070304,33.924862],[135.069917,33.924837],[135.069892,33.924771],[135.069492,33.925112],[135.069004,33.925312],[135.068729,33.925312],[135.068592,33.925429],[135.068679,33.925746],[135.068029,33.926062],[135.067779,33.926212],[135.067779,33.926304],[135.067567,33.926579],[135.067292,33.926646],[135.067217,33.926804],[135.066967,33.926912],[135.066729,33.926895],[135.066405,33.926621],[135.065942,33.926421],[135.065617,33.926371],[135.065292,33.926421],[135.065267,33.926462],[135.064917,33.926304],[135.06483,33.926304],[135.06508,33.926645],[135.06518,33.926712],[135.065055,33.926687],[135.06478,33.926779],[135.06483,33.92687],[135.06513,33.926962],[135.065242,33.927095],[135.064805,33.927162],[135.064892,33.927212],[135.065217,33.927254],[135.06543,33.927454],[135.065517,33.927479],[135.065705,33.927729],[135.06603,33.927954],[135.066292,33.928045],[135.066517,33.928179],[135.066592,33.928404],[135.066454,33.928629],[135.066617,33.928762],[135.066942,33.928879],[135.067004,33.929237],[135.067217,33.929412],[135.067404,33.929462],[135.067629,33.929595],[135.067817,33.929595],[135.068379,33.930087],[135.068542,33.930587],[135.068442,33.930995],[135.068354,33.931103],[135.068054,33.931378],[135.067979,33.931487],[135.068329,33.93162],[135.068417,33.931687],[135.068792,33.931578],[135.069579,33.931578],[135.070142,33.93162],[135.070204,33.932053],[135.070467,33.932095],[135.070904,33.931962],[135.071391,33.931737],[135.071829,33.931687],[135.072504,33.931487],[135.073341,33.931395],[135.073666,33.93162],[135.073804,33.931978],[135.073904,33.932137],[135.074179,33.932095],[135.074504,33.932387],[135.075041,33.932587],[135.075154,33.93297],[135.074779,33.933128],[135.074779,33.933245],[135.074854,33.933245],[135.075341,33.933486],[135.075504,33.933645],[135.075616,33.934161],[135.075566,33.934503],[135.075104,33.93462],[135.075266,33.934753],[135.075591,33.934928],[135.076266,33.934928],[135.076566,33.935111],[135.076616,33.935111],[135.076803,33.934953],[135.077166,33.934753],[135.077266,33.934753],[135.077566,33.934661],[135.077866,33.934278],[135.078266,33.934303],[135.078791,33.93457],[135.079091,33.93502],[135.079678,33.935586],[135.080091,33.93572],[135.080653,33.935536],[135.080978,33.935511],[135.081441,33.935561],[135.082091,33.935495],[135.082578,33.935111],[135.083828,33.934903],[135.083853,33.934886],[135.084315,33.934995],[135.085015,33.935311],[135.08539,33.935786],[135.085365,33.936236],[135.085265,33.936328],[135.08494,33.936395],[135.084803,33.936636],[135.08474,33.93687],[135.084965,33.937095],[135.085365,33.937111],[135.085528,33.937203],[135.085728,33.937245],[135.085853,33.937719],[135.085853,33.937928],[135.086128,33.938061],[135.08624,33.938011],[135.086478,33.938128],[135.08664,33.938578],[135.08664,33.939344],[135.086353,33.939678],[135.085615,33.939819],[135.084853,33.939903],[135.083828,33.940269],[135.083203,33.940336],[135.082715,33.940744],[135.08199,33.940719],[135.081115,33.941127],[135.081365,33.941577],[135.081803,33.941802],[135.08239,33.941819],[135.083178,33.941736],[135.083528,33.941736],[135.083753,33.942002],[135.08364,33.942386],[135.084215,33.942452],[135.08454,33.942544],[135.084615,33.942702],[135.084865,33.942902],[135.085378,33.943244],[135.086028,33.943552],[135.086303,33.943444],[135.086403,33.943352],[135.08679,33.943286],[135.087215,33.943061],[135.08759,33.942944],[135.08779,33.942627],[135.08844,33.942294],[135.08919,33.942244],[135.089902,33.942586],[135.090552,33.943219],[135.090902,33.943802],[135.090952,33.944294],[135.090715,33.944635],[135.090227,33.944769],[135.09004,33.944994],[135.089877,33.945127],[135.08949,33.94511],[135.08944,33.945085],[135.089415,33.945152],[135.089115,33.945244],[135.088877,33.945469],[135.088552,33.945535],[135.08819,33.945827],[135.088115,33.945969],[135.088302,33.946527],[135.088602,33.94666],[135.088715,33.946818],[135.088715,33.94716],[135.088465,33.947227],[135.088952,33.947718],[135.088627,33.947952],[135.088365,33.94831],[135.088527,33.94831],[135.089015,33.948402],[135.089065,33.948443],[135.088627,33.948602],[135.08839,33.94876],[135.08839,33.948802],[135.088715,33.948827],[135.089015,33.948785],[135.08909,33.948935],[135.088527,33.949093],[135.088552,33.949143],[135.08939,33.949277],[135.089465,33.949118],[135.090177,33.948918],[135.090827,33.949002],[135.091802,33.949277],[135.092177,33.949302],[135.092989,33.949185],[135.093564,33.948868],[135.093664,33.948843],[135.093939,33.94891],[135.094077,33.948735],[135.094014,33.948535],[135.094177,33.948235],[135.094402,33.947968],[135.095027,33.947743],[135.095639,33.947835],[135.095914,33.947902],[135.096102,33.948302],[135.096427,33.948752],[135.097164,33.948977],[135.097652,33.949202],[135.097952,33.949568],[135.098277,33.949793],[135.099001,33.949793],[135.100526,33.949585],[135.101151,33.950193],[135.101314,33.950693],[135.101314,33.95101],[135.101226,33.951185],[135.101114,33.95166],[135.101576,33.952043],[135.101664,33.95256],[135.101801,33.952785],[135.101551,33.95326],[135.101501,33.953509],[135.102801,33.954318],[135.103289,33.954701],[135.103964,33.955034],[135.105513,33.955693],[135.105563,33.956184],[135.106651,33.956143],[135.107926,33.956184],[135.109063,33.956184],[135.109063,33.956143],[135.108951,33.956001],[135.109088,33.955843],[135.109088,33.955776],[135.109388,33.955909],[135.109901,33.956209],[135.109926,33.956184],[135.113588,33.956318],[135.114425,33.956568],[135.114313,33.956951],[135.114263,33.956926],[135.114213,33.956967],[135.114263,33.957059],[135.114238,33.957109],[135.114075,33.957126],[135.113863,33.957492],[135.113938,33.957734],[135.11375,33.958326],[135.113988,33.958551],[135.113638,33.959176],[135.113588,33.959334],[135.115,33.959784],[135.114813,33.960259],[135.11465,33.960484],[135.114513,33.960417],[135.113938,33.960284],[135.113288,33.960234],[135.113188,33.960167],[135.112825,33.960059],[135.1121,33.959942],[135.112075,33.960151],[135.1118,33.960392],[135.111426,33.961525],[135.111313,33.961567],[135.111238,33.961792],[135.111263,33.961925],[135.111076,33.96215],[135.111013,33.96215],[135.110988,33.9622],[135.111051,33.962242],[135.110938,33.962467],[135.110726,33.962717],[135.109451,33.962134],[135.108476,33.961725],[135.108063,33.961634],[135.107338,33.962784],[135.106688,33.96375],[135.106526,33.963892],[135.106226,33.963892],[135.104689,33.96405],[135.104464,33.964025],[135.103189,33.963708],[135.103026,33.963467],[135.103001,33.963283],[135.102401,33.96315],[135.102164,33.963217],[135.102026,33.9638],[135.101864,33.964117],[135.101864,33.964658],[135.101789,33.964817],[135.102026,33.965067],[135.102376,33.965825],[135.102676,33.965875],[135.102764,33.965916],[135.102764,33.966141],[135.102251,33.966483],[135.102064,33.966775],[135.101926,33.96675],[135.101164,33.966483],[135.101114,33.966366],[135.101239,33.966233],[135.100864,33.966208],[135.100814,33.966325],[135.100514,33.966208],[135.100489,33.966141],[135.100101,33.965783],[135.099976,33.96515],[135.099864,33.964858],[135.099639,33.963283],[135.099701,33.962742],[135.099614,33.962042],[135.099639,33.961842],[135.099889,33.961642],[135.100151,33.96135],[135.100564,33.96105],[135.100239,33.960625],[135.099826,33.960284],[135.098714,33.959634],[135.097502,33.959092],[135.096577,33.958509],[135.095764,33.957926],[135.095739,33.957701],[135.095764,33.957651],[135.095389,33.957567],[135.095389,33.957742],[135.094764,33.957767],[135.093789,33.957992],[135.092752,33.957834],[135.091914,33.957817],[135.09129,33.957726],[135.09119,33.957676],[135.090965,33.957476],[135.090752,33.957592],[135.090402,33.957567],[135.090352,33.957517],[135.089965,33.957409],[135.089915,33.957434],[135.08989,33.957767],[135.089402,33.958242],[135.089052,33.958492],[135.08889,33.958359],[135.088752,33.958309],[135.08794,33.958809],[135.086715,33.958675],[135.086527,33.958492],[135.086527,33.957992],[135.086777,33.957726],[135.086715,33.957701],[135.085415,33.958017],[135.08539,33.957976],[135.085178,33.957909],[135.084465,33.957884],[135.08439,33.957859],[135.08444,33.957276],[135.08469,33.957251],[135.085365,33.957317],[135.087252,33.957409],[135.087452,33.957276],[135.08764,33.956126],[135.085365,33.955901],[135.08309,33.955767],[135.08289,33.955792],[135.082765,33.956351],[135.082628,33.956351],[135.082003,33.956601],[135.081928,33.956534],[135.081028,33.956151],[135.080166,33.955951],[135.079641,33.956109],[135.079053,33.956176],[135.079103,33.956426],[135.079028,33.956667],[135.078316,33.957117],[135.077703,33.957259],[135.076853,33.957642],[135.075853,33.958425],[135.075478,33.958609],[135.075291,33.958634],[135.074803,33.958859],[135.074391,33.958992],[135.074254,33.959175],[135.073879,33.959267],[135.073529,33.959059],[135.073316,33.958967],[135.073154,33.959059],[135.073091,33.959242],[135.073479,33.959509],[135.073666,33.959575],[135.073991,33.9596],[135.074204,33.959733],[135.074266,33.9598],[135.074554,33.959917],[135.074991,33.959983],[135.075041,33.959892],[135.075453,33.960008],[135.076153,33.96005],[135.076453,33.960117],[135.077703,33.960233],[135.078353,33.960342],[135.079003,33.960592],[135.079603,33.960883],[135.079703,33.961042],[135.079491,33.961267],[135.079766,33.961425],[135.079978,33.961292],[135.080003,33.9612],[135.080328,33.9614],[135.080578,33.961242],[135.080953,33.961133],[135.081115,33.961108],[135.081328,33.96095],[135.081653,33.960883],[135.082328,33.961017],[135.08239,33.961492],[135.082603,33.9616],[135.08279,33.961533],[135.08309,33.961492],[135.083365,33.9614],[135.08369,33.961425],[135.08399,33.96165],[135.08434,33.962183],[135.084578,33.962842],[135.084503,33.9632],[135.084365,33.96345],[135.084365,33.963833],[135.084503,33.964191],[135.084828,33.964733],[135.085203,33.9655],[135.085428,33.966083],[135.085565,33.966808],[135.086078,33.967141],[135.086128,33.967524],[135.085678,33.968674],[135.085128,33.969399],[135.084915,33.969258],[135.084778,33.969349],[135.084565,33.969574],[135.08454,33.969824],[135.084503,33.969799],[135.084103,33.969891],[135.08334,33.969891],[135.082828,33.969641],[135.082715,33.969916],[135.081553,33.969799],[135.080741,33.969799],[135.080316,33.969849],[135.079928,33.969507],[135.079741,33.969491],[135.079666,33.969666],[135.079141,33.969941],[135.079228,33.970007],[135.078903,33.970074],[135.079041,33.970524],[135.079253,33.970482],[135.079528,33.970682],[135.079503,33.971091],[135.079341,33.971582],[135.079066,33.971899],[135.078666,33.972099],[135.078528,33.972307],[135.078503,33.972549],[135.078366,33.97269],[135.078203,33.972932],[135.078041,33.973007],[135.077791,33.973182],[135.077741,33.973182],[135.077441,33.973457],[135.077366,33.973457],[135.077203,33.973565],[135.077041,33.973632],[135.077003,33.973699],[135.076816,33.973749],[135.076716,33.97384],[135.076491,33.973774],[135.076229,33.973815],[135.076066,33.974015],[135.076029,33.974223],[135.075979,33.974307],[135.075954,33.974607],[135.075679,33.975057],[135.075579,33.975298],[135.075254,33.975507],[135.075166,33.975707],[135.075029,33.975757],[135.074816,33.975915],[135.074679,33.975957],[135.074579,33.976115],[135.074379,33.976115],[135.073891,33.976432],[135.073541,33.976523],[135.073379,33.976523],[135.073279,33.976365],[135.073079,33.97634],[135.072679,33.976048],[135.072591,33.975932],[135.072291,33.975865],[135.072054,33.975865],[135.071841,33.975773],[135.071541,33.975732],[135.070867,33.975532],[135.070179,33.975398],[135.069892,33.975465],[135.069729,33.975707],[135.069504,33.97594],[135.068917,33.975848],[135.068554,33.97589],[135.067942,33.976273],[135.067554,33.976706],[135.067579,33.976815],[135.067804,33.97704],[135.068942,33.978006],[135.069242,33.978098],[135.069804,33.977873],[135.070267,33.97774],[135.070842,33.97774],[135.071379,33.977673],[135.071654,33.977556],[135.072191,33.977556],[135.072566,33.977623],[135.072841,33.977781],[135.073004,33.977965],[135.073004,33.978006],[135.072766,33.978298],[135.073004,33.978548],[135.073304,33.978365],[135.073579,33.978523],[135.074391,33.978865],[135.075041,33.97884],[135.076066,33.978615],[135.076116,33.978681],[135.076554,33.978931],[135.077129,33.97904],[135.077553,33.97909],[135.077666,33.979223],[135.077991,33.979265],[135.078266,33.979265],[135.078528,33.979106],[135.079041,33.978998],[135.079403,33.979106],[135.080128,33.978948],[135.080403,33.978773],[135.081053,33.978723],[135.081541,33.97854],[135.082003,33.978456],[135.082353,33.978523],[135.083028,33.978881],[135.083491,33.979215],[135.083466,33.979356],[135.083491,33.979515],[135.083116,33.979806],[135.083191,33.979873],[135.083466,33.979823],[135.083815,33.979898],[135.083928,33.980073],[135.084028,33.98014],[135.084353,33.980006],[135.08444,33.979915],[135.08479,33.979915],[135.085028,33.979781],[135.08574,33.979556],[135.086303,33.979423],[135.086528,33.97944],[135.08704,33.979331],[135.087415,33.979173],[135.08804,33.97919],[135.088503,33.979556],[135.088665,33.98034],[135.088965,33.980706],[135.089403,33.981106],[135.089128,33.981606],[135.089103,33.982439],[135.089265,33.981698],[135.089365,33.981515],[135.089428,33.98149],[135.08989,33.98174],[135.09054,33.982189],[135.09094,33.982639],[135.091053,33.982839],[135.091028,33.983589],[135.090703,33.983948],[135.090728,33.984106],[135.09054,33.984239],[135.090103,33.984306],[135.08999,33.984373],[135.089753,33.984714],[135.089728,33.984848],[135.08989,33.984889],[135.090215,33.984848],[135.09024,33.984873],[135.090165,33.985547],[135.08994,33.985706],[135.089678,33.985747],[135.089478,33.985931],[135.089753,33.986064],[135.089778,33.986197],[135.08964,33.986264],[135.089403,33.986289],[135.089515,33.986472],[135.08959,33.986764],[135.08989,33.986897],[135.09054,33.986856],[135.091628,33.987322],[135.092028,33.988222],[135.092328,33.988314],[135.09244,33.988722],[135.092415,33.988814],[135.093227,33.988497],[135.093715,33.988272],[135.093877,33.988272],[135.093977,33.988356],[135.09434,33.988856],[135.093952,33.98928],[135.093765,33.989439],[135.093203,33.989622],[135.09239,33.98998],[135.092203,33.989939],[135.09174,33.989914],[135.091653,33.989964],[135.091578,33.989914],[135.091328,33.98998],[135.09114,33.990272],[135.091415,33.990547],[135.09174,33.99113],[135.091903,33.991488],[135.091978,33.991647],[135.092015,33.992097],[135.09269,33.992772],[135.092765,33.99298],[135.092928,33.99318],[135.093203,33.993155],[135.093528,33.993222],[135.094015,33.993088],[135.094315,33.993155],[135.09434,33.993297],[135.094915,33.993338],[135.095315,33.993205],[135.095527,33.993088],[135.095827,33.992863],[135.09589,33.992755],[135.096102,33.992755],[135.096377,33.992388],[135.09654,33.992189],[135.097027,33.992255],[135.097402,33.992414],[135.09784,33.992522],[135.09849,33.992572],[135.098977,33.992639],[135.09924,33.992772],[135.099627,33.992813],[135.099752,33.992664],[135.100764,33.992705],[135.100864,33.99268],[135.101064,33.99248],[135.101302,33.992589],[135.101677,33.992864],[135.102139,33.993022],[135.102464,33.992997],[135.102877,33.99268],[135.103277,33.992705],[135.103389,33.992797],[135.103552,33.992839],[135.103714,33.993022],[135.103927,33.992997],[135.104152,33.993039],[135.104527,33.993064],[135.104777,33.993014],[135.104852,33.99263],[135.104764,33.992389],[135.104852,33.99198],[135.105127,33.991189],[135.105414,33.990606],[135.105389,33.990381],[135.105151,33.989931],[135.105151,33.989822],[135.105601,33.989456],[135.106226,33.989097],[135.106939,33.988847],[135.108476,33.988781],[135.108889,33.988872],[135.109539,33.988889],[135.109564,33.989047],[135.109539,33.989522],[135.109564,33.989589],[135.110726,33.989706],[135.111426,33.989881],[135.112188,33.990314],[135.112601,33.990647],[135.112813,33.991006],[135.112838,33.991189],[135.112651,33.992205],[135.112551,33.992472],[135.112113,33.992789],[135.112026,33.99333],[135.112276,33.99423],[135.112388,33.994388],[135.112113,33.994905],[135.112038,33.995155],[135.112463,33.995672],[135.113226,33.996213],[135.113801,33.99648],[135.114288,33.996796],[135.114638,33.996913],[135.115126,33.997113],[135.115263,33.997221],[135.115613,33.997288],[135.115826,33.997405],[135.116151,33.997496],[135.11645,33.997538],[135.11705,33.997763],[135.11735,33.997988],[135.117975,33.998755],[135.1184,33.998913],[135.119675,33.999205],[135.120088,33.99923],[135.120738,33.999163],[135.121038,33.999088],[135.121987,33.999021],[135.122238,33.998971],[135.12255,33.998921],[135.122625,33.998871],[135.122687,33.998713],[135.122687,33.998463],[135.122787,33.99833],[135.123037,33.998238],[135.123687,33.998288],[135.123825,33.99833],[135.124125,33.998313],[135.1245,33.998355],[135.124637,33.998246],[135.124637,33.99818],[135.12475,33.998021],[135.125025,33.99793],[135.12545,33.997521],[135.125812,33.997346],[135.126074,33.997413],[135.126974,33.997846],[135.127787,33.998455],[135.128087,33.998796],[135.128274,33.999155],[135.128487,33.999771],[135.128374,33.999946],[135.128437,34.000063],[135.128762,34.000338],[135.128762,34.000496],[135.128862,34.000629],[135.129324,34.000629],[135.129787,34.000679],[135.130224,34.000679],[135.130761,34.000563],[135.130961,34.000388],[135.131311,34.000204],[135.131586,34.000004],[135.131749,33.999938],[135.132149,33.999638],[135.132399,33.999413],[135.132724,33.999646],[135.132799,33.999596],[135.133811,33.99933],[135.134024,33.999396],[135.134273,33.999579],[135.134598,34.000054],[135.134973,33.999555],[135.135336,33.99933],[135.137098,33.998338],[135.137911,33.997596],[135.138236,33.997438],[135.138461,33.997172],[135.138735,33.996513],[135.139735,33.99543],[135.139985,33.995114],[135.140035,33.99498],[135.140073,33.994214],[135.140448,33.993489],[135.140885,33.993039],[135.141048,33.992589],[135.141085,33.991889],[135.141223,33.991681],[135.14176,33.991364],[135.142635,33.990622],[135.143398,33.989764],[135.143835,33.989356],[135.14416,33.989314],[135.144372,33.989448],[135.144947,33.989973],[135.145322,33.990181],[135.146022,33.990289],[135.146897,33.990722],[135.147385,33.990789],[135.147847,33.990747],[135.148634,33.990889],[135.149059,33.991139],[135.149522,33.991456],[135.150097,33.991706],[135.150634,33.991864],[135.151184,33.991839],[135.151747,33.992047],[135.152134,33.992022],[135.152347,33.992072],[135.152809,33.992414],[135.153509,33.992664],[135.153696,33.992664],[135.154546,33.992231],[135.154921,33.992164],[135.155359,33.992214],[135.155934,33.992397],[135.156446,33.992597],[135.157171,33.992739],[135.157421,33.992939],[135.157721,33.993281],[135.158071,33.993556],[135.158583,33.993847],[135.159208,33.994097],[135.159908,33.994306],[135.160533,33.994397],[135.162495,33.994831],[135.162983,33.995031],[135.16392,33.995714],[135.164408,33.99603],[135.164845,33.99603],[135.165195,33.995989],[135.165445,33.995872],[135.16572,33.995606],[135.165932,33.995314],[135.166232,33.995089],[135.166695,33.994881],[135.16732,33.994731],[135.167945,33.994681],[135.16882,33.994756],[135.169469,33.994889],[135.170282,33.994939],[135.171344,33.994714],[135.172044,33.994647],[135.172557,33.994489],[135.172882,33.994448],[135.173894,33.994656],[135.174381,33.994673],[135.175006,33.994589],[135.175281,33.994298],[135.175606,33.993731],[135.175556,33.993414],[135.174769,33.992531],[135.174607,33.992231],[135.174794,33.991306],[135.174832,33.99074],[135.174794,33.990606],[135.174832,33.990181],[135.175294,33.988707],[135.175544,33.988348],[135.175707,33.987965],[135.175944,33.987582],[135.176057,33.987215],[135.176057,33.986515],[135.176119,33.985999],[135.176069,33.985207],[135.175982,33.984824],[135.175444,33.983982],[135.175394,33.983957],[135.176182,33.983374],[135.176319,33.983216],[135.176507,33.982382],[135.176532,33.981499],[135.176619,33.980999],[135.176857,33.980824],[135.177294,33.980599],[135.177432,33.980441],[135.177932,33.979375],[135.178007,33.979016],[135.177869,33.9789],[135.177519,33.978475],[135.177282,33.9777],[135.177057,33.977341],[135.176794,33.977],[135.176657,33.976725],[135.176682,33.976391],[135.176607,33.975575],[135.176494,33.975392],[135.176282,33.975258],[135.175844,33.975125],[135.17482,33.974892],[135.17417,33.9748],[135.173982,33.974683],[135.173657,33.974033],[135.173432,33.973808],[135.173332,33.973483],[135.173282,33.9727],[135.173332,33.972558],[135.173957,33.971842],[135.174045,33.971475],[135.17407,33.969959],[135.17402,33.969625],[135.173807,33.969034],[135.173832,33.968626],[135.173945,33.968267],[135.174357,33.967384],[135.17452,33.967042],[135.17462,33.966751],[135.17452,33.966567],[135.174495,33.966251],[135.174632,33.965218],[135.175032,33.964651],[135.17517,33.964534],[135.17547,33.964468],[135.175745,33.964559],[135.175982,33.964609],[135.176607,33.964384],[135.177132,33.964268],[135.177457,33.964268],[135.177532,33.964251],[135.17772,33.964026],[135.177845,33.962376],[135.17792,33.962076],[135.177945,33.961693],[135.177657,33.960451],[135.177582,33.959118],[135.177632,33.958368],[135.177495,33.957577],[135.17777,33.95681],[135.177995,33.956018],[135.178157,33.955993],[135.178782,33.955977],[135.179182,33.956093],[135.179595,33.956252],[135.18022,33.956435],[135.180782,33.956477],[135.181382,33.95646],[135.181894,33.956502],[135.182769,33.956935],[135.183032,33.957118],[135.183194,33.957368],[135.183744,33.957368],[135.184119,33.957435],[135.184819,33.95766],[135.185044,33.957643],[135.185369,33.957485],[135.185906,33.957035],[135.186269,33.956943],[135.186481,33.956968],[135.186756,33.957127],[135.186919,33.957327],[135.187131,33.95746],[135.187681,33.957102],[135.187981,33.956719],[135.188144,33.956585],[135.188569,33.956385],[135.189381,33.956202],[135.189719,33.956202],[135.189956,33.95611],[135.190044,33.956044],[135.190369,33.955935],[135.191506,33.955869],[135.192456,33.955735],[135.192993,33.955735],[135.194218,33.955944],[135.195418,33.955585],[135.196256,33.955244],[135.196656,33.954994],[135.196931,33.954702],[135.197156,33.954277],[135.197531,33.953686],[135.197781,33.953686],[135.198206,33.953827],[135.200193,33.954119],[135.200955,33.954169],[135.201868,33.954127],[135.202368,33.954036],[135.20298,33.953877],[135.20353,33.953836],[135.204042,33.953861],[135.204692,33.953836],[135.205942,33.954177],[135.206592,33.954252],[135.206892,33.954111],[135.207192,33.953869],[135.20738,33.953144],[135.20863,33.952511],[135.209067,33.952353],[135.209417,33.952336],[135.210017,33.952428],[135.210392,33.952378],[135.210667,33.952269],[135.211404,33.952361],[135.211867,33.952494],[135.212317,33.952569],[135.212542,33.952569],[135.213079,33.952453],[135.213467,33.952319],[135.213679,33.952278],[135.213954,33.952369],[135.214217,33.952544],[135.214542,33.952703],[135.214741,33.952728],[135.215304,33.952436],[135.215691,33.952344],[135.216091,33.952419],[135.216279,33.952486],[135.217479,33.952669],[135.218079,33.952936],[135.218291,33.953011],[135.218729,33.952869],[135.219216,33.952628],[135.220053,33.952561],[135.220978,33.952744],[135.221441,33.952903],[135.221928,33.952928],[135.222603,33.952544],[135.222853,33.952269],[135.223066,33.951861],[135.223366,33.951503],[135.223641,33.951078],[135.223716,33.950686],[135.223228,33.950128],[135.223203,33.949878],[135.223366,33.949445],[135.223403,33.94872],[135.223566,33.948228],[135.223641,33.948137],[135.223966,33.948003],[135.225028,33.947795],[135.225603,33.947645],[135.226065,33.947462],[135.226828,33.947037],[135.227065,33.946987],[135.22744,33.947145],[135.227828,33.947378],[135.228228,33.947553],[135.229203,33.947537],[135.229803,33.94767],[135.230753,33.947995],[135.23119,33.948062],[135.231727,33.947995],[135.23224,33.947837],[135.232652,33.947637],[135.232902,33.94757],[135.233115,33.947612],[135.233252,33.94777],[135.233252,33.947928],[135.233027,33.948587],[135.233002,33.949445],[135.233115,33.949895],[135.23294,33.950261],[135.232727,33.95057],[135.23284,33.951228],[135.233352,33.952136],[135.233702,33.952453],[135.233677,33.952478],[135.233777,33.95257],[135.23414,33.952728],[135.23449,33.952836],[135.234865,33.953228],[135.235165,33.953611],[135.23554,33.953969],[135.23584,33.954153],[135.23589,33.954244],[135.235952,33.954586],[135.23579,33.954836],[135.23559,33.955011],[135.235427,33.955328],[135.235352,33.955694],[135.235352,33.956253],[135.235265,33.956594],[135.235265,33.956869],[135.235377,33.957136],[135.235427,33.957161],[135.23559,33.957386],[135.235615,33.958019],[135.235702,33.958269],[135.235889,33.958544],[135.236077,33.958652],[135.236377,33.958727],[135.236639,33.958861],[135.237052,33.959494],[135.237352,33.959744],[135.237814,33.959877],[135.238164,33.96011],[135.238427,33.960244],[135.238539,33.960269],[135.238927,33.960202],[135.239139,33.96006],[135.239977,33.96011],[135.240227,33.960044],[135.240714,33.960002],[135.241039,33.960094],[135.241802,33.960519],[135.242176,33.960635],[135.242551,33.96061],[135.243039,33.960502],[135.243501,33.960344],[135.244051,33.960252],[135.244701,33.960577],[135.245564,33.961119],[135.245864,33.96121],[135.246189,33.961485],[135.246539,33.961552],[135.246926,33.96166],[135.247114,33.961777],[135.247237,33.961708],[135.247389,33.961769],[135.247601,33.961935],[135.247939,33.962094],[135.248476,33.962385],[135.248888,33.962702],[135.249226,33.963069],[135.249413,33.963452],[135.249563,33.963577],[135.249901,33.963594],[135.250363,33.963577],[135.251563,33.963644],[135.252651,33.963544],[135.252976,33.963552],[135.253388,33.963677],[135.254131,33.963815],[135.254151,33.963802],[135.2544,33.964127],[135.254663,33.964677],[135.254788,33.965052],[135.254825,33.965368],[135.254775,33.966793],[135.254813,33.96711],[135.254925,33.967302],[135.255388,33.96776],[135.25555,33.968077],[135.255863,33.968951],[135.25605,33.969285],[135.256263,33.969568],[135.256525,33.969818],[135.2568,33.970018],[135.257325,33.970568],[135.25785,33.970885],[135.258425,33.971751],[135.259025,33.972426],[135.259213,33.972801],[135.2593,33.973084],[135.259275,33.973418],[135.259125,33.973843],[135.258975,33.974109],[135.258738,33.974393],[135.258525,33.974926],[135.258238,33.975242],[135.257688,33.975501],[135.257463,33.975651],[135.256888,33.976467],[135.256825,33.976701],[135.256813,33.977026],[135.256638,33.978159],[135.256363,33.978792],[135.256388,33.979134],[135.256463,33.979225],[135.25685,33.979459],[135.257225,33.979909],[135.257738,33.9807],[135.257888,33.981075],[135.25785,33.981492],[135.2579,33.981967],[135.258038,33.982425],[135.258075,33.983375],[135.258025,33.983991],[135.257837,33.984933],[135.25785,33.985408],[135.257975,33.985716],[135.258425,33.986349],[135.258525,33.986708],[135.258525,33.987091],[135.258337,33.988258],[135.258437,33.988632],[135.258725,33.989124],[135.259325,33.989866],[135.2596,33.990032],[135.260012,33.990182],[135.260437,33.990391],[135.26095,33.990891],[135.2618,33.991366],[135.262212,33.991674],[135.262562,33.991974],[135.262849,33.992307],[135.263187,33.992565],[135.263412,33.992699],[135.263712,33.99279],[135.264387,33.99279],[135.264699,33.992882],[135.264887,33.992982],[135.265199,33.993249],[135.265637,33.993749],[135.265987,33.99409],[135.266912,33.994573],[135.267537,33.995098],[135.267912,33.995357],[135.268324,33.99549],[135.268974,33.995532],[135.269211,33.995498],[135.269549,33.995565],[135.269774,33.996123],[135.270024,33.996257],[135.270986,33.996632],[135.271211,33.99679],[135.271386,33.997106],[135.271624,33.99739],[135.272074,33.997565],[135.272624,33.997548],[135.273111,33.99764],[135.273461,33.99784],[135.273711,33.998148],[135.274561,33.999923],[135.275086,34.000214],[135.275298,34.000448],[135.275573,34.000981],[135.276286,34.001989],[135.276323,34.002189],[135.276273,34.002414],[135.276323,34.002656],[135.276548,34.002848],[135.277211,34.003206],[135.277336,34.003314],[135.277573,34.003531],[135.277736,34.003664],[135.278211,34.003914],[135.279173,34.004231],[135.279273,34.004231],[135.279498,34.004231],[135.280685,34.004406],[135.281085,34.004156],[135.28156,34.003981],[135.28191,34.003889],[135.282273,34.004298],[135.282498,34.004473],[135.282823,34.004473],[135.283397,34.004698],[135.283697,34.004514],[135.284035,34.004406],[135.284885,34.004198],[135.286772,34.003731],[135.287772,34.003614],[135.288072,34.003523],[135.28831,34.003331],[135.288522,34.003181],[135.288585,34.003081],[135.288959,34.002431],[135.289097,34.002331],[135.289409,34.002231],[135.289709,34.002048],[135.289947,34.001823],[135.290234,34.00139],[135.290309,34.001373],[135.290447,34.00139],[135.290772,34.001606],[135.290984,34.002323],[135.291597,34.002931],[135.291659,34.003165],[135.291647,34.003306],[135.291722,34.003331],[135.291834,34.003565],[135.291972,34.004131],[135.292134,34.004373],[135.292409,34.004623],[135.292522,34.004964],[135.292572,34.005298],[135.292822,34.005773],[135.293371,34.006181],[135.293596,34.006289],[135.294084,34.006856],[135.294659,34.007306],[135.294721,34.007281],[135.294996,34.006898],[135.295646,34.006106],[135.295684,34.006064],[135.296096,34.005798],[135.297046,34.005389],[135.297659,34.004915],[135.298508,34.004281],[135.299058,34.00419],[135.299221,34.004215],[135.299821,34.004215],[135.300733,34.004098],[135.301308,34.003765],[135.301471,34.003698],[135.302108,34.003606],[135.302871,34.003781],[135.303308,34.003756],[135.303758,34.003965],[135.30397,34.004165],[135.304133,34.004256],[135.304633,34.004415],[135.305133,34.004431],[135.305433,34.004706],[135.306095,34.004998],[135.306445,34.004865],[135.306745,34.004681],[135.307045,34.004773],[135.30782,34.00484],[135.30837,34.004973],[135.308395,34.005015],[135.309007,34.005198],[135.309857,34.005156],[135.310345,34.005156],[135.31087,34.005331],[135.312107,34.006456],[135.312407,34.006664],[135.312907,34.007248],[135.313094,34.007606],[135.313394,34.007698],[135.314657,34.007314],[135.316094,34.007106],[135.316782,34.007156],[135.317194,34.007081],[135.317657,34.007156],[135.317844,34.007223],[135.318431,34.007148],[135.318831,34.006973],[135.319381,34.00679],[135.319556,34.006765],[135.319831,34.006948],[135.320106,34.007215],[135.320869,34.007515],[135.321506,34.007648],[135.321806,34.008006],[135.322519,34.008098],[135.322956,34.008498],[135.323431,34.008773],[135.323806,34.008723],[135.324606,34.008789],[135.324943,34.008681],[135.325081,34.008564],[135.325356,34.008431],[135.325756,34.008339],[135.326168,34.008139],[135.326231,34.007931],[135.326968,34.007731],[135.327468,34.007256],[135.327843,34.007231],[135.327955,34.007256],[135.32843,34.00719],[135.328705,34.007056],[135.329055,34.006648],[135.32908,34.006556],[135.329605,34.006623],[135.33018,34.00674],[135.331255,34.006848],[135.332243,34.006756],[135.332405,34.006781],[135.333205,34.007256],[135.333392,34.007231],[135.33373,34.00714],[135.334655,34.006623],[135.334855,34.006373],[135.334992,34.00604],[135.335655,34.005765],[135.33653,34.005607],[135.33678,34.00554],[135.337605,34.005515],[135.337842,34.00554],[135.338255,34.005423],[135.33873,34.005248],[135.339329,34.00509],[135.340704,34.004932],[135.341329,34.004907],[135.341829,34.004923],[135.342079,34.004998],[135.342679,34.005082],[135.343504,34.005132],[135.344766,34.004923],[135.345591,34.004657],[135.345704,34.004632],[135.345779,34.004898],[135.346054,34.005307],[135.346191,34.005373],[135.346529,34.005465],[135.347104,34.005823],[135.347979,34.00594],[135.348616,34.005823],[135.349166,34.005665],[135.349441,34.00569],[135.349966,34.00564],[135.350403,34.00564],[135.351116,34.005731],[135.351641,34.00544],[135.352103,34.005098],[135.352266,34.005098],[135.352541,34.005298],[135.353016,34.005257],[135.353316,34.005373],[135.353753,34.005165],[135.354141,34.00544],[135.355316,34.005656],[135.356003,34.005323],[135.356715,34.005115],[135.357765,34.005007],[135.358553,34.005115],[135.360315,34.005182],[135.360403,34.005365],[135.360428,34.005923],[135.360703,34.006423],[135.361552,34.00694],[135.362052,34.007165],[135.36279,34.007323],[135.363402,34.007523],[135.363427,34.007573],[135.36389,34.00784],[135.36414,34.007931],[135.364052,34.008315],[135.364052,34.008764],[135.364277,34.009573],[135.364715,34.009773],[135.365652,34.010973],[135.366402,34.012272],[135.366564,34.012497],[135.367139,34.012972],[135.368539,34.013081],[135.369939,34.013264],[135.371314,34.013672],[135.371539,34.013689],[135.371589,34.013622],[135.371814,34.013531],[135.372164,34.013464],[135.372225,34.013487],[135.372426,34.013464],[135.372814,34.013281],[135.373314,34.012989],[135.373839,34.012581],[135.374901,34.012281],[135.375738,34.011997],[135.376463,34.012164],[135.378251,34.012472],[135.378763,34.012464],[135.379363,34.012247],[135.379925,34.012206],[135.38105,34.012397],[135.38175,34.012239],[135.382638,34.011622],[135.383075,34.011497],[135.3839,34.011506],[135.384912,34.011614],[135.385812,34.011656],[135.386824,34.011564],[135.387374,34.011489],[135.387887,34.011331],[135.388724,34.011272],[135.389449,34.011073],[135.390911,34.010339],[135.391599,34.010148],[135.392549,34.010531],[135.394398,34.011689],[135.395423,34.012122],[135.396348,34.012389],[135.397161,34.012681],[135.397573,34.012781],[135.397773,34.013131],[135.398673,34.014214],[135.39921,34.014705],[135.399998,34.014905],[135.400898,34.014922],[135.40126,34.015772],[135.401285,34.016347],[135.402148,34.01738],[135.402148,34.018805],[135.402373,34.019197],[135.403185,34.01928],[135.40401,34.019522],[135.40496,34.019847],[135.407072,34.020188],[135.40776,34.020472],[135.408472,34.020905],[135.409035,34.02138],[135.409884,34.02178],[135.410647,34.022221],[135.411272,34.022513],[135.411734,34.022563],[135.412347,34.022738],[135.413534,34.023221],[135.414709,34.023646],[135.415871,34.024363],[135.416534,34.024713],[135.416884,34.024988],[135.417284,34.027021],[135.417459,34.027204],[135.419384,34.027229],[135.420583,34.027321],[135.421621,34.027187],[135.422396,34.027287],[135.422983,34.027179],[135.423846,34.027304],[135.424808,34.027537],[135.425371,34.027454],[135.425946,34.027246],[135.426495,34.027162],[135.427383,34.028312],[135.428308,34.029279],[135.428408,34.029279],[135.42897,34.029629],[135.429433,34.029654],[135.42997,34.030037],[135.430758,34.030404],[135.431345,34.030354],[135.433132,34.030954],[135.43407,34.030962],[135.435845,34.030629],[135.436732,34.030845],[135.43722,34.030762],[135.437407,34.031095],[135.43807,34.03187],[135.439207,34.032737],[135.440157,34.034137],[135.440907,34.034637],[135.441169,34.034703],[135.441769,34.034995],[135.442682,34.035295],[135.443282,34.03602],[135.443344,34.036153],[135.444219,34.037186],[135.445582,34.038203],[135.446207,34.038478],[135.446932,34.038703],[135.449294,34.039903],[135.449981,34.040394],[135.450769,34.040836],[135.451056,34.040944],[135.451719,34.041069],[135.452169,34.040836],[135.452668,34.040461],[135.452818,34.040294],[135.453668,34.039811],[135.454406,34.039661],[135.454931,34.039695],[135.455181,34.039678],[135.456056,34.03917],[135.456456,34.038861],[135.45713,34.03887],[135.457918,34.038953],[135.458005,34.038945],[135.45843,34.038636],[135.459005,34.03837],[135.460018,34.03737],[135.46063,34.036945],[135.460805,34.036703],[135.461393,34.036295],[135.461892,34.035803],[135.462342,34.035187],[135.463005,34.03482],[135.463855,34.034212],[135.464267,34.033745],[135.464542,34.033137],[135.464767,34.032321],[135.465167,34.032187],[135.46588,34.032137],[135.466817,34.031746],[135.467492,34.031612],[135.468442,34.031746],[135.469854,34.031796],[135.470854,34.031921],[135.471479,34.031829],[135.471866,34.031737],[135.472391,34.031887],[135.473016,34.032004],[135.473604,34.031846],[135.474029,34.031937],[135.474716,34.032171],[135.475479,34.032196],[135.476216,34.032179],[135.477004,34.032537],[135.477354,34.032821],[135.478166,34.032962],[135.479066,34.032737],[135.479816,34.032821],[135.480866,34.032587],[135.481203,34.032479],[135.482103,34.033012],[135.482853,34.033496],[135.484115,34.03412],[135.485003,34.034054],[135.485278,34.033937],[135.486078,34.033737],[135.486928,34.03402],[135.488478,34.03477],[135.489603,34.03517],[135.49004,34.035212],[135.491427,34.035604],[135.492215,34.035854],[135.493027,34.035962],[135.494277,34.035979],[135.49494,34.036637],[135.495515,34.036995],[135.495877,34.037387],[135.496077,34.037995],[135.496264,34.038903],[135.496439,34.039078],[135.496864,34.03927],[135.497127,34.039628],[135.497212,34.039635],[135.497339,34.039753],[135.497439,34.039995],[135.497477,34.04052],[135.497614,34.04097],[135.497852,34.041395],[135.498127,34.041661],[135.498264,34.041936],[135.498439,34.042678],[135.498702,34.043061],[135.498764,34.043036],[135.499039,34.043036],[135.499727,34.042719],[135.500052,34.042611],[135.500214,34.042586],[135.501564,34.042561],[135.502139,34.042453],[135.502889,34.042086],[135.503239,34.041953],[135.503514,34.041886],[135.504314,34.041995],[135.504451,34.042044],[135.505051,34.042061],[135.505114,34.042044],[135.505114,34.042153],[135.505276,34.042744],[135.505776,34.043661],[135.505826,34.044253],[135.506213,34.044811],[135.506538,34.045178],[135.507251,34.045536],[135.507888,34.045694],[135.508526,34.046094],[135.509013,34.046569],[135.509538,34.046594],[135.510201,34.046477],[135.511101,34.045753],[135.51165,34.045778],[135.512475,34.045961],[135.513325,34.045978],[135.513713,34.046044],[135.514675,34.046494],[135.515663,34.046611],[135.516738,34.046786],[135.517475,34.047328],[135.518162,34.047936],[135.518687,34.048069],[135.520362,34.047977],[135.521687,34.047861],[135.5224,34.047861],[135.523962,34.048019],[135.525974,34.048044],[135.527574,34.047794],[135.528337,34.047794],[135.529349,34.047994],[135.530374,34.048061],[135.531111,34.048303],[135.531311,34.048444],[135.532049,34.048619],[135.532574,34.048844],[135.533236,34.049586],[135.534274,34.050403],[135.534436,34.050486],[135.535186,34.050786],[135.535399,34.050936],[135.535848,34.051636],[135.536123,34.052377],[135.536223,34.052919],[135.536473,34.053327],[135.536498,34.053777],[135.536886,34.054969],[135.537111,34.055535],[135.537773,34.056477],[135.538436,34.05756],[135.538486,34.057718],[135.538323,34.057918],[135.538298,34.058352],[135.538098,34.058643],[135.537936,34.058802],[135.537611,34.059435],[135.538511,34.059835],[135.539261,34.060085],[135.539973,34.06056],[135.540385,34.060735],[135.541185,34.06121],[135.54181,34.06166],[135.542635,34.062085],[135.542773,34.062226],[135.542998,34.063034],[135.543248,34.063751],[135.543273,34.063934],[135.544185,34.064343],[135.544485,34.064518],[135.54566,34.065467],[135.546297,34.065826],[135.547235,34.066901],[135.547672,34.067309],[135.548197,34.068075],[135.54811,34.068192]]]},"properties":{"kuni":"紀伊","id":"G57006","kuni_url":"/kg/resource/K57.html","id_url":"G57006.html","kuni_id":"K57","pref":"和歌山県","name":"日高","yomi":"ひだか"},"type":"Feature"}]}