{"type":"FeatureCollection","features":[{"properties":{"yomi":"めいとう","name":"名東","pref":"徳島県","kuni_id":"K59","id_url":"G59004.html","kuni_url":"/kg/resource/K59.html","kuni":"阿波","id":"G59004"},"geometry":{"type":"Polygon","coordinates":[[[134.605048,34.101542],[134.60491,34.101242],[134.604835,34.100925],[134.604723,34.100158],[134.604535,34.099442],[134.60421,34.098717],[134.603748,34.096892],[134.603723,34.096509],[134.603635,34.0961],[134.603448,34.095401],[134.603423,34.095017],[134.603498,34.093642],[134.60361,34.092651],[134.603548,34.092359],[134.603473,34.091618],[134.603523,34.091159],[134.603573,34.091051],[134.603548,34.090734],[134.603436,34.090393],[134.603436,34.090034],[134.603711,34.088635],[134.603686,34.088343],[134.603511,34.087776],[134.603548,34.087576],[134.603436,34.087418],[134.603386,34.087168],[134.603436,34.086785],[134.603348,34.086643],[134.603411,34.086318],[134.603598,34.085327],[134.603498,34.085018],[134.603461,34.084743],[134.603523,34.084543],[134.603411,34.084135],[134.603436,34.083843],[134.603386,34.083735],[134.603048,34.083752],[134.601723,34.080869],[134.601398,34.080127],[134.597949,34.07247],[134.597861,34.072403],[134.597349,34.07162],[134.597261,34.071145],[134.597311,34.070853],[134.597174,34.070062],[134.596761,34.06957],[134.596711,34.069437],[134.596236,34.06887],[134.595712,34.06842],[134.595387,34.06797],[134.595062,34.067678],[134.594587,34.067045],[134.593987,34.066529],[134.593599,34.065945],[134.593399,34.065287],[134.593462,34.064887],[134.593037,34.063962],[134.593399,34.063846],[134.595124,34.063262],[134.597224,34.067204],[134.603886,34.064754],[134.603198,34.063354],[134.606735,34.062079],[134.603448,34.055913],[134.60357,34.052105],[134.60332,34.052071],[134.603248,34.055738],[134.599636,34.057071],[134.598049,34.054022],[134.595162,34.054738],[134.594812,34.054038],[134.594562,34.054063],[134.594812,34.054488],[134.591075,34.055738],[134.591262,34.056088],[134.588912,34.056913],[134.588825,34.056713],[134.588637,34.056463],[134.588525,34.056213],[134.5885,34.055946],[134.588525,34.055271],[134.5885,34.055155],[134.588362,34.055138],[134.588137,34.055205],[134.588,34.05543],[134.587812,34.05563],[134.586163,34.055771],[134.585663,34.055905],[134.585363,34.05593],[134.584538,34.053405],[134.5855,34.052138],[134.585775,34.05223],[134.58635,34.051647],[134.588025,34.051372],[134.588025,34.051039],[134.590112,34.050697],[134.590225,34.05103],[134.590612,34.050964],[134.59055,34.050714],[134.591949,34.050464],[134.591874,34.050239],[134.595774,34.049539],[134.595749,34.049405],[134.596161,34.049314],[134.595174,34.047747],[134.595036,34.047531],[134.593774,34.043856],[134.594361,34.043398],[134.594349,34.043248],[134.594349,34.043181],[134.593412,34.043056],[134.593362,34.042898],[134.592074,34.039023],[134.591924,34.039015],[134.589112,34.038265],[134.589024,34.038315],[134.588687,34.038373],[134.585787,34.03644],[134.585862,34.036373],[134.586137,34.036257],[134.586962,34.035532],[134.587762,34.034949],[134.588274,34.034632],[134.588612,34.034565],[134.588774,34.034674],[134.588862,34.034674],[134.589237,34.034565],[134.589462,34.034657],[134.590337,34.034632],[134.590474,34.034607],[134.590787,34.034407],[134.591199,34.03434],[134.591474,34.034382],[134.591824,34.03454],[134.592736,34.035015],[134.592874,34.03524],[134.592986,34.035307],[134.593124,34.035149],[134.593286,34.035082],[134.593499,34.035082],[134.593774,34.03499],[134.593999,34.034857],[134.594549,34.035148],[134.594849,34.035123],[134.595399,34.03519],[134.595699,34.035073],[134.595836,34.03494],[134.595811,34.034832],[134.595724,34.034832],[134.595561,34.03469],[134.595486,34.034465],[134.595424,34.033949],[134.595449,34.033949],[134.595399,34.033324],[134.595424,34.033232],[134.595586,34.033099],[134.595949,34.032982],[134.596061,34.032849],[134.596024,34.032799],[134.595886,34.032757],[134.595699,34.032782],[134.595011,34.03264],[134.594574,34.03244],[134.594421,34.032401],[134.594299,34.032374],[134.594049,34.03244],[134.593861,34.032599],[134.593249,34.032649],[134.593036,34.032582],[134.592999,34.032532],[134.592624,34.032532],[134.592511,34.032424],[134.592536,34.032149],[134.592449,34.032082],[134.592099,34.032132],[134.591824,34.032199],[134.591462,34.032132],[134.591324,34.032149],[134.591162,34.03224],[134.591087,34.032357],[134.590912,34.032374],[134.590562,34.03224],[134.590399,34.03204],[134.590062,34.031791],[134.589849,34.031791],[134.589649,34.031841],[134.589487,34.031999],[134.589262,34.031974],[134.589049,34.031816],[134.588849,34.031549],[134.588524,34.030782],[134.588387,34.029966],[134.588412,34.029024],[134.588599,34.028616],[134.588762,34.028366],[134.589149,34.028058],[134.589449,34.027899],[134.589924,34.027874],[134.591024,34.027266],[134.591299,34.027016],[134.591561,34.026316],[134.591736,34.026049],[134.592224,34.025549],[134.592449,34.025483],[134.592749,34.025299],[134.592774,34.025141],[134.593024,34.024825],[134.593574,34.0244],[134.595386,34.023791],[134.595711,34.023766],[134.596211,34.023633],[134.597036,34.023291],[134.597386,34.023225],[134.597636,34.02325],[134.598236,34.023108],[134.598411,34.023],[134.598511,34.0225],[134.598461,34.02205],[134.598348,34.021967],[134.598123,34.021875],[134.597986,34.021758],[134.597936,34.021533],[134.597823,34.021467],[134.597711,34.0212],[134.597686,34.020908],[134.597773,34.020183],[134.598211,34.019508],[134.598561,34.019167],[134.598898,34.019009],[134.599111,34.019033],[134.599686,34.019217],[134.599911,34.019217],[134.600511,34.018809],[134.600573,34.018759],[134.599523,34.01795],[134.598723,34.017684],[134.598173,34.017342],[134.598036,34.0173],[134.597436,34.017592],[134.596699,34.017417],[134.596086,34.017434],[134.595624,34.01755],[134.595374,34.0178],[134.595024,34.018042],[134.594224,34.0187],[134.593374,34.019242],[134.592574,34.019825],[134.592024,34.020392],[134.591699,34.020975],[134.591061,34.021],[134.590486,34.021067],[134.590299,34.021117],[134.589774,34.021317],[134.589636,34.021567],[134.589611,34.021567],[134.589449,34.02195],[134.588786,34.022533],[134.588674,34.022783],[134.588399,34.022825],[134.587712,34.022666],[134.587112,34.0226],[134.586099,34.022675],[134.584749,34.02265],[134.584224,34.022558],[134.583562,34.022491],[134.582712,34.022491],[134.582225,34.022583],[134.581537,34.022808],[134.580962,34.022925],[134.580712,34.022925],[134.579775,34.022425],[134.579413,34.022133],[134.579,34.021867],[134.578488,34.021775],[134.577825,34.0218],[134.577363,34.021758],[134.576888,34.021617],[134.576588,34.021392],[134.576176,34.021325],[134.575301,34.021483],[134.574026,34.021558],[134.573489,34.021558],[134.572826,34.0214],[134.572389,34.0214],[134.572026,34.02135],[134.571839,34.021108],[134.571451,34.020817],[134.571151,34.020834],[134.570764,34.021017],[134.570051,34.021442],[134.569939,34.021467],[134.569664,34.0212],[134.569002,34.020409],[134.568614,34.020075],[134.568177,34.019867],[134.567989,34.019825],[134.567989,34.020025],[134.567922,34.02025],[134.567789,34.020317],[134.566427,34.021134],[134.566177,34.020775],[134.565839,34.020867],[134.56494,34.020842],[134.56474,34.021067],[134.56444,34.021559],[134.563927,34.022442],[134.56359,34.023367],[134.56354,34.023975],[134.56354,34.025233],[134.563652,34.026591],[134.563602,34.027216],[134.563465,34.027558],[134.562577,34.028641],[134.562277,34.028908],[134.562065,34.029041],[134.561927,34.028908],[134.561402,34.027516],[134.560953,34.025916],[134.560928,34.0256],[134.561203,34.024267],[134.561253,34.023775],[134.561203,34.023367],[134.560678,34.022492],[134.56049,34.021834],[134.560265,34.02175],[134.559965,34.021792],[134.559778,34.021675],[134.55969,34.021317],[134.559553,34.021225],[134.558865,34.021209],[134.558203,34.02105],[134.557403,34.020934],[134.557053,34.020825],[134.556615,34.020759],[134.556228,34.020734],[134.555978,34.020642],[134.551962,34.019415],[134.544997,34.018335],[134.532388,34.016776],[134.523983,34.015336],[134.514376,34.014136],[134.506211,34.013536],[134.499183,34.013342],[134.499133,34.013075],[134.498833,34.012708],[134.498471,34.012125],[134.497808,34.011767],[134.497434,34.011408],[134.497308,34.01134],[134.496346,34.011108],[134.495521,34.010858],[134.495246,34.01065],[134.495096,34.01015],[134.494759,34.009425],[134.494359,34.008817],[134.494209,34.0085],[134.494446,34.008117],[134.494921,34.007534],[134.495359,34.007092],[134.495584,34.006526],[134.495659,34.006034],[134.495546,34.005559],[134.495546,34.005151],[134.495746,34.004518],[134.496358,34.003268],[134.496571,34.002393],[134.496496,34.002051],[134.495996,34.001468],[134.495971,34.001376],[134.496183,34.001201],[134.496346,34.000793],[134.496246,34.00021],[134.495958,33.999668],[134.495908,33.999151],[134.496133,33.99861],[134.496458,33.998293],[134.496946,33.99811],[134.497083,33.997726],[134.497083,33.996693],[134.497171,33.995477],[134.497083,33.994935],[134.496621,33.99421],[134.496371,33.993677],[134.496009,33.993452],[134.494471,33.993319],[134.493446,33.993427],[134.493071,33.99336],[134.492546,33.992552],[134.492071,33.992485],[134.491496,33.992235],[134.490584,33.991294],[134.489246,33.990819],[134.487997,33.989894],[134.487209,33.989402],[134.487009,33.989336],[134.486872,33.988952],[134.487059,33.988411],[134.487147,33.987869],[134.486959,33.987286],[134.486209,33.986003],[134.485747,33.985486],[134.485384,33.985011],[134.485084,33.984453],[134.484609,33.983953],[134.483922,33.98357],[134.482272,33.983186],[134.48191,33.983078],[134.481835,33.982653],[134.481772,33.98157],[134.481697,33.981278],[134.481172,33.980312],[134.481222,33.979929],[134.481585,33.979337],[134.48191,33.97862],[134.482122,33.97792],[134.482435,33.977312],[134.482922,33.976654],[134.483422,33.976229],[134.483747,33.976046],[134.48526,33.975712],[134.485485,33.975371],[134.485422,33.974829],[134.48526,33.974196],[134.485235,33.973587],[134.485422,33.973071],[134.485972,33.972621],[134.48616,33.972079],[134.486385,33.971088],[134.486797,33.970613],[134.486685,33.969805],[134.486847,33.969538],[134.486985,33.969155],[134.486897,33.969013],[134.486622,33.968721],[134.486572,33.968321],[134.486622,33.968021],[134.486257,33.967827],[134.485297,33.967396],[134.484648,33.967055],[134.48406,33.967055],[134.483548,33.967213],[134.483298,33.96708],[134.483023,33.96663],[134.482635,33.966138],[134.482573,33.965663],[134.482573,33.96508],[134.482335,33.964647],[134.481998,33.964605],[134.481098,33.96458],[134.479586,33.964363],[134.479273,33.964563],[134.478811,33.964988],[134.478261,33.965172],[134.477911,33.965463],[134.477436,33.965713],[134.476998,33.96603],[134.476586,33.96648],[134.476511,33.96648],[134.476173,33.966097],[134.475786,33.965847],[134.475948,33.965422],[134.476286,33.96488],[134.476423,33.964338],[134.476361,33.964089],[134.476086,33.963464],[134.475674,33.963014],[134.475074,33.962697],[134.474661,33.96238],[134.474549,33.962247],[134.474274,33.960964],[134.474049,33.960306],[134.473661,33.959547],[134.473136,33.958822],[134.472924,33.958597],[134.472261,33.958081],[134.471874,33.957514],[134.471437,33.957139],[134.470749,33.956864],[134.470274,33.956481],[134.470037,33.955965],[134.470037,33.954681],[134.469924,33.954098],[134.469649,33.953465],[134.469199,33.952898],[134.468687,33.952407],[134.468162,33.95209],[134.467587,33.951932],[134.466237,33.951782],[134.465462,33.951573],[134.464725,33.951307],[134.464112,33.951123],[134.4634,33.951148],[134.462687,33.951332],[134.462112,33.951648],[134.46165,33.952123],[134.460925,33.952282],[134.4598,33.952098],[134.459225,33.952215],[134.458538,33.952257],[134.457663,33.952082],[134.456863,33.951965],[134.456838,33.95194],[134.456225,33.952098],[134.455325,33.952507],[134.454313,33.952823],[134.453263,33.953048],[134.4523,33.95314],[134.451975,33.953257],[134.451263,33.95359],[134.450813,33.953732],[134.4506,33.953748],[134.450025,33.953957],[134.449313,33.954382],[134.447163,33.955357],[134.446363,33.955607],[134.446126,33.955623],[134.444363,33.954523],[134.443813,33.95439],[134.442163,33.95439],[134.441176,33.954457],[134.440464,33.954323],[134.439664,33.954032],[134.438776,33.953849],[134.437601,33.953899],[134.437401,33.953965],[134.436551,33.954507],[134.435814,33.954465],[134.435289,33.954557],[134.434851,33.954799],[134.433752,33.95519],[134.432677,33.955815],[134.432189,33.956315],[134.431802,33.956807],[134.431639,33.957307],[134.431639,33.957348],[134.431414,33.957648],[134.430789,33.957915],[134.430377,33.95789],[134.429852,33.957582],[134.429602,33.957132],[134.429602,33.956673],[134.429802,33.956157],[134.429689,33.956023],[134.429115,33.955915],[134.427152,33.95634],[134.42694,33.95634],[134.426527,33.956165],[134.42619,33.95589],[134.425015,33.956048],[134.424852,33.956032],[134.424415,33.955732],[134.42414,33.955265],[134.423665,33.954832],[134.42309,33.954565],[134.422378,33.954565],[134.421165,33.954724],[134.41949,33.955107],[134.418641,33.95509],[134.417266,33.95484],[134.415591,33.954324],[134.413604,33.954257],[134.411654,33.953832],[134.411266,33.953557],[134.410804,33.953382],[134.409954,33.953407],[134.409067,33.953182],[134.408604,33.953224],[134.407704,33.952907],[134.406842,33.952507],[134.406517,33.952391],[134.404542,33.951966],[134.40358,33.951807],[134.401955,33.951274],[134.40108,33.951224],[134.400898,33.95141],[134.400742,33.951832],[134.40028,33.952265],[134.400055,33.952399],[134.399867,33.952665],[134.399867,33.953257],[134.399642,33.954632],[134.399292,33.955057],[134.39918,33.955373],[134.399567,33.955915],[134.399505,33.956115],[134.399292,33.956432],[134.399292,33.95664],[134.39948,33.957223],[134.39998,33.957898],[134.400392,33.958548],[134.400805,33.958865],[134.400805,33.959223],[134.40058,33.959656],[134.400605,33.960014],[134.400742,33.960039],[134.401192,33.960289],[134.402479,33.961206],[134.403217,33.961298],[134.404104,33.961339],[134.404929,33.961614],[134.405392,33.962039],[134.405367,33.962447],[134.404729,33.963481],[134.404704,33.964047],[134.405092,33.964814],[134.405667,33.965739],[134.406079,33.966189],[134.406767,33.966364],[134.406792,33.966497],[134.405754,33.967197],[134.405754,33.96783],[134.405704,33.968463],[134.405779,33.969088],[134.405779,33.969905],[134.406117,33.970221],[134.406304,33.97058],[134.406467,33.971121],[134.406529,33.972113],[134.406504,33.972221],[134.406167,33.972521],[134.406004,33.972904],[134.406142,33.973438],[134.406329,33.973621],[134.406942,33.974029],[134.409854,33.974696],[134.410291,33.974854],[134.410654,33.975396],[134.411341,33.976887],[134.411316,33.977579],[134.410904,33.978237],[134.410866,33.978804],[134.410679,33.98042],[134.410704,33.98117],[134.411066,33.98292],[134.411091,33.983395],[134.411041,33.983486],[134.410654,33.983711],[134.410741,33.984228],[134.411041,33.984861],[134.411979,33.985494],[134.412879,33.985786],[134.413903,33.985986],[134.415166,33.986544],[134.416791,33.986836],[134.417066,33.987111],[134.417178,33.987628],[134.417316,33.989044],[134.417228,33.989452],[134.417253,33.989586],[134.417553,33.990086],[134.417916,33.990577],[134.418141,33.990694],[134.419178,33.990761],[134.419453,33.991027],[134.419653,33.991452],[134.420228,33.991794],[134.422015,33.992602],[134.42334,33.99316],[134.423553,33.993344],[134.423665,33.993835],[134.423553,33.99436],[134.423453,33.995327],[134.423478,33.995368],[134.423753,33.995435],[134.424578,33.995435],[134.425477,33.995527],[134.42614,33.995868],[134.42664,33.99636],[134.42699,33.996468],[134.428315,33.996002],[134.428502,33.99586],[134.428702,33.995319],[134.429052,33.99476],[134.429764,33.994377],[134.430289,33.994377],[134.430814,33.994735],[134.431389,33.995319],[134.432027,33.995585],[134.432739,33.995519],[134.433927,33.995702],[134.434339,33.995877],[134.435276,33.997143],[134.435689,33.997452],[134.436314,33.997635],[134.436951,33.997968],[134.437451,33.99806],[134.437964,33.998852],[134.437939,33.999476],[134.438376,34.000585],[134.438301,34.001101],[134.437889,34.002001],[134.437889,34.002593],[134.438076,34.003043],[134.438026,34.003318],[134.437889,34.004167],[134.437364,34.004709],[134.436989,34.004884],[134.436889,34.004976],[134.436801,34.005359],[134.436776,34.005967],[134.436626,34.006459],[134.436664,34.006575],[134.437039,34.00705],[134.437739,34.0076],[134.438589,34.007967],[134.439363,34.00815],[134.439888,34.008517],[134.440301,34.009425],[134.440626,34.009558],[134.441151,34.009542],[134.441801,34.0097],[134.442301,34.009933],[134.443301,34.009917],[134.4438,34.009692],[134.444438,34.009567],[134.445713,34.009525],[134.446563,34.009667],[134.447213,34.00985],[134.447838,34.009742],[134.4486,34.009075],[134.44925,34.008692],[134.44955,34.008475],[134.452189,34.009618],[134.45617,34.013605],[134.459708,34.017282],[134.463835,34.023525],[134.466058,34.032968],[134.467238,34.043644],[134.467576,34.047238],[134.467126,34.049709],[134.467126,34.052517],[134.4687,34.0551],[134.469262,34.058694],[134.469036,34.061952],[134.469074,34.062044],[134.469086,34.062119],[134.469074,34.062252],[134.469086,34.06241],[134.469086,34.06256],[134.469074,34.062702],[134.469036,34.062835],[134.468999,34.062944],[134.468936,34.063135],[134.468874,34.063294],[134.468849,34.063469],[134.468824,34.06361],[134.468824,34.063727],[134.468786,34.063902],[134.468749,34.064068],[134.468761,34.06426],[134.468761,34.064435],[134.468736,34.064535],[134.468736,34.064677],[134.468736,34.064743],[134.468724,34.06479],[134.468649,34.064785],[134.467861,34.064718],[134.467774,34.065485],[134.467124,34.065452],[134.467236,34.064693],[134.466886,34.064685],[134.466736,34.066918],[134.467586,34.067035],[134.467749,34.066226],[134.468649,34.06646],[134.468086,34.067518],[134.467624,34.069609],[134.467399,34.071317],[134.467124,34.071476],[134.466649,34.071609],[134.466036,34.072009],[134.465511,34.072484],[134.464974,34.073109],[134.464649,34.073875],[134.464211,34.074592],[134.464286,34.074683],[134.464411,34.074725],[134.464511,34.075108],[134.464399,34.075767],[134.463786,34.077433],[134.463362,34.077899],[134.463412,34.078058],[134.464411,34.078291],[134.464786,34.078408],[134.464811,34.078449],[134.464474,34.078924],[134.463899,34.079574],[134.463611,34.080316],[134.463224,34.082074],[134.463486,34.082499],[134.463886,34.082599],[134.463961,34.08264],[134.463961,34.082865],[134.463811,34.083382],[134.463686,34.083449],[134.463261,34.083315],[134.463074,34.084257],[134.462474,34.08664],[134.462486,34.086773],[134.464324,34.086748],[134.464711,34.086773],[134.465374,34.086931],[134.465486,34.086865],[134.465411,34.08664],[134.465486,34.086257],[134.465761,34.086123],[134.465961,34.086265],[134.466086,34.08664],[134.465999,34.08684],[134.465399,34.087473],[134.464549,34.088465],[134.464086,34.088848],[134.463724,34.089023],[134.463261,34.089098],[134.462436,34.089339],[134.461962,34.089389],[134.461449,34.089364],[134.460974,34.089456],[134.460487,34.089431],[134.459799,34.089323],[134.458749,34.089298],[134.456937,34.089098],[134.456062,34.089031],[134.45515,34.088848],[134.45455,34.08854],[134.454437,34.088381],[134.454025,34.087456],[134.4537,34.087098],[134.4532,34.086648],[134.453025,34.086465],[134.45285,34.086465],[134.452762,34.08664],[134.45265,34.087815],[134.452512,34.088473],[134.452437,34.089798],[134.452325,34.090315],[134.451975,34.091131],[134.452112,34.091448],[134.452437,34.091831],[134.452825,34.092481],[134.45315,34.093181],[134.453675,34.094398],[134.453812,34.094939],[134.454037,34.096314],[134.454262,34.098022],[134.454287,34.098606],[134.454262,34.099056],[134.454287,34.099172],[134.4561,34.099239],[134.4569,34.099306],[134.457199,34.099372],[134.458349,34.099889],[134.458687,34.100005],[134.459012,34.100272],[134.459124,34.100589],[134.459212,34.101222],[134.459174,34.101647],[134.458962,34.102164],[134.459312,34.102614],[134.459424,34.102864],[134.459449,34.103155],[134.459599,34.10338],[134.459624,34.103605],[134.459374,34.103722],[134.459237,34.103855],[134.459262,34.104438],[134.459237,34.105113],[134.459349,34.105547],[134.459237,34.105655],[134.458937,34.105838],[134.459162,34.105947],[134.459324,34.106197],[134.459349,34.106355],[134.459324,34.106938],[134.459074,34.108496],[134.458862,34.11003],[134.458662,34.110929],[134.459049,34.111063],[134.459937,34.111313],[134.460862,34.111629],[134.462486,34.112121],[134.463974,34.112504],[134.467211,34.113246],[134.468673,34.113471],[134.469936,34.113488],[134.470735,34.113396],[134.47296,34.113013],[134.473835,34.112813],[134.47461,34.11258],[134.475348,34.112288],[134.476147,34.111772],[134.476447,34.111613],[134.47916,34.109655],[134.479772,34.109272],[134.481309,34.108497],[134.483609,34.107597],[134.484909,34.107189],[134.486909,34.106806],[134.488909,34.106531],[134.490321,34.106489],[134.492546,34.106623],[134.493946,34.106873],[134.494683,34.106956],[134.496358,34.107248],[134.49727,34.107498],[134.498795,34.107806],[134.502045,34.108589],[134.503157,34.108814],[134.50432,34.108964],[134.504445,34.109014],[134.504857,34.109056],[134.505095,34.109123],[134.50507,34.109573],[134.505095,34.110073],[134.504882,34.110139],[134.504807,34.110364],[134.505157,34.111314],[134.505344,34.111739],[134.505557,34.112706],[134.505294,34.113022],[134.505157,34.113314],[134.505019,34.113814],[134.504994,34.114197],[134.505157,34.115189],[134.505482,34.116114],[134.505594,34.11668],[134.506219,34.118522],[134.506594,34.118813],[134.507057,34.119022],[134.507432,34.118947],[134.507644,34.118722],[134.508169,34.118722],[134.508756,34.119938],[134.509106,34.120572],[134.509869,34.120388],[134.510956,34.120205],[134.511594,34.120163],[134.511656,34.120205],[134.511794,34.121155],[134.512631,34.120972],[134.513306,34.120813],[134.513568,34.120788],[134.513768,34.120972],[134.514381,34.12183],[134.514631,34.122255],[134.515256,34.12313],[134.515693,34.12433],[134.515931,34.124305],[134.516605,34.123963],[134.517005,34.123871],[134.517418,34.123671],[134.517693,34.123488],[134.518093,34.12333],[134.518393,34.123421],[134.519393,34.124071],[134.519605,34.124071],[134.519768,34.123938],[134.51998,34.123463],[134.520043,34.123438],[134.520418,34.123555],[134.520992,34.123938],[134.521392,34.124163],[134.522017,34.124271],[134.523417,34.124338],[134.525392,34.124246],[134.525879,34.124196],[134.526454,34.124238],[134.527454,34.124463],[134.528642,34.124596],[134.529454,34.12478],[134.529804,34.124888],[134.531666,34.125405],[134.532179,34.125471],[134.532591,34.125496],[134.533129,34.12538],[134.533666,34.12518],[134.534179,34.124746],[134.534641,34.124271],[134.535266,34.123305],[134.535503,34.122605],[134.535666,34.121588],[134.535616,34.120938],[134.536153,34.120797],[134.536153,34.120413],[134.535966,34.118997],[134.535929,34.118389],[134.536154,34.117797],[134.536391,34.117322],[134.536579,34.116855],[134.536853,34.116331],[134.537253,34.115947],[134.537253,34.115906],[134.537878,34.115456],[134.539228,34.114614],[134.539553,34.114256],[134.539603,34.114006],[134.539578,34.113897],[134.539228,34.113514],[134.539203,34.113331],[134.539278,34.113131],[134.539466,34.112989],[134.539928,34.112831],[134.540553,34.112739],[134.541691,34.112648],[134.542528,34.112331],[134.542853,34.112173],[134.542903,34.112173],[134.543091,34.112289],[134.543203,34.112306],[134.543466,34.112106],[134.543903,34.111989],[134.54509,34.111806],[134.546153,34.111406],[134.547603,34.111064],[134.548253,34.110948],[134.54964,34.110881],[134.550415,34.110673],[134.552015,34.110381],[134.552315,34.110015],[134.55239,34.109206],[134.552365,34.109073],[134.552415,34.108798],[134.553252,34.108573],[134.554065,34.108456],[134.555252,34.10839],[134.55604,34.108365],[134.556502,34.108407],[134.556552,34.108748],[134.556477,34.109398],[134.556527,34.109623],[134.556739,34.109831],[134.557714,34.110481],[134.558014,34.110748],[134.558127,34.111065],[134.557989,34.111515],[134.558014,34.111831],[134.558264,34.112106],[134.558452,34.112464],[134.558502,34.112823],[134.558502,34.113164],[134.558377,34.113548],[134.557402,34.113598],[134.557127,34.113664],[134.556214,34.114631],[134.555864,34.115064],[134.555889,34.115314],[134.555827,34.115697],[134.555839,34.116097],[134.555702,34.116239],[134.555289,34.116281],[134.555152,34.116214],[134.555289,34.116556],[134.555777,34.117314],[134.555889,34.11768],[134.555889,34.11793],[134.556264,34.118605],[134.556839,34.119772],[134.557626,34.122005],[134.558301,34.12223],[134.558514,34.122205],[134.559164,34.121622],[134.560114,34.120938],[134.560814,34.121463],[134.561439,34.121997],[134.561926,34.122497],[134.561951,34.122747],[134.561788,34.12428],[134.562363,34.124321],[134.563038,34.12443],[134.564088,34.124496],[134.565113,34.124588],[134.565251,34.12463],[134.565476,34.124771],[134.565876,34.125171],[134.566776,34.125963],[134.567963,34.12713],[134.569288,34.128188],[134.569825,34.128554],[134.570375,34.128846],[134.573375,34.130079],[134.5743,34.130346],[134.574612,34.130396],[134.575462,34.130438],[134.577112,34.130438],[134.578187,34.130363],[134.579462,34.130179],[134.580187,34.12998],[134.582299,34.129096],[134.584024,34.12828],[134.585136,34.127622],[134.586236,34.126788],[134.586974,34.12613],[134.589374,34.124214],[134.590486,34.123039],[134.592374,34.120148],[134.593798,34.118206],[134.595123,34.116356],[134.595523,34.115857],[134.596036,34.115132],[134.596311,34.114657],[134.596798,34.113124],[134.597786,34.110549],[134.598523,34.108091],[134.598948,34.107033],[134.600348,34.1043],[134.600998,34.103308],[134.601673,34.102491],[134.60191,34.102375],[134.602535,34.102175],[134.603185,34.10195],[134.603973,34.101716],[134.604323,34.101675],[134.605048,34.101542]]]},"type":"Feature"}]}