{"type":"FeatureCollection","features":[{"geometry":{"coordinates":[[[134.288212,34.275583],[134.288262,34.275516],[134.289312,34.275108],[134.289725,34.274883],[134.289775,34.2748],[134.290037,34.274683],[134.292625,34.274166],[134.2927,34.274191],[134.292812,34.274244],[134.292949,34.2743],[134.293299,34.274166],[134.293937,34.274058],[134.294162,34.2741],[134.294287,34.274033],[134.294562,34.274083],[134.295524,34.274016],[134.295899,34.274033],[134.296062,34.274216],[134.296812,34.274491],[134.297087,34.274783],[134.297624,34.275658],[134.297886,34.2758],[134.298511,34.275658],[134.298799,34.275683],[134.299361,34.275866],[134.299499,34.275891],[134.299936,34.275866],[134.299986,34.275841],[134.301461,34.275866],[134.302536,34.276025],[134.302699,34.276091],[134.303023,34.27655],[134.303261,34.276775],[134.303611,34.276908],[134.303911,34.276975],[134.304386,34.277158],[134.305786,34.2779],[134.305836,34.278108],[134.305948,34.278174],[134.306136,34.278083],[134.306323,34.278058],[134.306786,34.278216],[134.306886,34.278041],[134.307236,34.277608],[134.307998,34.276375],[134.308723,34.275808],[134.308935,34.275716],[134.30971,34.276016],[134.309935,34.275966],[134.31006,34.275858],[134.31071,34.275358],[134.310923,34.275317],[134.311085,34.275108],[134.311435,34.274908],[134.311785,34.2748],[134.312085,34.27475],[134.31256,34.274933],[134.312885,34.275],[134.313185,34.274683],[134.31361,34.274442],[134.314872,34.273542],[134.31536,34.2734],[134.315685,34.273017],[134.315985,34.272775],[134.316272,34.272659],[134.31636,34.272659],[134.31646,34.272592],[134.316547,34.272409],[134.31671,34.272117],[134.316947,34.271917],[134.317297,34.271692],[134.317647,34.271559],[134.318697,34.271692],[134.319235,34.271851],[134.319347,34.271826],[134.319397,34.271667],[134.319672,34.271309],[134.319584,34.271242],[134.319422,34.271201],[134.319185,34.271176],[134.319022,34.271059],[134.318935,34.270901],[134.319022,34.270434],[134.319397,34.269801],[134.319647,34.269642],[134.319797,34.269484],[134.320447,34.269034],[134.320534,34.269009],[134.320847,34.269076],[134.320934,34.269126],[134.321147,34.268834],[134.320772,34.268584],[134.320959,34.268293],[134.321097,34.268359],[134.321359,34.267976],[134.321334,34.267926],[134.322359,34.266868],[134.322547,34.267026],[134.322947,34.266693],[134.323247,34.26651],[134.325259,34.264827],[134.327046,34.263468],[134.328309,34.262569],[134.331959,34.260252],[134.332634,34.259936],[134.332908,34.259936],[134.333246,34.259986],[134.333358,34.259936],[134.333658,34.259552],[134.333946,34.259261],[134.334333,34.258994],[134.336608,34.257503],[134.338358,34.256286],[134.33887,34.255836],[134.33912,34.255703],[134.33957,34.25557],[134.340058,34.256136],[134.34137,34.25652],[134.341533,34.256161],[134.340733,34.255278],[134.343708,34.253903],[134.343683,34.253703],[134.343333,34.253387],[134.342633,34.253728],[134.342445,34.253545],[134.34242,34.253279],[134.34242,34.253029],[134.343245,34.252487],[134.34387,34.253287],[134.344057,34.253454],[134.344382,34.253612],[134.344426,34.253668],[134.34447,34.253729],[134.34447,34.253837],[134.344357,34.254203],[134.343795,34.254853],[134.344057,34.255037],[134.34452,34.25447],[134.344682,34.254087],[134.344782,34.25357],[134.34487,34.25357],[134.345245,34.253387],[134.34527,34.253287],[134.345332,34.253279],[134.345445,34.253204],[134.34562,34.253162],[134.346032,34.252962],[134.346795,34.252687],[134.34742,34.252529],[134.34842,34.25242],[134.349919,34.252196],[134.350532,34.252146],[134.351157,34.252171],[134.351657,34.252146],[134.352569,34.252487],[134.352794,34.252621],[134.353794,34.253004],[134.353982,34.253046],[134.354419,34.253229],[134.355131,34.253446],[134.355531,34.25367],[134.356419,34.254329],[134.356606,34.25437],[134.356744,34.254329],[134.357281,34.253946],[134.358194,34.253512],[134.358381,34.253287],[134.358419,34.253179],[134.358794,34.252704],[134.359119,34.252304],[134.359381,34.252029],[134.359643,34.251829],[134.359943,34.251288],[134.360031,34.250971],[134.360581,34.250563],[134.361618,34.250071],[134.362756,34.24978],[134.36408,34.249555],[134.365343,34.249463],[134.366518,34.24948],[134.367905,34.249755],[134.369467,34.25013],[134.369967,34.25038],[134.37103,34.250696],[134.371992,34.251213],[134.372267,34.251396],[134.372306,34.251538],[134.372874,34.251994],[134.373092,34.251888],[134.373542,34.251904],[134.374229,34.252129],[134.375079,34.252671],[134.375879,34.253288],[134.376792,34.254071],[134.377079,34.254388],[134.377579,34.255162],[134.377716,34.255512],[134.377666,34.255871],[134.377404,34.256321],[134.377426,34.256389],[134.377841,34.256404],[134.378154,34.256462],[134.378254,34.256587],[134.378204,34.256796],[134.378029,34.256912],[134.377641,34.256971],[134.377204,34.256979],[134.377029,34.256954],[134.376429,34.256704],[134.376267,34.256729],[134.376154,34.257312],[134.375979,34.257729],[134.375442,34.258662],[134.375292,34.259062],[134.375279,34.259479],[134.375404,34.259679],[134.375717,34.259837],[134.376579,34.260137],[134.377216,34.260795],[134.377454,34.26112],[134.377691,34.26157],[134.377891,34.26167],[134.378041,34.261845],[134.378316,34.261903],[134.378479,34.261787],[134.378516,34.261412],[134.378741,34.261112],[134.378754,34.260978],[134.379129,34.260628],[134.379616,34.260079],[134.380116,34.259679],[134.380829,34.258895],[134.381741,34.258237],[134.382041,34.258146],[134.382328,34.258021],[134.382741,34.257704],[134.383041,34.257521],[134.383853,34.257262],[134.384753,34.257071],[134.385691,34.256896],[134.386116,34.256829],[134.387053,34.256412],[134.387465,34.256171],[134.387815,34.255888],[134.389315,34.255288],[134.389828,34.255029],[134.389978,34.255079],[134.390215,34.255071],[134.39024,34.254846],[134.390365,34.254538],[134.39059,34.254346],[134.391528,34.25398],[134.39174,34.253771],[134.392015,34.253288],[134.392265,34.252855],[134.392815,34.25218],[134.393277,34.251688],[134.393615,34.251372],[134.393665,34.251297],[134.393852,34.250938],[134.394077,34.250605],[134.394515,34.249788],[134.394627,34.249497],[134.394765,34.248689],[134.39529,34.247647],[134.395865,34.246772],[134.396365,34.246314],[134.397015,34.245614],[134.397515,34.244922],[134.397652,34.244648],[134.397652,34.243998],[134.397927,34.243389],[134.398315,34.242931],[134.39864,34.242623],[134.398752,34.242398],[134.39869,34.24224],[134.398615,34.242148],[134.39864,34.241856],[134.398727,34.241556],[134.398615,34.24149],[134.398277,34.24154],[134.39804,34.241606],[134.39784,34.24129],[134.397677,34.24084],[134.397565,34.24014],[134.397215,34.240323],[134.39619,34.238698],[134.39619,34.238657],[134.396253,34.238607],[134.39639,34.23834],[134.396715,34.237957],[134.398527,34.23694],[134.398965,34.23669],[134.399052,34.236807],[134.399027,34.237098],[134.399077,34.237298],[134.399327,34.237074],[134.399465,34.237207],[134.400315,34.237798],[134.40079,34.23804],[134.401415,34.23849],[134.401752,34.23854],[134.402215,34.238398],[134.402952,34.237857],[134.403089,34.237815],[134.404139,34.237749],[134.404714,34.237749],[134.404902,34.237765],[134.405289,34.237899],[134.405727,34.238215],[134.406202,34.238373],[134.406664,34.238332],[134.406914,34.238215],[134.407277,34.237965],[134.408202,34.237515],[134.408951,34.237265],[134.409226,34.237249],[134.409639,34.236724],[134.410026,34.236432],[134.410514,34.236141],[134.411564,34.235799],[134.411701,34.235574],[134.412051,34.235149],[134.412026,34.234899],[134.411976,34.234766],[134.412276,34.234249],[134.412076,34.234024],[134.412026,34.233566],[134.412051,34.233141],[134.412164,34.232891],[134.412164,34.232624],[134.412076,34.232508],[134.411751,34.232399],[134.411114,34.232349],[134.410764,34.232283],[134.410376,34.232058],[134.409664,34.231816],[134.408702,34.231766],[134.408427,34.231541],[134.408314,34.231408],[134.407989,34.231249],[134.407677,34.231166],[134.407189,34.231208],[134.406414,34.231324],[134.406164,34.231483],[134.406064,34.231591],[134.405927,34.231908],[134.405677,34.231949],[134.405377,34.231933],[134.405065,34.231683],[134.404465,34.230874],[134.404377,34.230691],[134.404352,34.230333],[134.404552,34.229816],[134.404715,34.229608],[134.406089,34.23015],[134.406202,34.22905],[134.40559,34.228975],[134.40559,34.228458],[134.405977,34.228391],[134.40609,34.227783],[134.406502,34.227783],[134.406465,34.227492],[134.406052,34.227466],[134.40609,34.226858],[134.406252,34.226858],[134.406302,34.226408],[134.40644,34.226433],[134.408014,34.224692],[134.407839,34.22445],[134.408827,34.223634],[134.409189,34.223909],[134.410102,34.223409],[134.409964,34.22305],[134.410239,34.223],[134.411802,34.222509],[134.412264,34.222417],[134.412402,34.222576],[134.412489,34.222801],[134.412539,34.222817],[134.412989,34.222842],[134.413014,34.222526],[134.413176,34.222192],[134.413501,34.222009],[134.413814,34.221892],[134.414714,34.221692],[134.414876,34.221626],[134.415351,34.221101],[134.415589,34.220993],[134.415764,34.220859],[134.415564,34.220793],[134.415176,34.220809],[134.415039,34.220743],[134.415039,34.220251],[134.415264,34.219976],[134.415264,34.219659],[134.415401,34.219301],[134.415726,34.218984],[134.416164,34.218651],[134.417514,34.21781],[134.417876,34.21761],[134.419551,34.216368],[134.422926,34.214252],[134.423888,34.21366],[134.424501,34.213302],[134.424875,34.213094],[134.425153,34.212957],[134.425905,34.212598],[134.42655,34.212327],[134.428288,34.211269],[134.429325,34.210703],[134.431037,34.209869],[134.432162,34.209286],[134.432787,34.209078],[134.434437,34.208378],[134.435075,34.208061],[134.435925,34.207795],[134.437162,34.20727],[134.437549,34.207137],[134.437924,34.207112],[134.438149,34.207387],[134.438262,34.207587],[134.438424,34.207678],[134.438974,34.207812],[134.439112,34.20772],[134.439224,34.207587],[134.439249,34.207387],[134.439412,34.20732],[134.439753,34.20732],[134.439749,34.207403],[134.439824,34.20772],[134.440074,34.207903],[134.440187,34.207945],[134.440212,34.207003],[134.440099,34.205262],[134.440287,34.204229],[134.440399,34.203712],[134.440424,34.203437],[134.440374,34.203304],[134.440124,34.203054],[134.439824,34.202671],[134.439899,34.201954],[134.439899,34.201096],[134.440237,34.200379],[134.440512,34.199879],[134.440449,34.199654],[134.440174,34.199471],[134.439824,34.199296],[134.439624,34.199046],[134.439487,34.198571],[134.439274,34.198279],[134.438799,34.198013],[134.438749,34.197829],[134.439024,34.196954],[134.439049,34.196504],[134.439187,34.195913],[134.439187,34.19558],[134.43885,34.195421],[134.438137,34.195305],[134.438087,34.195238],[134.438062,34.194905],[134.437787,34.194338],[134.437725,34.194088],[134.437862,34.193821],[134.438162,34.193546],[134.438437,34.192896],[134.438712,34.192421],[134.438775,34.192063],[134.438775,34.191722],[134.43885,34.191588],[134.438937,34.191272],[134.438937,34.191072],[134.438662,34.190505],[134.438437,34.19028],[134.4383,34.189922],[134.438112,34.189605],[134.43775,34.189447],[134.4369,34.189222],[134.436537,34.188997],[134.436025,34.18853],[134.435575,34.188305],[134.434975,34.187922],[134.433513,34.187472],[134.433188,34.187272],[134.432888,34.186997],[134.4325,34.18673],[134.432138,34.186588],[134.431838,34.186522],[134.4311,34.185355],[134.430825,34.185155],[134.430413,34.184947],[134.430213,34.184772],[134.429913,34.183622],[134.429313,34.183397],[134.429176,34.183147],[134.429151,34.18283],[134.429226,34.182447],[134.429338,34.181705],[134.429451,34.18143],[134.429638,34.181164],[134.429826,34.18078],[134.429938,34.180422],[134.4301,34.180131],[134.430325,34.179289],[134.430575,34.178956],[134.43085,34.178889],[134.43225,34.178822],[134.432738,34.178772],[134.4331,34.178797],[134.433213,34.178839],[134.43345,34.178864],[134.43365,34.178681],[134.433863,34.178072],[134.4337,34.177147],[134.433788,34.176364],[134.433838,34.176223],[134.433925,34.175681],[134.434138,34.175098],[134.434138,34.174764],[134.434063,34.174489],[134.433813,34.174314],[134.433475,34.174156],[134.4331,34.173589],[134.432788,34.173231],[134.432738,34.172939],[134.432925,34.172664],[134.433225,34.172414],[134.433475,34.172106],[134.433775,34.170956],[134.433938,34.169965],[134.43385,34.16969],[134.43385,34.169581],[134.433675,34.16929],[134.433438,34.169065],[134.433325,34.168298],[134.433075,34.16809],[134.43195,34.167865],[134.431225,34.167873],[134.431038,34.167782],[134.430901,34.167415],[134.430576,34.167123],[134.430076,34.167082],[134.428863,34.167357],[134.428101,34.167198],[134.427138,34.166498],[134.426414,34.166048],[134.425676,34.165873],[134.425289,34.165665],[134.424101,34.164065],[134.423589,34.163549],[134.423114,34.16294],[134.422452,34.162265],[134.422077,34.161565],[134.422014,34.161074],[134.421852,34.160649],[134.421352,34.160132],[134.420502,34.159407],[134.420064,34.159249],[134.419865,34.158774],[134.419702,34.158216],[134.419452,34.157766],[134.418877,34.157632],[134.416927,34.157449],[134.416152,34.157291],[134.41539,34.157024],[134.413603,34.156849],[134.412915,34.156891],[134.412778,34.157566],[134.41234,34.158449],[134.411565,34.159057],[134.411615,34.159282],[134.412065,34.159774],[134.412278,34.160115],[134.412228,34.160457],[134.41184,34.16104],[134.411153,34.161624],[134.410328,34.16194],[134.410141,34.162057],[134.409366,34.162324],[134.408603,34.162532],[134.407853,34.162557],[134.407391,34.162532],[134.407253,34.162665],[134.407003,34.163048],[134.406428,34.16359],[134.406178,34.164107],[134.406066,34.164607],[134.405653,34.164965],[134.405129,34.165282],[134.404804,34.165757],[134.404504,34.166706],[134.404004,34.16709],[134.402554,34.167965],[134.402254,34.168056],[134.402116,34.168056],[134.400466,34.167815],[134.400054,34.167631],[134.399879,34.167223],[134.399529,34.16689],[134.398917,34.166531],[134.398429,34.166306],[134.397904,34.16554],[134.397467,34.165223],[134.397129,34.164748],[134.396604,34.164457],[134.395867,34.164165],[134.393942,34.163607],[134.393442,34.163557],[134.392842,34.163673],[134.39188,34.163723],[134.391217,34.163832],[134.390067,34.16444],[134.388805,34.165048],[134.387942,34.165298],[134.38698,34.165348],[134.386193,34.165165],[134.38553,34.165082],[134.385193,34.165307],[134.384918,34.165823],[134.384893,34.166006],[134.385055,34.166473],[134.385118,34.166906],[134.385055,34.167873],[134.38498,34.16819],[134.384543,34.169156],[134.384343,34.169656],[134.38418,34.169948],[134.384172,34.170165],[134.384118,34.170406],[134.38403,34.170923],[134.383943,34.171098],[134.383205,34.171664],[134.38313,34.171889],[134.382993,34.172022],[134.382518,34.172097],[134.381968,34.172114],[134.381718,34.172189],[134.381418,34.172231],[134.380405,34.172206],[134.379855,34.172231],[134.379418,34.172189],[134.378255,34.171897],[134.377055,34.171964],[134.376256,34.171847],[134.375876,34.171744],[134.375681,34.171672],[134.375518,34.171831],[134.375218,34.172464],[134.375131,34.172731],[134.375106,34.173047],[134.375043,34.173156],[134.373668,34.174289],[134.373181,34.174605],[134.372793,34.174739],[134.372331,34.174964],[134.372143,34.175205],[134.371906,34.175405],[134.371643,34.175564],[134.371293,34.175639],[134.370731,34.175614],[134.370343,34.175722],[134.369993,34.17593],[134.369768,34.176263],[134.369768,34.176605],[134.369681,34.177013],[134.369381,34.177372],[134.368944,34.177822],[134.368269,34.178363],[134.367681,34.178721],[134.366869,34.179396],[134.366156,34.17983],[134.365894,34.179913],[134.365019,34.180321],[134.364481,34.180679],[134.363894,34.181021],[134.363231,34.181588],[134.362694,34.181854],[134.362281,34.181854],[134.361694,34.181629],[134.360644,34.181879],[134.360144,34.182063],[134.359707,34.182421],[134.359119,34.183162],[134.358969,34.183929],[134.358444,34.184312],[134.357944,34.184587],[134.357382,34.184829],[134.356657,34.185054],[134.355794,34.185237],[134.355007,34.185354],[134.35427,34.185354],[134.35372,34.185287],[134.35307,34.185129],[134.35257,34.18522],[134.35257,34.185262],[134.351657,34.185354],[134.351332,34.185604],[134.35092,34.185537],[134.350357,34.185379],[134.349807,34.185421],[134.349507,34.185262],[134.349307,34.184996],[134.348482,34.184437],[134.348032,34.183896],[134.347945,34.183396],[134.347445,34.182229],[134.34712,34.181738],[134.34717,34.181129],[134.347382,34.180563],[134.34717,34.179705],[134.34687,34.179055],[134.346557,34.178721],[134.346457,34.178246],[134.346495,34.17768],[134.346345,34.177255],[134.346307,34.176805],[134.34637,34.176263],[134.346332,34.175722],[134.34607,34.175047],[134.34522,34.173922],[134.344682,34.172847],[134.34427,34.172572],[134.343745,34.172439],[134.34307,34.172489],[134.342245,34.172756],[134.340633,34.173389],[134.33987,34.173731],[134.33807,34.174114],[134.336308,34.17463],[134.334258,34.175514],[134.333871,34.175514],[134.333233,34.17513],[134.332846,34.174855],[134.332696,34.174789],[134.331084,34.174772],[134.330346,34.174639],[134.329734,34.174414],[134.329171,34.174122],[134.328696,34.173597],[134.328309,34.173239],[134.326909,34.173714],[134.326084,34.174097],[134.325084,34.174389],[134.324234,34.174505],[134.323559,34.174664],[134.321234,34.175297],[134.320235,34.175322],[134.31936,34.175322],[134.31836,34.175522],[134.318035,34.175655],[134.316485,34.17658],[134.314723,34.177346],[134.31436,34.177238],[134.313685,34.17663],[134.311835,34.175305],[134.310473,34.174722],[134.309861,34.173663],[134.309323,34.172564],[134.309061,34.171797],[134.308823,34.17128],[134.308498,34.170939],[134.308123,34.17083],[134.306973,34.170939],[134.306411,34.170939],[134.306261,34.170922],[134.305848,34.170672],[134.305411,34.170314],[134.305173,34.170222],[134.304848,34.170181],[134.304061,34.17043],[134.303386,34.170514],[134.303124,34.170589],[134.302499,34.170605],[134.301999,34.170447],[134.301499,34.170381],[134.300824,34.170431],[134.300099,34.170297],[134.299687,34.170072],[134.299449,34.169772],[134.299162,34.169664],[134.298749,34.169389],[134.298687,34.169306],[134.298574,34.168897],[134.298362,34.168672],[134.297862,34.168606],[134.297537,34.168647],[134.297212,34.168897],[134.296799,34.169322],[134.296749,34.169731],[134.296799,34.169964],[134.296862,34.170047],[134.296662,34.170772],[134.296537,34.171647],[134.296312,34.172505],[134.295924,34.173047],[134.294962,34.174147],[134.2947,34.174805],[134.2944,34.175388],[134.294112,34.175771],[134.293937,34.176263],[134.29385,34.177521],[134.292412,34.178987],[134.292037,34.179146],[134.291587,34.179171],[134.289538,34.179129],[134.288888,34.178996],[134.288238,34.179079],[134.287738,34.179304],[134.2871,34.180095],[134.28625,34.179921],[134.285663,34.179854],[134.2851,34.179471],[134.284601,34.179446],[134.283776,34.178996],[134.283188,34.178796],[134.282926,34.178821],[134.282301,34.178679],[134.281951,34.178346],[134.281801,34.177937],[134.281713,34.177538],[134.281451,34.177404],[134.281276,34.177421],[134.280651,34.177354],[134.280038,34.177446],[134.279301,34.177271],[134.278776,34.177221],[134.278238,34.177046],[134.277688,34.176613],[134.277363,34.176463],[134.277038,34.176596],[134.274576,34.178671],[134.274138,34.179387],[134.273726,34.179795],[134.273638,34.179995],[134.273813,34.180354],[134.273901,34.180445],[134.273901,34.180779],[134.273663,34.181079],[134.273076,34.181279],[134.271964,34.181529],[134.271376,34.18157],[134.270139,34.18157],[134.269464,34.181712],[134.268239,34.18207],[134.267939,34.182095],[134.267326,34.182295],[134.266501,34.183037],[134.266089,34.183287],[134.265976,34.183245],[134.265151,34.183128],[134.264714,34.183287],[134.264326,34.183245],[134.263976,34.182995],[134.263801,34.18297],[134.262976,34.183045],[134.261851,34.18327],[134.261064,34.183537],[134.260302,34.183587],[134.259864,34.183403],[134.259364,34.183003],[134.257414,34.182262],[134.256739,34.18197],[134.256539,34.181695],[134.256627,34.181045],[134.256352,34.180954],[134.256214,34.180954],[134.255764,34.180687],[134.254802,34.18017],[134.254264,34.180554],[134.253715,34.180729],[134.251215,34.18062],[134.250827,34.180554],[134.250065,34.180262],[134.249152,34.179454],[134.248477,34.179254],[134.247478,34.178829],[134.247415,34.178754],[134.24733,34.178733],[134.24504,34.179587],[134.244728,34.179521],[134.244453,34.179679],[134.244303,34.179837],[134.243753,34.180654],[134.243516,34.180662],[134.243228,34.18052],[134.242578,34.179954],[134.242153,34.179912],[134.240591,34.180246],[134.240328,34.180187],[134.239753,34.179729],[134.239403,34.179762],[134.238204,34.180221],[134.237604,34.180254],[134.237329,34.180387],[134.236854,34.180496],[134.236629,34.180446],[134.236254,34.180387],[134.235491,34.180004],[134.235229,34.179937],[134.234854,34.179937],[134.234329,34.180062],[134.233692,34.180387],[134.233067,34.180446],[134.232642,34.180595],[134.232392,34.18062],[134.231717,34.180137],[134.231442,34.179987],[134.230854,34.179854],[134.230467,34.179954],[134.22973,34.180487],[134.22913,34.180804],[134.22878,34.180854],[134.228142,34.180729],[134.227967,34.180654],[134.227692,34.180404],[134.22758,34.180054],[134.22768,34.179112],[134.227555,34.178662],[134.227367,34.178354],[134.22703,34.178071],[134.226742,34.177996],[134.226442,34.178037],[134.226255,34.178146],[134.22578,34.178762],[134.225143,34.179229],[134.224555,34.179554],[134.223493,34.179954],[134.223155,34.179904],[134.22243,34.179454],[134.222193,34.179387],[134.221193,34.179904],[134.220843,34.17997],[134.220531,34.179937],[134.220331,34.179812],[134.220031,34.179254],[134.219806,34.178987],[134.218456,34.178262],[134.217606,34.177929],[134.217131,34.177445],[134.216956,34.17737],[134.216531,34.176979],[134.216281,34.176871],[134.215906,34.176521],[134.215781,34.176446],[134.214981,34.176487],[134.214606,34.176429],[134.213206,34.176029],[134.212644,34.175737],[134.212019,34.175562],[134.211482,34.175295],[134.210532,34.174987],[134.210007,34.174887],[134.209482,34.174887],[134.209207,34.174837],[134.208744,34.174679],[134.208744,34.174687],[134.208857,34.175045],[134.208957,34.17527],[134.209157,34.175512],[134.209757,34.176062],[134.210019,34.176237],[134.211144,34.176712],[134.211494,34.17687],[134.211981,34.177054],[134.212869,34.177753],[134.213231,34.17797],[134.213344,34.178112],[134.213394,34.178295],[134.213394,34.178437],[134.213319,34.179587],[134.213506,34.17992],[134.213919,34.180212],[134.214444,34.180545],[134.214519,34.18077],[134.214469,34.180853],[134.214356,34.180928],[134.214106,34.181178],[134.214381,34.181953],[134.214294,34.182211],[134.213206,34.183369],[134.213056,34.184194],[134.212919,34.184469],[134.212356,34.185011],[134.212656,34.185644],[134.212669,34.185977],[134.212544,34.186227],[134.212494,34.186452],[134.212744,34.186677],[134.212881,34.18701],[134.213069,34.187152],[134.213819,34.187494],[134.214056,34.187652],[134.214069,34.187794],[134.213881,34.188002],[134.213881,34.188302],[134.214069,34.18861],[134.214281,34.188769],[134.214331,34.188819],[134.214581,34.188885],[134.214919,34.189202],[134.215056,34.189402],[134.215031,34.189602],[134.214781,34.189943],[134.215081,34.189985],[134.215406,34.190218],[134.215794,34.190602],[134.216044,34.19096],[134.216081,34.191093],[134.216019,34.191118],[134.215356,34.191068],[134.214256,34.191118],[134.213869,34.191093],[134.213644,34.191143],[134.213394,34.191193],[134.213144,34.19136],[134.213019,34.191551],[134.212756,34.192351],[134.212419,34.192876],[134.211882,34.193459],[134.211557,34.193651],[134.210857,34.193984],[134.210582,34.194076],[134.210494,34.194118],[134.210107,34.194426],[134.209932,34.194726],[134.209907,34.195334],[134.209782,34.195651],[134.209207,34.196509],[134.209069,34.196917],[134.209057,34.19715],[134.208907,34.197692],[134.20872,34.198017],[134.208457,34.19825],[134.20772,34.199292],[134.207407,34.19955],[134.207057,34.199742],[134.206882,34.199933],[134.206832,34.2001],[134.20697,34.200433],[134.207057,34.200617],[134.207407,34.20095],[134.20762,34.201283],[134.207645,34.2014],[134.207507,34.201758],[134.207545,34.201866],[134.20812,34.202275],[134.208395,34.202591],[134.20862,34.202975],[134.20872,34.20325],[134.209082,34.203],[134.209257,34.202841],[134.209482,34.202866],[134.210069,34.203],[134.210457,34.202933],[134.210757,34.20295],[134.211119,34.203025],[134.211682,34.203041],[134.212669,34.203016],[134.213007,34.203008],[134.213419,34.203091],[134.214031,34.203408],[134.214756,34.20365],[134.215294,34.203625],[134.215569,34.203583],[134.215781,34.203583],[134.216256,34.20365],[134.217031,34.203691],[134.217069,34.203733],[134.217269,34.204574],[134.217219,34.204933],[134.217244,34.205791],[134.217106,34.206124],[134.217169,34.206507],[134.217281,34.206716],[134.217256,34.207032],[134.217106,34.207549],[134.216806,34.207999],[134.216781,34.208407],[134.216844,34.208965],[134.216919,34.209174],[134.217169,34.209349],[134.217256,34.209365],[134.217856,34.209274],[134.218356,34.209349],[134.218493,34.209432],[134.218568,34.20959],[134.218768,34.209815],[134.218906,34.20989],[134.219093,34.209907],[134.219581,34.209815],[134.219781,34.20984],[134.219893,34.209907],[134.220106,34.209732],[134.220243,34.209274],[134.220468,34.20914],[134.221156,34.208874],[134.221618,34.208824],[134.221781,34.208849],[134.222481,34.209232],[134.222681,34.209282],[134.22333,34.209165],[134.223718,34.209007],[134.224093,34.209049],[134.224755,34.209165],[134.22558,34.209232],[134.226068,34.209232],[134.226155,34.20919],[134.22638,34.208874],[134.226568,34.20869],[134.226905,34.208532],[134.227205,34.208532],[134.227505,34.208599],[134.227918,34.208599],[134.22808,34.208399],[134.228718,34.208132],[134.22893,34.208107],[134.229367,34.208865],[134.23028,34.209607],[134.230967,34.209699],[134.231242,34.209765],[134.231605,34.210015],[134.23193,34.210148],[134.23218,34.210148],[134.232942,34.210582],[134.23333,34.210673],[134.233392,34.21074],[134.23353,34.211298],[134.233592,34.21139],[134.233992,34.211773],[134.234742,34.211956],[134.23523,34.212223],[134.235317,34.212315],[134.235505,34.212331],[134.236467,34.212606],[134.236754,34.212715],[134.236992,34.212873],[134.237017,34.212848],[134.237492,34.212873],[134.237854,34.213031],[134.238367,34.213506],[134.238754,34.213931],[134.239079,34.214231],[134.239579,34.214748],[134.240129,34.215198],[134.240317,34.215423],[134.240492,34.215731],[134.240767,34.215914],[134.242504,34.216789],[134.243241,34.216539],[134.243466,34.216656],[134.243729,34.216748],[134.244091,34.216814],[134.244504,34.216773],[134.244779,34.216773],[134.245279,34.216898],[134.245441,34.217014],[134.245691,34.217089],[134.245904,34.217089],[134.246091,34.217014],[134.246504,34.216773],[134.246766,34.217039],[134.247329,34.217345],[134.247966,34.217797],[134.248678,34.217956],[134.248941,34.218222],[134.249028,34.218789],[134.249203,34.219081],[134.250678,34.219839],[134.250978,34.220197],[134.251328,34.220514],[134.251566,34.220647],[134.251828,34.220989],[134.252391,34.221239],[134.253216,34.221414],[134.253303,34.221389],[134.253441,34.221147],[134.253916,34.221005],[134.254153,34.22083],[134.254391,34.220472],[134.254741,34.220222],[134.255241,34.219947],[134.255616,34.219797],[134.256328,34.219772],[134.256853,34.21993],[134.25724,34.220197],[134.257478,34.220197],[134.258028,34.219705],[134.258678,34.219522],[134.259203,34.219497],[134.260115,34.219764],[134.260853,34.220239],[134.261415,34.220464],[134.262203,34.220505],[134.262678,34.220647],[134.26344,34.220714],[134.264065,34.220639],[134.264677,34.220305],[134.265377,34.22003],[134.266227,34.219647],[134.267265,34.218931],[134.267727,34.218797],[134.26829,34.218522],[134.268702,34.218322],[134.269115,34.218073],[134.269427,34.217648],[134.27049,34.216881],[134.271777,34.215773],[134.272164,34.215573],[134.273277,34.21544],[134.273714,34.215306],[134.274714,34.215215],[134.274989,34.215073],[134.275339,34.215006],[134.275664,34.215031],[134.275889,34.215098],[134.275902,34.215506],[134.275664,34.216806],[134.275464,34.217348],[134.275427,34.217639],[134.275252,34.218248],[134.275227,34.218498],[134.275252,34.218606],[134.275202,34.218856],[134.274964,34.219014],[134.274764,34.219306],[134.274614,34.219622],[134.274439,34.219847],[134.274377,34.220114],[134.274527,34.220497],[134.274552,34.220772],[134.274464,34.221039],[134.274439,34.221422],[134.274464,34.221872],[134.274264,34.222705],[134.274239,34.223114],[134.274677,34.223722],[134.274802,34.224414],[134.274677,34.224663],[134.274389,34.224863],[134.274214,34.225047],[134.274214,34.22543],[134.274127,34.22633],[134.274102,34.227005],[134.274252,34.227321],[134.275014,34.228488],[134.275039,34.228646],[134.274927,34.229321],[134.274689,34.230088],[134.274602,34.230246],[134.274252,34.231688],[134.274002,34.233279],[134.273877,34.233596],[134.273502,34.234187],[134.273177,34.234454],[134.272852,34.234612],[134.272702,34.234837],[134.272702,34.23517],[134.272827,34.235395],[134.273177,34.23562],[134.273389,34.235845],[134.273477,34.236187],[134.273539,34.23682],[134.273502,34.237629],[134.273403,34.238059],[134.273627,34.238054],[134.274152,34.23812],[134.274802,34.23817],[134.275327,34.238237],[134.275777,34.238254],[134.276039,34.238345],[134.276214,34.238687],[134.276564,34.238978],[134.277014,34.239128],[134.277214,34.239245],[134.276977,34.239812],[134.276752,34.240553],[134.276952,34.24062],[134.277251,34.240845],[134.277451,34.241137],[134.277689,34.241678],[134.277726,34.242011],[134.277814,34.242303],[134.278051,34.242553],[134.278426,34.242753],[134.278901,34.242936],[134.279201,34.242911],[134.279689,34.24282],[134.279926,34.242936],[134.280164,34.243178],[134.280876,34.243245],[134.281339,34.243836],[134.281701,34.244078],[134.281901,34.244328],[134.281814,34.244445],[134.281226,34.244395],[134.280814,34.244395],[134.280401,34.244528],[134.280051,34.244711],[134.279789,34.244895],[134.279639,34.245053],[134.279551,34.245319],[134.279314,34.245678],[134.279001,34.246311],[134.278739,34.246694],[134.278439,34.246869],[134.278151,34.247411],[134.278089,34.247686],[134.278001,34.247886],[134.278026,34.247911],[134.279114,34.248202],[134.279439,34.248402],[134.279764,34.248561],[134.280039,34.248786],[134.280001,34.248827],[134.279676,34.248877],[134.279326,34.248986],[134.278976,34.249236],[134.278301,34.249802],[134.278089,34.250069],[134.277889,34.250227],[134.277626,34.250227],[134.277239,34.250427],[134.276826,34.250769],[134.276539,34.250902],[134.276101,34.251444],[134.275426,34.25176],[134.274927,34.252094],[134.274864,34.252277],[134.274902,34.25286],[134.275039,34.253085],[134.275251,34.25336],[134.275339,34.253402],[134.275464,34.253677],[134.275389,34.25406],[134.275301,34.254302],[134.275414,34.254827],[134.275389,34.255027],[134.275251,34.25516],[134.274852,34.25536],[134.274689,34.255676],[134.274577,34.256085],[134.274364,34.256218],[134.274277,34.256351],[134.274389,34.25656],[134.275164,34.25746],[134.275489,34.257801],[134.275939,34.258185],[134.276214,34.258818],[134.276176,34.259134],[134.275989,34.259443],[134.275964,34.260051],[134.276039,34.260234],[134.276639,34.260826],[134.277039,34.261118],[134.277114,34.261226],[134.276951,34.261567],[134.276876,34.262217],[134.276764,34.262717],[134.276276,34.263234],[134.276251,34.263301],[134.276464,34.263617],[134.276814,34.263934],[134.276879,34.263934],[134.277864,34.263776],[134.278989,34.263392],[134.279289,34.263242],[134.279451,34.263059],[134.279501,34.262901],[134.279564,34.262876],[134.279938,34.263167],[134.280388,34.263326],[134.280688,34.263376],[134.280951,34.263626],[134.281488,34.264276],[134.281738,34.264501],[134.282776,34.265],[134.283026,34.265159],[134.283126,34.26545],[134.283238,34.266084],[134.283101,34.266509],[134.283201,34.266717],[134.283288,34.266759],[134.284575,34.268567],[134.284863,34.268817],[134.285213,34.269017],[134.2857,34.2694],[134.286663,34.270325],[134.286688,34.270617],[134.2868,34.271],[134.287125,34.271342],[134.287275,34.271858],[134.2875,34.272383],[134.287625,34.272558],[134.287488,34.272741],[134.287438,34.273058],[134.287787,34.274233],[134.287975,34.275016],[134.288187,34.275558],[134.288212,34.275583]]],"type":"Polygon"},"properties":{"name":"大内","yomi":"おおち","kuni_id":"K60","pref":"愛媛県（香川県）","kuni_url":"/kg/resource/K60.html","id_url":"G60001.html","kuni":"讃岐","id":"G60001"},"type":"Feature"}]}