{"type":"FeatureCollection","features":[{"properties":{"name":"野間","yomi":"のま","kuni_id":"K61","pref":"愛媛県","kuni_url":"/kg/resource/K61.html","id_url":"G61006.html","kuni":"伊予","id":"G61006"},"geometry":{"coordinates":[[[132.927894,34.087515],[132.928494,34.087523],[132.929169,34.08779],[132.929569,34.088048],[132.929919,34.08839],[132.930206,34.088873],[132.930631,34.089248],[132.930944,34.090031],[132.931131,34.09089],[132.931344,34.092215],[132.931394,34.09339],[132.931369,34.093931],[132.931244,34.094156],[132.930544,34.094556],[132.930244,34.094815],[132.930081,34.09489],[132.929844,34.09519],[132.929519,34.09514],[132.929356,34.095465],[132.929231,34.096148],[132.929094,34.096389],[132.928831,34.096564],[132.928444,34.097456],[132.928356,34.098964],[132.928281,34.099348],[132.928356,34.099564],[132.928444,34.099589],[132.928744,34.099489],[132.929206,34.099564],[132.929369,34.099923],[132.929219,34.100423],[132.929119,34.101031],[132.929044,34.101256],[132.928431,34.102273],[132.928381,34.102856],[132.928156,34.103489],[132.927731,34.104947],[132.927506,34.105331],[132.927381,34.105964],[132.926994,34.106897],[132.926781,34.107764],[132.926544,34.10833],[132.926044,34.10913],[132.925556,34.109805],[132.924831,34.110189],[132.924019,34.110072],[132.923631,34.110114],[132.923094,34.11028],[132.922857,34.110493],[132.922531,34.110597],[132.922319,34.110805],[132.921944,34.111013],[132.921684,34.111092],[132.921506,34.111213],[132.921031,34.111347],[132.920232,34.111655],[132.919669,34.111572],[132.918669,34.111555],[132.918394,34.111163],[132.918207,34.111088],[132.917994,34.110888],[132.917957,34.110938],[132.917382,34.111038],[132.916844,34.110972],[132.916394,34.110747],[132.916082,34.111022],[132.915782,34.111155],[132.915132,34.111413],[132.91462,34.111688],[132.914245,34.111847],[132.914032,34.112163],[132.913445,34.112497],[132.913182,34.112472],[132.91272,34.112655],[132.91212,34.112838],[132.911245,34.11298],[132.910545,34.112813],[132.91032,34.11263],[132.910133,34.112405],[132.909658,34.111555],[132.909358,34.111655],[132.909045,34.111946],[132.90812,34.11243],[132.908045,34.112563],[132.907395,34.113271],[132.906658,34.113188],[132.906183,34.113063],[132.905996,34.113213],[132.905421,34.113355],[132.904833,34.113371],[132.904733,34.113196],[132.904546,34.113155],[132.904033,34.112971],[132.903446,34.113188],[132.902833,34.11288],[132.902621,34.112505],[132.902571,34.112163],[132.902546,34.112042],[132.902521,34.11193],[132.902371,34.111705],[132.902358,34.111471],[132.902146,34.11133],[132.902046,34.111213],[132.902059,34.110988],[132.901896,34.110946],[132.901884,34.110805],[132.901584,34.110555],[132.901321,34.11048],[132.901096,34.110238],[132.900959,34.110221],[132.900546,34.110046],[132.900234,34.110088],[132.900184,34.109955],[132.899984,34.109821],[132.899734,34.109538],[132.899559,34.109696],[132.899484,34.109796],[132.899434,34.109805],[132.899234,34.109613],[132.898859,34.10923],[132.898421,34.109213],[132.898284,34.109305],[132.898046,34.109821],[132.898021,34.110163],[132.898059,34.110313],[132.897472,34.110971],[132.897097,34.111096],[132.896334,34.111263],[132.895572,34.111296],[132.895147,34.111405],[132.895147,34.111613],[132.894909,34.112379],[132.894784,34.112588],[132.895047,34.112679],[132.895484,34.112854],[132.895734,34.113096],[132.895709,34.113388],[132.895772,34.113704],[132.896259,34.113654],[132.896747,34.113738],[132.896734,34.114188],[132.896684,34.114413],[132.896484,34.114938],[132.896284,34.115554],[132.896096,34.115646],[132.895996,34.116221],[132.895846,34.116671],[132.895434,34.116729],[132.895471,34.117137],[132.895259,34.117354],[132.894484,34.118012],[132.894422,34.118104],[132.894284,34.118146],[132.894109,34.118071],[132.893984,34.117821],[132.893434,34.117887],[132.893147,34.117571],[132.893034,34.117479],[132.892722,34.11772],[132.891747,34.11772],[132.891522,34.117754],[132.891297,34.117895],[132.891247,34.118112],[132.891272,34.118304],[132.891659,34.119004],[132.892409,34.119254],[132.892872,34.119287],[132.893447,34.119337],[132.894097,34.119687],[132.894347,34.119754],[132.894596,34.120062],[132.894721,34.120312],[132.895134,34.12017],[132.895296,34.120262],[132.895374,34.120315],[132.895506,34.120358],[132.895571,34.120412],[132.895759,34.120437],[132.895896,34.12057],[132.896084,34.120595],[132.896259,34.120729],[132.896634,34.120787],[132.896909,34.120695],[132.897209,34.120395],[132.897796,34.120295],[132.898421,34.12032],[132.898609,34.120579],[132.898721,34.120679],[132.898934,34.12067],[132.899158,34.120429],[132.899258,34.120146],[132.900558,34.119912],[132.9009,34.120362],[132.901108,34.120604],[132.901346,34.120537],[132.901508,34.120262],[132.901833,34.119879],[132.902708,34.119771],[132.902833,34.119704],[132.902846,34.119404],[132.902983,34.119037],[132.903483,34.119212],[132.905558,34.120137],[132.906483,34.120654],[132.906831,34.120756],[132.906883,34.120754],[132.90757,34.120629],[132.90827,34.120354],[132.908295,34.120404],[132.908495,34.120504],[132.90907,34.120246],[132.909107,34.120212],[132.909132,34.119996],[132.90937,34.119846],[132.90942,34.119846],[132.909532,34.119646],[132.909482,34.119554],[132.909845,34.119113],[132.91127,34.119679],[132.91192,34.120029],[132.912107,34.120071],[132.912445,34.119821],[132.91277,34.120088],[132.913119,34.120263],[132.913344,34.120538],[132.914444,34.121271],[132.914807,34.121371],[132.914957,34.121529],[132.915169,34.121213],[132.915457,34.120896],[132.915682,34.120821],[132.916307,34.120521],[132.916457,34.119938],[132.916894,34.119104],[132.917057,34.118913],[132.917144,34.118638],[132.917369,34.118379],[132.917882,34.117963],[132.919119,34.11723],[132.919506,34.117121],[132.919631,34.117088],[132.921206,34.11683],[132.921744,34.116621],[132.922156,34.116405],[132.922369,34.116163],[132.922619,34.116071],[132.922794,34.116096],[132.923119,34.116255],[132.923369,34.116255],[132.923669,34.11643],[132.923994,34.116405],[132.925368,34.117238],[132.925756,34.117621],[132.925931,34.118646],[132.925581,34.119263],[132.925506,34.119513],[132.925568,34.119846],[132.925843,34.120429],[132.925893,34.120429],[132.926093,34.120579],[132.926431,34.121129],[132.926756,34.121479],[132.926918,34.121821],[132.926906,34.122154],[132.927131,34.122421],[132.927643,34.122729],[132.927693,34.122729],[132.927843,34.122913],[132.927805,34.122938],[132.92803,34.123379],[132.928126,34.123439],[132.92833,34.123563],[132.929168,34.123504],[132.929655,34.123546],[132.92998,34.123454],[132.930368,34.123429],[132.93088,34.123471],[132.931105,34.123604],[132.931543,34.124096],[132.931818,34.124538],[132.932118,34.124879],[132.93218,34.125187],[132.932105,34.125237],[132.93243,34.125662],[132.932655,34.125812],[132.93273,34.125837],[132.933242,34.125337],[132.933667,34.125179],[132.934367,34.125271],[132.934992,34.125462],[132.935392,34.125804],[132.935526,34.125913],[132.935642,34.126012],[132.93628,34.126904],[132.936692,34.127646],[132.937092,34.129037],[132.937267,34.129887],[132.937667,34.131262],[132.938129,34.133303],[132.938416,34.13587],[132.938341,34.136562],[132.938341,34.136912],[132.938141,34.137328],[132.938116,34.137578],[132.937916,34.13777],[132.938141,34.137828],[132.938416,34.137786],[132.938469,34.137785],[132.938529,34.137786],[132.939091,34.13787],[132.939316,34.137953],[132.939729,34.138511],[132.940229,34.139411],[132.940404,34.14002],[132.940566,34.141003],[132.940691,34.141161],[132.940903,34.141195],[132.941266,34.141628],[132.941466,34.142095],[132.941541,34.142153],[132.941666,34.142511],[132.941691,34.142811],[132.941753,34.142961],[132.941853,34.142861],[132.941903,34.142861],[132.942041,34.142745],[132.941953,34.142403],[132.942116,34.142228],[132.942278,34.142203],[132.942591,34.141661],[132.942928,34.141345],[132.943103,34.141195],[132.943103,34.140978],[132.943053,34.140911],[132.942878,34.140903],[132.942741,34.140753],[132.942691,34.140686],[132.942853,34.140011],[132.943266,34.139445],[132.944128,34.138803],[132.945016,34.138053],[132.945391,34.138112],[132.945518,34.138134],[132.945691,34.138162],[132.946016,34.138112],[132.946228,34.138112],[132.946466,34.137845],[132.946466,34.137637],[132.946528,34.137545],[132.946128,34.136987],[132.946153,34.136828],[132.946091,34.135862],[132.946328,34.135495],[132.946703,34.135137],[132.947053,34.13467],[132.947353,34.134545],[132.947753,34.134403],[132.947841,34.134312],[132.948128,34.13427],[132.948341,34.133787],[132.948441,34.133428],[132.948403,34.132995],[132.948428,34.132845],[132.948366,34.132062],[132.948379,34.131562],[132.948329,34.130687],[132.948454,34.130229],[132.949216,34.129054],[132.949854,34.128487],[132.950804,34.127804],[132.951554,34.12717],[132.951929,34.126779],[132.952779,34.126587],[132.952916,34.126162],[132.952779,34.125804],[132.953029,34.12562],[132.952741,34.125304],[132.952641,34.125237],[132.952554,34.125262],[132.952329,34.125112],[132.952279,34.124954],[132.952542,34.124479],[132.952854,34.12407],[132.953729,34.123437],[132.953804,34.12337],[132.954079,34.123562],[132.954217,34.123612],[132.954429,34.123512],[132.954442,34.123345],[132.954442,34.123212],[132.954829,34.12292],[132.955654,34.12237],[132.955929,34.122437],[132.956092,34.12237],[132.956442,34.12207],[132.956304,34.121845],[132.956379,34.121645],[132.956542,34.121595],[132.957004,34.121745],[132.957354,34.121528],[132.957629,34.121712],[132.957917,34.121845],[132.958254,34.12172],[132.959379,34.121053],[132.959492,34.120603],[132.959804,34.12042],[132.960079,34.12012],[132.960367,34.119878],[132.960442,34.119653],[132.960529,34.119528],[132.961204,34.119303],[132.962067,34.119186],[132.962729,34.119203],[132.962929,34.119128],[132.963867,34.119053],[132.964454,34.11882],[132.964642,34.118911],[132.964779,34.11884],[132.964854,34.118886],[132.965417,34.118503],[132.965142,34.118294],[132.965067,34.118144],[132.965029,34.117936],[132.965104,34.117686],[132.965567,34.117253],[132.965804,34.116786],[132.966005,34.115769],[132.96633,34.115286],[132.966917,34.114694],[132.96718,34.114611],[132.96723,34.114628],[132.967417,34.114603],[132.967717,34.114511],[132.967917,34.114302],[132.968092,34.113202],[132.968242,34.112661],[132.968493,34.112161],[132.96863,34.111511],[132.96893,34.111211],[132.968943,34.110819],[132.96923,34.110086],[132.969235,34.109974],[132.969255,34.109703],[132.969167,34.109319],[132.969167,34.107428],[132.969217,34.106978],[132.96943,34.106903],[132.97033,34.106828],[132.970342,34.107753],[132.97028,34.108028],[132.970342,34.108086],[132.97128,34.107944],[132.971542,34.108303],[132.97168,34.108661],[132.971842,34.108869],[132.972117,34.108769],[132.972118,34.108969],[132.972018,34.109502],[132.971593,34.110485],[132.97158,34.11076],[132.971593,34.110802],[132.971768,34.110885],[132.971855,34.111135],[132.97193,34.111193],[132.97223,34.111318],[132.972305,34.112643],[132.972293,34.113002],[132.972068,34.113118],[132.972042,34.113185],[132.972105,34.113385],[132.97258,34.113993],[132.972542,34.114177],[132.972667,34.114419],[132.972705,34.114419],[132.972855,34.114594],[132.972767,34.11491],[132.972917,34.11516],[132.973117,34.115335],[132.973242,34.115519],[132.973217,34.115877],[132.973254,34.116102],[132.973554,34.11621],[132.973767,34.11621],[132.973979,34.116252],[132.974067,34.116211],[132.974404,34.116361],[132.974729,34.116327],[132.974967,34.116244],[132.975291,34.116377],[132.976029,34.116394],[132.976291,34.116569],[132.976866,34.116453],[132.977141,34.116428],[132.977404,34.116603],[132.977679,34.116311],[132.977754,34.116061],[132.977916,34.115928],[132.977973,34.114385],[132.97794,34.112473],[132.977436,34.106501],[132.977584,34.103685],[132.977213,34.100868],[132.97662,34.099015],[132.976249,34.096718],[132.975804,34.094346],[132.975137,34.091678],[132.974915,34.089528],[132.974838,34.087692],[132.974953,34.085514],[132.97501,34.083909],[132.974953,34.082476],[132.974648,34.080726],[132.973762,34.079334],[132.973256,34.077183],[132.973256,34.075285],[132.973762,34.072944],[132.974205,34.07035],[132.974585,34.068009],[132.974965,34.066111],[132.974965,34.063897],[132.974522,34.062631],[132.974445,34.06139],[132.973348,34.058699],[132.973348,34.056806],[132.973747,34.05551],[132.974345,34.053816],[132.974445,34.05252],[132.974146,34.050527],[132.974146,34.048932],[132.974545,34.04654],[132.974644,34.043749],[132.974744,34.04046],[132.974246,34.037072],[132.973741,34.035554],[132.973229,34.03522],[132.972354,34.034446],[132.971354,34.033696],[132.971116,34.033562],[132.970479,34.033337],[132.969879,34.033004],[132.969316,34.032562],[132.968691,34.032112],[132.967467,34.031096],[132.966679,34.030571],[132.965892,34.030163],[132.965204,34.030904],[132.965017,34.031079],[132.964904,34.031096],[132.964867,34.031021],[132.964404,34.030196],[132.964129,34.029938],[132.963917,34.029829],[132.963667,34.029804],[132.963517,34.029921],[132.963329,34.030071],[132.963142,34.030104],[132.962917,34.030121],[132.962817,34.030221],[132.962642,34.030413],[132.962517,34.030437],[132.961892,34.030312],[132.96153,34.030279],[132.96133,34.030362],[132.96108,34.030604],[132.960642,34.031071],[132.960267,34.031387],[132.959892,34.031537],[132.95948,34.031529],[132.958292,34.031204],[132.957992,34.031179],[132.957805,34.031304],[132.957705,34.031487],[132.95768,34.032037],[132.957617,34.032387],[132.957442,34.032596],[132.95718,34.032871],[132.957017,34.033029],[132.955692,34.033779],[132.95488,34.03402],[132.954255,34.034295],[132.954168,34.034362],[132.953568,34.034654],[132.953518,34.034787],[132.95368,34.035129],[132.953655,34.035537],[132.953355,34.03657],[132.95328,34.037003],[132.953118,34.037178],[132.95233,34.037495],[132.95178,34.037878],[132.951568,34.03817],[132.95148,34.038787],[132.951218,34.03932],[132.950993,34.040478],[132.95083,34.04052],[132.949943,34.040203],[132.949618,34.039861],[132.949093,34.03997],[132.948693,34.040311],[132.948255,34.040511],[132.947793,34.040603],[132.947518,34.04072],[132.947168,34.040786],[132.946105,34.040303],[132.945843,34.040078],[132.945405,34.039945],[132.944868,34.039895],[132.944481,34.039828],[132.943968,34.039553],[132.943393,34.039311],[132.942468,34.039186],[132.941556,34.038961],[132.941218,34.038961],[132.940681,34.039145],[132.940381,34.039453],[132.940056,34.039886],[132.939843,34.040386],[132.939843,34.040928],[132.940006,34.041378],[132.940468,34.042169],[132.940431,34.042328],[132.940106,34.043119],[132.939731,34.043678],[132.939631,34.044061],[132.939381,34.044403],[132.938368,34.044136],[132.938293,34.043036],[132.938193,34.042886],[132.938018,34.042778],[132.937243,34.042861],[132.937043,34.042811],[132.936843,34.042728],[132.936194,34.041911],[132.935344,34.041619],[132.934844,34.041569],[132.934481,34.041444],[132.933869,34.041503],[132.933506,34.041386],[132.933106,34.041294],[132.932431,34.040186],[132.932106,34.040078],[132.931431,34.039978],[132.930606,34.040136],[132.930469,34.040111],[132.930119,34.039936],[132.929907,34.039753],[132.929744,34.039753],[132.928932,34.039903],[132.928169,34.039769],[132.927944,34.039819],[132.927032,34.040178],[132.926807,34.040219],[132.926594,34.040203],[132.926107,34.039786],[132.925507,34.039069],[132.925044,34.038594],[132.924794,34.038453],[132.924769,34.038411],[132.924419,34.038453],[132.924044,34.038836],[132.92382,34.039103],[132.92347,34.039169],[132.92282,34.039019],[132.921682,34.038678],[132.921332,34.038428],[132.920682,34.037769],[132.92027,34.037086],[132.920107,34.036911],[132.919457,34.036569],[132.919207,34.036386],[132.91897,34.035303],[132.918858,34.034803],[132.91887,34.03372],[132.91872,34.033436],[132.91797,34.032886],[132.917695,34.03227],[132.917095,34.031661],[132.917008,34.031303],[132.91707,34.031145],[132.91707,34.030803],[132.916783,34.030378],[132.916558,34.030395],[132.91612,34.030295],[132.915883,34.03017],[132.914633,34.030195],[132.914308,34.03017],[132.913971,34.03002],[132.913671,34.029503],[132.913346,34.029262],[132.913221,34.028962],[132.912821,34.028512],[132.912246,34.028153],[132.911758,34.028128],[132.911346,34.02797],[132.910521,34.027562],[132.910184,34.027245],[132.909934,34.026904],[132.909646,34.026745],[132.909121,34.026329],[132.908859,34.025887],[132.908771,34.02557],[132.908471,34.02512],[132.908421,34.024754],[132.908259,34.02462],[132.907646,34.024304],[132.907471,34.02417],[132.907109,34.023712],[132.907097,34.023304],[132.906959,34.023104],[132.906497,34.022746],[132.905984,34.021787],[132.905547,34.021546],[132.904759,34.021179],[132.904572,34.020796],[132.904109,34.020454],[132.903459,34.020271],[132.90316,34.020229],[132.902485,34.019904],[132.901885,34.019746],[132.901447,34.019837],[132.900885,34.019821],[132.90056,34.019887],[132.900197,34.020154],[132.899447,34.020262],[132.898847,34.020396],[132.898735,34.020396],[132.898922,34.019004],[132.899147,34.018663],[132.89956,34.018138],[132.89966,34.017846],[132.899447,34.017804],[132.899172,34.017646],[132.898385,34.016896],[132.89811,34.016463],[132.897685,34.016329],[132.897035,34.015988],[132.89616,34.01578],[132.895598,34.015555],[132.894598,34.015538],[132.89436,34.015488],[132.894173,34.015213],[132.893948,34.015171],[132.893698,34.015204],[132.893386,34.015329],[132.893161,34.015554],[132.893048,34.016121],[132.892873,34.016479],[132.892573,34.016546],[132.891973,34.016479],[132.891523,34.016229],[132.891148,34.016163],[132.889811,34.016021],[132.889411,34.016046],[132.888323,34.015946],[132.888111,34.016021],[132.887861,34.016179],[132.887723,34.016021],[132.887486,34.014846],[132.887561,34.014463],[132.887749,34.014113],[132.887799,34.013988],[132.887636,34.013763],[132.887086,34.013071],[132.887136,34.012355],[132.887161,34.012196],[132.887511,34.011771],[132.887699,34.011388],[132.887674,34.010888],[132.887324,34.00978],[132.887299,34.009538],[132.887436,34.009013],[132.887574,34.008772],[132.887699,34.008605],[132.887811,34.008197],[132.887699,34.007872],[132.887699,34.007413],[132.887974,34.007139],[132.888486,34.00698],[132.888724,34.006655],[132.889099,34.006172],[132.889111,34.00588],[132.888999,34.005605],[132.888649,34.005147],[132.888049,34.004872],[132.887024,34.004764],[132.886699,34.004539],[132.886299,34.004105],[132.885949,34.003947],[132.885824,34.00393],[132.885399,34.003847],[132.885049,34.003689],[132.884999,34.003655],[132.884949,34.003589],[132.884924,34.003522],[132.884899,34.003464],[132.884737,34.002381],[132.884249,34.001656],[132.883524,34.001439],[132.883199,34.001297],[132.881799,34.001347],[132.880774,34.001864],[132.87995,34.002181],[132.878062,34.001847],[132.876987,34.002122],[132.876737,34.002205],[132.87635,34.002522],[132.876237,34.002572],[132.875825,34.00153],[132.875725,34.000972],[132.875662,33.999981],[132.875687,33.999306],[132.875,33.999031],[132.874125,33.998539],[132.874375,33.997997],[132.874425,33.997522],[132.8738,33.997189],[132.873525,33.996872],[132.872775,33.995881],[132.872608,33.995854],[132.872388,33.995823],[132.871413,33.995664],[132.8706,33.995423],[132.86985,33.995647],[132.86885,33.995606],[132.867413,33.994939],[132.866838,33.994847],[132.865276,33.994522],[132.864326,33.994706],[132.863676,33.994731],[132.862926,33.994997],[132.862788,33.995114],[132.861788,33.995322],[132.860976,33.996047],[132.860176,33.996405],[132.858701,33.99603],[132.858089,33.995805],[132.857814,33.995855],[132.856976,33.996397],[132.856139,33.996622],[132.855227,33.997097],[132.854902,33.997663],[132.854602,33.997955],[132.853277,33.99803],[132.853089,33.998213],[132.852852,33.999071],[132.852152,33.999296],[132.851077,33.999071],[132.850802,33.998988],[132.85069,33.999321],[132.850802,33.999905],[132.851027,34.000421],[132.85079,34.000738],[132.85019,34.000588],[132.848352,34.001671],[132.846852,34.002762],[132.845977,34.003296],[132.845715,34.003629],[132.84504,34.004221],[132.84449,34.004812],[132.844378,34.004787],[132.843928,34.004162],[132.842878,34.004554],[132.842978,34.005387],[132.842465,34.005462],[132.841803,34.004946],[132.84194,34.004679],[132.841603,34.003871],[132.84156,34.003555],[132.841565,34.003296],[132.841583,34.003029],[132.841228,34.002896],[132.839928,34.002871],[132.838841,34.002696],[132.837641,34.001912],[132.836116,34.000754],[132.835491,33.999671],[132.835379,33.999221],[132.834591,33.998638],[132.833729,33.998738],[132.832916,33.999163],[132.832354,33.999096],[132.830166,34.000437],[132.829304,34.001204],[132.828604,34.001387],[132.827904,34.001837],[132.826692,34.002179],[132.825204,34.002529],[132.824067,34.002912],[132.822742,34.003121],[132.822525,34.003198],[132.822379,34.003296],[132.822192,34.003529],[132.822117,34.00357],[132.821929,34.003962],[132.821829,34.004454],[132.821729,34.00482],[132.821405,34.005179],[132.821055,34.00532],[132.820605,34.00532],[132.820055,34.005212],[132.81963,34.005378],[132.819192,34.005628],[132.81888,34.006037],[132.818717,34.006537],[132.81883,34.006578],[132.818942,34.006553],[132.82013,34.006637],[132.820292,34.006678],[132.820655,34.006878],[132.82093,34.00717],[132.821067,34.007528],[132.820967,34.008162],[132.82073,34.008436],[132.819867,34.008978],[132.819492,34.009303],[132.819367,34.009661],[132.81903,34.01052],[132.818605,34.011153],[132.81828,34.011411],[132.818017,34.011678],[132.817642,34.011844],[132.816955,34.011894],[132.816443,34.012053],[132.815643,34.012511],[132.81518,34.012561],[132.814443,34.014036],[132.814343,34.014152],[132.813243,34.015327],[132.812918,34.015535],[132.812256,34.015744],[132.811706,34.01586],[132.810631,34.016052],[132.810356,34.016194],[132.809931,34.016535],[132.809093,34.016927],[132.808856,34.017085],[132.808756,34.017218],[132.808694,34.017402],[132.808681,34.017785],[132.808581,34.018593],[132.808481,34.018893],[132.808694,34.018951],[132.808768,34.018868],[132.809068,34.018727],[132.809906,34.018743],[132.811268,34.019135],[132.811768,34.019535],[132.812855,34.020427],[132.813768,34.021051],[132.814068,34.021293],[132.814418,34.021493],[132.814693,34.021468],[132.814718,34.021443],[132.814305,34.02111],[132.81463,34.020993],[132.814843,34.020952],[132.815555,34.021168],[132.81588,34.021343],[132.816293,34.021835],[132.81663,34.02231],[132.817092,34.022826],[132.81773,34.02381],[132.818255,34.024501],[132.818367,34.024768],[132.81843,34.025068],[132.818517,34.025243],[132.818892,34.025218],[132.819305,34.025168],[132.81963,34.02521],[132.819792,34.025343],[132.820055,34.025318],[132.820255,34.02521],[132.820704,34.025268],[132.821167,34.025401],[132.821342,34.025535],[132.821579,34.025668],[132.822167,34.026293],[132.822467,34.026626],[132.822579,34.026876],[132.822854,34.02721],[132.823254,34.026826],[132.823467,34.026818],[132.823629,34.02666],[132.823954,34.026593],[132.824342,34.026743],[132.825441,34.027793],[132.825466,34.028135],[132.825604,34.028426],[132.826154,34.028601],[132.826829,34.028776],[132.827291,34.028993],[132.827754,34.029151],[132.827891,34.029259],[132.828978,34.030809],[132.829166,34.031184],[132.829172,34.031216],[132.829178,34.031251],[132.829153,34.031409],[132.829203,34.031618],[132.829478,34.031818],[132.829641,34.032084],[132.830066,34.033184],[132.830103,34.033301],[132.830291,34.033584],[132.830516,34.033701],[132.830916,34.033717],[132.831028,34.033851],[132.833015,34.032793],[132.83304,34.032659],[132.83359,34.032743],[132.834315,34.032968],[132.834953,34.033251],[132.835253,34.033501],[132.83544,34.033718],[132.835878,34.034101],[132.83624,34.034484],[132.836403,34.034301],[132.83669,34.034093],[132.836865,34.034184],[132.83724,34.034018],[132.83699,34.033751],[132.837365,34.033701],[132.837477,34.033859],[132.837777,34.033809],[132.83789,34.034126],[132.837915,34.034376],[132.837727,34.034493],[132.838177,34.035501],[132.838177,34.035567],[132.837852,34.035659],[132.837702,34.035909],[132.837815,34.036159],[132.83784,34.036134],[132.838215,34.036126],[132.838715,34.037076],[132.839052,34.037426],[132.83944,34.038075],[132.839527,34.038575],[132.83964,34.038959],[132.839702,34.039342],[132.839877,34.039809],[132.839965,34.040217],[132.840802,34.040617],[132.841377,34.041058],[132.841964,34.041658],[132.842152,34.041908],[132.842402,34.042358],[132.842789,34.042558],[132.843139,34.04285],[132.843227,34.043],[132.843452,34.043275],[132.843689,34.043475],[132.843964,34.043517],[132.844202,34.0434],[132.844502,34.043125],[132.844827,34.042992],[132.845201,34.043142],[132.845339,34.043167],[132.845564,34.043092],[132.845964,34.043342],[132.846439,34.04385],[132.846651,34.044033],[132.846989,34.044167],[132.847251,34.04405],[132.849076,34.04435],[132.849176,34.044342],[132.849376,34.044283],[132.850013,34.046241],[132.853163,34.046525],[132.854075,34.044975],[132.854838,34.045758],[132.8552,34.046225],[132.855875,34.047575],[132.856075,34.048183],[132.856138,34.048791],[132.856113,34.0489],[132.8567,34.050224],[132.8567,34.050274],[132.856862,34.050199],[132.857237,34.050133],[132.8574,34.050449],[132.857412,34.050583],[132.85725,34.050766],[132.85695,34.050991],[132.85745,34.054882],[132.863849,34.058707],[132.865112,34.059632],[132.868624,34.058341],[132.868611,34.056241],[132.869361,34.056283],[132.869824,34.056391],[132.870424,34.056591],[132.871298,34.056966],[132.871573,34.057166],[132.871898,34.057324],[132.872173,34.057391],[132.872423,34.056575],[132.872898,34.056749],[132.873173,34.056791],[132.873536,34.056883],[132.873961,34.056991],[132.875098,34.057399],[132.875398,34.057299],[132.875648,34.057199],[132.875786,34.057174],[132.876161,34.057241],[132.87676,34.057499],[132.87746,34.058058],[132.877598,34.057808],[132.877735,34.057658],[132.877873,34.057699],[132.87831,34.057949],[132.879048,34.058491],[132.879285,34.058766],[132.87956,34.058649],[132.879798,34.058674],[132.87991,34.058716],[132.880073,34.058674],[132.880498,34.058924],[132.880673,34.058966],[132.880798,34.058783],[132.88091,34.058716],[132.881073,34.058716],[132.881622,34.058908],[132.881835,34.059041],[132.882022,34.059066],[132.882347,34.059041],[132.882535,34.058816],[132.882697,34.058791],[132.883622,34.059224],[132.884172,34.059158],[132.88456,34.058766],[132.884897,34.058733],[132.885585,34.058824],[132.88626,34.058958],[132.88676,34.059158],[132.887184,34.059424],[132.887622,34.059724],[132.888509,34.060741],[132.888972,34.060924],[132.889522,34.061291],[132.889847,34.061674],[132.890259,34.061849],[132.890684,34.061783],[132.891147,34.061624],[132.891634,34.061516],[132.892147,34.061858],[132.892884,34.062441],[132.893159,34.062783],[132.893272,34.063141],[132.893398,34.063411],[132.893484,34.063624],[132.893946,34.064141],[132.894246,34.064232],[132.894496,34.064274],[132.894859,34.064182],[132.895221,34.064207],[132.895496,34.064374],[132.895846,34.064541],[132.896246,34.064982],[132.896471,34.065341],[132.897496,34.066132],[132.897696,34.066407],[132.898146,34.066582],[132.898334,34.066541],[132.898534,34.066566],[132.899484,34.067349],[132.899646,34.067516],[132.900046,34.067741],[132.900246,34.067774],[132.900609,34.067607],[132.901321,34.066949],[132.901646,34.066374],[132.902008,34.066182],[132.902083,34.066157],[132.902383,34.066232],[132.902571,34.066232],[132.903146,34.065949],[132.904533,34.065741],[132.904996,34.065608],[132.905346,34.065399],[132.906571,34.064866],[132.907221,34.064458],[132.907758,34.064324],[132.908308,34.064283],[132.908771,34.063941],[132.908958,34.063766],[132.908908,34.063641],[132.908908,34.063375],[132.909146,34.063108],[132.909421,34.063108],[132.910745,34.062716],[132.911383,34.062633],[132.912133,34.062616],[132.91347,34.062508],[132.91417,34.062566],[132.914633,34.062666],[132.915308,34.062983],[132.915683,34.063033],[132.916208,34.063391],[132.916995,34.06405],[132.91757,34.064433],[132.91797,34.064616],[132.918295,34.064816],[132.91892,34.065475],[132.919195,34.065883],[132.919495,34.0662],[132.91912,34.066533],[132.91947,34.066716],[132.91997,34.066375],[132.920195,34.066691],[132.920307,34.066716],[132.920845,34.066241],[132.921557,34.065525],[132.92227,34.066066],[132.922132,34.066225],[132.921832,34.066275],[132.921706,34.066389],[132.921632,34.066475],[132.920645,34.067716],[132.919607,34.067849],[132.920007,34.069424],[132.917233,34.070032],[132.91727,34.070191],[132.92042,34.069516],[132.921145,34.072224],[132.918708,34.072682],[132.918733,34.072857],[132.921445,34.072382],[132.921796,34.072338],[132.921982,34.073582],[132.921857,34.073807],[132.921657,34.073882],[132.921407,34.073882],[132.921332,34.073899],[132.921258,34.07424],[132.921408,34.075007],[132.921395,34.075324],[132.921045,34.075365],[132.920633,34.075499],[132.920533,34.075657],[132.920845,34.075907],[132.921145,34.076024],[132.921695,34.075932],[132.921795,34.075974],[132.922045,34.076232],[132.922145,34.076657],[132.922145,34.077107],[132.92242,34.079273],[132.922557,34.08004],[132.92262,34.080948],[132.92262,34.081848],[132.922582,34.082523],[132.922395,34.083106],[132.922257,34.083265],[132.921632,34.083673],[132.92107,34.083781],[132.920895,34.083781],[132.920707,34.083648],[132.920594,34.083441],[132.92062,34.083356],[132.920532,34.083156],[132.920245,34.082898],[132.919758,34.082698],[132.919645,34.082723],[132.919433,34.082948],[132.91887,34.083215],[132.918808,34.08394],[132.91872,34.084023],[132.91872,34.084298],[132.918808,34.084498],[132.918833,34.084706],[132.919083,34.084823],[132.919133,34.084931],[132.919095,34.085206],[132.918983,34.085498],[132.918982,34.085723],[132.919182,34.085881],[132.919182,34.086356],[132.919157,34.086623],[132.919007,34.086781],[132.919032,34.086973],[132.919132,34.087048],[132.919257,34.087006],[132.919407,34.08699],[132.919545,34.08704],[132.919845,34.087256],[132.920082,34.087365],[132.920107,34.08739],[132.920307,34.087481],[132.920757,34.087498],[132.92107,34.087456],[132.921232,34.087156],[132.921407,34.087123],[132.921545,34.08714],[132.921945,34.087265],[132.922195,34.08729],[132.922382,34.087223],[132.92247,34.087206],[132.922795,34.087273],[132.922845,34.087315],[132.92302,34.087698],[132.923232,34.087715],[132.923357,34.08754],[132.923407,34.087448],[132.923495,34.087448],[132.923757,34.08764],[132.923882,34.087715],[132.92417,34.087765],[132.92427,34.087823],[132.924382,34.088115],[132.924472,34.088256],[132.924507,34.08834],[132.924844,34.088606],[132.925007,34.088698],[132.925194,34.089056],[132.925494,34.089256],[132.925844,34.08929],[132.925982,34.089248],[132.926219,34.088748],[132.926632,34.088615],[132.927144,34.088681],[132.927357,34.088615],[132.927432,34.088423],[132.927444,34.088281],[132.927482,34.08774],[132.927894,34.087515]]],"type":"Polygon"},"type":"Feature"}]}