{"features":[{"type":"Feature","properties":{"yomi":"をんせん・うんせん","name":"温泉","pref":"愛媛県","kuni_id":"K61","id_url":"G61009.html","kuni_url":"/kg/resource/K61.html","kuni":"伊予","id":"G61009"},"geometry":{"coordinates":[[[132.887475,33.950744],[132.8885,33.950294],[132.890088,33.950227],[132.891525,33.949753],[132.892562,33.948736],[132.893775,33.947761],[132.8941,33.947678],[132.894737,33.947919],[132.895037,33.947669],[132.895775,33.946753],[132.897099,33.946361],[132.898824,33.946295],[132.901412,33.945436],[132.902461,33.944562],[132.902974,33.943678],[132.903911,33.94302],[132.905099,33.942279],[132.906361,33.941537],[132.906961,33.940837],[132.907898,33.940812],[132.909436,33.940112],[132.909598,33.940004],[132.910286,33.939162],[132.910586,33.938104],[132.911023,33.937837],[132.912323,33.938171],[132.913223,33.938896],[132.914185,33.939204],[132.914323,33.939187],[132.914435,33.938304],[132.916497,33.937112],[132.918447,33.937579],[132.918997,33.937537],[132.919822,33.936996],[132.92051,33.935846],[132.920147,33.935279],[132.920172,33.934088],[132.920885,33.933138],[132.921935,33.932555],[132.923159,33.931313],[132.924372,33.930005],[132.924922,33.928588],[132.924947,33.927863],[132.924397,33.92723],[132.924422,33.926622],[132.925035,33.925497],[132.925197,33.924847],[132.924722,33.923789],[132.924785,33.923314],[132.925435,33.922097],[132.925472,33.921981],[132.92536,33.920673],[132.925036,33.919767],[132.925722,33.919031],[132.926397,33.917031],[132.926322,33.916398],[132.926572,33.915431],[132.926647,33.914415],[132.926735,33.914123],[132.92656,33.913223],[132.92601,33.912007],[132.925685,33.911057],[132.925135,33.910699],[132.924722,33.909615],[132.924335,33.908832],[132.923973,33.907907],[132.924035,33.907566],[132.92461,33.906866],[132.925098,33.905899],[132.925623,33.905383],[132.924498,33.904391],[132.92381,33.903891],[132.922923,33.903058],[132.921636,33.902383],[132.921061,33.901533],[132.920973,33.9007],[132.920036,33.900225],[132.920098,33.899033],[132.920311,33.89835],[132.920923,33.897742],[132.920586,33.896958],[132.920148,33.896392],[132.919211,33.895625],[132.918161,33.89455],[132.917811,33.893892],[132.917374,33.894192],[132.916736,33.8943],[132.914836,33.893759],[132.913849,33.893267],[132.913486,33.892234],[132.912637,33.891534],[132.911349,33.891243],[132.910499,33.890793],[132.909399,33.890951],[132.908549,33.891151],[132.907612,33.890659],[132.906862,33.889509],[132.906212,33.889176],[132.904887,33.889126],[132.903538,33.889018],[132.902225,33.889293],[132.901225,33.889943],[132.900875,33.889851],[132.8998,33.889068],[132.898176,33.888643],[132.897251,33.888284],[132.896313,33.887718],[132.895326,33.886885],[132.894501,33.886051],[132.893839,33.884968],[132.892989,33.884927],[132.891414,33.88491],[132.890614,33.88446],[132.889651,33.883602],[132.888827,33.883085],[132.887902,33.882268],[132.887239,33.881644],[132.886114,33.881327],[132.885039,33.881194],[132.883715,33.879635],[132.88389,33.87896],[132.88364,33.878444],[132.883552,33.878377],[132.88289,33.878127],[132.882402,33.877136],[132.88169,33.876327],[132.88059,33.875402],[132.88039,33.875111],[132.880777,33.874569],[132.881277,33.873736],[132.881652,33.872336],[132.881652,33.872045],[132.88119,33.871211],[132.880228,33.870403],[132.879153,33.869978],[132.878528,33.869053],[132.877803,33.86612],[132.877365,33.865087],[132.876028,33.86382],[132.875991,33.863395],[132.873374,33.860554],[132.865996,33.85615],[132.857602,33.85226],[132.846216,33.841706],[132.834804,33.832077],[132.825421,33.828276],[132.816799,33.827009],[132.807669,33.826503],[132.794699,33.82898],[132.785503,33.828663],[132.774072,33.828987],[132.763995,33.828987],[132.755329,33.827577],[132.739609,33.823751],[132.725703,33.821939],[132.716231,33.821536],[132.706557,33.821737],[132.692921,33.823979],[132.690172,33.826046],[132.691909,33.829379],[132.692047,33.82972],[132.691447,33.830995],[132.690197,33.831612],[132.68796,33.832561],[132.687597,33.832828],[132.687247,33.833995],[132.69001,33.836644],[132.69011,33.836736],[132.690247,33.836644],[132.694221,33.83382],[132.694751,33.834361],[132.694571,33.834536],[132.694721,33.836644],[132.694834,33.839802],[132.698496,33.839844],[132.698496,33.841402],[132.699034,33.841402],[132.699521,33.840969],[132.699458,33.838936],[132.700983,33.838869],[132.701046,33.841827],[132.701183,33.841827],[132.701183,33.842386],[132.699771,33.842885],[132.699559,33.843427],[132.699671,33.843769],[132.700046,33.844602],[132.700371,33.845052],[132.700346,33.845593],[132.700458,33.846385],[132.700708,33.846902],[132.701033,33.847843],[132.701058,33.848501],[132.700746,33.849718],[132.701283,33.851818],[132.701473,33.852099],[132.701646,33.852426],[132.705833,33.852651],[132.70587,33.853501],[132.70747,33.853551],[132.70747,33.854017],[132.710307,33.854176],[132.710282,33.856459],[132.712375,33.856448],[132.714526,33.85642],[132.7163,33.856487],[132.71794,33.856637],[132.721523,33.856939],[132.724137,33.857228],[132.730262,33.857816],[132.734969,33.858093],[132.738775,33.858266],[132.740845,33.85837],[132.745141,33.858307],[132.749029,33.858307],[132.7537,33.85815],[132.759001,33.858441],[132.763503,33.858731],[132.767134,33.859239],[132.770838,33.859892],[132.774323,33.861271],[132.776857,33.862963],[132.778797,33.864377],[132.780894,33.866211],[132.783109,33.868352],[132.785681,33.870552],[132.78804,33.871903],[132.791301,33.873917],[132.794854,33.87617],[132.800353,33.879547],[132.804341,33.88169],[132.80745,33.884455],[132.809904,33.887007],[132.810847,33.887949],[132.811374,33.889002],[132.811512,33.889972],[132.811429,33.891274],[132.811291,33.892521],[132.811294,33.893239],[132.811765,33.894046],[132.812482,33.894785],[132.812639,33.89557],[132.812505,33.896533],[132.812437,33.897587],[132.812505,33.898393],[132.813058,33.899665],[132.814568,33.898976],[132.816243,33.898188],[132.817195,33.897663],[132.818246,33.896974],[132.819789,33.895891],[132.822744,33.89402],[132.824457,33.893335],[132.82673,33.892645],[132.828517,33.892401],[132.831237,33.892401],[132.83282,33.892564],[132.835419,33.893253],[132.837246,33.893781],[132.839981,33.89474],[132.844075,33.896466],[132.847337,33.898128],[132.849511,33.899407],[132.851494,33.900813],[132.853243,33.902297],[132.855716,33.903754],[132.857349,33.904548],[132.859204,33.905077],[132.862172,33.90579],[132.863877,33.906228],[132.866948,33.907543],[132.869628,33.909199],[132.871236,33.91032],[132.872502,33.91154],[132.873665,33.91134],[132.874977,33.911648],[132.875527,33.911815],[132.875802,33.911898],[132.876177,33.912023],[132.876352,33.912098],[132.876552,33.912173],[132.876702,33.912207],[132.876815,33.91224],[132.876927,33.912265],[132.877002,33.912257],[132.877027,33.912182],[132.877002,33.912107],[132.876977,33.912048],[132.87694,33.911982],[132.876927,33.911915],[132.877052,33.91194],[132.877189,33.911982],[132.877277,33.912023],[132.877577,33.91209],[132.877789,33.912373],[132.878439,33.914331],[132.878664,33.915431],[132.879264,33.916223],[132.879327,33.917056],[132.879102,33.917931],[132.879402,33.918614],[132.879952,33.919197],[132.879952,33.919972],[132.880001,33.920306],[132.880276,33.920889],[132.880439,33.921589],[132.880264,33.921947],[132.880264,33.922189],[132.880289,33.922272],[132.880314,33.922347],[132.880376,33.922464],[132.880539,33.922514],[132.880626,33.922614],[132.880676,33.922764],[132.880664,33.922939],[132.880564,33.923114],[132.880526,33.923289],[132.880476,33.923497],[132.880489,33.923622],[132.880514,33.923722],[132.880589,33.923864],[132.880676,33.92393],[132.880689,33.923989],[132.880764,33.924055],[132.880851,33.924164],[132.880889,33.924247],[132.880989,33.924372],[132.881089,33.924489],[132.881176,33.924622],[132.881326,33.924772],[132.881414,33.924905],[132.881439,33.924972],[132.881701,33.925188],[132.881926,33.925405],[132.882139,33.92558],[132.882489,33.925897],[132.882689,33.926105],[132.882926,33.92628],[132.883126,33.926388],[132.883476,33.92658],[132.883726,33.926638],[132.883964,33.926705],[132.884163,33.926772],[132.884413,33.926755],[132.884588,33.926688],[132.885151,33.926597],[132.885488,33.92653],[132.885726,33.926497],[132.886063,33.926555],[132.886138,33.92668],[132.886301,33.92683],[132.886476,33.926972],[132.886688,33.927255],[132.886888,33.927463],[132.887113,33.927713],[132.887063,33.927897],[132.887226,33.928863],[132.887751,33.929696],[132.887476,33.930505],[132.886463,33.931363],[132.886188,33.932179],[132.886076,33.932646],[132.885688,33.933663],[132.884788,33.934179],[132.884013,33.935129],[132.882863,33.935804],[132.882776,33.936621],[132.882401,33.937495],[132.881851,33.938062],[132.882176,33.938779],[132.883688,33.940153],[132.884213,33.941237],[132.884763,33.943245],[132.884838,33.94342],[132.884788,33.944278],[132.884626,33.944936],[132.885226,33.945811],[132.885638,33.946686],[132.885888,33.947928],[132.887338,33.950386],[132.887475,33.950744]]],"type":"Polygon"}}],"type":"FeatureCollection"}