{"type":"FeatureCollection","features":[{"geometry":{"coordinates":[[[132.770701,33.795759],[132.772376,33.795009],[132.777675,33.792335],[132.779113,33.791702],[132.780512,33.790952],[132.78215,33.79016],[132.783612,33.789302],[132.784812,33.788394],[132.785349,33.788035],[132.786649,33.787377],[132.787185,33.787239],[132.788162,33.786961],[132.789724,33.786619],[132.791861,33.786386],[132.793936,33.786269],[132.796286,33.786219],[132.799173,33.785986],[132.799011,33.784611],[132.800298,33.783636],[132.801536,33.783028],[132.802811,33.782886],[132.80351,33.782611],[132.804985,33.782228],[132.806148,33.782128],[132.806848,33.781878],[132.80987,33.782127],[132.812873,33.782564],[132.816313,33.783055],[132.819317,33.7836],[132.821703,33.784145],[132.824709,33.785178],[132.830262,33.78658],[132.835199,33.787466],[132.840641,33.788351],[132.845957,33.78949],[132.8514,33.790249],[132.857855,33.791008],[132.864943,33.791388],[132.870766,33.791641],[132.876588,33.79202],[132.880359,33.791875],[132.882406,33.791772],[132.886193,33.791465],[132.887933,33.790954],[132.89039,33.790442],[132.893051,33.790238],[132.895712,33.789726],[132.898476,33.789624],[132.901342,33.789624],[132.904208,33.789624],[132.907074,33.789931],[132.908814,33.790545],[132.90994,33.792182],[132.910247,33.793818],[132.911476,33.793921],[132.913932,33.793818],[132.916184,33.793512],[132.918538,33.793205],[132.922326,33.793818],[132.927068,33.79426],[132.931701,33.794393],[132.936995,33.79479],[132.941098,33.79479],[132.943083,33.794393],[132.94348,33.793334],[132.943612,33.791482],[132.944406,33.789234],[132.945465,33.787249],[132.947848,33.784339],[132.949568,33.781693],[132.950759,33.779973],[132.951818,33.777592],[132.952745,33.775608],[132.95473,33.772962],[132.956318,33.770713],[132.9587,33.768464],[132.963068,33.767009],[132.966906,33.766745],[132.969553,33.765951],[132.974186,33.76476],[132.979083,33.764231],[132.981994,33.765157],[132.984377,33.766745],[132.987685,33.770581],[132.988138,33.772378],[132.98846,33.774517],[132.988138,33.777406],[132.98771,33.779973],[132.987496,33.783397],[132.987282,33.786713],[132.986747,33.790992],[132.985891,33.796876],[132.98522,33.801516],[132.985524,33.803875],[132.985676,33.806614],[132.985372,33.809125],[132.98613,33.811919],[132.986493,33.811869],[132.987955,33.811844],[132.988705,33.812453],[132.98948,33.813161],[132.990392,33.813403],[132.99093,33.813694],[132.991367,33.814461],[132.991842,33.815419],[132.992042,33.815611],[132.993217,33.816236],[132.994367,33.816777],[132.995092,33.817161],[132.995279,33.817061],[132.996004,33.816386],[132.996716,33.815894],[132.997454,33.815816],[132.998066,33.815911],[132.999191,33.816678],[132.999804,33.816903],[133.000516,33.816878],[133.001154,33.816719],[133.001828,33.816378],[133.002491,33.815978],[133.004116,33.81557],[133.004641,33.815228],[133.005191,33.814936],[133.005816,33.814686],[133.006316,33.81462],[133.006816,33.814186],[133.007191,33.814053],[133.007965,33.814461],[133.008678,33.814595],[133.009365,33.81482],[133.009753,33.814861],[133.011565,33.814345],[133.01214,33.814137],[133.012827,33.813737],[133.012915,33.81362],[133.013077,33.813195],[133.01289,33.812562],[133.01214,33.811279],[133.011815,33.81062],[133.012028,33.810171],[133.01319,33.808571],[133.01324,33.808188],[133.013465,33.807554],[133.01354,33.807446],[133.013515,33.806996],[133.01354,33.805796],[133.013402,33.805188],[133.012828,33.804446],[133.012853,33.804047],[133.013327,33.803572],[133.013902,33.803163],[133.014177,33.802422],[133.014702,33.802055],[133.015602,33.801605],[133.015602,33.801422],[133.01594,33.800972],[133.016902,33.799939],[133.01709,33.799781],[133.017415,33.799281],[133.017415,33.798606],[133.017477,33.798223],[133.017665,33.797931],[133.017802,33.797798],[133.018215,33.797548],[133.018327,33.797206],[133.018302,33.796598],[133.018677,33.795748],[133.019015,33.793782],[133.019365,33.792923],[133.01984,33.792473],[133.020415,33.792024],[133.020877,33.791774],[133.021427,33.791574],[133.021514,33.791574],[133.021652,33.790849],[133.021864,33.790199],[133.022139,33.789857],[133.022252,33.789616],[133.022202,33.789007],[133.022002,33.788549],[133.021652,33.788241],[133.021152,33.788032],[133.020877,33.787832],[133.020965,33.787408],[133.021202,33.786841],[133.021477,33.786499],[133.022027,33.786391],[133.022777,33.786166],[133.023102,33.785849],[133.023264,33.784741],[133.023302,33.7842],[133.023489,33.783483],[133.023489,33.783192],[133.022827,33.782892],[133.021477,33.782175],[133.02069,33.782133],[133.020165,33.781925],[133.019665,33.781658],[133.018977,33.781458],[133.018515,33.781208],[133.017052,33.779967],[133.01684,33.7795],[133.017077,33.7779],[133.017053,33.777467],[133.01714,33.777134],[133.017465,33.776659],[133.017603,33.776251],[133.017465,33.775759],[133.01744,33.775259],[133.017578,33.774743],[133.018128,33.774334],[133.019002,33.773459],[133.01914,33.773076],[133.018815,33.772534],[133.018453,33.771793],[133.01829,33.771043],[133.018103,33.770501],[133.018065,33.769968],[133.01799,33.769601],[133.01804,33.769043],[133.01799,33.768543],[133.018065,33.76796],[133.018565,33.767643],[133.019003,33.767193],[133.019203,33.766468],[133.019365,33.766177],[133.019828,33.765927],[133.020515,33.765319],[133.021503,33.764802],[133.022628,33.764369],[133.023403,33.763944],[133.023678,33.763511],[133.02401,33.763103],[133.02414,33.762902],[133.02409,33.762836],[133.023915,33.762319],[133.023453,33.761602],[133.022928,33.761127],[133.022465,33.760836],[133.021915,33.760269],[133.021803,33.760094],[133.021115,33.759369],[133.020378,33.758877],[133.019328,33.758827],[133.018503,33.758561],[133.017853,33.758244],[133.017465,33.758152],[133.016228,33.757994],[133.014803,33.757552],[133.014028,33.757619],[133.013203,33.757369],[133.012403,33.756877],[133.011828,33.756627],[133.010078,33.756269],[133.009141,33.756536],[133.008203,33.756586],[133.007103,33.756202],[133.006803,33.756161],[133.005928,33.756136],[133.005353,33.756069],[133.004529,33.756069],[133.002991,33.756386],[133.001066,33.756727],[133.000079,33.757269],[132.998479,33.757377],[132.997791,33.757469],[132.997404,33.757419],[132.997166,33.757486],[132.996529,33.757777],[132.995379,33.758194],[132.994379,33.75861],[132.993167,33.758969],[132.992329,33.759027],[132.991779,33.758735],[132.991654,33.758177],[132.991892,33.757294],[132.991554,33.75626],[132.991754,33.755869],[132.992117,33.755744],[132.992204,33.754777],[132.992529,33.754444],[132.992567,33.753669],[132.992517,33.753327],[132.992617,33.752694],[132.992267,33.752269],[132.991579,33.752003],[132.991104,33.751436],[132.990779,33.750744],[132.990479,33.750494],[132.989567,33.748645],[132.988955,33.748311],[132.987992,33.747386],[132.98723,33.747186],[132.986205,33.746961],[132.98598,33.746445],[132.985767,33.745745],[132.984805,33.744395],[132.98433,33.744011],[132.983043,33.74327],[132.982843,33.743228],[132.982493,33.742862],[132.98108,33.740862],[132.980343,33.739737],[132.977043,33.742236],[132.976581,33.74312],[132.976106,33.743436],[132.975343,33.74357],[132.974819,33.743911],[132.974269,33.744586],[132.972669,33.745153],[132.972044,33.745194],[132.971106,33.744811],[132.970556,33.744794],[132.969182,33.745219],[132.968082,33.745511],[132.967232,33.745786],[132.966794,33.746711],[132.965395,33.74721],[132.96457,33.74741],[132.964407,33.747502],[132.963495,33.747235],[132.96267,33.747344],[132.96242,33.74746],[132.962145,33.747344],[132.962032,33.746827],[132.961457,33.746127],[132.96047,33.745952],[132.960108,33.745769],[132.957408,33.744669],[132.95717,33.744061],[132.956783,33.743702],[132.956345,33.743361],[132.955233,33.742236],[132.955021,33.741944],[132.954521,33.741628],[132.953283,33.741319],[132.953258,33.740978],[132.953308,33.74017],[132.953808,33.737895],[132.953533,33.736987],[132.952896,33.736245],[132.952846,33.735929],[132.953471,33.735395],[132.953908,33.73487],[132.953933,33.734395],[132.953308,33.733637],[132.952458,33.733746],[132.950996,33.734129],[132.949671,33.734404],[132.949021,33.734337],[132.948334,33.733845],[132.947671,33.733462],[132.946096,33.733262],[132.945134,33.732812],[132.944397,33.732362],[132.943597,33.732471],[132.941534,33.732946],[132.940847,33.732996],[132.938872,33.732862],[132.93716,33.733045],[132.936172,33.73327],[132.935385,33.733112],[132.933835,33.733045],[132.932573,33.73302],[132.931448,33.732487],[132.930735,33.731787],[132.930598,33.730904],[132.930623,33.730212],[132.930423,33.730137],[132.928586,33.730821],[132.927598,33.731087],[132.926911,33.731021],[132.925923,33.730979],[132.924873,33.731071],[132.924711,33.731046],[132.924461,33.730821],[132.924324,33.730754],[132.924211,33.730754],[132.923036,33.730062],[132.922324,33.729787],[132.921624,33.729087],[132.920999,33.728596],[132.919949,33.728371],[132.919124,33.728421],[132.918224,33.728262],[132.917337,33.727971],[132.916512,33.727787],[132.915387,33.727338],[132.914012,33.726529],[132.913349,33.726504],[132.913162,33.726754],[132.912562,33.727296],[132.912112,33.727479],[132.91085,33.727746],[132.908762,33.727912],[132.9078,33.727846],[132.907138,33.727554],[132.907062,33.726646],[132.906925,33.726446],[132.905925,33.725746],[132.905463,33.725279],[132.904913,33.724913],[132.904113,33.724896],[132.903563,33.725146],[132.901475,33.725079],[132.900626,33.725121],[132.899438,33.724988],[132.897376,33.724221],[132.896413,33.724138],[132.895676,33.723929],[132.895488,33.723413],[132.895513,33.723188],[132.895488,33.722671],[132.894664,33.721654],[132.893776,33.720105],[132.893476,33.719496],[132.893039,33.719521],[132.892051,33.719746],[132.891001,33.719838],[132.890152,33.719613],[132.889652,33.719705],[132.888639,33.720038],[132.888452,33.720063],[132.886764,33.719954],[132.88584,33.719954],[132.885452,33.720046],[132.884515,33.720496],[132.883602,33.720879],[132.882452,33.721512],[132.881515,33.721646],[132.880665,33.721712],[132.879515,33.722237],[132.878278,33.722396],[132.87794,33.722662],[132.877978,33.723112],[132.877778,33.723296],[132.877041,33.723745],[132.876378,33.724287],[132.875828,33.724562],[132.875053,33.725304],[132.874703,33.725912],[132.874728,33.72652],[132.875166,33.727103],[132.875303,33.727603],[132.875191,33.72792],[132.874178,33.727312],[132.873241,33.726437],[132.872553,33.72502],[132.872366,33.72497],[132.872154,33.724837],[132.872104,33.724745],[132.872191,33.723579],[132.872079,33.722929],[132.871629,33.722162],[132.871391,33.721804],[132.871429,33.721246],[132.871429,33.720637],[132.871466,33.720096],[132.871191,33.719088],[132.871103,33.718571],[132.871178,33.718054],[132.870841,33.717579],[132.870866,33.717288],[132.871428,33.716613],[132.871203,33.71603],[132.871416,33.71573],[132.872116,33.715546],[132.872191,33.715496],[132.872291,33.71523],[132.872291,33.71478],[132.872178,33.714222],[132.871791,33.713588],[132.871328,33.713122],[132.870566,33.712972],[132.869866,33.71273],[132.868866,33.712647],[132.868616,33.712697],[132.868266,33.712605],[132.867854,33.712097],[132.867266,33.711622],[132.866804,33.711338],[132.865504,33.711347],[132.864879,33.711147],[132.864279,33.710389],[132.863291,33.709497],[132.862454,33.709255],[132.861566,33.708814],[132.861417,33.708322],[132.861504,33.706722],[132.861479,33.706606],[132.860967,33.706347],[132.860117,33.705472],[132.858979,33.705414],[132.858717,33.705347],[132.857929,33.705014],[132.856654,33.704372],[132.856154,33.703839],[132.855767,33.703147],[132.85503,33.702022],[132.85443,33.701473],[132.853905,33.700731],[132.853467,33.699923],[132.852867,33.699348],[132.852455,33.698781],[132.852442,33.698198],[132.85278,33.696556],[132.85303,33.695856],[132.853517,33.695398],[132.853592,33.694773],[132.85353,33.694498],[132.85328,33.693982],[132.853305,33.693532],[132.853105,33.693107],[132.853155,33.692499],[132.853255,33.69194],[132.853142,33.691732],[132.852405,33.691265],[132.851405,33.690915],[132.850805,33.690515],[132.850405,33.690315],[132.85013,33.690299],[132.849293,33.689832],[132.84898,33.688957],[132.848818,33.688849],[132.847818,33.688766],[132.844668,33.688882],[132.843918,33.688865],[132.843356,33.689074],[132.842981,33.689365],[132.842118,33.689532],[132.840731,33.689024],[132.839869,33.689032],[132.838981,33.689149],[132.838556,33.688999],[132.837956,33.689024],[132.837694,33.689115],[132.837119,33.688599],[132.836394,33.68879],[132.835932,33.688457],[132.835257,33.688057],[132.834794,33.688149],[132.83442,33.68784],[132.833795,33.68809],[132.833207,33.688274],[132.831982,33.687407],[132.83167,33.686557],[132.831445,33.685699],[132.831545,33.685157],[132.831245,33.684941],[132.83022,33.684741],[132.829245,33.684282],[132.828295,33.683657],[132.82767,33.683349],[132.826596,33.683649],[132.826271,33.683332],[132.825633,33.682099],[132.825208,33.682041],[132.824533,33.682249],[132.823721,33.681941],[132.823421,33.681716],[132.823009,33.680999],[132.822434,33.680691],[132.821759,33.680399],[132.821809,33.6797],[132.821709,33.678916],[132.821709,33.678083],[132.821759,33.676483],[132.822796,33.675467],[132.823471,33.674717],[132.824046,33.673967],[132.824796,33.673442],[132.824809,33.672767],[132.825209,33.672426],[132.825459,33.672109],[132.825009,33.671059],[132.826108,33.670868],[132.826896,33.670793],[132.827208,33.670593],[132.827921,33.66991],[132.828146,33.669593],[132.828308,33.669435],[132.829021,33.669185],[132.829883,33.669568],[132.83012,33.670001],[132.83077,33.670318],[132.831333,33.670493],[132.831633,33.670326],[132.83197,33.670001],[132.832045,33.669926],[132.83312,33.669368],[132.833458,33.668735],[132.834407,33.667652],[132.83537,33.666977],[132.835757,33.666027],[132.835732,33.665536],[132.83507,33.665377],[132.834358,33.664927],[132.834108,33.664002],[132.832945,33.662944],[132.832758,33.662203],[132.832733,33.661478],[132.832758,33.661253],[132.832483,33.66042],[132.832258,33.659336],[132.831896,33.656903],[132.832258,33.656054],[132.832833,33.655104],[132.833595,33.654629],[132.834345,33.654562],[132.835245,33.653954],[132.835658,33.653121],[132.835633,33.651996],[132.835495,33.651071],[132.83472,33.650571],[132.83417,33.650263],[132.834533,33.649496],[132.834121,33.648771],[132.833071,33.648346],[132.831996,33.647513],[132.830871,33.644963],[132.831471,33.64458],[132.831608,33.644088],[132.831558,33.643347],[132.831633,33.64278],[132.831583,33.642597],[132.831084,33.641772],[132.831084,33.641314],[132.832096,33.641339],[132.832958,33.641114],[132.833471,33.641064],[132.834021,33.641247],[132.834821,33.641156],[132.835533,33.641131],[132.836058,33.641247],[132.836808,33.640797],[132.837137,33.640454],[132.837458,33.640048],[132.837546,33.639264],[132.83792,33.638581],[132.837958,33.638273],[132.837646,33.637548],[132.836996,33.636873],[132.836471,33.635931],[132.835721,33.635181],[132.832996,33.634081],[132.832071,33.633406],[132.831621,33.63314],[132.827934,33.631223],[132.827397,33.631181],[132.826784,33.631181],[132.825547,33.630573],[132.824922,33.630373],[132.824497,33.629356],[132.824034,33.629448],[132.823784,33.629448],[132.82101,33.629181],[132.820022,33.629048],[132.81961,33.629139],[132.818972,33.629206],[132.818397,33.629206],[132.81821,33.629339],[132.81736,33.629547],[132.817248,33.629414],[132.816673,33.629031],[132.815548,33.628781],[132.814685,33.628531],[132.81381,33.628556],[132.812961,33.628381],[132.812898,33.628338],[132.812798,33.628289],[132.812848,33.627681],[132.813398,33.626914],[132.813311,33.625131],[132.813536,33.624814],[132.814023,33.624414],[132.813836,33.623756],[132.813698,33.623689],[132.811336,33.623964],[132.810286,33.624389],[132.809024,33.625089],[132.807924,33.625589],[132.806936,33.625497],[132.806086,33.624914],[132.805149,33.624464],[132.804874,33.624172],[132.804049,33.622706],[132.803662,33.621922],[132.803249,33.621314],[132.802512,33.620814],[132.801625,33.620564],[132.801025,33.620772],[132.800287,33.620864],[132.800037,33.620747],[132.799512,33.619781],[132.7994,33.619714],[132.798825,33.619831],[132.79825,33.619806],[132.797313,33.618881],[132.796813,33.618906],[132.7963,33.619539],[132.795913,33.620506],[132.7955,33.621089],[132.795088,33.621072],[132.793913,33.620689],[132.792838,33.620414],[132.792313,33.620214],[132.791676,33.620397],[132.791576,33.620397],[132.791026,33.620147],[132.789926,33.620197],[132.789376,33.62033],[132.788576,33.621072],[132.787889,33.621772],[132.786326,33.62383],[132.785776,33.624296],[132.785064,33.624371],[132.784926,33.624005],[132.784976,33.623263],[132.784864,33.622496],[132.784926,33.622138],[132.785201,33.621188],[132.784752,33.62058],[132.783602,33.619888],[132.783002,33.61943],[132.782039,33.618605],[132.781377,33.617522],[132.780965,33.616464],[132.780465,33.614931],[132.78044,33.614364],[132.780352,33.614272],[132.77994,33.613981],[132.779252,33.613356],[132.778702,33.612723],[132.77764,33.612406],[132.776953,33.612406],[132.77609,33.612073],[132.77464,33.611623],[132.773353,33.611123],[132.772766,33.610564],[132.772466,33.609773],[132.771728,33.609231],[132.770653,33.608264],[132.770241,33.607681],[132.768979,33.607456],[132.766941,33.607348],[132.766366,33.607348],[132.765979,33.608048],[132.765741,33.608289],[132.765266,33.608973],[132.764641,33.609597],[132.764504,33.609914],[132.763979,33.610522],[132.763641,33.611156],[132.763016,33.612197],[132.762554,33.613139],[132.762441,33.613997],[132.762354,33.614313],[132.761779,33.614947],[132.760929,33.615555],[132.760566,33.616138],[132.760354,33.617246],[132.760054,33.618213],[132.759554,33.618913],[132.759329,33.619796],[132.759366,33.620513],[132.758954,33.620854],[132.757079,33.621821],[132.756504,33.622429],[132.755979,33.622904],[132.755904,33.622929],[132.755079,33.622887],[132.753092,33.624279],[132.752329,33.62507],[132.75158,33.625728],[132.75098,33.626312],[132.750755,33.626986],[132.75043,33.627461],[132.75018,33.627553],[132.74928,33.62767],[132.74818,33.627603],[132.747442,33.62742],[132.747205,33.627695],[132.74668,33.627853],[132.745655,33.627803],[132.74453,33.62742],[132.74263,33.62727],[132.741705,33.626345],[132.741255,33.625378],[132.740493,33.624745],[132.739531,33.62457],[132.739282,33.624492],[132.739006,33.624228],[132.738118,33.624162],[132.737568,33.623828],[132.736993,33.624545],[132.736618,33.625403],[132.736181,33.626145],[132.735843,33.626819],[132.735193,33.627094],[132.734094,33.627069],[132.733156,33.626711],[132.732356,33.626536],[132.731444,33.626086],[132.730406,33.625745],[132.729382,33.625636],[132.728782,33.625278],[132.728344,33.624845],[132.728344,33.624528],[132.728069,33.62307],[132.727732,33.62217],[132.727569,33.621445],[132.725969,33.620095],[132.725607,33.619329],[132.725257,33.618945],[132.724757,33.618612],[132.724732,33.617937],[132.72462,33.617012],[132.723957,33.616062],[132.723545,33.615637],[132.722832,33.614646],[132.72192,33.613113],[132.721458,33.612646],[132.720608,33.612571],[132.719583,33.612038],[132.71832,33.611496],[132.71782,33.611363],[132.717408,33.61163],[132.716971,33.611746],[132.715771,33.61123],[132.714283,33.610396],[132.711721,33.608888],[132.711421,33.608797],[132.710096,33.608555],[132.709959,33.608555],[132.709609,33.60848],[132.709034,33.60738],[132.708809,33.606813],[132.708784,33.606255],[132.708509,33.605755],[132.708284,33.60583],[132.707659,33.606455],[132.706797,33.606905],[132.706447,33.607205],[132.706172,33.608713],[132.705622,33.609346],[132.705047,33.60943],[132.703947,33.609546],[132.702635,33.609955],[132.701635,33.610113],[132.700435,33.610179],[132.699685,33.610521],[132.699085,33.611129],[132.69851,33.611488],[132.697323,33.612146],[132.696773,33.612637],[132.695486,33.613387],[132.694523,33.613862],[132.693898,33.613929],[132.693048,33.614354],[132.692661,33.61492],[132.692274,33.615079],[132.691374,33.615079],[132.691236,33.615395],[132.691236,33.616204],[132.691061,33.616812],[132.690961,33.616995],[132.690624,33.617062],[132.690099,33.616678],[132.689411,33.616253],[132.689011,33.616362],[132.688049,33.616028],[132.687387,33.616162],[132.686699,33.616995],[132.686199,33.617428],[132.685712,33.617512],[132.685,33.617587],[132.684775,33.617695],[132.684337,33.617828],[132.684087,33.618145],[132.683537,33.618236],[132.683075,33.618445],[132.682875,33.618395],[132.68255,33.618128],[132.681862,33.618128],[132.681537,33.61817],[132.68095,33.618011],[132.680237,33.617995],[132.68005,33.618036],[132.67975,33.617878],[132.68005,33.617478],[132.679962,33.61707],[132.67925,33.616528],[132.67865,33.616195],[132.678375,33.615945],[132.678038,33.616212],[132.67785,33.616712],[132.677463,33.617161],[132.677463,33.61802],[132.677163,33.618786],[132.676588,33.619345],[132.676613,33.620453],[132.67645,33.620969],[132.675925,33.621086],[132.675238,33.621086],[132.674688,33.620836],[132.674113,33.620728],[132.67345,33.620544],[132.672575,33.620411],[132.671501,33.620211],[132.671251,33.619986],[132.670976,33.619919],[132.669851,33.619961],[132.668951,33.619919],[132.668013,33.620103],[132.667576,33.620211],[132.667026,33.619944],[132.666176,33.619086],[132.665313,33.618344],[132.663976,33.617628],[132.662739,33.616903],[132.661601,33.616294],[132.661114,33.616203],[132.659826,33.617153],[132.659414,33.618036],[132.659301,33.619094],[132.659301,33.619494],[132.658664,33.620561],[132.658114,33.62096],[132.657189,33.62096],[132.656139,33.620785],[132.654902,33.620427],[132.654077,33.62011],[132.653727,33.620244],[132.652864,33.62146],[132.652289,33.621919],[132.651414,33.622502],[132.650977,33.622977],[132.651027,33.623452],[132.651414,33.623918],[132.651502,33.624485],[132.651439,33.625093],[132.651739,33.625502],[132.651991,33.625679],[132.652189,33.62581],[132.652702,33.626735],[132.653252,33.627435],[132.653639,33.627726],[132.653977,33.628493],[132.653939,33.628693],[132.653639,33.629035],[132.653477,33.62951],[132.653502,33.629643],[132.653427,33.630751],[132.653751,33.632143],[132.654026,33.632618],[132.653976,33.633501],[132.653676,33.634626],[132.653451,33.635167],[132.653839,33.635976],[132.654501,33.638117],[132.654639,33.638434],[132.654526,33.639175],[132.653839,33.640008],[132.653676,33.640867],[132.653676,33.641542],[132.652389,33.642758],[132.651914,33.643458],[132.652739,33.645308],[132.652826,33.646099],[132.652576,33.646858],[132.652189,33.647716],[132.652026,33.648691],[132.652114,33.649407],[132.651839,33.650916],[132.651972,33.651778],[132.651889,33.652132],[132.651476,33.65254],[132.651089,33.652699],[132.650439,33.653332],[132.649726,33.654215],[132.649226,33.654907],[132.648952,33.654982],[132.647902,33.654932],[132.645952,33.65424],[132.645627,33.65419],[132.644577,33.654532],[132.64384,33.654982],[132.643015,33.655007],[132.641415,33.65474],[132.640265,33.654806],[132.638453,33.654515],[132.637453,33.654131],[132.636165,33.653773],[132.635041,33.653281],[132.633853,33.65319],[132.633028,33.652107],[132.632291,33.651232],[132.631766,33.650057],[132.631578,33.649882],[132.629654,33.649274],[132.629291,33.648982],[132.628329,33.649074],[132.627091,33.649049],[132.626266,33.64939],[132.625117,33.649498],[132.624267,33.649748],[132.623329,33.650248],[132.622458,33.650441],[132.622029,33.650532],[132.621042,33.650398],[132.620604,33.650123],[132.620517,33.650148],[132.620292,33.650398],[132.61988,33.650507],[132.619467,33.650357],[132.618867,33.649948],[132.61848,33.64954],[132.618392,33.649115],[132.618692,33.647899],[132.61878,33.647265],[132.61873,33.646815],[132.618555,33.646499],[132.618092,33.64619],[132.617517,33.64589],[132.617242,33.645532],[132.617067,33.644699],[132.616742,33.643866],[132.615755,33.642857],[132.614755,33.641957],[132.61338,33.640383],[132.612918,33.639999],[132.612256,33.639633],[132.611893,33.639524],[132.611268,33.639483],[132.611018,33.639416],[132.610218,33.638691],[132.609468,33.638308],[132.609168,33.638016],[132.609006,33.637233],[132.608818,33.637024],[132.608531,33.63595],[132.607981,33.6355],[132.607744,33.634933],[132.607606,33.634525],[132.607494,33.634033],[132.607319,33.633625],[132.606881,33.633333],[132.605844,33.632525],[132.605756,33.631892],[132.605756,33.631533],[132.605644,33.631283],[132.605231,33.630767],[132.604569,33.630342],[132.604269,33.63005],[132.603744,33.628942],[132.602944,33.62775],[132.602482,33.627101],[132.602257,33.626601],[132.602232,33.626467],[132.602394,33.626059],[132.603269,33.624734],[132.603294,33.624526],[132.603157,33.624101],[132.603132,33.623743],[132.603269,33.623334],[132.603255,33.623134],[132.603107,33.622976],[132.602832,33.623001],[132.602394,33.622951],[132.601919,33.622751],[132.601732,33.622709],[132.601232,33.622726],[132.60027,33.622684],[132.599782,33.622484],[132.599645,33.622368],[132.599057,33.622234],[132.598345,33.622259],[132.597745,33.622526],[132.596557,33.622734],[132.595545,33.622801],[132.594283,33.622984],[132.593045,33.623026],[132.592308,33.623167],[132.591345,33.623434],[132.59082,33.623301],[132.59027,33.623234],[132.589945,33.623276],[132.589495,33.623659],[132.588845,33.623934],[132.588533,33.624001],[132.587883,33.624251],[132.586421,33.6252],[132.585596,33.625784],[132.583871,33.626442],[132.582996,33.626575],[132.582133,33.626484],[132.581396,33.626375],[132.580959,33.626192],[132.580921,33.625492],[132.580846,33.625109],[132.580596,33.62495],[132.580271,33.6248],[132.579909,33.6241],[132.579746,33.623492],[132.578946,33.622992],[132.578784,33.622684],[132.578396,33.622459],[132.577071,33.621826],[132.576421,33.621259],[132.576034,33.620992],[132.575921,33.620884],[132.575759,33.620517],[132.575696,33.619592],[132.575996,33.618759],[132.575859,33.618043],[132.575696,33.617726],[132.575534,33.617684],[132.575122,33.617701],[132.574964,33.617699],[132.574684,33.617618],[132.574297,33.617368],[132.573584,33.617143],[132.573109,33.616734],[132.572484,33.615993],[132.572009,33.615543],[132.571522,33.615226],[132.570722,33.614868],[132.570009,33.614484],[132.568847,33.613701],[132.568522,33.613093],[132.568597,33.612709],[132.568959,33.612326],[132.568659,33.611176],[132.568297,33.610343],[132.568135,33.60946],[132.56791,33.609326],[132.567585,33.609351],[132.567172,33.609485],[132.566897,33.609351],[132.566897,33.608926],[132.566697,33.608701],[132.565385,33.60811],[132.56511,33.607885],[132.565135,33.60746],[132.565085,33.607118],[132.56491,33.606785],[132.564835,33.606468],[132.56456,33.606218],[132.563985,33.60591],[132.563597,33.605593],[132.563372,33.605185],[132.56316,33.604985],[132.56271,33.604801],[132.562435,33.604535],[132.561972,33.60356],[132.561098,33.602593],[132.56046,33.601918],[132.559635,33.60201],[132.559173,33.602143],[132.558585,33.602643],[132.558285,33.603118],[132.558098,33.603568],[132.557985,33.604085],[132.557498,33.604285],[132.556973,33.60456],[132.556535,33.605143],[132.556373,33.60526],[132.555985,33.605193],[132.555373,33.605193],[132.555186,33.605235],[132.554698,33.60546],[132.554223,33.605618],[132.553761,33.605918],[132.553511,33.60641],[132.553561,33.606909],[132.553923,33.607626],[132.553673,33.607968],[132.553161,33.608351],[132.552848,33.608684],[132.552611,33.609118],[132.552436,33.609518],[132.552611,33.609992],[132.552936,33.610467],[132.553136,33.610826],[132.553023,33.611101],[132.552748,33.611409],[132.552311,33.611776],[132.552198,33.612159],[132.552411,33.612492],[132.553186,33.613284],[132.553486,33.613934],[132.553548,33.614317],[132.553686,33.614609],[132.553661,33.6147],[132.553111,33.615109],[132.552773,33.615584],[132.552586,33.615759],[132.552036,33.616059],[132.551298,33.616259],[132.551043,33.616408],[132.550886,33.616509],[132.550473,33.616867],[132.550298,33.617225],[132.549973,33.617592],[132.549098,33.6184],[132.548823,33.618783],[132.548848,33.619125],[132.549036,33.619642],[132.549348,33.620158],[132.549286,33.6209],[132.548911,33.621308],[132.548111,33.621941],[132.547561,33.622191],[132.547036,33.622325],[132.546436,33.622283],[132.545449,33.622141],[132.544536,33.6223],[132.544286,33.622416],[132.543874,33.622666],[132.543486,33.623158],[132.543386,33.623591],[132.543049,33.624491],[132.543086,33.624899],[132.542861,33.625324],[132.542749,33.625391],[132.542286,33.625549],[132.542149,33.625574],[132.541949,33.625749],[132.541674,33.625907],[132.541261,33.626066],[132.540961,33.626249],[132.540887,33.626474],[132.540474,33.627149],[132.540112,33.627424],[132.539762,33.627466],[132.539149,33.627624],[132.539074,33.627874],[132.538937,33.628099],[132.538824,33.628124],[132.538299,33.627991],[132.538024,33.628215],[132.537724,33.62869],[132.537724,33.629049],[132.537587,33.629407],[132.537287,33.62979],[132.537087,33.630215],[132.536762,33.630607],[132.536099,33.63114],[132.535337,33.631915],[132.534924,33.63259],[132.534649,33.632948],[132.534424,33.633465],[132.533874,33.634123],[132.533462,33.634706],[132.532999,33.63509],[132.532725,33.635431],[132.532337,33.63604],[132.531762,33.636598],[132.531737,33.636964],[132.531575,33.637231],[132.5313,33.637573],[132.532499,33.637998],[132.532974,33.638356],[132.533137,33.638406],[132.534374,33.638556],[132.535724,33.638673],[132.535999,33.638714],[132.536549,33.638914],[132.537449,33.639348],[132.537724,33.639364],[132.538412,33.639589],[132.539961,33.639864],[132.540586,33.640223],[132.541136,33.640473],[132.541411,33.640556],[132.542399,33.640764],[132.543124,33.640989],[132.544024,33.641298],[132.544436,33.641364],[132.544824,33.641548],[132.545598,33.641814],[132.546248,33.641906],[132.547023,33.641973],[132.547373,33.642089],[132.548561,33.642848],[132.548786,33.642964],[132.548861,33.642964],[132.550948,33.643639],[132.551773,33.643948],[132.552573,33.644173],[132.55351,33.644381],[132.555023,33.644848],[132.555273,33.645073],[132.55546,33.645164],[132.555873,33.645256],[132.556285,33.645281],[132.556785,33.645414],[132.557472,33.645723],[132.560247,33.646648],[132.560472,33.646673],[132.560935,33.646648],[132.56121,33.646689],[132.561897,33.647123],[132.563247,33.647573],[132.564759,33.648014],[132.565334,33.648131],[132.566384,33.648448],[132.566847,33.648556],[132.568059,33.648964],[132.569159,33.649048],[132.569796,33.649139],[132.570309,33.649323],[132.570921,33.649456],[132.571634,33.649523],[132.572271,33.649681],[132.572509,33.649789],[132.573009,33.650131],[132.573309,33.650398],[132.573609,33.650889],[132.576633,33.651856],[132.577408,33.651406],[132.577956,33.651407],[132.577983,33.651589],[132.578458,33.651764],[132.578725,33.651843],[132.579058,33.651923],[132.580758,33.652123],[132.581558,33.652281],[132.581833,33.652373],[132.58272,33.652573],[132.58492,33.653289],[132.585633,33.653564],[132.586232,33.653989],[132.586595,33.654281],[132.587057,33.654572],[132.587945,33.654914],[132.58857,33.655206],[132.589757,33.655989],[132.59047,33.656647],[132.590857,33.657072],[132.591244,33.657639],[132.591332,33.65768],[132.591269,33.65768],[132.591607,33.657947],[132.592207,33.658289],[132.594019,33.659055],[132.594744,33.659389],[132.595294,33.659722],[132.596007,33.660264],[132.596806,33.660647],[132.597981,33.661122],[132.598781,33.661505],[132.599719,33.662022],[132.600494,33.662488],[132.601943,33.663505],[132.603131,33.66443],[132.603906,33.664763],[132.60608,33.665888],[132.60668,33.666338],[132.607343,33.666921],[132.607616,33.667277],[132.60778,33.66753],[132.609518,33.668996],[132.609699,33.669159],[132.610093,33.669579],[132.610292,33.669896],[132.61138,33.671771],[132.611555,33.672096],[132.611892,33.672471],[132.612392,33.672887],[132.613317,33.673479],[132.614455,33.674129],[132.615467,33.674596],[132.616317,33.675104],[132.616867,33.675596],[132.618017,33.676887],[132.618517,33.67727],[132.619054,33.677437],[132.619642,33.67757],[132.620566,33.677887],[132.621391,33.678045],[132.622457,33.678138],[132.622779,33.678237],[132.622754,33.678554],[132.623216,33.678687],[132.625641,33.67922],[132.626841,33.67962],[132.627191,33.67982],[132.627941,33.680495],[132.628353,33.680945],[132.628606,33.680813],[132.629166,33.681778],[132.629466,33.682387],[132.629903,33.682837],[132.630203,33.683062],[132.630415,33.683395],[132.630715,33.683687],[132.631065,33.683912],[132.631765,33.684086],[132.632365,33.684178],[132.632878,33.684286],[132.63309,33.68437],[132.632715,33.685028],[132.632903,33.685128],[132.633265,33.685311],[132.633653,33.685503],[132.634003,33.685678],[132.634415,33.685903],[132.634715,33.686111],[132.635015,33.68637],[132.635327,33.686678],[132.635552,33.686911],[132.635702,33.687103],[132.635752,33.687203],[132.63599,33.68712],[132.636052,33.687769],[132.636565,33.688469],[132.636977,33.689386],[132.637327,33.689344],[132.63724,33.688961],[132.63784,33.688711],[132.63854,33.689319],[132.63814,33.689586],[132.63889,33.690153],[132.638966,33.6901],[132.63909,33.690128],[132.640327,33.690436],[132.641952,33.690861],[132.644252,33.691594],[132.645951,33.692127],[132.646464,33.692327],[132.647139,33.692777],[132.647926,33.693386],[132.648276,33.693702],[132.648764,33.69451],[132.649476,33.695294],[132.650126,33.695702],[132.651076,33.696327],[132.652076,33.69671],[132.652776,33.697218],[132.653588,33.697918],[132.654138,33.698685],[132.654196,33.698685],[132.654326,33.698685],[132.654813,33.699427],[132.654951,33.699468],[132.655413,33.700077],[132.655625,33.700301],[132.6557,33.700328],[132.656038,33.70046],[132.65655,33.700818],[132.657313,33.701985],[132.657738,33.702318],[132.658638,33.702885],[132.658938,33.703193],[132.65915,33.703534],[132.659475,33.704409],[132.659725,33.705443],[132.659863,33.705784],[132.660275,33.706118],[132.660375,33.706392],[132.660762,33.706776],[132.661275,33.707426],[132.661625,33.707742],[132.662112,33.707534],[132.662162,33.707492],[132.662412,33.707467],[132.662762,33.707642],[132.662925,33.707601],[132.663062,33.707484],[132.663325,33.707059],[132.663512,33.706967],[132.6636,33.707034],[132.663675,33.707442],[132.6639,33.707842],[132.6642,33.708159],[132.6646,33.708384],[132.6653,33.708559],[132.665337,33.708809],[132.665275,33.709076],[132.665337,33.709234],[132.666174,33.710159],[132.666424,33.710359],[132.666687,33.71045],[132.667124,33.710517],[132.66758,33.710665],[132.667799,33.71065],[132.668062,33.710625],[132.668387,33.710692],[132.668774,33.710642],[132.669712,33.710734],[132.671761,33.710817],[132.673436,33.710784],[132.674874,33.710559],[132.675436,33.710534],[132.676486,33.710392],[132.677786,33.710076],[132.678436,33.709826],[132.678748,33.709576],[132.678836,33.709392],[132.678811,33.708942],[132.679048,33.708651],[132.679561,33.708351],[132.680048,33.708151],[132.680423,33.707926],[132.681086,33.707226],[132.68181,33.706526],[132.68316,33.705168],[132.683648,33.704801],[132.683935,33.704393],[132.684235,33.703768],[132.68431,33.703268],[132.68431,33.702793],[132.684248,33.702318],[132.684148,33.701852],[132.68401,33.701377],[132.683735,33.700952],[132.68346,33.700727],[132.682435,33.700144],[132.681923,33.69976],[132.681723,33.69951],[132.681536,33.699135],[132.681673,33.699044],[132.682373,33.698902],[132.683835,33.698827],[132.684498,33.698719],[132.685148,33.698485],[132.68591,33.698444],[132.687035,33.698527],[132.687935,33.698527],[132.688522,33.698452],[132.689122,33.698569],[132.689635,33.69881],[132.690197,33.69901],[132.691035,33.698919],[132.691635,33.69901],[132.692222,33.699144],[132.692797,33.69921],[132.693197,33.699119],[132.693634,33.698935],[132.694122,33.698977],[132.694247,33.699019],[132.695334,33.698744],[132.695572,33.698611],[132.695809,33.698252],[132.695997,33.698161],[132.696734,33.698294],[132.697646,33.697836],[132.698509,33.697652],[132.699646,33.697694],[132.700184,33.697827],[132.700646,33.698027],[132.701108,33.698161],[132.701458,33.698094],[132.701833,33.698227],[132.701996,33.698252],[132.702096,33.698052],[132.702096,33.697961],[132.702183,33.697802],[132.702233,33.697777],[132.702608,33.697819],[132.702858,33.697886],[132.702933,33.697844],[132.702908,33.697369],[132.702608,33.696811],[132.702746,33.696719],[132.702821,33.696603],[132.702983,33.696494],[132.703308,33.696603],[132.703683,33.696828],[132.703933,33.696844],[132.704121,33.696644],[132.704358,33.696461],[132.704658,33.696303],[132.704821,33.696011],[132.705033,33.695761],[132.705221,33.695786],[132.705383,33.695853],[132.705538,33.695919],[132.705845,33.696119],[132.70587,33.696369],[132.705558,33.697203],[132.705583,33.698894],[132.705745,33.699186],[132.705833,33.699544],[132.705833,33.699977],[132.705895,33.700152],[132.706033,33.700377],[132.706295,33.70056],[132.706645,33.700694],[132.70722,33.700627],[132.707808,33.700644],[132.708158,33.700819],[132.708295,33.701069],[132.708333,33.701269],[132.70822,33.70161],[132.708108,33.701744],[132.707983,33.702127],[132.707983,33.702335],[132.708095,33.702652],[132.707958,33.703419],[132.707983,33.703685],[132.70807,33.703752],[132.708583,33.703935],[132.710257,33.703877],[132.71077,33.703785],[132.711232,33.703744],[132.711882,33.703785],[132.71252,33.70376],[132.712707,33.703669],[132.71282,33.703469],[132.712957,33.70331],[132.713357,33.70326],[132.71382,33.703302],[132.714195,33.703169],[132.714545,33.703102],[132.714845,33.703102],[132.715144,33.703027],[132.715407,33.702919],[132.715869,33.702919],[132.716682,33.703185],[132.717494,33.703227],[132.718544,33.703019],[132.719294,33.702952],[132.719782,33.703035],[132.720406,33.703444],[132.720869,33.704027],[132.721031,33.704069],[132.721244,33.70391],[132.721544,33.703569],[132.721919,33.703527],[132.722219,33.703702],[132.722594,33.704469],[132.722894,33.70481],[132.723119,33.704944],[132.723494,33.704985],[132.724006,33.704852],[132.724356,33.704694],[132.724706,33.704485],[132.725531,33.703627],[132.726131,33.704027],[132.727218,33.704344],[132.727693,33.704252],[132.727968,33.704094],[132.728106,33.704111],[132.728218,33.704294],[132.728181,33.704544],[132.727968,33.705127],[132.728031,33.70551],[132.728281,33.706052],[132.728706,33.70661],[132.729093,33.708352],[132.728993,33.708935],[132.729131,33.709343],[132.729181,33.709718],[132.729431,33.710352],[132.729518,33.710851],[132.729468,33.711301],[132.729256,33.711618],[132.729006,33.712293],[132.729143,33.712676],[132.729256,33.712718],[132.729556,33.712743],[132.729581,33.712851],[132.729606,33.713218],[132.729506,33.713376],[132.729531,33.713484],[132.729693,33.713618],[132.730093,33.713276],[132.730418,33.712876],[132.73103,33.711926],[132.731968,33.710818],[132.732218,33.710077],[132.73248,33.70976],[132.732618,33.709668],[132.733418,33.708852],[132.733718,33.708469],[132.73398,33.708285],[132.73468,33.707994],[132.734905,33.707769],[132.734955,33.707519],[132.734893,33.707085],[132.735143,33.706769],[132.735992,33.705961],[132.736342,33.705369],[132.73658,33.704877],[132.737092,33.704261],[132.738492,33.703153],[132.739217,33.702811],[132.739842,33.702653],[132.74073,33.702469],[132.741854,33.702061],[132.742367,33.701995],[132.742754,33.701853],[132.742829,33.701586],[132.742804,33.70107],[132.742954,33.700686],[132.743067,33.700528],[132.743442,33.700411],[132.745204,33.70052],[132.745929,33.700495],[132.746254,33.700378],[132.747054,33.699903],[132.747209,33.699825],[132.747354,33.699745],[132.747404,33.699745],[132.747445,33.699855],[132.747566,33.699912],[132.747991,33.69977],[132.748204,33.699678],[132.748779,33.698462],[132.749316,33.698112],[132.749854,33.698295],[132.750403,33.69867],[132.751078,33.698937],[132.752003,33.699178],[132.752678,33.699503],[132.753515,33.699745],[132.754515,33.699787],[132.755815,33.699978],[132.75689,33.700012],[132.757377,33.700053],[132.758827,33.700287],[132.760052,33.700553],[132.760539,33.70142],[132.761002,33.701828],[132.762489,33.701812],[132.763577,33.702228],[132.763871,33.702465],[132.764826,33.703145],[132.765376,33.703953],[132.766239,33.704461],[132.766676,33.704661],[132.765689,33.705053],[132.765176,33.705503],[132.764626,33.706519],[132.763989,33.707428],[132.763701,33.708194],[132.763264,33.710152],[132.763226,33.710744],[132.762976,33.712294],[132.762764,33.71261],[132.761876,33.713277],[132.761164,33.714243],[132.760614,33.715335],[132.759839,33.716151],[132.759439,33.716801],[132.759477,33.717526],[132.759214,33.718201],[132.759089,33.718943],[132.759889,33.720718],[132.759764,33.721034],[132.759314,33.721851],[132.758939,33.722409],[132.757877,33.722851],[132.756939,33.723325],[132.755639,33.723517],[132.755539,33.723609],[132.755427,33.723834],[132.754102,33.725309],[132.75389,33.725492],[132.752865,33.7257],[132.752402,33.725658],[132.751078,33.725333],[132.74989,33.725208],[132.749065,33.725417],[132.748141,33.725267],[132.747166,33.725075],[132.746978,33.725058],[132.745466,33.725042],[132.744904,33.725108],[132.744741,33.7252],[132.744316,33.725942],[132.744254,33.726167],[132.744379,33.727075],[132.744291,33.72775],[132.744191,33.72795],[132.744054,33.728066],[132.743191,33.728408],[132.742954,33.728583],[132.742791,33.728791],[132.742741,33.729041],[132.742741,33.729508],[132.742791,33.729891],[132.742716,33.730499],[132.742454,33.731041],[132.742591,33.731541],[132.742804,33.732032],[132.743191,33.732757],[132.743379,33.732982],[132.743629,33.733449],[132.742816,33.733774],[132.742416,33.733865],[132.740817,33.734115],[132.740417,33.73414],[132.740117,33.734249],[132.739579,33.734657],[132.738929,33.735065],[132.738342,33.735473],[132.737205,33.73579],[132.73683,33.735973],[132.736705,33.736132],[132.73638,33.736582],[132.736355,33.736857],[132.736492,33.737057],[132.736705,33.737282],[132.73703,33.737665],[132.73728,33.738073],[132.737305,33.738381],[132.73728,33.738698],[132.737342,33.738948],[132.737805,33.739665],[132.73818,33.740656],[132.738367,33.740773],[132.738692,33.740856],[132.739242,33.740923],[132.739642,33.741039],[132.740154,33.741281],[132.740567,33.741531],[132.740917,33.742181],[132.741729,33.742364],[132.742029,33.742514],[132.742604,33.743464],[132.743304,33.743864],[132.744191,33.744264],[132.744878,33.744831],[132.745691,33.745889],[132.746103,33.746489],[132.746403,33.747172],[132.746653,33.748405],[132.746653,33.748947],[132.746578,33.749672],[132.746466,33.750005],[132.746228,33.750613],[132.746153,33.750705],[132.746016,33.751047],[132.745878,33.751272],[132.745078,33.752246],[132.744379,33.75283],[132.743791,33.753321],[132.743541,33.753913],[132.742891,33.755104],[132.742054,33.756004],[132.742191,33.756704],[132.742266,33.756904],[132.741991,33.757288],[132.741692,33.757604],[132.742266,33.758279],[132.743116,33.758954],[132.744679,33.759454],[132.745604,33.759346],[132.747066,33.759079],[132.747441,33.758837],[132.747678,33.758629],[132.748253,33.758562],[132.749578,33.758762],[132.750415,33.759071],[132.75104,33.759571],[132.751415,33.759612],[132.75279,33.759962],[132.754177,33.760279],[132.754927,33.760254],[132.755365,33.760412],[132.75609,33.760404],[132.757015,33.760737],[132.757577,33.760246],[132.758714,33.759787],[132.758952,33.759837],[132.759064,33.760371],[132.759389,33.761187],[132.759564,33.762037],[132.760052,33.762645],[132.760427,33.763187],[132.761377,33.763654],[132.761814,33.764037],[132.761839,33.764395],[132.761927,33.764737],[132.762639,33.766395],[132.762677,33.767612],[132.762864,33.768087],[132.762464,33.768578],[132.762227,33.769278],[132.762227,33.769887],[132.762152,33.770137],[132.762227,33.77072],[132.763314,33.771012],[132.765239,33.771637],[132.765701,33.77197],[132.766926,33.773812],[132.768139,33.774603],[132.769101,33.775587],[132.769314,33.775703],[132.771051,33.776978],[132.771951,33.77772],[132.772326,33.778503],[132.772626,33.77882],[132.772713,33.778995],[132.772738,33.780053],[132.772826,33.780303],[132.773176,33.780711],[132.773563,33.781453],[132.773913,33.782286],[132.774226,33.783269],[132.774338,33.784352],[132.774401,33.785861],[132.774313,33.788452],[132.772901,33.788752],[132.771663,33.789093],[132.770939,33.78986],[132.770701,33.790802],[132.770676,33.790943],[132.770564,33.791102],[132.769976,33.791593],[132.769789,33.792068],[132.769576,33.79286],[132.769264,33.793535],[132.769451,33.794051],[132.770239,33.795084],[132.770489,33.795534],[132.770701,33.795759]]],"type":"Polygon"},"properties":{"yomi":"しもうきあな","name":"下浮穴","pref":"愛媛県","kuni_id":"K61","id_url":"G61013.html","kuni_url":"/kg/resource/K61.html","kuni":"伊予","id":"G61013"},"type":"Feature"}]}