{"type":"FeatureCollection","features":[{"geometry":{"coordinates":[[[130.408032,33.610847],[130.408524,33.610727],[130.409182,33.610455],[130.40987,33.610164],[130.410432,33.609897],[130.41072,33.609714],[130.410957,33.610005],[130.411957,33.60958],[130.41147,33.608789],[130.41322,33.607922],[130.413107,33.607764],[130.413407,33.607656],[130.413307,33.607431],[130.413932,33.607031],[130.414795,33.606922],[130.41487,33.606631],[130.41522,33.606181],[130.415432,33.606047],[130.415907,33.606231],[130.416519,33.606731],[130.416957,33.607272],[130.417657,33.608381],[130.417769,33.608497],[130.418519,33.608264],[130.418669,33.608339],[130.418932,33.608697],[130.419044,33.608806],[130.419419,33.608664],[130.419944,33.608356],[130.420669,33.607481],[130.420757,33.607147],[130.422594,33.606348],[130.422882,33.607456],[130.423181,33.608189],[130.423569,33.609447],[130.423806,33.609897],[130.424256,33.61028],[130.424606,33.611122],[130.424644,33.611255],[130.424931,33.611189],[130.424994,33.611155],[130.424931,33.610897],[130.424744,33.610489],[130.424581,33.609314],[130.424419,33.608822],[130.424469,33.608647],[130.424681,33.608214],[130.424956,33.607889],[130.425281,33.607806],[130.426331,33.608314],[130.426544,33.608314],[130.426969,33.608439],[130.427494,33.608681],[130.427694,33.608214],[130.429694,33.609106],[130.429244,33.609622],[130.429056,33.610089],[130.429119,33.610455],[130.429193,33.610539],[130.429406,33.610664],[130.430293,33.610055],[130.431431,33.609356],[130.432106,33.609047],[130.432531,33.608714],[130.433156,33.608114],[130.433468,33.607914],[130.434343,33.607872],[130.434881,33.607947],[130.435293,33.607856],[130.435918,33.607431],[130.436156,33.607364],[130.436706,33.607281],[130.437243,33.607056],[130.437831,33.606656],[130.43868,33.606348],[130.439168,33.606331],[130.440343,33.606498],[130.441193,33.606706],[130.44223,33.606398],[130.442855,33.605698],[130.44308,33.605631],[130.443505,33.605681],[130.443605,33.605656],[130.444818,33.605081],[130.445318,33.604931],[130.445917,33.604931],[130.446367,33.604956],[130.446792,33.604873],[130.447317,33.604623],[130.447842,33.604223],[130.448255,33.603856],[130.448605,33.603265],[130.44883,33.602931],[130.449292,33.60274],[130.449455,33.60269],[130.449967,33.602781],[130.450405,33.60274],[130.450667,33.602448],[130.450705,33.602256],[130.450626,33.602078],[130.45058,33.601865],[130.450617,33.601282],[130.450942,33.601207],[130.451517,33.601248],[130.45168,33.600948],[130.452167,33.60084],[130.452317,33.600632],[130.45278,33.600165],[130.45303,33.599848],[130.453567,33.598982],[130.453992,33.598265],[130.454742,33.597749],[130.454979,33.59754],[130.455204,33.597307],[130.455242,33.596957],[130.455292,33.596732],[130.455467,33.596307],[130.455642,33.596149],[130.456017,33.596282],[130.456179,33.596316],[130.456092,33.596632],[130.456504,33.596682],[130.456779,33.596607],[130.456954,33.596657],[130.456954,33.596715],[130.457079,33.59679],[130.457292,33.596899],[130.457392,33.596932],[130.458292,33.596982],[130.458867,33.596965],[130.459217,33.596899],[130.459467,33.596607],[130.459854,33.596249],[130.460079,33.595932],[130.460354,33.595732],[130.460392,33.595582],[130.460542,33.595391],[130.460492,33.595199],[130.460492,33.594974],[130.460629,33.594716],[130.460804,33.594416],[130.461254,33.594191],[130.461679,33.593849],[130.462066,33.593641],[130.462366,33.593158],[130.462616,33.592883],[130.462604,33.592533],[130.462616,33.592349],[130.462729,33.592166],[130.462991,33.592066],[130.463216,33.591841],[130.463279,33.591658],[130.463516,33.59125],[130.463804,33.590966],[130.463929,33.590908],[130.464091,33.590841],[130.464291,33.590775],[130.464541,33.590575],[130.464654,33.59035],[130.465054,33.590008],[130.465379,33.589983],[130.465591,33.589983],[130.465891,33.589733],[130.466516,33.588642],[130.466941,33.587767],[130.467216,33.5875],[130.467616,33.587325],[130.468091,33.587192],[130.468491,33.587167],[130.468853,33.587192],[130.469278,33.587084],[130.469778,33.586709],[130.470003,33.586217],[130.470728,33.585959],[130.471191,33.585734],[130.471616,33.585292],[130.471916,33.584892],[130.472418,33.584341],[130.472889,33.58389],[130.473178,33.583617],[130.473438,33.583283],[130.473703,33.582701],[130.473903,33.582276],[130.473878,33.581984],[130.473966,33.581684],[130.474716,33.581126],[130.47509,33.580926],[130.475278,33.580676],[130.475365,33.580135],[130.475228,33.579726],[130.475278,33.579368],[130.475603,33.578893],[130.475878,33.578418],[130.47654,33.578076],[130.476765,33.577852],[130.47694,33.577718],[130.477165,33.577718],[130.47754,33.577718],[130.477728,33.577377],[130.477853,33.577118],[130.477953,33.576877],[130.478403,33.576127],[130.478515,33.575652],[130.478671,33.575354],[130.478678,33.574994],[130.478838,33.57458],[130.47919,33.574185],[130.479328,33.573677],[130.47924,33.57336],[130.47929,33.573152],[130.479453,33.572977],[130.479428,33.572652],[130.478603,33.572002],[130.47854,33.571619],[130.478303,33.570994],[130.47784,33.570486],[130.477628,33.570103],[130.477366,33.569178],[130.477253,33.568553],[130.47725,33.568188],[130.477291,33.567328],[130.477603,33.56722],[130.478365,33.567228],[130.478815,33.567311],[130.479253,33.567136],[130.47949,33.56707],[130.479815,33.56707],[130.480028,33.567161],[130.480565,33.567478],[130.480743,33.567585],[130.481028,33.567695],[130.481178,33.56772],[130.481315,33.567695],[130.481803,33.567411],[130.482315,33.567245],[130.482365,33.567186],[130.482228,33.566911],[130.481753,33.566195],[130.481615,33.565536],[130.48164,33.564995],[130.482265,33.564478],[130.482365,33.564362],[130.482528,33.563887],[130.48259,33.563437],[130.482828,33.562945],[130.48334,33.56242],[130.484415,33.561954],[130.484927,33.561479],[130.485515,33.560579],[130.485677,33.560237],[130.48549,33.559862],[130.485015,33.559296],[130.485202,33.558846],[130.485202,33.558462],[130.484852,33.558121],[130.484252,33.557846],[130.48329,33.557663],[130.482428,33.557396],[130.481753,33.557004],[130.481353,33.556588],[130.480415,33.555163],[130.479928,33.554596],[130.479503,33.554171],[130.479453,33.553721],[130.478966,33.553338],[130.478728,33.553221],[130.478241,33.552863],[130.477753,33.552705],[130.477303,33.552855],[130.476603,33.55263],[130.476228,33.552471],[130.476066,33.552663],[130.476066,33.55273],[130.476041,33.552788],[130.476028,33.552805],[130.476028,33.552855],[130.476003,33.552896],[130.475953,33.552996],[130.475928,33.553046],[130.475903,33.553071],[130.475866,33.55313],[130.475828,33.553171],[130.475803,33.553205],[130.475766,33.553221],[130.475728,33.553246],[130.475678,33.553263],[130.475578,33.553288],[130.475528,33.553288],[130.475466,33.553288],[130.475428,33.553288],[130.475328,33.55328],[130.475278,33.553263],[130.475216,33.553255],[130.475154,33.553238],[130.475066,33.553238],[130.474954,33.553221],[130.474891,33.553213],[130.474804,33.553213],[130.473941,33.553213],[130.473666,33.553263],[130.473379,33.553396],[130.473054,33.553821],[130.472641,33.554771],[130.472354,33.555088],[130.471404,33.555737],[130.471004,33.556121],[130.470954,33.556596],[130.471004,33.557087],[130.471191,33.557512],[130.471191,33.557704],[130.471004,33.558087],[130.470217,33.558512],[130.469467,33.558829],[130.468692,33.559279],[130.468392,33.559662],[130.467954,33.561012],[130.467692,33.561553],[130.467367,33.561978],[130.467092,33.562228],[130.466904,33.562586],[130.466504,33.563036],[130.465404,33.563528],[130.464917,33.563578],[130.46473,33.563286],[130.464405,33.562903],[130.464142,33.562653],[130.46389,33.562523],[130.463417,33.562403],[130.46253,33.562245],[130.461767,33.562045],[130.46113,33.561745],[130.46073,33.561503],[130.460505,33.561295],[130.460805,33.561045],[130.461199,33.560883],[130.461742,33.560687],[130.462236,33.560467],[130.462792,33.560145],[130.46338,33.559528],[130.463892,33.558953],[130.465892,33.55672],[130.466417,33.556154],[130.467017,33.555487],[130.467379,33.555146],[130.467924,33.554554],[130.468253,33.554269],[130.468676,33.553847],[130.468823,33.553713],[130.469099,33.55354],[130.469479,33.553213],[130.469717,33.552738],[130.469929,33.551996],[130.470092,33.551246],[130.470367,33.550663],[130.470742,33.550255],[130.470904,33.549788],[130.470792,33.549472],[130.470179,33.549222],[130.468967,33.548205],[130.468622,33.547976],[130.468542,33.547688],[130.470267,33.545005],[130.470454,33.54478],[130.470604,33.544505],[130.470966,33.544372],[130.471091,33.544214],[130.470657,33.544144],[130.470666,33.543922],[130.470604,33.542797],[130.469642,33.542864],[130.468629,33.542139],[130.469304,33.541572],[130.468467,33.540831],[130.468942,33.539906],[130.467929,33.538773],[130.468941,33.53794],[130.470866,33.538465],[130.471141,33.538654],[130.471316,33.538781],[130.471804,33.538265],[130.473091,33.539281],[130.474116,33.538265],[130.474216,33.538306],[130.474728,33.537881],[130.474603,33.537656],[130.477078,33.535657],[130.476316,33.53484],[130.476453,33.534615],[130.475728,33.533757],[130.475816,33.533324],[130.476053,33.532924],[130.476141,33.53249],[130.476141,33.53209],[130.475916,33.532124],[130.475603,33.53174],[130.475328,33.531499],[130.475816,33.530974],[130.475466,33.530657],[130.47589,33.530282],[130.476328,33.530457],[130.476565,33.530299],[130.477103,33.529741],[130.478365,33.528516],[130.478828,33.527866],[130.47904,33.527124],[130.479015,33.526916],[130.478615,33.526674],[130.478428,33.526483],[130.478828,33.526033],[130.479015,33.525749],[130.47854,33.525341],[130.478625,33.525225],[130.478915,33.524866],[130.478803,33.524458],[130.478353,33.524166],[130.47789,33.523941],[130.477565,33.523716],[130.47784,33.523291],[130.477753,33.522791],[130.477353,33.52245],[130.477278,33.522158],[130.477268,33.521519],[130.477253,33.520967],[130.47719,33.5206],[130.477815,33.519983],[130.477865,33.519875],[130.47779,33.519433],[130.47739,33.518983],[130.47714,33.518592],[130.477115,33.518342],[130.476715,33.517592],[130.476478,33.517342],[130.475878,33.516967],[130.475453,33.516534],[130.47524,33.516134],[130.475208,33.515883],[130.475153,33.515675],[130.474803,33.515267],[130.474728,33.514984],[130.475128,33.514525],[130.475153,33.514167],[130.474753,33.513442],[130.47449,33.513126],[130.47424,33.512651],[130.47424,33.512134],[130.474353,33.512042],[130.474865,33.512951],[130.47519,33.513267],[130.47529,33.513334],[130.475378,33.513242],[130.47564,33.512742],[130.475828,33.512134],[130.475828,33.511801],[130.475728,33.511392],[130.475753,33.511209],[130.476215,33.510851],[130.47694,33.510651],[130.476965,33.510576],[130.476615,33.510418],[130.47659,33.510393],[130.476503,33.510351],[130.476428,33.510251],[130.476403,33.510193],[130.476403,33.510126],[130.476428,33.510059],[130.476453,33.509993],[130.476478,33.509951],[130.476503,33.509918],[130.47654,33.509876],[130.476615,33.509784],[130.476653,33.509684],[130.476678,33.509584],[130.47669,33.509493],[130.476715,33.509401],[130.476715,33.509343],[130.476703,33.509293],[130.476628,33.509209],[130.476528,33.509201],[130.476478,33.509201],[130.476403,33.509218],[130.47629,33.509284],[130.476165,33.509376],[130.476078,33.509434],[130.475978,33.509476],[130.475903,33.509493],[130.475828,33.509476],[130.47579,33.509443],[130.475753,33.509376],[130.475715,33.509309],[130.475703,33.509201],[130.475653,33.509034],[130.47564,33.509009],[130.475603,33.508926],[130.475578,33.508868],[130.475553,33.508834],[130.475515,33.508818],[130.47539,33.508768],[130.475353,33.508768],[130.47524,33.508793],[130.475128,33.508818],[130.47504,33.508826],[130.474953,33.508868],[130.474878,33.508926],[130.474778,33.509034],[130.47474,33.509143],[130.474603,33.509401],[130.474553,33.509468],[130.47449,33.509551],[130.474428,33.509618],[130.474365,33.509659],[130.47424,33.509718],[130.47419,33.509718],[130.47414,33.509693],[130.474065,33.509659],[130.473915,33.509584],[130.47384,33.509559],[130.473503,33.509426],[130.472941,33.509476],[130.472866,33.509493],[130.472803,33.509509],[130.472703,33.509509],[130.472578,33.509509],[130.472403,33.509493],[130.472161,33.509499],[130.471691,33.509584],[130.471241,33.509809],[130.470541,33.509967],[130.470116,33.510259],[130.469953,33.510292],[130.469466,33.510192],[130.469078,33.510009],[130.468928,33.509601],[130.468798,33.509492],[130.468691,33.509509],[130.468578,33.509509],[130.468403,33.509059],[130.468179,33.508751],[130.467804,33.508426],[130.467316,33.508067],[130.466641,33.507751],[130.465279,33.507384],[130.464416,33.507176],[130.463879,33.507017],[130.462917,33.506384],[130.462054,33.506067],[130.462004,33.506017],[130.462142,33.505234],[130.462004,33.504951],[130.461542,33.504851],[130.461379,33.504734],[130.461192,33.504401],[130.460792,33.503951],[130.459879,33.503409],[130.459667,33.502801],[130.459517,33.502626],[130.459192,33.502509],[130.45833,33.502576],[130.45793,33.502534],[130.457167,33.502376],[130.456655,33.502309],[130.45653,33.502234],[130.456117,33.501784],[130.45593,33.501451],[130.455742,33.500926],[130.455555,33.500726],[130.455342,33.500684],[130.454967,33.500767],[130.45473,33.500859],[130.454455,33.500901],[130.454055,33.500901],[130.453543,33.501059],[130.453105,33.501442],[130.45303,33.501667],[130.452943,33.501759],[130.452843,33.501734],[130.452405,33.501334],[130.452218,33.501192],[130.45203,33.500992],[130.451868,33.500634],[130.45163,33.499934],[130.451468,33.499792],[130.450768,33.499459],[130.450455,33.498984],[130.450418,33.498892],[130.450318,33.498784],[130.45083,33.498351],[130.450905,33.497676],[130.451343,33.497093],[130.45153,33.496684],[130.45153,33.496434],[130.451393,33.496009],[130.45083,33.495509],[130.450693,33.495309],[130.45073,33.494951],[130.450855,33.494701],[130.45108,33.494451],[130.451155,33.494159],[130.451155,33.493843],[130.45108,33.492918],[130.45113,33.492535],[130.451318,33.492243],[130.451455,33.491901],[130.451593,33.491001],[130.451643,33.490885],[130.451805,33.490818],[130.45248,33.49091],[130.45253,33.490868],[130.45258,33.49071],[130.453018,33.490035],[130.453318,33.489535],[130.453368,33.489177],[130.453343,33.48841],[130.453105,33.487894],[130.452893,33.487577],[130.452505,33.487102],[130.452218,33.486494],[130.45213,33.48611],[130.45213,33.485752],[130.452243,33.48541],[130.45273,33.485319],[130.452918,33.48516],[130.452968,33.484461],[130.453105,33.483969],[130.453355,33.483294],[130.453355,33.483069],[130.453005,33.482277],[130.452943,33.481986],[130.453005,33.481711],[130.45333,33.481128],[130.453405,33.480811],[130.453592,33.479928],[130.453842,33.479528],[130.454167,33.479211],[130.45473,33.478803],[130.454992,33.478561],[130.455367,33.478103],[130.455755,33.47727],[130.456105,33.477137],[130.456155,33.477028],[130.456267,33.47637],[130.456242,33.476037],[130.45613,33.475762],[130.455967,33.475653],[130.455217,33.475087],[130.454217,33.474787],[130.45403,33.474637],[130.454092,33.474453],[130.454442,33.474112],[130.454517,33.473937],[130.454542,33.473303],[130.45463,33.47312],[130.454867,33.473053],[130.455105,33.472895],[130.455267,33.47272],[130.455492,33.472379],[130.455592,33.472087],[130.455567,33.471862],[130.455467,33.471704],[130.45533,33.471387],[130.455305,33.471112],[130.455467,33.470804],[130.45573,33.470554],[130.456192,33.47042],[130.456704,33.47042],[130.457479,33.470554],[130.457829,33.470487],[130.458185,33.470608],[130.458529,33.470937],[130.458792,33.471096],[130.459042,33.471096],[130.459442,33.471054],[130.461029,33.470696],[130.461679,33.470288],[130.462079,33.470179],[130.462216,33.470088],[130.462316,33.469888],[130.462354,33.469679],[130.462479,33.469388],[130.463104,33.468938],[130.463366,33.468896],[130.464879,33.46948],[130.465229,33.469638],[130.465329,33.469663],[130.465516,33.469613],[130.465654,33.469438],[130.465816,33.468855],[130.465766,33.468738],[130.465716,33.468263],[130.465554,33.468105],[130.465254,33.467971],[130.465116,33.467771],[130.465179,33.467113],[130.465304,33.466822],[130.465491,33.466638],[130.465766,33.46648],[130.466004,33.466397],[130.466254,33.466347],[130.465954,33.465713],[130.465766,33.465472],[130.465466,33.46533],[130.465129,33.465288],[130.464504,33.465105],[130.464266,33.464947],[130.464179,33.464722],[130.464241,33.464247],[130.464429,33.463688],[130.464404,33.463388],[130.464291,33.463122],[130.464241,33.462738],[130.464341,33.462422],[130.464341,33.462155],[130.464079,33.462038],[130.463654,33.461972],[130.462954,33.461813],[130.461229,33.461155],[130.460829,33.46093],[130.460316,33.460071],[130.460079,33.459938],[130.459804,33.45953],[130.459754,33.45908],[130.459704,33.458963],[130.459516,33.458671],[130.459241,33.458488],[130.458029,33.45793],[130.457629,33.45763],[130.457392,33.457363],[130.457554,33.457163],[130.457929,33.456638],[130.458229,33.456055],[130.458416,33.455897],[130.459241,33.455672],[130.459404,33.455447],[130.459466,33.455155],[130.459379,33.454813],[130.459241,33.454747],[130.458441,33.45448],[130.458204,33.454272],[130.458116,33.45398],[130.458116,33.453663],[130.458066,33.453213],[130.457879,33.452897],[130.457829,33.452697],[130.457854,33.452513],[130.457992,33.452355],[130.458067,33.452105],[130.458092,33.451747],[130.458254,33.451363],[130.458742,33.451114],[130.459279,33.450714],[130.459604,33.450597],[130.460029,33.450505],[130.460329,33.45033],[130.460379,33.450214],[130.460354,33.449989],[130.460191,33.449814],[130.460116,33.449539],[130.460142,33.448972],[130.460279,33.448389],[130.460192,33.447964],[130.460004,33.447739],[130.459954,33.447514],[130.460067,33.447239],[130.460517,33.446697],[130.460954,33.446447],[130.461117,33.446272],[130.461242,33.445839],[130.461279,33.445256],[130.461167,33.445056],[130.460929,33.444848],[130.460579,33.444623],[130.459717,33.444148],[130.459642,33.444014],[130.459579,33.443723],[130.459454,33.443339],[130.459292,33.443181],[130.458967,33.443131],[130.45813,33.442523],[130.457892,33.442048],[130.45768,33.442031],[130.45728,33.442164],[130.456842,33.442006],[130.45658,33.441331],[130.455805,33.439906],[130.455417,33.439364],[130.45523,33.439023],[130.455042,33.438798],[130.45483,33.43864],[130.454055,33.438215],[130.45373,33.437873],[130.453593,33.437556],[130.453568,33.437081],[130.453605,33.436248],[130.453655,33.436048],[130.453893,33.435915],[130.45408,33.435915],[130.454968,33.436073],[130.45508,33.436115],[130.45543,33.436181],[130.455668,33.436181],[130.455855,33.436115],[130.455943,33.436048],[130.456393,33.434765],[130.456293,33.43434],[130.456505,33.433932],[130.456643,33.433773],[130.456943,33.43294],[130.45748,33.431974],[130.45783,33.431182],[130.457905,33.430774],[130.457318,33.430324],[130.456705,33.429915],[130.456543,33.429782],[130.456643,33.42924],[130.45678,33.428899],[130.457405,33.428991],[130.457718,33.428949],[130.458393,33.428791],[130.458855,33.428791],[130.459443,33.428882],[130.460593,33.429316],[130.460655,33.429291],[130.46113,33.428657],[130.461405,33.428407],[130.461455,33.428232],[130.46068,33.427641],[130.460005,33.427258],[130.459905,33.427241],[130.459768,33.427083],[130.459018,33.425724],[130.45888,33.425591],[130.458155,33.425383],[130.458018,33.424999],[130.458131,33.424008],[130.458293,33.423491],[130.458593,33.4232],[130.458618,33.423133],[130.458568,33.422725],[130.458156,33.4225],[130.458193,33.422183],[130.458168,33.420533],[130.458193,33.420242],[130.458206,33.419975],[130.458206,33.41995],[130.457981,33.419742],[130.457531,33.419609],[130.456781,33.419492],[130.456306,33.419458],[130.455506,33.4195],[130.454806,33.419583],[130.454256,33.4197],[130.453118,33.419867],[130.452494,33.4198],[130.451844,33.419542],[130.451494,33.419342],[130.450956,33.418925],[130.450731,33.418858],[130.449719,33.41885],[130.449444,33.418875],[130.449019,33.419025],[130.448744,33.419075],[130.448269,33.419091],[130.447644,33.419],[130.446919,33.4187],[130.445969,33.418192],[130.444894,33.417375],[130.444507,33.416967],[130.444082,33.416442],[130.443407,33.416167],[130.443057,33.415942],[130.442357,33.415692],[130.441932,33.415234],[130.441745,33.414942],[130.441245,33.414401],[130.441195,33.414326],[130.44132,33.413834],[130.441482,33.413359],[130.441432,33.412976],[130.441132,33.412384],[130.440932,33.412143],[130.43997,33.411476],[130.43982,33.411293],[130.43987,33.411051],[130.440145,33.410826],[130.441183,33.410176],[130.441233,33.410001],[130.440808,33.409726],[130.440383,33.409252],[130.44027,33.409043],[130.439995,33.408368],[130.439545,33.407619],[130.439383,33.407027],[130.439258,33.406469],[130.438821,33.405811],[130.438571,33.405586],[130.438371,33.405419],[130.437096,33.404944],[130.437046,33.404802],[130.437071,33.404352],[130.437308,33.403636],[130.437846,33.402711],[130.437896,33.401786],[130.438133,33.40102],[130.438215,33.400744],[130.438233,33.400686],[130.438248,33.400604],[130.438171,33.400187],[130.438021,33.399987],[130.437696,33.399803],[130.437471,33.399753],[130.437196,33.399595],[130.436971,33.39957],[130.436721,33.399503],[130.436471,33.399387],[130.435721,33.398862],[130.435121,33.398795],[130.434346,33.398587],[130.433971,33.398629],[130.433371,33.398712],[130.432971,33.398728],[130.432596,33.398703],[130.432121,33.39857],[130.431297,33.398087],[130.430722,33.397928],[130.430522,33.397787],[130.430297,33.39752],[130.430122,33.397429],[130.429072,33.397129],[130.428797,33.396987],[130.428497,33.39692],[130.428097,33.397003],[130.427797,33.397187],[130.427384,33.397612],[130.427034,33.397812],[130.42661,33.397895],[130.42591,33.397962],[130.42501,33.398086],[130.424497,33.398311],[130.424247,33.398378],[130.423647,33.398436],[130.422197,33.39852],[130.421872,33.398611],[130.421585,33.398811],[130.42141,33.398986],[130.420685,33.399461],[130.420485,33.399678],[130.420223,33.400219],[130.419998,33.400536],[130.419748,33.400736],[130.41916,33.401069],[130.418835,33.401136],[130.41871,33.401111],[130.418485,33.401002],[130.41811,33.400703],[130.417785,33.400494],[130.417135,33.400286],[130.41681,33.400111],[130.416273,33.399403],[130.415973,33.399178],[130.415648,33.399036],[130.415298,33.398994],[130.414398,33.398961],[130.414148,33.398869],[130.414023,33.398778],[130.413698,33.398236],[130.413648,33.398011],[130.413711,33.397694],[130.413986,33.397136],[130.413811,33.396728],[130.413198,33.395978],[130.412874,33.39577],[130.412274,33.395628],[130.411799,33.395494],[130.411474,33.395245],[130.411226,33.395141],[130.411024,33.395128],[130.410711,33.395978],[130.410386,33.396294],[130.410311,33.396319],[130.409224,33.396894],[130.408599,33.397519],[130.408286,33.397952],[130.407761,33.398511],[130.407636,33.398761],[130.407549,33.399094],[130.407624,33.399927],[130.407686,33.401669],[130.407774,33.402277],[130.407899,33.402394],[130.408449,33.402552],[130.408899,33.40276],[130.409599,33.402969],[130.409849,33.403102],[130.410148,33.403535],[130.410348,33.403652],[130.410898,33.403835],[130.411086,33.403944],[130.411361,33.404627],[130.411736,33.40506],[130.411886,33.405377],[130.412048,33.405643],[130.412248,33.405827],[130.412548,33.406235],[130.412723,33.406643],[130.413161,33.40721],[130.413485,33.407393],[130.41366,33.407418],[130.413835,33.407485],[130.41421,33.407826],[130.41441,33.408076],[130.41471,33.408576],[130.414973,33.40916],[130.415148,33.409343],[130.415523,33.409551],[130.415523,33.409618],[130.415248,33.410226],[130.415298,33.410359],[130.415398,33.410409],[130.415748,33.410434],[130.416573,33.410276],[130.416847,33.41026],[130.416822,33.410443],[130.416647,33.410551],[130.415835,33.410884],[130.41476,33.411034],[130.41411,33.411051],[130.41386,33.411159],[130.413423,33.411518],[130.412648,33.411834],[130.411923,33.412167],[130.410886,33.412834],[130.410398,33.413259],[130.410173,33.413392],[130.409223,33.413409],[130.408348,33.413834],[130.407536,33.414342],[130.407411,33.414525],[130.407411,33.414775],[130.407423,33.415425],[130.407273,33.415584],[130.406898,33.415758],[130.406723,33.415783],[130.405136,33.416133],[130.404811,33.416242],[130.404511,33.416492],[130.404099,33.417117],[130.403949,33.4173],[130.403699,33.417433],[130.403449,33.417675],[130.403424,33.417791],[130.403436,33.418041],[130.403636,33.418516],[130.403686,33.418808],[130.403611,33.418991],[130.403024,33.419391],[130.402924,33.419525],[130.402824,33.419816],[130.402686,33.419974],[130.402761,33.419999],[130.402599,33.420299],[130.402386,33.420541],[130.401949,33.420749],[130.401361,33.420833],[130.401311,33.420858],[130.401174,33.421241],[130.401124,33.421599],[130.400874,33.421808],[130.400711,33.421824],[130.400262,33.421808],[130.399374,33.421649],[130.399024,33.421649],[130.398649,33.421874],[130.398374,33.422182],[130.398349,33.422299],[130.398274,33.422366],[130.398087,33.422749],[130.398024,33.423266],[130.398162,33.423582],[130.398749,33.424216],[130.398987,33.42444],[130.399049,33.424599],[130.399049,33.424824],[130.398862,33.425099],[130.398637,33.425274],[130.398162,33.425499],[130.398049,33.426474],[130.397912,33.426674],[130.397774,33.426782],[130.397424,33.426965],[130.396562,33.427532],[130.396349,33.427573],[130.396212,33.427573],[130.396024,33.427507],[130.395787,33.427523],[130.395712,33.427773],[130.396049,33.428115],[130.396399,33.428207],[130.396649,33.428473],[130.396887,33.428998],[130.397474,33.43019],[130.397612,33.430706],[130.397474,33.430798],[130.396587,33.430865],[130.396024,33.431698],[130.395887,33.432014],[130.396124,33.432148],[130.396987,33.432448],[130.397437,33.432673],[130.397662,33.432806],[130.396849,33.433639],[130.396499,33.434139],[130.396199,33.434764],[130.396199,33.435056],[130.396274,33.435372],[130.395899,33.436205],[130.395762,33.436889],[130.395712,33.43763],[130.395737,33.438372],[130.395949,33.43943],[130.395999,33.440288],[130.396212,33.44038],[130.397099,33.440313],[130.397424,33.440155],[130.398449,33.439122],[130.398686,33.438938],[130.399149,33.438872],[130.399411,33.438763],[130.399736,33.438697],[130.401224,33.43818],[130.401861,33.437864],[130.402398,33.437322],[130.402673,33.437122],[130.403023,33.43703],[130.403048,33.43728],[130.403023,33.43768],[130.403123,33.438089],[130.403261,33.438272],[130.403398,33.438314],[130.403986,33.438672],[130.404223,33.438922],[130.404573,33.439913],[130.404436,33.440505],[130.404223,33.44073],[130.404011,33.440838],[130.403261,33.441247],[130.402873,33.441655],[130.402586,33.442055],[130.402448,33.442663],[130.402223,33.443255],[130.401986,33.443255],[130.401399,33.443138],[130.400536,33.442863],[130.400236,33.442863],[130.399674,33.443246],[130.399411,33.443696],[130.399161,33.444221],[130.398949,33.444913],[130.398927,33.44544],[130.398924,33.445837],[130.398999,33.446379],[130.399286,33.447529],[130.399424,33.448304],[130.399286,33.44877],[130.399024,33.449179],[130.398511,33.449629],[130.397861,33.449879],[130.397299,33.44992],[130.397086,33.449962],[130.396436,33.450504],[130.396137,33.450645],[130.395712,33.450754],[130.395337,33.450778],[130.394924,33.450845],[130.394474,33.451162],[130.393212,33.451245],[130.392937,33.451403],[130.391724,33.452462],[130.391462,33.45262],[130.391137,33.452662],[130.39065,33.452687],[130.39065,33.452712],[130.390575,33.452736],[130.38955,33.45352],[130.3886,33.45442],[130.388362,33.454736],[130.387825,33.455053],[130.387762,33.45512],[130.387412,33.455953],[130.387362,33.456269],[130.387475,33.456744],[130.387437,33.457128],[130.387275,33.457378],[130.386925,33.457778],[130.386387,33.458227],[130.385962,33.458769],[130.3859,33.459019],[130.38615,33.459536],[130.386337,33.459744],[130.386675,33.460261],[130.386762,33.460577],[130.386737,33.460844],[130.3866,33.461052],[130.386275,33.461277],[130.3859,33.461594],[130.385687,33.462019],[130.386187,33.463552],[130.386512,33.464293],[130.386837,33.464927],[130.386962,33.465085],[130.38785,33.46556],[130.388037,33.465835],[130.387987,33.466193],[130.387737,33.466843],[130.38755,33.467052],[130.386987,33.467476],[130.386712,33.467793],[130.386125,33.468601],[130.385962,33.468918],[130.38585,33.469593],[130.385825,33.470293],[130.385612,33.470726],[130.38515,33.471418],[130.3848,33.471868],[130.384475,33.472368],[130.384287,33.472934],[130.384012,33.474442],[130.3839,33.474692],[130.383062,33.475276],[130.382775,33.475726],[130.3828,33.476176],[130.3829,33.476292],[130.383012,33.476584],[130.382925,33.476917],[130.382638,33.477217],[130.382575,33.477326],[130.3826,33.477709],[130.38268,33.477927],[130.382638,33.478117],[130.3825,33.478251],[130.382388,33.478634],[130.382338,33.479175],[130.382175,33.479359],[130.3819,33.479375],[130.3816,33.479534],[130.381388,33.47985],[130.381175,33.480617],[130.381225,33.481884],[130.381363,33.482692],[130.381725,33.484067],[130.38175,33.484383],[130.381588,33.484608],[130.381375,33.485108],[130.381213,33.485667],[130.381188,33.486208],[130.381325,33.487025],[130.381263,33.487383],[130.381025,33.487792],[130.380888,33.488083],[130.380988,33.488692],[130.380963,33.488958],[130.380588,33.489483],[130.380338,33.489975],[130.38005,33.490716],[130.379588,33.492166],[130.379288,33.492433],[130.3787,33.493199],[130.378663,33.493583],[130.378988,33.494033],[130.37915,33.494124],[130.379225,33.494283],[130.379288,33.494849],[130.37925,33.495366],[130.379275,33.495474],[130.379225,33.495924],[130.379013,33.496424],[130.378763,33.496741],[130.378465,33.49704],[130.378338,33.497374],[130.378113,33.497891],[130.377663,33.498449],[130.376501,33.499441],[130.376013,33.500341],[130.375826,33.500524],[130.375551,33.500657],[130.375476,33.500657],[130.375176,33.500774],[130.375013,33.500882],[130.374801,33.501266],[130.374588,33.501449],[130.373751,33.501807],[130.373513,33.502007],[130.373376,33.502324],[130.373213,33.502615],[130.372751,33.503207],[130.372683,33.503339],[130.372426,33.503565],[130.371813,33.503857],[130.371251,33.504107],[130.371113,33.504332],[130.371063,33.50454],[130.371113,33.50479],[130.371088,33.505149],[130.370576,33.505848],[130.369851,33.506457],[130.369688,33.50664],[130.369501,33.506973],[130.369201,33.507207],[130.368376,33.507298],[130.368151,33.507382],[130.367426,33.508082],[130.367451,33.508448],[130.367426,33.508965],[130.367351,33.509282],[130.367113,33.509848],[130.366438,33.510706],[130.366113,33.511023],[130.365901,33.51129],[130.365738,33.51134],[130.365501,33.51134],[130.365201,33.511406],[130.364963,33.511515],[130.364551,33.512065],[130.364588,33.512173],[130.365263,33.51274],[130.365526,33.513073],[130.365826,33.513598],[130.365801,33.514048],[130.365376,33.515581],[130.365151,33.516481],[130.365126,33.516823],[130.365263,33.517748],[130.365775,33.517814],[130.366213,33.517789],[130.3672,33.517456],[130.367663,33.517206],[130.367988,33.516906],[130.368313,33.516681],[130.36855,33.516589],[130.369863,33.516481],[130.37105,33.516431],[130.37235,33.516523],[130.3726,33.516548],[130.372683,33.516487],[130.374313,33.515815],[130.375313,33.515815],[130.375288,33.516223],[130.375427,33.5166],[130.375663,33.516831],[130.375688,33.51709],[130.375662,33.517398],[130.375675,33.518706],[130.375737,33.519139],[130.376,33.519839],[130.3767,33.520873],[130.37705,33.521281],[130.377075,33.521556],[130.377257,33.521947],[130.377662,33.522322],[130.3784,33.522639],[130.379,33.522797],[130.379325,33.522972],[130.379462,33.523539],[130.379512,33.524106],[130.379749,33.524556],[130.380449,33.525047],[130.381524,33.525956],[130.382037,33.526256],[130.382537,33.526456],[130.382949,33.526814],[130.383024,33.52713],[130.382924,33.527489],[130.383162,33.527714],[130.383912,33.528122],[130.384024,33.528255],[130.384261,33.528639],[130.384411,33.529147],[130.384411,33.529755],[130.384599,33.530205],[130.384936,33.530647],[130.385061,33.531147],[130.385086,33.531913],[130.385049,33.53223],[130.384949,33.532597],[130.384911,33.533663],[130.384961,33.533888],[130.384686,33.534896],[130.384611,33.535396],[130.384749,33.535755],[130.385361,33.536496],[130.386036,33.538096],[130.386323,33.538504],[130.386573,33.538663],[130.387298,33.539029],[130.387673,33.539413],[130.388255,33.539619],[130.388761,33.539704],[130.388961,33.539346],[130.389998,33.539371],[130.39005,33.538866],[130.390136,33.538629],[130.390236,33.538629],[130.390299,33.538639],[130.390348,33.538654],[130.390486,33.538663],[130.390623,33.538688],[130.39091,33.538729],[130.391035,33.538763],[130.391085,33.538771],[130.391148,33.538796],[130.391185,33.538813],[130.39121,33.538813],[130.39126,33.538863],[130.391273,33.538904],[130.391285,33.538929],[130.391285,33.538996],[130.39126,33.539096],[130.391248,33.539196],[130.391235,33.539304],[130.391198,33.539479],[130.39121,33.539954],[130.391123,33.540562],[130.390985,33.540787],[130.390873,33.541329],[130.390485,33.542121],[130.390185,33.542437],[130.389598,33.542771],[130.38911,33.543287],[130.38906,33.543945],[130.38916,33.544595],[130.389435,33.545004],[130.38986,33.54552],[130.389984,33.545718],[130.390183,33.546122],[130.390298,33.546437],[130.390298,33.546987],[130.390035,33.547737],[130.388985,33.549695],[130.388585,33.55082],[130.388335,33.55172],[130.388123,33.55287],[130.387773,33.554361],[130.387498,33.555236],[130.38736,33.556011],[130.38741,33.556752],[130.38771,33.557744],[130.38776,33.558394],[130.387622,33.559119],[130.38781,33.559844],[130.386222,33.560694],[130.385772,33.560944],[130.385335,33.561052],[130.384873,33.561035],[130.38456,33.560852],[130.384235,33.56076],[130.383423,33.560952],[130.382985,33.560919],[130.38267,33.56108],[130.382323,33.561119],[130.382098,33.561027],[130.381935,33.561094],[130.38166,33.561552],[130.381373,33.561818],[130.381223,33.56191],[130.380942,33.562078],[130.38076,33.562243],[130.38051,33.56261],[130.380323,33.562743],[130.380248,33.562743],[130.379973,33.56261],[130.378948,33.562627],[130.378611,33.562493],[130.378311,33.562468],[130.377561,33.562193],[130.377261,33.562193],[130.376998,33.562352],[130.376748,33.562602],[130.376723,33.563301],[130.376611,33.563476],[130.376423,33.563568],[130.376136,33.563585],[130.375811,33.563776],[130.375911,33.565051],[130.376148,33.565668],[130.376311,33.566301],[130.376261,33.566818],[130.375873,33.567626],[130.375823,33.567851],[130.375848,33.568351],[130.375873,33.568351],[130.376173,33.569926],[130.376248,33.570626],[130.376023,33.572242],[130.375761,33.573742],[130.375423,33.574825],[130.375211,33.575242],[130.374436,33.5763],[130.373673,33.577608],[130.373398,33.578283],[130.373011,33.579008],[130.372676,33.579482],[130.372548,33.579599],[130.371636,33.580366],[130.371098,33.580616],[130.370498,33.580841],[130.369474,33.581091],[130.368349,33.581183],[130.366674,33.581232],[130.366111,33.581324],[130.365736,33.581432],[130.365565,33.581615],[130.365499,33.581707],[130.365361,33.581866],[130.365111,33.582274],[130.364808,33.582802],[130.364474,33.583557],[130.363774,33.584549],[130.363586,33.584932],[130.362861,33.585907],[130.362349,33.58654],[130.361662,33.587548],[130.361012,33.588498],[130.360462,33.589532],[130.360274,33.589782],[130.356199,33.597264],[130.356187,33.597289],[130.356937,33.597564],[130.357437,33.596473],[130.357524,33.596464],[130.357749,33.596464],[130.357949,33.596456],[130.358249,33.596439],[130.358524,33.596464],[130.358674,33.596506],[130.358949,33.596614],[130.359136,33.596706],[130.359374,33.596889],[130.359586,33.597006],[130.359799,33.597156],[130.359961,33.597264],[130.360136,33.597398],[130.360324,33.597531],[130.360449,33.597648],[130.360624,33.597798],[130.360736,33.597939],[130.360836,33.598073],[130.360886,33.598189],[130.360949,33.598264],[130.360974,33.598364],[130.360324,33.598931],[130.360399,33.599022],[130.362274,33.597564],[130.363261,33.598156],[130.363024,33.598398],[130.364848,33.599414],[130.364211,33.600181],[130.362436,33.599222],[130.362261,33.599472],[130.366861,33.601631],[130.366973,33.601481],[130.366186,33.601181],[130.366711,33.600647],[130.366836,33.600714],[130.367123,33.600747],[130.367323,33.600789],[130.367548,33.600831],[130.367698,33.600847],[130.367798,33.600839],[130.367998,33.600814],[130.368261,33.600772],[130.368548,33.600764],[130.368661,33.600756],[130.368761,33.600764],[130.369523,33.600506],[130.369785,33.600447],[130.370048,33.600397],[130.370423,33.600364],[130.370835,33.600356],[130.37101,33.600347],[130.371285,33.600364],[130.371448,33.600406],[130.371698,33.600556],[130.371873,33.600714],[130.371985,33.600881],[130.372098,33.601047],[130.372173,33.601172],[130.372285,33.601339],[130.37236,33.601522],[130.372073,33.601622],[130.372298,33.601922],[130.37236,33.602056],[130.372385,33.602206],[130.37236,33.602314],[130.37221,33.602514],[130.371985,33.602556],[130.372048,33.602689],[130.37256,33.602597],[130.372682,33.602569],[130.373285,33.602381],[130.373573,33.60418],[130.373723,33.605064],[130.375435,33.604939],[130.377647,33.604705],[130.37741,33.603164],[130.379047,33.602981],[130.37931,33.602939],[130.379647,33.603181],[130.379672,33.603481],[130.37961,33.603497],[130.379622,33.603672],[130.37961,33.603739],[130.379922,33.603731],[130.379935,33.603456],[130.379835,33.603481],[130.379797,33.603089],[130.379535,33.602914],[130.37996,33.602889],[130.381222,33.602739],[130.381334,33.602664],[130.381384,33.602539],[130.382309,33.599339],[130.381935,33.599256],[130.382085,33.598906],[130.382434,33.598956],[130.382472,33.598848],[130.382509,33.598773],[130.383009,33.598856],[130.383034,33.598773],[130.382522,33.598656],[130.382559,33.598539],[130.382647,33.598223],[130.382485,33.598148],[130.382585,33.597806],[130.382784,33.597831],[130.383072,33.596865],[130.383114,33.596712],[130.38261,33.596656],[130.382447,33.59664],[130.381572,33.596531],[130.381401,33.59652],[130.380722,33.59644],[130.380385,33.597273],[130.378997,33.597006],[130.38051,33.59379],[130.383522,33.594398],[130.38366,33.594448],[130.383822,33.594948],[130.383347,33.59554],[130.384084,33.595915],[130.385897,33.593932],[130.388047,33.59484],[130.386897,33.596865],[130.387634,33.59714],[130.388822,33.595365],[130.393284,33.597248],[130.391534,33.600173],[130.387947,33.598781],[130.384534,33.600048],[130.385872,33.600639],[130.388196,33.601589],[130.388259,33.601673],[130.387634,33.602681],[130.385797,33.605855],[130.384784,33.607497],[130.390059,33.609672],[130.394559,33.602356],[130.396096,33.602956],[130.396921,33.601606],[130.393921,33.600431],[130.395009,33.598756],[130.398271,33.600098],[130.398933,33.600373],[130.399446,33.600639],[130.398346,33.602473],[130.397908,33.603306],[130.397133,33.604114],[130.396571,33.605156],[130.397296,33.605639],[130.398133,33.605256],[130.398321,33.605456],[130.399233,33.604972],[130.399333,33.605131],[130.399671,33.604964],[130.399008,33.603947],[130.399733,33.603198],[130.400171,33.603356],[130.400796,33.603789],[130.400583,33.604006],[130.402045,33.605114],[130.40112,33.606031],[130.400333,33.605664],[130.400033,33.605881],[130.40102,33.606864],[130.399608,33.607647],[130.399033,33.608022],[130.398896,33.60813],[130.398208,33.608597],[130.396021,33.61018],[130.39877,33.61293],[130.402483,33.61033],[130.40372,33.60958],[130.403645,33.60948],[130.40582,33.608164],[130.406595,33.609147],[130.406495,33.609239],[130.406545,33.60933],[130.408032,33.610847]]],"type":"Polygon"},"properties":{"yomi":"なか","name":"那珂","pref":"福岡県","kuni_id":"K63","id_url":"G63004.html","kuni_url":"/kg/resource/K63.html","id":"G63004","kuni":"筑前"},"type":"Feature"}]}