{"features":[{"type":"Feature","geometry":{"coordinates":[[[131.004005,33.749877],[131.00303,33.749711],[131.001655,33.749336],[131.000905,33.749086],[131.000143,33.748694],[130.999468,33.748419],[130.998818,33.748077],[130.997818,33.747435],[130.9976,33.747239],[130.99748,33.747102],[130.997155,33.746827],[130.996731,33.746577],[130.996156,33.746102],[130.995393,33.745644],[130.995031,33.74546],[130.994968,33.74546],[130.994493,33.745235],[130.993481,33.74451],[130.992969,33.744119],[130.991994,33.743527],[130.991544,33.743285],[130.990944,33.743052],[130.989681,33.742452],[130.987269,33.741593],[130.986394,33.741318],[130.986369,33.741285],[130.985994,33.741235],[130.985557,33.741277],[130.982771,33.739907],[130.979178,33.738034],[130.976835,33.735224],[130.974648,33.731322],[130.971523,33.728824],[130.967461,33.725234],[130.963712,33.722424],[130.962618,33.719302],[130.9609,33.71259],[130.958556,33.708999],[130.960888,33.705544],[130.961871,33.70083],[130.961674,33.693955],[130.961477,33.688848],[130.960924,33.68692],[130.95991,33.684382],[130.959973,33.684066],[130.960048,33.683682],[130.960086,33.683182],[130.959973,33.682657],[130.959761,33.682224],[130.959236,33.681499],[130.958661,33.681049],[130.958348,33.680683],[130.958236,33.680274],[130.958323,33.67965],[130.958198,33.679283],[130.958011,33.67915],[130.957436,33.679166],[130.957036,33.67905],[130.956936,33.678958],[130.955986,33.678275],[130.955886,33.678275],[130.955449,33.67825],[130.955236,33.678091],[130.955161,33.678091],[130.954824,33.67825],[130.953499,33.679058],[130.953411,33.679141],[130.952474,33.679749],[130.951786,33.680466],[130.951411,33.680691],[130.950949,33.680824],[130.950649,33.680383],[130.950437,33.679983],[130.950174,33.679691],[130.948999,33.678558],[130.948812,33.678466],[130.947937,33.678574],[130.946512,33.678816],[130.945975,33.678791],[130.945725,33.678674],[130.945537,33.678441],[130.945375,33.678133],[130.944825,33.677475],[130.944387,33.6772],[130.943937,33.676966],[130.943425,33.676766],[130.94285,33.676625],[130.942637,33.676625],[130.9421,33.676758],[130.9412,33.677025],[130.941013,33.677133],[130.940888,33.677091],[130.940663,33.676883],[130.940525,33.676658],[130.94045,33.676341],[130.940463,33.676133],[130.94035,33.676041],[130.939813,33.675875],[130.939675,33.675725],[130.939513,33.675341],[130.939313,33.674408],[130.939225,33.674267],[130.938963,33.674183],[130.938075,33.674025],[130.937775,33.673883],[130.937375,33.673542],[130.937001,33.6735],[130.936438,33.673533],[130.936238,33.673517],[130.936101,33.67345],[130.935538,33.673017],[130.935138,33.672808],[130.934338,33.672192],[130.934113,33.672167],[130.933088,33.6725],[130.932788,33.672475],[130.932126,33.672133],[130.931464,33.671925],[130.931076,33.671942],[130.930551,33.672],[130.930289,33.671983],[130.930001,33.671875],[130.929826,33.67185],[130.929614,33.672],[130.928976,33.672567],[130.928739,33.672567],[130.928376,33.672492],[130.927314,33.672192],[130.926739,33.67215],[130.926451,33.672142],[130.926214,33.672275],[130.925701,33.672025],[130.925014,33.671775],[130.924651,33.67175],[130.923864,33.671817],[130.923627,33.6719],[130.923452,33.671883],[130.923027,33.67165],[130.922577,33.671442],[130.921577,33.671258],[130.920764,33.67105],[130.920339,33.670867],[130.920214,33.670867],[130.919902,33.670792],[130.918452,33.670767],[130.918214,33.670742],[130.917913,33.670322],[130.917615,33.669842],[130.916315,33.669192],[130.915427,33.6687],[130.914802,33.6685],[130.913927,33.667709],[130.913365,33.667442],[130.912877,33.667625],[130.912715,33.667734],[130.912127,33.667784],[130.912015,33.66785],[130.911827,33.668233],[130.911352,33.668125],[130.911078,33.667875],[130.91064,33.66765],[130.91019,33.66765],[130.90929,33.667434],[130.908236,33.667186],[130.907353,33.666784],[130.906753,33.666309],[130.906365,33.66595],[130.906103,33.665909],[130.905178,33.665892],[130.904453,33.665825],[130.903966,33.665575],[130.903128,33.665509],[130.902616,33.665517],[130.901541,33.665317],[130.901191,33.665201],[130.900866,33.665051],[130.900641,33.664826],[130.900428,33.664459],[130.900266,33.664284],[130.899991,33.664151],[130.899504,33.663517],[130.899041,33.663067],[130.898554,33.662667],[130.897897,33.661968],[130.897579,33.661901],[130.896929,33.661901],[130.896291,33.662109],[130.894829,33.662276],[130.894429,33.662159],[130.894404,33.661984],[130.894429,33.661734],[130.893757,33.661741],[130.893429,33.661734],[130.892829,33.661718],[130.892342,33.661534],[130.891892,33.661268],[130.891104,33.661026],[130.890754,33.661184],[130.889404,33.661526],[130.888704,33.661568],[130.888304,33.661459],[130.888175,33.661309],[130.887979,33.661259],[130.887654,33.661284],[130.88703,33.661059],[130.886355,33.661101],[130.886092,33.661084],[130.885955,33.661034],[130.886255,33.661668],[130.886417,33.662276],[130.886417,33.662951],[130.886292,33.663692],[130.886454,33.664076],[130.886804,33.664417],[130.887217,33.664726],[130.887892,33.665042],[130.888167,33.665375],[130.888729,33.6663],[130.888767,33.666459],[130.888704,33.666817],[130.888879,33.667384],[130.888882,33.667878],[130.888992,33.668258],[130.889317,33.668442],[130.889479,33.668908],[130.889617,33.669025],[130.889717,33.669183],[130.889717,33.669292],[130.889567,33.669583],[130.889342,33.669792],[130.889104,33.670008],[130.888804,33.670575],[130.888554,33.67145],[130.888492,33.671816],[130.888592,33.672541],[130.888567,33.6727],[130.888042,33.673033],[130.887617,33.673574],[130.887442,33.673708],[130.887317,33.673733],[130.886854,33.674091],[130.886779,33.674283],[130.886829,33.674633],[130.886592,33.674933],[130.886229,33.675183],[130.885954,33.675291],[130.885679,33.675541],[130.885355,33.675941],[130.885192,33.676232],[130.88483,33.677132],[130.884642,33.677515],[130.88453,33.677857],[130.884217,33.678649],[130.883705,33.679365],[130.883542,33.679749],[130.88338,33.680065],[130.883117,33.680773],[130.882692,33.681282],[130.882417,33.68189],[130.882167,33.682207],[130.881442,33.682781],[130.880167,33.684223],[130.879917,33.684331],[130.879593,33.684381],[130.87898,33.68419],[130.878818,33.684331],[130.87873,33.684723],[130.878618,33.684956],[130.878018,33.685564],[130.877555,33.686314],[130.877468,33.686381],[130.877168,33.686764],[130.876905,33.687031],[130.87663,33.687239],[130.876605,33.687481],[130.87643,33.687781],[130.87603,33.688089],[130.875618,33.688656],[130.875418,33.688814],[130.875343,33.689239],[130.874768,33.690614],[130.874768,33.690839],[130.874593,33.691355],[130.874568,33.69183],[130.874868,33.692838],[130.875043,33.693572],[130.875305,33.694338],[130.87583,33.69523],[130.875893,33.695471],[130.876293,33.696205],[130.87668,33.697071],[130.876843,33.697313],[130.877218,33.698121],[130.87773,33.698696],[130.878342,33.699496],[130.878355,33.699654],[130.87833,33.699879],[130.878005,33.700413],[130.877605,33.700663],[130.877255,33.700763],[130.877055,33.700929],[130.876617,33.701671],[130.876342,33.701987],[130.87548,33.702446],[130.874943,33.702812],[130.874555,33.703254],[130.87453,33.703354],[130.87428,33.703604],[130.87363,33.704095],[130.873393,33.704345],[130.872641,33.704818],[130.872543,33.704945],[130.872255,33.705554],[130.87148,33.70722],[130.87158,33.707353],[130.871793,33.707945],[130.871968,33.708762],[130.872018,33.709262],[130.871918,33.709328],[130.871468,33.709912],[130.871168,33.71067],[130.870742,33.711961],[130.87038,33.712653],[130.869917,33.713078],[130.86958,33.713803],[130.869105,33.715061],[130.869742,33.715836],[130.870755,33.716553],[130.87078,33.716961],[130.870417,33.717586],[130.870117,33.718311],[130.86978,33.718936],[130.869267,33.719494],[130.86923,33.719902],[130.86933,33.720469],[130.869367,33.721735],[130.869629,33.72251],[130.869754,33.723102],[130.869529,33.723935],[130.869454,33.724818],[130.868954,33.726527],[130.868829,33.727385],[130.868842,33.728793],[130.868542,33.729126],[130.868154,33.729735],[130.867542,33.730543],[130.867704,33.731176],[130.867854,33.732126],[130.867754,33.733276],[130.867741,33.734001],[130.867816,33.734367],[130.867915,33.734422],[130.868916,33.734967],[130.869404,33.735309],[130.86967,33.735624],[130.870016,33.735901],[130.870441,33.736176],[130.870604,33.736426],[130.871004,33.736659],[130.871653,33.736801],[130.872241,33.737351],[130.872566,33.737601],[130.872816,33.737934],[130.873266,33.738459],[130.873616,33.73905],[130.873916,33.739367],[130.874528,33.739575],[130.874866,33.739642],[130.875066,33.739642],[130.875366,33.739692],[130.876665,33.739767],[130.876878,33.739975],[130.877328,33.740709],[130.878103,33.7418],[130.87929,33.742533],[130.880103,33.742883],[130.88044,33.743008],[130.880903,33.74335],[130.88144,33.7439],[130.881652,33.744033],[130.881777,33.744075],[130.882027,33.744058],[130.88219,33.744017],[130.882352,33.743875],[130.88249,33.743608],[130.882602,33.742908],[130.882565,33.742367],[130.88259,33.7421],[130.882777,33.741667],[130.882902,33.741559],[130.88299,33.741509],[130.88329,33.741625],[130.883665,33.741834],[130.88429,33.742117],[130.88502,33.742294],[130.885965,33.742325],[130.886565,33.742325],[130.887277,33.742434],[130.88734,33.742459],[130.88784,33.74235],[130.887877,33.742309],[130.88804,33.742259],[130.888352,33.74235],[130.888489,33.7425],[130.888689,33.742559],[130.889164,33.742584],[130.889327,33.742517],[130.889402,33.742359],[130.889364,33.741792],[130.889364,33.741634],[130.889602,33.741075],[130.889727,33.740809],[130.890114,33.740284],[130.890214,33.740025],[130.890214,33.739801],[130.890364,33.739292],[130.890114,33.738842],[130.890152,33.738401],[130.890227,33.738176],[130.890802,33.737876],[130.891127,33.737634],[130.891127,33.737409],[130.891364,33.736668],[130.891464,33.736159],[130.891627,33.735601],[130.891777,33.735393],[130.892177,33.735384],[130.892539,33.735318],[130.893077,33.735118],[130.894239,33.734176],[130.894589,33.734468],[130.895139,33.735351],[130.895264,33.735651],[130.895289,33.735984],[130.894889,33.737101],[130.894577,33.738826],[130.894652,33.739276],[130.895339,33.739867],[130.896201,33.740525],[130.896651,33.740934],[130.897076,33.741209],[130.897201,33.74135],[130.897289,33.741542],[130.897301,33.741975],[130.897214,33.74285],[130.897239,33.743217],[130.897376,33.743625],[130.897601,33.743942],[130.897964,33.744867],[130.898239,33.745858],[130.898426,33.746292],[130.898676,33.747175],[130.899038,33.747691],[130.899463,33.748416],[130.900226,33.75],[130.900538,33.750383],[130.901051,33.751116],[130.901438,33.751583],[130.902175,33.752966],[130.902275,33.753099],[130.902413,33.753166],[130.902638,33.753099],[130.903763,33.752591],[130.903925,33.752458],[130.903625,33.751849],[130.9033,33.751466],[130.90335,33.751258],[130.903538,33.751008],[130.903638,33.750766],[130.903625,33.75045],[130.904213,33.75005],[130.904463,33.749841],[130.904713,33.749508],[130.905038,33.748833],[130.9052,33.748608],[130.905775,33.74825],[130.905963,33.747983],[130.905988,33.747733],[130.905938,33.747617],[130.9059,33.747375],[130.906075,33.7471],[130.906213,33.746992],[130.906488,33.746317],[130.90665,33.746158],[130.907063,33.746025],[130.90725,33.746092],[130.907488,33.74645],[130.907775,33.747133],[130.908238,33.7477],[130.909337,33.748108],[130.91,33.748858],[130.910025,33.748908],[130.909987,33.7492],[130.909512,33.749916],[130.9093,33.750125],[130.909212,33.750325],[130.90945,33.750991],[130.910137,33.752124],[130.910975,33.753283],[130.9112,33.753733],[130.911612,33.754541],[130.912749,33.756016],[130.913262,33.756507],[130.913399,33.756816],[130.913249,33.757091],[130.913112,33.757432],[130.913112,33.758807],[130.912987,33.759215],[130.912874,33.75939],[130.912112,33.76039],[130.911924,33.760707],[130.911824,33.761098],[130.911999,33.761723],[130.911949,33.762173],[130.911762,33.762648],[130.911687,33.763257],[130.911812,33.763756],[130.912087,33.76429],[130.912387,33.764581],[130.913387,33.765115],[130.914212,33.765423],[130.914424,33.765465],[130.914912,33.76564],[130.915162,33.76584],[130.915324,33.766173],[130.915661,33.766715],[130.916786,33.768139],[130.917186,33.768314],[130.917486,33.768606],[130.917536,33.769823],[130.917461,33.770298],[130.917336,33.770589],[130.917011,33.770798],[130.916874,33.770822],[130.916586,33.771006],[130.916624,33.771522],[130.916536,33.771889],[130.916249,33.772114],[130.915849,33.772347],[130.915611,33.772681],[130.915586,33.772797],[130.915836,33.773564],[130.915899,33.773872],[130.916174,33.774389],[130.916449,33.774772],[130.916724,33.774997],[130.917286,33.774855],[130.917561,33.774689],[130.917961,33.774689],[130.918586,33.774722],[130.918773,33.774705],[130.919336,33.774922],[130.919636,33.775214],[130.919748,33.775572],[130.920148,33.776397],[130.920473,33.776555],[130.920986,33.776639],[130.921536,33.777014],[130.922073,33.777255],[130.923186,33.77763],[130.923373,33.777922],[130.923823,33.778863],[130.924123,33.779105],[130.924848,33.779188],[130.926285,33.779288],[130.92666,33.779505],[130.926788,33.779784],[130.926835,33.779913],[130.927185,33.779863],[130.92801,33.779313],[130.928335,33.779172],[130.930347,33.778655],[130.930885,33.778472],[130.931397,33.778197],[130.931772,33.777897],[130.932147,33.777697],[130.93276,33.777214],[130.933522,33.776081],[130.93376,33.775922],[130.934447,33.776297],[130.935172,33.776581],[130.935747,33.776664],[130.936172,33.776614],[130.936897,33.776314],[130.937009,33.776339],[130.937334,33.776489],[130.937697,33.777139],[130.937997,33.777272],[130.938697,33.777489],[130.940022,33.777814],[130.940434,33.778056],[130.940859,33.778231],[130.941409,33.778272],[130.942221,33.778489],[130.942734,33.778464],[130.943084,33.778322],[130.943446,33.777981],[130.943934,33.777614],[130.944421,33.777722],[130.944934,33.777939],[130.945296,33.778322],[130.945321,33.778431],[130.945646,33.778472],[130.946109,33.778472],[130.946533,33.778622],[130.947021,33.778939],[130.947783,33.779289],[130.948033,33.779756],[130.948396,33.780181],[130.948771,33.780289],[130.949283,33.780239],[130.949796,33.780239],[130.950146,33.780097],[130.950446,33.779889],[130.950796,33.779981],[130.951258,33.780239],[130.952208,33.780639],[130.952745,33.780789],[130.953233,33.780806],[130.953533,33.782355],[130.954058,33.783322],[130.95447,33.784197],[130.95462,33.784647],[130.954833,33.785005],[130.955133,33.785272],[130.955245,33.785522],[130.955033,33.785722],[130.954958,33.78593],[130.954995,33.786263],[130.95527,33.787072],[130.955982,33.787538],[130.956207,33.78783],[130.956345,33.78848],[130.956507,33.788772],[130.95697,33.789013],[130.956982,33.789063],[130.957195,33.789238],[130.957282,33.789596],[130.957345,33.790188],[130.95752,33.79063],[130.957645,33.790788],[130.958057,33.790738],[130.958545,33.790621],[130.95867,33.790555],[130.959132,33.790438],[130.95962,33.790455],[130.960019,33.790655],[130.960407,33.790963],[130.961757,33.792596],[130.962244,33.793104],[130.963119,33.793913],[130.963269,33.794271],[130.963894,33.795029],[130.964219,33.795271],[130.965031,33.795579],[130.965469,33.795913],[130.966269,33.796604],[130.966544,33.796963],[130.966769,33.797362],[130.966769,33.797637],[130.966956,33.797771],[130.967319,33.797946],[130.967619,33.798229],[130.967831,33.798612],[130.968106,33.798771],[130.968406,33.799012],[130.968681,33.799346],[130.968843,33.799479],[130.969118,33.799771],[130.969943,33.800396],[130.970168,33.800729],[130.970306,33.801112],[130.970556,33.801404],[130.970856,33.801645],[130.970993,33.801962],[130.971268,33.802337],[130.971643,33.802429],[130.971918,33.802695],[130.972168,33.803004],[130.972393,33.803504],[130.972693,33.803812],[130.973131,33.80412],[130.974005,33.804878],[130.975018,33.805837],[130.975593,33.806303],[130.977805,33.807903],[130.980505,33.810111],[130.98088,33.810395],[130.981167,33.810645],[130.98143,33.810545],[130.98178,33.810345],[130.982367,33.809703],[130.982792,33.80932],[130.983286,33.808888],[130.983592,33.808787],[130.983867,33.808837],[130.984079,33.808828],[130.984354,33.808962],[130.984704,33.809228],[130.984979,33.809612],[130.985092,33.810036],[130.984992,33.810236],[130.985592,33.810503],[130.987142,33.811003],[130.987929,33.811295],[130.989504,33.811811],[130.992454,33.812886],[130.994141,33.813453],[130.995228,33.81387],[130.996766,33.814378],[130.997626,33.814691],[131.000278,33.815636],[131.004828,33.806454],[131.004265,33.806254],[130.998678,33.807187],[130.997626,33.80935],[130.997116,33.810229],[130.996216,33.80987],[130.997626,33.807075],[130.999228,33.803921],[130.999578,33.803871],[131.000628,33.801796],[131.000128,33.800538],[130.998166,33.800655],[130.998003,33.800996],[130.997626,33.800859],[130.997416,33.800555],[130.994191,33.799463],[130.993479,33.799246],[130.993566,33.79913],[130.992904,33.798346],[130.992292,33.797547],[130.992129,33.797613],[130.991279,33.796563],[130.989954,33.79658],[130.989904,33.796488],[130.989817,33.796155],[130.989229,33.796155],[130.989142,33.796205],[130.989092,33.796563],[130.987854,33.79653],[130.987742,33.796397],[130.987555,33.796063],[130.987904,33.795947],[130.987842,33.795563],[130.987567,33.793947],[130.98728,33.793947],[130.986892,33.79143],[130.987255,33.791355],[130.988405,33.790981],[130.988042,33.790464],[130.987717,33.789806],[130.987492,33.789906],[130.98738,33.789897],[130.987355,33.789797],[130.987305,33.789706],[130.98718,33.789764],[130.987067,33.789722],[130.98643,33.787956],[130.98688,33.787823],[130.98703,33.787781],[130.987067,33.787706],[130.986892,33.787398],[130.987017,33.787339],[130.987142,33.787289],[130.987167,33.787148],[130.986117,33.786139],[130.982543,33.784464],[130.982693,33.784214],[130.985868,33.784973],[130.986055,33.785398],[130.986255,33.785648],[130.98658,33.785914],[130.986805,33.786223],[130.987317,33.786131],[130.987417,33.786306],[130.987592,33.786439],[130.98863,33.786073],[130.990142,33.789389],[130.991004,33.789181],[130.993517,33.794839],[130.993629,33.794914],[130.993729,33.794947],[130.993842,33.794972],[130.993979,33.795014],[130.994104,33.79503],[130.994254,33.795089],[130.994329,33.795114],[130.994441,33.795164],[130.994566,33.795214],[130.994654,33.795247],[130.994729,33.795264],[130.994829,33.795297],[130.995166,33.79543],[130.997104,33.796097],[130.997626,33.796326],[130.998391,33.79653],[131.000016,33.793122],[130.997627,33.792243],[130.997279,33.792064],[130.995954,33.791647],[130.995616,33.791089],[130.996554,33.790514],[130.997176,33.790957],[130.997627,33.791235],[130.998179,33.791639],[130.999816,33.789856],[131.000066,33.790031],[131.000204,33.791298],[131.000991,33.791364],[131.001416,33.790456],[131.001429,33.790202],[131.001441,33.789848],[131.000654,33.788948],[131.001404,33.788073],[131.001591,33.78744],[131.003629,33.783374],[131.002891,33.781099],[130.998929,33.778474],[130.999154,33.778224],[130.997627,33.777145],[130.994417,33.774899],[130.993692,33.775066],[130.993021,33.774639],[130.991867,33.773849],[130.992155,33.773483],[130.99273,33.773566],[130.993317,33.773558],[130.993755,33.773466],[130.994205,33.773216],[130.99453,33.772941],[130.994955,33.773183],[130.995392,33.773199],[130.99558,33.77315],[130.99598,33.77315],[130.996317,33.77335],[130.996479,33.773574],[130.996717,33.773683],[130.996992,33.773766],[130.997179,33.773633],[130.997292,33.773633],[130.997627,33.773746],[130.998942,33.77415],[130.999054,33.774033],[131.001242,33.774683],[131.001754,33.77405],[130.999829,33.772841],[130.999929,33.7727],[130.997629,33.771133],[130.999492,33.769167],[131.004254,33.772175],[131.003904,33.7726],[131.011415,33.777608],[131.011928,33.777175],[131.01244,33.777383],[131.01774,33.768168],[131.000542,33.757285],[131.000655,33.757101],[131.001192,33.756385],[131.001405,33.756152],[131.001992,33.755435],[131.002567,33.754869],[131.003042,33.754052],[131.003317,33.753377],[131.003655,33.752935],[131.004392,33.752202],[131.004467,33.752044],[131.004117,33.751661],[131.003917,33.751336],[131.00398,33.749961],[131.004005,33.749877]]],"type":"Polygon"},"properties":{"pref":"福岡県","kuni_id":"K65","yomi":"みやこ","name":"京都","kuni":"豊前","id":"G65003","id_url":"G65003.html","kuni_url":"/kg/resource/K65.html"}}],"type":"FeatureCollection"}