{"type":"FeatureCollection","features":[{"geometry":{"type":"Polygon","coordinates":[[[130.90017,33.449255],[130.900282,33.449297],[130.900957,33.449288],[130.90162,33.449105],[130.902245,33.449105],[130.903057,33.449255],[130.904745,33.44913],[130.905232,33.449447],[130.905782,33.449872],[130.906369,33.45013],[130.906557,33.450155],[130.907044,33.450063],[130.907844,33.449655],[130.908194,33.449738],[130.908494,33.449988],[130.908607,33.450121],[130.908907,33.450255],[130.909119,33.450205],[130.910219,33.449813],[130.910657,33.449996],[130.911219,33.45033],[130.911794,33.450755],[130.912569,33.451063],[130.914419,33.452921],[130.915294,33.453996],[130.915731,33.454846],[130.916144,33.455071],[130.917144,33.455263],[130.917869,33.455504],[130.919606,33.456329],[130.920406,33.456504],[130.921119,33.456613],[130.921819,33.456563],[130.922406,33.45658],[130.922919,33.45678],[130.923544,33.45698],[130.924194,33.457113],[130.924706,33.457621],[130.925294,33.45778],[130.926019,33.45773],[130.926269,33.457588],[130.927169,33.456771],[130.927331,33.456388],[130.927456,33.455913],[130.927694,33.45553],[130.927719,33.455371],[130.928356,33.454563],[130.928494,33.454105],[130.928731,33.453655],[130.928831,33.45318],[130.928769,33.452555],[130.928869,33.452238],[130.929356,33.45203],[130.929544,33.451989],[130.930756,33.452047],[130.930994,33.452022],[130.931856,33.45183],[130.932981,33.451647],[130.933544,33.451439],[130.934244,33.451297],[130.935056,33.451364],[130.936031,33.45158],[130.936131,33.45158],[130.936269,33.451489],[130.936644,33.450747],[130.937456,33.449656],[130.938044,33.449289],[130.938693,33.448947],[130.939193,33.448431],[130.939593,33.447639],[130.939968,33.447323],[130.940531,33.447023],[130.942331,33.446406],[130.942506,33.446023],[130.942532,33.445678],[130.942393,33.44519],[130.942306,33.445056],[130.942006,33.444765],[130.941793,33.444498],[130.941768,33.444356],[130.941818,33.443956],[130.941934,33.44345],[130.941968,33.442848],[130.942018,33.442582],[130.942606,33.442165],[130.943381,33.441965],[130.943706,33.441915],[130.945231,33.44154],[130.946068,33.441249],[130.946118,33.441174],[130.946168,33.440749],[130.946056,33.44019],[130.945993,33.43949],[130.945768,33.438999],[130.945693,33.438882],[130.945381,33.438074],[130.944981,33.437624],[130.944806,33.437224],[130.945143,33.436007],[130.945656,33.435099],[130.945918,33.434899],[130.945993,33.434758],[130.945881,33.434358],[130.945931,33.433991],[130.946168,33.433749],[130.946356,33.433699],[130.946905,33.433783],[130.947468,33.433808],[130.947818,33.433758],[130.94808,33.433758],[130.94838,33.433458],[130.949093,33.43285],[130.949955,33.432433],[130.950655,33.432183],[130.951193,33.432133],[130.951893,33.4324],[130.95273,33.432866],[130.953242,33.433025],[130.95368,33.433],[130.95383,33.4327],[130.954117,33.43155],[130.954355,33.43115],[130.95468,33.431058],[130.955642,33.431158],[130.95638,33.431175],[130.956805,33.431042],[130.957255,33.430725],[130.957767,33.430492],[130.958354,33.4304],[130.958931,33.43038],[130.959347,33.430332],[130.959715,33.430255],[130.960101,33.430243],[130.960404,33.430342],[130.960967,33.430634],[130.961267,33.430967],[130.961892,33.431142],[130.962592,33.431225],[130.963204,33.431067],[130.963366,33.430925],[130.963654,33.430159],[130.964091,33.429959],[130.964516,33.429909],[130.964798,33.429852],[130.965079,33.4297],[130.965489,33.429405],[130.965666,33.429042],[130.965604,33.427942],[130.965666,33.427359],[130.965554,33.426726],[130.965254,33.426076],[130.965229,33.425851],[130.965365,33.425344],[130.965616,33.424943],[130.965769,33.424544],[130.965812,33.424156],[130.965791,33.423751],[130.965704,33.423143],[130.965866,33.422734],[130.966129,33.422285],[130.966416,33.421901],[130.967541,33.421376],[130.967897,33.421216],[130.968329,33.421126],[130.968541,33.421185],[130.968991,33.42121],[130.969666,33.421001],[130.969779,33.420843],[130.969454,33.419851],[130.969466,33.419735],[130.970341,33.419393],[130.970391,33.419335],[130.970378,33.418977],[130.970528,33.41856],[130.970891,33.41811],[130.971678,33.41756],[130.972016,33.416785],[130.972141,33.416685],[130.972478,33.41656],[130.973041,33.416477],[130.974316,33.416502],[130.97468,33.416255],[130.974903,33.415802],[130.975341,33.415235],[130.975541,33.414877],[130.975766,33.414336],[130.976016,33.413427],[130.976465,33.412894],[130.97704,33.412111],[130.97749,33.411844],[130.978515,33.411711],[130.979803,33.411803],[130.98029,33.411703],[130.98049,33.411586],[130.981003,33.410936],[130.981215,33.410786],[130.981678,33.410694],[130.98364,33.410578],[130.983927,33.410428],[130.98404,33.410269],[130.984327,33.408995],[130.984615,33.408478],[130.985502,33.407428],[130.98569,33.407278],[130.98624,33.407045],[130.986915,33.40682],[130.987527,33.406578],[130.988052,33.406278],[130.988377,33.405987],[130.989602,33.404454],[130.989814,33.404029],[130.989939,33.403604],[130.990339,33.403029],[130.990377,33.402871],[130.990352,33.402379],[130.990252,33.401813],[130.990377,33.400896],[130.990964,33.400379],[130.991539,33.399613],[130.991689,33.39953],[130.992327,33.399305],[130.992952,33.399121],[130.993464,33.398888],[130.993727,33.398713],[130.993989,33.39848],[130.994377,33.398296],[130.995489,33.398163],[130.996114,33.39798],[130.997289,33.39773],[130.997636,33.397585],[130.998139,33.397272],[130.998714,33.39718],[130.999301,33.39693],[130.999726,33.39668],[130.99996,33.396514],[131.000139,33.396322],[131.000726,33.395964],[131.001264,33.395555],[131.001964,33.395214],[131.002738,33.395031],[131.003763,33.394981],[131.004488,33.394889],[131.005463,33.394256],[131.006401,33.393714],[131.007126,33.393506],[131.007726,33.393389],[131.00836,33.392952],[131.008875,33.392356],[131.008919,33.391897],[131.008788,33.391315],[131.00875,33.39039],[131.008563,33.38994],[131.008516,33.389807],[131.00849,33.38942],[131.008638,33.389065],[131.009175,33.388698],[131.01015,33.387998],[131.010763,33.38739],[131.011588,33.386798],[131.012125,33.386257],[131.012263,33.38574],[131.011875,33.38484],[131.011938,33.384732],[131.012713,33.384657],[131.012825,33.384274],[131.012788,33.383865],[131.01225,33.383915],[131.01185,33.383899],[131.0115,33.384215],[131.01115,33.384282],[131.010727,33.384127],[131.0105,33.384015],[131.010088,33.38374],[131.010038,33.383632],[131.0099,33.382999],[131.009838,33.381849],[131.009863,33.380524],[131.010175,33.380116],[131.011138,33.378108],[131.011725,33.377608],[131.012025,33.377426],[131.012237,33.377056],[131.012375,33.376733],[131.012775,33.376191],[131.013225,33.375891],[131.014437,33.375441],[131.015,33.375075],[131.0156,33.37485],[131.016162,33.374783],[131.0167,33.374775],[131.016887,33.374708],[131.017512,33.374258],[131.0181,33.373875],[131.018962,33.373575],[131.0195,33.373308],[131.019737,33.373233],[131.020146,33.373368],[131.020599,33.3731],[131.020599,33.372625],[131.020949,33.372334],[131.021074,33.371725],[131.020862,33.371209],[131.020987,33.369651],[131.021687,33.368659],[131.021924,33.367984],[131.021974,33.367168],[131.021912,33.366176],[131.021987,33.365393],[131.022199,33.364734],[131.022462,33.364168],[131.022949,33.363468],[131.023424,33.362593],[131.023749,33.361843],[131.023849,33.361126],[131.024062,33.36056],[131.024324,33.360202],[131.024624,33.359677],[131.025049,33.358668],[131.025449,33.358618],[131.026774,33.358685],[131.027711,33.358835],[131.027849,33.358835],[131.029261,33.359377],[131.029749,33.35951],[131.030936,33.359977],[131.032636,33.360535],[131.033548,33.360593],[131.034873,33.360593],[131.035923,33.36066],[131.036761,33.36061],[131.037373,33.360468],[131.037561,33.36031],[131.038098,33.36006],[131.03851,33.360018],[131.039048,33.359835],[131.039235,33.359744],[131.03991,33.359627],[131.040448,33.359719],[131.04226,33.360885],[131.04336,33.361085],[131.044123,33.360877],[131.044523,33.360585],[131.04481,33.360269],[131.045017,33.360192],[131.045197,33.360177],[131.045672,33.360244],[131.046199,33.360203],[131.046597,33.360285],[131.046947,33.360377],[131.047297,33.360752],[131.047735,33.360777],[131.04811,33.360552],[131.04846,33.360552],[131.048885,33.36021],[131.049285,33.360144],[131.04956,33.36041],[131.049647,33.360544],[131.04978,33.360789],[131.050022,33.360902],[131.050397,33.360585],[131.050885,33.36061],[131.051384,33.360872],[131.051347,33.360944],[131.051404,33.361021],[131.05191,33.36076],[131.052335,33.360785],[131.052397,33.360877],[131.052797,33.361077],[131.053422,33.361052],[131.05419,33.360961],[131.055034,33.360977],[131.056197,33.360752],[131.056409,33.360794],[131.056847,33.360969],[131.058722,33.360719],[131.060022,33.360394],[131.061171,33.359811],[131.061796,33.359561],[131.062446,33.359669],[131.063271,33.359286],[131.063509,33.358877],[131.063721,33.358219],[131.063884,33.357612],[131.063859,33.357119],[131.063746,33.356461],[131.063746,33.356219],[131.063146,33.355253],[131.063059,33.354711],[131.062834,33.353828],[131.062642,33.353415],[131.062209,33.353161],[131.061697,33.352795],[131.061072,33.351603],[131.060659,33.350703],[131.060609,33.350503],[131.060597,33.349762],[131.060809,33.34917],[131.060972,33.348878],[131.060834,33.348703],[131.059834,33.348187],[131.059322,33.348003],[131.059234,33.34632],[131.05926,33.345754],[131.059222,33.344379],[131.058997,33.342604],[131.058572,33.339988],[131.058272,33.338746],[131.058047,33.338296],[131.057647,33.337921],[131.056997,33.337221],[131.05656,33.336663],[131.056247,33.336505],[131.055797,33.33608],[131.055847,33.335513],[131.055935,33.335513],[131.056335,33.335671],[131.056547,33.335713],[131.057185,33.335763],[131.057435,33.335913],[131.05751,33.336163],[131.057697,33.33623],[131.057997,33.33623],[131.058347,33.336121],[131.058772,33.335938],[131.059172,33.335846],[131.059522,33.335821],[131.059897,33.335713],[131.060735,33.335213],[131.061647,33.33508],[131.061972,33.334963],[131.062235,33.334922],[131.063397,33.335438],[131.063872,33.33573],[131.064272,33.336071],[131.064547,33.33618],[131.064947,33.336271],[131.065622,33.336296],[131.066534,33.336388],[131.066884,33.336538],[131.066984,33.336655],[131.067259,33.336913],[131.067909,33.337255],[131.068497,33.337363],[131.069122,33.337271],[131.069634,33.337088],[131.070222,33.33718],[131.070734,33.337171],[131.071109,33.336946],[131.071459,33.336663],[131.071609,33.336313],[131.071472,33.33613],[131.070984,33.335888],[131.070072,33.33523],[131.069672,33.334872],[131.069613,33.334582],[131.069734,33.334213],[131.070134,33.333963],[131.070459,33.333672],[131.070422,33.333513],[131.070159,33.333089],[131.069972,33.332655],[131.069597,33.332255],[131.069197,33.33158],[131.068984,33.330964],[131.068634,33.330156],[131.068572,33.329431],[131.068609,33.328872],[131.068547,33.328331],[131.068734,33.328264],[131.069522,33.328439],[131.070109,33.328372],[131.071134,33.327989],[131.072009,33.327606],[131.072709,33.327156],[131.073647,33.327081],[131.074159,33.327131],[131.074297,33.326406],[131.074084,33.326048],[131.073997,33.325256],[131.074297,33.32469],[131.074297,33.324173],[131.074184,33.32379],[131.074109,33.323656],[131.073597,33.323606],[131.073197,33.323606],[131.072715,33.323566],[131.071984,33.323565],[131.071447,33.323681],[131.070947,33.323631],[131.070534,33.323656],[131.070197,33.323615],[131.069809,33.323615],[131.069547,33.323773],[131.069122,33.323948],[131.068309,33.324723],[131.067485,33.325581],[131.067135,33.325873],[131.066572,33.325964],[131.066247,33.325939],[131.065972,33.325598],[131.06581,33.325281],[131.065247,33.323073],[131.065117,33.322788],[131.065046,33.322579],[131.065003,33.322193],[131.064985,33.32179],[131.06491,33.321357],[131.063647,33.319823],[131.062298,33.31834],[131.061773,33.317823],[131.061198,33.317374],[131.060373,33.316874],[131.057985,33.315815],[131.056886,33.31489],[131.056476,33.314521],[131.055912,33.314165],[131.055698,33.313966],[131.055648,33.313874],[131.055573,33.313424],[131.055598,33.311599],[131.056298,33.308891],[131.056698,33.308325],[131.056886,33.307766],[131.057211,33.307266],[131.057486,33.30715],[131.057673,33.307016],[131.057673,33.306858],[131.057023,33.306858],[131.055873,33.306525],[131.055548,33.306092],[131.055473,33.305575],[131.055148,33.304625],[131.055098,33.304517],[131.054611,33.302775],[131.054211,33.302509],[131.053911,33.302242],[131.053786,33.301584],[131.053586,33.30145],[131.053323,33.301425],[131.052811,33.301542],[131.051799,33.302084],[131.051099,33.302192],[131.050636,33.302059],[131.050349,33.301809],[131.049674,33.301],[131.049536,33.30055],[131.049486,33.300051],[131.049574,33.299534],[131.049886,33.299034],[131.050111,33.298584],[131.050186,33.298134],[131.049974,33.297776],[131.049699,33.296759],[131.049361,33.296576],[131.048849,33.296534],[131.048174,33.296284],[131.047611,33.295768],[131.046999,33.295068],[131.045737,33.294576],[131.045149,33.294601],[131.044637,33.294484],[131.044262,33.294459],[131.043637,33.294193],[131.043187,33.293835],[131.042574,33.293468],[131.042087,33.292935],[131.04181,33.292628],[131.041637,33.292368],[131.041387,33.29201],[131.041337,33.291785],[131.041175,33.291443],[131.041075,33.290718],[131.04107,33.289995],[131.04115,33.289118],[131.0412,33.28831],[131.040987,33.287743],[131.04035,33.287427],[131.040212,33.287094],[131.040375,33.286619],[131.04075,33.28596],[131.040887,33.285535],[131.040837,33.284785],[131.04065,33.284202],[131.040188,33.283752],[131.039863,33.283319],[131.0399,33.282802],[131.040113,33.282261],[131.039925,33.281519],[131.040088,33.280927],[131.040088,33.280619],[131.039438,33.279511],[131.039338,33.278811],[131.03915,33.278086],[131.039079,33.277788],[131.038998,33.277512],[131.038913,33.277278],[131.039125,33.277211],[131.039875,33.277119],[131.04037,33.277192],[131.04095,33.277278],[131.041613,33.277453],[131.042213,33.277453],[131.04275,33.27757],[131.0435,33.277636],[131.044062,33.277611],[131.044112,33.277136],[131.043875,33.276686],[131.043438,33.27617],[131.043225,33.275511],[131.043338,33.274745],[131.043314,33.274276],[131.0431,33.273886],[131.042825,33.273461],[131.0427,33.272153],[131.042588,33.272112],[131.040688,33.271837],[131.03985,33.272087],[131.039176,33.272153],[131.038263,33.272003],[131.037413,33.271661],[131.035988,33.271186],[131.035351,33.271145],[131.034676,33.270986],[131.034026,33.27067],[131.033839,33.270353],[131.033689,33.269745],[131.033501,33.269412],[131.033501,33.26927],[131.033714,33.268978],[131.034089,33.268712],[131.035776,33.267962],[131.036526,33.267537],[131.037313,33.267312],[131.037713,33.267303],[131.038138,33.266995],[131.038763,33.265995],[131.039288,33.265454],[131.039888,33.26507],[131.040876,33.26412],[131.041151,33.26367],[131.041226,33.263021],[131.041288,33.261646],[131.041176,33.259837],[131.041392,33.259303],[131.04174,33.259052],[131.042438,33.259138],[131.043213,33.259229],[131.043888,33.259363],[131.045013,33.259454],[131.0467,33.259288],[131.048687,33.259179],[131.04955,33.259196],[131.04995,33.259538],[131.050325,33.260096],[131.050987,33.261704],[131.051425,33.262063],[131.0519,33.262038],[131.052499,33.261904],[131.053187,33.261613],[131.054399,33.260954],[131.054937,33.260504],[131.055499,33.260255],[131.056224,33.26003],[131.057087,33.259846],[131.057537,33.25998],[131.057886,33.260188],[131.058161,33.260705],[131.058311,33.261405],[131.058336,33.261805],[131.058286,33.263071],[131.058424,33.263496],[131.058374,33.263863],[131.058361,33.264496],[131.058586,33.265038],[131.058899,33.265238],[131.059524,33.265329],[131.062336,33.264963],[131.063036,33.264921],[131.064398,33.264896],[131.064698,33.265071],[131.06566,33.265138],[131.06706,33.265005],[131.067973,33.265071],[131.068373,33.264846],[131.06896,33.264413],[131.069235,33.264305],[131.069423,33.264171],[131.069335,33.263713],[131.068698,33.262021],[131.068585,33.261505],[131.068648,33.261055],[131.069185,33.258913],[131.069373,33.258463],[131.069723,33.258122],[131.06996,33.257647],[131.070473,33.25708],[131.070523,33.256589],[131.070498,33.256089],[131.070523,33.25498],[131.070573,33.254597],[131.071173,33.253605],[131.07139,33.253011],[131.071448,33.252747],[131.071411,33.252381],[131.071377,33.252024],[131.071361,33.251697],[131.071261,33.251047],[131.071336,33.250539],[131.071686,33.249947],[131.071798,33.249814],[131.072498,33.249347],[131.072636,33.249172],[131.073061,33.248847],[131.073573,33.248672],[131.073661,33.248431],[131.073761,33.248006],[131.073923,33.247764],[131.074148,33.247564],[131.074473,33.247339],[131.075098,33.247231],[131.075723,33.247181],[131.076373,33.247081],[131.077285,33.247023],[131.077373,33.247006],[131.077398,33.246948],[131.077335,33.246698],[131.077323,33.246206],[131.077635,33.245956],[131.077923,33.245923],[131.078323,33.246106],[131.078873,33.246298],[131.07941,33.246298],[131.079585,33.246264],[131.079898,33.246048],[131.080035,33.245589],[131.080323,33.245306],[131.08091,33.245315],[131.08141,33.245666],[131.081635,33.245881],[131.08191,33.246081],[131.082197,33.246131],[131.082297,33.246098],[131.082485,33.245823],[131.082647,33.24544],[131.08266,33.244981],[131.082447,33.244398],[131.082497,33.244031],[131.082847,33.243731],[131.083035,33.243448],[131.083035,33.24304],[131.083372,33.242865],[131.083847,33.242906],[131.08426,33.242998],[131.084722,33.24284],[131.085197,33.24249],[131.08551,33.242065],[131.085872,33.241723],[131.086522,33.241207],[131.087135,33.24114],[131.087672,33.241132],[131.08781,33.241098],[131.088097,33.240807],[131.088422,33.240298],[131.088835,33.239798],[131.08939,33.239167],[131.090135,33.238382],[131.09051,33.238049],[131.090697,33.237707],[131.09071,33.237424],[131.09046,33.237082],[131.090385,33.236899],[131.090185,33.236607],[131.089872,33.236482],[131.089485,33.236382],[131.089347,33.236265],[131.088997,33.23584],[131.088672,33.235565],[131.088522,33.235499],[131.08821,33.235215],[131.087897,33.234799],[131.087435,33.234399],[131.087048,33.233282],[131.086898,33.232966],[131.086923,33.232582],[131.087173,33.232124],[131.087673,33.231566],[131.087823,33.231174],[131.087598,33.230091],[131.087535,33.229924],[131.087398,33.228574],[131.087373,33.227716],[131.087085,33.227016],[131.086848,33.226524],[131.086835,33.226208],[131.08736,33.2255],[131.087373,33.224866],[131.087598,33.2246],[131.087873,33.2244],[131.087935,33.224308],[131.087885,33.223958],[131.087648,33.2232],[131.08766,33.222691],[131.087835,33.222292],[131.088385,33.221917],[131.088423,33.221775],[131.088348,33.221267],[131.088198,33.22075],[131.088073,33.220575],[131.087948,33.220175],[131.088023,33.2198],[131.088048,33.219325],[131.08816,33.218825],[131.088373,33.218384],[131.08841,33.218067],[131.088248,33.217659],[131.088148,33.217192],[131.088185,33.21685],[131.088248,33.216717],[131.088535,33.216434],[131.088685,33.215959],[131.08856,33.215434],[131.088011,33.214634],[131.087848,33.214092],[131.087648,33.213651],[131.087561,33.212942],[131.087123,33.211792],[131.086973,33.211184],[131.086648,33.210659],[131.086273,33.210176],[131.085898,33.209526],[131.085123,33.208551],[131.085036,33.207976],[131.084998,33.207051],[131.084199,33.20391],[131.084024,33.202918],[131.084036,33.202368],[131.084524,33.200094],[131.084649,33.199619],[131.084661,33.199435],[131.084599,33.199102],[131.084349,33.19866],[131.084024,33.197152],[131.083999,33.196611],[131.083699,33.195586],[131.083636,33.195027],[131.083424,33.194586],[131.082686,33.193536],[131.082437,33.193086],[131.082262,33.192244],[131.082199,33.191311],[131.082237,33.190878],[131.082399,33.19062],[131.082412,33.19032],[131.082324,33.189753],[131.082149,33.18962],[131.082038,33.189496],[131.081994,33.189217],[131.081987,33.18892],[131.081842,33.188884],[131.081637,33.188911],[131.080137,33.189153],[131.078375,33.189378],[131.076975,33.189636],[131.075937,33.189895],[131.075175,33.190053],[131.073388,33.190494],[131.070813,33.190986],[131.06935,33.191194],[131.068463,33.191261],[131.068138,33.191261],[131.067538,33.191419],[131.066713,33.191961],[131.065551,33.192702],[131.064938,33.192969],[131.064338,33.193152],[131.063751,33.193277],[131.063088,33.19336],[131.062601,33.193544],[131.062163,33.193869],[131.061751,33.194252],[131.061151,33.194702],[131.060738,33.194927],[131.060213,33.195118],[131.059976,33.195177],[131.059126,33.195093],[131.058614,33.194902],[131.058139,33.194635],[131.057151,33.193969],[131.056701,33.193935],[131.055551,33.194277],[131.053752,33.194644],[131.053189,33.194735],[131.052564,33.194719],[131.051977,33.194652],[131.051477,33.194527],[131.050952,33.194494],[131.050339,33.19451],[131.048565,33.19426],[131.048165,33.194335],[131.047665,33.19436],[131.047202,33.194335],[131.044927,33.194644],[131.044365,33.194527],[131.043828,33.194519],[131.043165,33.194594],[131.04259,33.194694],[131.041428,33.19466],[131.039141,33.194469],[131.038766,33.19431],[131.038428,33.19396],[131.038153,33.193602],[131.037491,33.192969],[131.037341,33.192327],[131.037428,33.192211],[131.037216,33.191577],[131.037216,33.191094],[131.037091,33.190544],[131.036866,33.189944],[131.036428,33.188978],[131.036178,33.188628],[131.036041,33.188319],[131.035666,33.188178],[131.034854,33.187595],[131.034379,33.187345],[131.033904,33.187186],[131.033379,33.187061],[131.032966,33.186845],[131.031754,33.18552],[131.031429,33.185328],[131.031154,33.185311],[131.030792,33.185611],[131.030192,33.186428],[131.029717,33.18677],[131.029254,33.18687],[131.028817,33.186836],[131.028442,33.18667],[131.028317,33.186553],[131.027754,33.185836],[131.027217,33.185328],[131.026717,33.185003],[131.02513,33.184203],[131.024592,33.183853],[131.023792,33.183287],[131.023143,33.182895],[131.02208,33.182345],[131.021368,33.181912],[131.02003,33.181012],[131.018518,33.179862],[131.018018,33.179404],[131.016318,33.177779],[131.015881,33.177563],[131.015419,33.177446],[131.014831,33.177363],[131.014169,33.177363],[131.013594,33.177413],[131.013106,33.177554],[131.011569,33.178512],[131.011094,33.178712],[131.010519,33.178779],[131.009894,33.178679],[131.008369,33.177963],[131.007794,33.177721],[131.006882,33.177504],[131.006669,33.177504],[131.006132,33.177596],[131.005507,33.177946],[131.005182,33.178354],[131.004469,33.179554],[131.004107,33.179962],[131.003632,33.180354],[131.003032,33.180695],[131.002344,33.180995],[131.001869,33.181129],[131.001407,33.18122],[131.000145,33.18132],[130.998395,33.181537],[130.99767,33.181679],[130.997642,33.181732],[130.997107,33.182112],[130.995582,33.182995],[130.99512,33.183328],[130.99407,33.183787],[130.99332,33.18382],[130.992995,33.183745],[130.992407,33.183403],[130.991995,33.182895],[130.991782,33.182262],[130.991795,33.181603],[130.99217,33.180554],[130.993195,33.178554],[130.99322,33.178079],[130.992733,33.177354],[130.992145,33.177137],[130.991395,33.176996],[130.990395,33.176954],[130.989658,33.176762],[130.989408,33.176604],[130.988971,33.176079],[130.988833,33.175804],[130.988646,33.174513],[130.988583,33.173471],[130.988596,33.172821],[130.988471,33.172229],[130.988159,33.171613],[130.986959,33.170805],[130.986334,33.170013],[130.986384,33.169905],[130.985821,33.169188],[130.985609,33.168713],[130.985546,33.168438],[130.985659,33.167946],[130.985921,33.16738],[130.986159,33.166322],[130.986421,33.165622],[130.986396,33.165355],[130.985784,33.164613],[130.985534,33.164338],[130.985347,33.164047],[130.985184,33.163663],[130.985134,33.162805],[130.985159,33.161522],[130.985072,33.160872],[130.984672,33.16033],[130.984159,33.159947],[130.983509,33.159564],[130.983059,33.159155],[130.982672,33.15868],[130.982222,33.157805],[130.982085,33.157397],[130.981997,33.156972],[130.981972,33.156522],[130.981997,33.156164],[130.982085,33.155797],[130.982447,33.155056],[130.982722,33.154764],[130.983072,33.154489],[130.983497,33.154222],[130.984085,33.153723],[130.984247,33.153473],[130.984272,33.153006],[130.98421,33.152214],[130.984135,33.151898],[130.983972,33.151606],[130.98376,33.151331],[130.983347,33.150481],[130.98316,33.150114],[130.981785,33.148539],[130.981547,33.148289],[130.981522,33.148115],[130.981947,33.147456],[130.982672,33.146515],[130.982985,33.146015],[130.983898,33.14489],[130.984185,33.144457],[130.98446,33.144165],[130.984598,33.143873],[130.984673,33.143515],[130.984585,33.142815],[130.98451,33.142524],[130.984373,33.142299],[130.98426,33.142249],[130.983835,33.142274],[130.982985,33.142615],[130.982148,33.14309],[130.981185,33.143857],[130.98086,33.14399],[130.980623,33.14394],[130.980248,33.14379],[130.97866,33.142365],[130.978473,33.142032],[130.97831,33.141282],[130.978435,33.140673],[130.979035,33.140473],[130.979185,33.140273],[130.97916,33.140182],[130.979185,33.139665],[130.979435,33.13944],[130.979748,33.139365],[130.98056,33.13914],[130.981148,33.138874],[130.981248,33.138782],[130.981548,33.138282],[130.981835,33.137516],[130.981973,33.137274],[130.982323,33.137091],[130.982535,33.136932],[130.98261,33.136707],[130.982635,33.136432],[130.982723,33.136299],[130.983123,33.136049],[130.98341,33.135941],[130.983898,33.135824],[130.983973,33.135782],[130.98416,33.135582],[130.984273,33.135107],[130.984435,33.134766],[130.984698,33.134566],[130.984998,33.134449],[130.985373,33.134383],[130.985773,33.134249],[130.985798,33.134199],[130.985748,33.133974],[130.985873,33.133774],[130.986173,33.133683],[130.986335,33.133508],[130.986835,33.133366],[130.987135,33.133208],[130.987373,33.133141],[130.987698,33.132691],[130.987885,33.132558],[130.98826,33.132508],[130.988685,33.132349],[130.989248,33.132033],[130.98946,33.131858],[130.989485,33.131791],[130.98946,33.131516],[130.989323,33.131158],[130.989298,33.130841],[130.989373,33.130733],[130.989648,33.130708],[130.990398,33.130749],[130.990773,33.130658],[130.991073,33.1305],[130.991435,33.129875],[130.991623,33.1298],[130.99216,33.129941],[130.992435,33.129916],[130.99276,33.129783],[130.993098,33.129508],[130.993535,33.129416],[130.993798,33.129483],[130.994148,33.129533],[130.994385,33.129483],[130.994473,33.129441],[130.994635,33.129258],[130.99471,33.128991],[130.994735,33.128633],[130.994648,33.128516],[130.994173,33.128316],[130.993923,33.127866],[130.993898,33.127683],[130.994035,33.127116],[130.993735,33.126441],[130.99371,33.1262],[130.993835,33.125883],[130.993873,33.125566],[130.993735,33.125341],[130.993623,33.125291],[130.99346,33.125275],[130.993148,33.125341],[130.99296,33.125225],[130.99266,33.1243],[130.992948,33.1239],[130.992785,33.1234],[130.99271,33.123292],[130.99271,33.123108],[130.99281,33.12295],[130.993023,33.12275],[130.99311,33.122275],[130.993535,33.121758],[130.99351,33.12155],[130.993398,33.121258],[130.993348,33.120942],[130.993348,33.12045],[130.993398,33.120292],[130.993635,33.120158],[130.993848,33.119792],[130.99396,33.1195],[130.994598,33.119183],[130.995023,33.119008],[130.995298,33.118642],[130.995373,33.118508],[130.995698,33.118308],[130.995985,33.118167],[130.996385,33.1177],[130.996598,33.117558],[130.99701,33.117492],[130.997573,33.117134],[130.997642,33.117154],[130.99781,33.1172],[130.99791,33.117358],[130.998323,33.11715],[130.99856,33.117083],[130.998935,33.117042],[130.999198,33.1167],[130.999548,33.116434],[130.999735,33.116434],[131.00011,33.116525],[131.000435,33.116475],[131.00051,33.11625],[131.000698,33.116025],[131.00091,33.115892],[131.001023,33.115417],[131.001173,33.115175],[131.001423,33.115034],[131.001498,33.114834],[131.00166,33.11465],[131.001948,33.11445],[131.002035,33.114225],[131.001973,33.113892],[131.002135,33.113034],[131.002235,33.1129],[131.002648,33.112767],[131.002985,33.112609],[131.003048,33.11245],[131.003123,33.111775],[131.003335,33.111617],[131.00376,33.111392],[131.003848,33.111167],[131.00406,33.110917],[131.00411,33.11065],[131.00406,33.110384],[131.004323,33.110267],[131.004698,33.110384],[131.004935,33.110175],[131.00531,33.110042],[131.005423,33.109884],[131.005798,33.1097],[131.006435,33.109459],[131.00681,33.10925],[131.00721,33.109092],[131.007423,33.109092],[131.007673,33.109142],[131.008098,33.10905],[131.008448,33.108842],[131.008685,33.108759],[131.008848,33.108734],[131.00911,33.108534],[131.009298,33.108084],[131.00986,33.107425],[131.010235,33.106751],[131.01066,33.106234],[131.01106,33.105651],[131.011435,33.104726],[131.012198,33.103534],[131.01236,33.103159],[131.012523,33.102884],[131.01266,33.102551],[131.012685,33.102234],[131.012835,33.101626],[131.013298,33.100843],[131.013348,33.100459],[131.01326,33.100168],[131.013285,33.099693],[131.013423,33.099359],[131.013748,33.099151],[131.014223,33.098976],[131.014385,33.099018],[131.014685,33.099334],[131.014948,33.099443],[131.01516,33.099484],[131.015323,33.099443],[131.01586,33.098701],[131.01626,33.098318],[131.016448,33.098093],[131.016548,33.097801],[131.017298,33.096093],[131.01791,33.095102],[131.01796,33.094768],[131.018273,33.094177],[131.01871,33.093302],[131.018835,33.092902],[131.018935,33.092177],[131.019185,33.09191],[131.019523,33.09171],[131.020873,33.09146],[131.021322,33.091594],[131.021747,33.091544],[131.02181,33.091502],[131.022072,33.091435],[131.022372,33.091252],[131.022585,33.091027],[131.023085,33.090327],[131.023647,33.089003],[131.02386,33.088644],[131.02391,33.088486],[131.023885,33.088219],[131.02396,33.087794],[131.023935,33.087569],[131.023822,33.087361],[131.023097,33.086919],[131.022997,33.086686],[131.022585,33.085903],[131.022497,33.085836],[131.022122,33.085703],[131.021885,33.085478],[131.020997,33.085161],[131.020648,33.084828],[131.02046,33.084153],[131.02046,33.08382],[131.020348,33.08312],[131.020223,33.082762],[131.02006,33.082578],[131.019898,33.08247],[131.019198,33.082153],[131.019148,33.081953],[131.019335,33.081253],[131.019273,33.081028],[131.01911,33.080845],[131.018898,33.080778],[131.017648,33.080762],[131.016598,33.080787],[131.016173,33.080762],[131.01556,33.08052],[131.01531,33.080228],[131.014535,33.079795],[131.014448,33.079103],[131.01416,33.078428],[131.014048,33.078003],[131.013998,33.077553],[131.013835,33.077262],[131.013623,33.077053],[131.013323,33.076878],[131.012973,33.07672],[131.012873,33.076695],[131.012548,33.07647],[131.01236,33.07627],[131.012323,33.075937],[131.012435,33.075728],[131.01251,33.075395],[131.01241,33.075012],[131.011685,33.07402],[131.011485,33.073637],[131.011248,33.07247],[131.011248,33.072179],[131.011298,33.071912],[131.010923,33.07137],[131.01081,33.070962],[131.010835,33.070787],[131.010998,33.070579],[131.010948,33.070379],[131.010673,33.070129],[131.010648,33.070087],[131.010723,33.069929],[131.011023,33.069729],[131.011398,33.069662],[131.011935,33.069704],[131.012198,33.069637],[131.01236,33.069345],[131.012523,33.069229],[131.012598,33.069204],[131.012973,33.069295],[131.013023,33.06927],[131.013348,33.068804],[131.013423,33.068595],[131.013373,33.068354],[131.013473,33.068287],[131.013848,33.068212],[131.014148,33.068129],[131.014223,33.067695],[131.014198,33.067312],[131.014248,33.067112],[131.014385,33.06702],[131.014973,33.066912],[131.015235,33.06657],[131.015448,33.066395],[131.015423,33.066279],[131.015211,33.066079],[131.015123,33.065895],[131.015148,33.065787],[131.01571,33.06587],[131.015923,33.065804],[131.016085,33.065562],[131.01651,33.065379],[131.016485,33.065104],[131.016698,33.06477],[131.016748,33.064729],[131.01721,33.064862],[131.01731,33.064879],[131.017448,33.064704],[131.017473,33.06452],[131.017398,33.064004],[131.01761,33.063779],[131.017661,33.06362],[131.017636,33.06342],[131.017473,33.063237],[131.017236,33.063129],[131.016961,33.062787],[131.016723,33.062204],[131.016561,33.062004],[131.016373,33.061529],[131.016311,33.061287],[131.016048,33.060745],[131.015673,33.060229],[131.015536,33.060004],[131.015423,33.059912],[131.014948,33.059712],[131.014698,33.059554],[131.014386,33.059037],[131.014323,33.058862],[131.014673,33.05852],[131.014961,33.058337],[131.015173,33.058045],[131.015236,33.057687],[131.014823,33.057037],[131.014661,33.056854],[131.014586,33.056537],[131.014749,33.056229],[131.014936,33.056087],[131.014961,33.056004],[131.014874,33.055795],[131.014261,33.055195],[131.014049,33.055054],[131.013236,33.054921],[131.012899,33.054787],[131.012811,33.054746],[131.012649,33.054454],[131.012624,33.054246],[131.012674,33.054137],[131.012724,33.053821],[131.012836,33.053596],[131.012786,33.053571],[131.012786,33.053354],[131.012586,33.052787],[131.012586,33.052429],[131.012749,33.052071],[131.012911,33.051862],[131.013049,33.051821],[131.013524,33.051912],[131.014061,33.051862],[131.014436,33.051729],[131.015024,33.051321],[131.015099,33.051212],[131.014536,33.050854],[131.014274,33.050604],[131.014049,33.050312],[131.013924,33.049929],[131.013862,33.049412],[131.013862,33.048846],[131.013937,33.048396],[131.014287,33.048037],[131.014424,33.047837],[131.014362,33.047546],[131.013774,33.047137],[131.013262,33.046846],[131.013024,33.046538],[131.012837,33.046088],[131.012749,33.045571],[131.012837,33.045054],[131.012862,33.044979],[131.012487,33.044288],[131.012375,33.043929],[131.011837,33.043096],[131.0116,33.042871],[131.011412,33.042779],[131.011137,33.042688],[131.011,33.042604],[131.010737,33.042554],[131.010525,33.042579],[131.010225,33.042313],[131.00975,33.041771],[131.009562,33.041638],[131.009237,33.041521],[131.009075,33.041504],[131.008725,33.041346],[131.008162,33.040921],[131.00785,33.040896],[131.0076,33.040988],[131.00715,33.040988],[131.006962,33.040879],[131.006425,33.040313],[131.005975,33.040021],[131.005437,33.039863],[131.005037,33.039888],[131.0049,33.039846],[131.004787,33.039713],[131.004737,33.039438],[131.0045,33.038988],[131.00425,33.038721],[131.004124,33.038429],[131.004037,33.037713],[131.003924,33.037413],[131.003637,33.037038],[131.003124,33.036746],[131.002587,33.036313],[131.002537,33.03618],[131.002562,33.036005],[131.002749,33.035863],[131.003062,33.03573],[131.003387,33.035555],[131.003712,33.035213],[131.003787,33.033863],[131.003562,33.033346],[131.003399,33.03308],[131.003237,33.032896],[131.002712,33.03263],[131.002337,33.032405],[131.002062,33.032063],[131.001549,33.031596],[131.001287,33.031505],[131.000749,33.031396],[131.000399,33.031213],[131.000025,33.03108],[130.999675,33.030988],[130.999275,33.030746],[130.999225,33.030538],[130.999275,33.030363],[130.999462,33.030046],[130.999462,33.029821],[130.999387,33.029663],[130.998975,33.02928],[130.998312,33.028788],[130.99825,33.028721],[130.99815,33.028313],[130.997937,33.027955],[130.997725,33.028005],[130.997645,33.028068],[130.997562,33.028221],[130.996925,33.02783],[130.995837,33.026805],[130.995225,33.026605],[130.9945,33.026563],[130.99385,33.026463],[130.993237,33.026296],[130.993112,33.026146],[130.992675,33.025396],[130.992062,33.025088],[130.991775,33.024871],[130.991575,33.024446],[130.991262,33.024121],[130.990562,33.023971],[130.988862,33.02373],[130.988062,33.023746],[130.987287,33.024121],[130.986437,33.024213],[130.98575,33.024213],[130.984338,33.023863],[130.983375,33.024004],[130.981738,33.024296],[130.980388,33.024463],[130.978575,33.024879],[130.97745,33.025029],[130.976813,33.024996],[130.976738,33.024904],[130.976613,33.024546],[130.976625,33.023829],[130.9768,33.023296],[130.976863,33.023204],[130.976838,33.023129],[130.976575,33.023004],[130.975925,33.023029],[130.974726,33.023237],[130.973888,33.023512],[130.973201,33.023587],[130.972613,33.023787],[130.972026,33.023837],[130.971376,33.023754],[130.970713,33.023729],[130.970238,33.023821],[130.970176,33.023854],[130.970138,33.023904],[130.969163,33.025404],[130.967113,33.028237],[130.966626,33.028754],[130.965626,33.029746],[130.964126,33.031046],[130.962651,33.032579],[130.962126,33.033012],[130.961351,33.033729],[130.960826,33.034562],[130.959614,33.035829],[130.959364,33.036321],[130.959201,33.037004],[130.959126,33.037621],[130.959288,33.038137],[130.959526,33.038696],[130.959526,33.039212],[130.959588,33.039604],[130.959513,33.039912],[130.959001,33.040637],[130.958976,33.040737],[130.959051,33.041154],[130.959076,33.041679],[130.959063,33.043037],[130.959001,33.043696],[130.959013,33.044046],[130.958826,33.044529],[130.958501,33.045012],[130.958026,33.04542],[130.957101,33.046462],[130.957051,33.046887],[130.956751,33.047337],[130.956013,33.047737],[130.955701,33.048154],[130.955163,33.048595],[130.954501,33.048695],[130.953964,33.048645],[130.953501,33.048912],[130.953039,33.049353],[130.952526,33.049603],[130.952001,33.04997],[130.951526,33.050187],[130.951426,33.050278],[130.950739,33.05057],[130.950276,33.050928],[130.949889,33.051103],[130.948902,33.05142],[130.948277,33.051686],[130.948014,33.051828],[130.947189,33.052603],[130.946739,33.05292],[130.946539,33.052961],[130.945952,33.052945],[130.945277,33.053011],[130.944877,33.052995],[130.944289,33.052886],[130.943777,33.052736],[130.942727,33.05227],[130.942302,33.052328],[130.940652,33.053528],[130.940102,33.05317],[130.939365,33.052386],[130.938752,33.052128],[130.938102,33.052111],[130.937378,33.05217],[130.93694,33.05247],[130.936503,33.053086],[130.93624,33.053586],[130.935378,33.054453],[130.935053,33.05502],[130.934678,33.055195],[130.934265,33.054953],[130.933715,33.054553],[130.932553,33.054086],[130.931078,33.053295],[130.930553,33.053045],[130.929753,33.052911],[130.929128,33.052711],[130.92849,33.05222],[130.927903,33.052245],[130.927141,33.05257],[130.926391,33.052803],[130.926353,33.05277],[130.925741,33.052745],[130.925053,33.052937],[130.924378,33.053028],[130.923916,33.05282],[130.923528,33.05217],[130.923216,33.052112],[130.922378,33.052453],[130.921616,33.052603],[130.920903,33.052637],[130.920378,33.052762],[130.919503,33.05347],[130.919278,33.05352],[130.918853,33.053403],[130.918391,33.053312],[130.917878,33.05337],[130.917591,33.053237],[130.917616,33.053228],[130.917578,33.053162],[130.917166,33.053062],[130.916766,33.053262],[130.916216,33.05347],[130.915741,33.053587],[130.915691,33.053753],[130.915791,33.054245],[130.916154,33.054587],[130.916391,33.05537],[130.916391,33.05562],[130.915679,33.056078],[130.915266,33.05657],[130.914841,33.057203],[130.914004,33.058103],[130.913729,33.058645],[130.913379,33.059128],[130.913004,33.059253],[130.912429,33.059395],[130.912041,33.059645],[130.911304,33.06097],[130.910791,33.06212],[130.910453,33.06237],[130.910053,33.06252],[130.909916,33.062495],[130.909916,33.062553],[130.909404,33.06252],[130.909116,33.06267],[130.908629,33.063245],[130.908341,33.063503],[130.907854,33.064236],[130.907754,33.064311],[130.907304,33.064436],[130.906879,33.064645],[130.906529,33.06502],[130.906341,33.065086],[130.905791,33.065103],[130.905066,33.06497],[130.903829,33.064845],[130.902129,33.064603],[130.901754,33.064503],[130.900529,33.064361],[130.899954,33.064153],[130.899291,33.064053],[130.899016,33.064336],[130.898766,33.064753],[130.897891,33.065161],[130.897591,33.065186],[130.897379,33.065245],[130.897042,33.06547],[130.897042,33.066028],[130.897891,33.067386],[130.897966,33.067628],[130.897954,33.068094],[130.897716,33.068569],[130.897291,33.069011],[130.896941,33.069194],[130.896754,33.069594],[130.896616,33.070186],[130.896654,33.070702],[130.896716,33.070836],[130.896879,33.071727],[130.896804,33.072469],[130.896691,33.072919],[130.896441,33.073186],[130.895766,33.073402],[130.895429,33.073652],[130.894992,33.07386],[130.894292,33.073894],[130.893517,33.074144],[130.893054,33.074444],[130.892267,33.075085],[130.891317,33.075485],[130.891154,33.075585],[130.890617,33.075793],[130.890604,33.076185],[130.890654,33.076318],[130.890579,33.076668],[130.890417,33.077018],[130.890592,33.077368],[130.890992,33.077927],[130.891054,33.07831],[130.891029,33.078801],[130.890879,33.079276],[130.890779,33.07941],[130.890617,33.079826],[130.890492,33.080368],[130.890242,33.081001],[130.889967,33.082134],[130.889754,33.083451],[130.889542,33.083784],[130.889179,33.083943],[130.889029,33.084043],[130.888804,33.084393],[130.888517,33.084726],[130.887567,33.085351],[130.88728,33.085701],[130.887205,33.085892],[130.88718,33.086267],[130.887242,33.086509],[130.88713,33.086684],[130.886192,33.087376],[130.885742,33.087467],[130.88528,33.087484],[130.884642,33.087692],[130.884317,33.08785],[130.884105,33.088009],[130.88363,33.0885],[130.882955,33.088484],[130.882368,33.08855],[130.881668,33.08875],[130.88138,33.088909],[130.881105,33.089133],[130.880793,33.089267],[130.880655,33.089275],[130.879818,33.08945],[130.879605,33.089608],[130.879068,33.090217],[130.87883,33.090358],[130.878543,33.090425],[130.878243,33.090583],[130.877843,33.091125],[130.877468,33.091483],[130.876856,33.091825],[130.876506,33.091866],[130.875731,33.09175],[130.875356,33.091775],[130.874493,33.092],[130.873256,33.092075],[130.873131,33.092116],[130.872856,33.092183],[130.872653,33.092179],[130.872619,33.092266],[130.872181,33.092224],[130.871269,33.092066],[130.870619,33.091724],[130.869956,33.091099],[130.869706,33.091033],[130.868831,33.091007],[130.868194,33.090741],[130.867619,33.090332],[130.867257,33.090357],[130.867144,33.090449],[130.866682,33.091032],[130.866382,33.091974],[130.865757,33.092699],[130.865582,33.09279],[130.865044,33.092965],[130.864769,33.092949],[130.864382,33.093198],[130.863807,33.093665],[130.863719,33.093873],[130.863669,33.094365],[130.863782,33.095065],[130.863307,33.095315],[130.862732,33.095248],[130.862207,33.09529],[130.86207,33.095406],[130.86092,33.095498],[130.860757,33.095448],[130.86032,33.095181],[130.859682,33.094731],[130.859132,33.094531],[130.858507,33.094548],[130.857682,33.094389],[130.857408,33.093939],[130.856958,33.093764],[130.856308,33.093831],[130.85542,33.094347],[130.855233,33.094506],[130.85487,33.094572],[130.854683,33.094506],[130.854158,33.094214],[130.853308,33.094197],[130.852845,33.094014],[130.851408,33.094355],[130.850946,33.094555],[130.850671,33.094463],[130.850071,33.093838],[130.849496,33.093838],[130.848908,33.093972],[130.847708,33.093838],[130.847533,33.093388],[130.847483,33.092796],[130.847071,33.092463],[130.846084,33.092213],[130.845784,33.092213],[130.845671,33.092213],[130.845234,33.092488],[130.844821,33.092963],[130.844459,33.093479],[130.843909,33.093679],[130.843259,33.093813],[130.843034,33.094379],[130.843284,33.094896],[130.843371,33.095596],[130.843034,33.095888],[130.842921,33.096071],[130.842871,33.096787],[130.842684,33.096787],[130.842159,33.096879],[130.841884,33.097287],[130.841747,33.098254],[130.841359,33.098596],[130.840622,33.098954],[130.839997,33.099587],[130.839797,33.100154],[130.839859,33.100737],[130.840109,33.101229],[130.840297,33.102112],[130.840459,33.102587],[130.840384,33.102987],[130.840022,33.103345],[130.839909,33.103978],[130.839772,33.10407],[130.839834,33.104678],[130.840022,33.105062],[130.840684,33.105328],[130.841297,33.10547],[130.841784,33.105395],[130.842059,33.105395],[130.842634,33.105603],[130.843084,33.106437],[130.843634,33.106745],[130.843909,33.10702],[130.844209,33.107653],[130.844371,33.107737],[130.845196,33.107945],[130.845559,33.107962],[130.846134,33.107804],[130.846871,33.107695],[130.847646,33.107829],[130.849283,33.107779],[130.849946,33.108321],[130.850771,33.108254],[130.851433,33.108429],[130.85152,33.108479],[130.851595,33.108587],[130.852308,33.108929],[130.853083,33.109196],[130.853383,33.109446],[130.853383,33.109896],[130.85347,33.110321],[130.853633,33.110862],[130.85377,33.111087],[130.854183,33.111604],[130.854683,33.111987],[130.855595,33.113071],[130.856745,33.113562],[130.857757,33.113812],[130.858257,33.114221],[130.85842,33.114712],[130.858482,33.115121],[130.859107,33.115321],[130.860069,33.116354],[130.860507,33.116604],[130.860869,33.116871],[130.861444,33.117387],[130.861669,33.117754],[130.861307,33.118021],[130.861344,33.118362],[130.861119,33.118987],[130.860769,33.119462],[130.860732,33.119895],[130.860569,33.120279],[130.859744,33.120954],[130.859482,33.121445],[130.859757,33.121654],[130.860382,33.122037],[130.861069,33.12237],[130.861682,33.122395],[130.862306,33.122529],[130.862856,33.122704],[130.862994,33.122795],[130.863106,33.12327],[130.863906,33.12347],[130.864181,33.123879],[130.864431,33.124504],[130.864781,33.125254],[130.864781,33.125654],[130.865118,33.125862],[130.865581,33.126329],[130.866018,33.126712],[130.866218,33.127095],[130.866168,33.127795],[130.866406,33.128112],[130.866381,33.12852],[130.866743,33.13027],[130.867243,33.130637],[130.867381,33.131195],[130.867218,33.131603],[130.867131,33.132686],[130.866968,33.13327],[130.867056,33.133745],[130.868043,33.134661],[130.868568,33.135495],[130.86893,33.136261],[130.86903,33.136803],[130.869343,33.137728],[130.86923,33.138519],[130.86923,33.139528],[130.86953,33.140094],[130.869842,33.140494],[130.87023,33.141169],[130.870605,33.141736],[130.870855,33.142277],[130.87078,33.143244],[130.870505,33.143652],[130.87048,33.144327],[130.870392,33.144869],[130.870567,33.145569],[130.87078,33.145969],[130.870667,33.146469],[130.870892,33.146802],[130.871092,33.147235],[130.871467,33.147594],[130.87208,33.147769],[130.872492,33.148244],[130.872542,33.148585],[130.872652,33.148706],[130.872792,33.148752],[130.872955,33.148844],[130.873355,33.149277],[130.873417,33.149277],[130.873554,33.14921],[130.873742,33.149002],[130.873954,33.148844],[130.874142,33.148752],[130.874267,33.148735],[130.874917,33.149044],[130.875479,33.149319],[130.875742,33.149519],[130.875904,33.149927],[130.876154,33.150219],[130.876692,33.150693],[130.876854,33.150785],[130.877517,33.150785],[130.877729,33.150852],[130.877892,33.151052],[130.878004,33.151368],[130.878192,33.151727],[130.878404,33.151885],[130.878891,33.15211],[130.879366,33.152518],[130.879479,33.152877],[130.879454,33.153152],[130.879266,33.153693],[130.879266,33.15396],[130.879216,33.154027],[130.878754,33.154302],[130.878679,33.15446],[130.878704,33.15466],[130.878867,33.154885],[130.878942,33.155176],[130.878979,33.155493],[130.879029,33.155651],[130.879029,33.156576],[130.878917,33.156785],[130.878679,33.157051],[130.878579,33.157118],[130.878354,33.157368],[130.878304,33.157501],[130.878067,33.157776],[130.877429,33.158676],[130.876917,33.159493],[130.876829,33.159784],[130.877129,33.160343],[130.877292,33.160726],[130.877267,33.161068],[130.877179,33.161318],[130.877029,33.161676],[130.876967,33.162084],[130.877054,33.162759],[130.876655,33.163326],[130.876567,33.163734],[130.876542,33.164517],[130.876467,33.164742],[130.876142,33.164992],[130.87563,33.165492],[130.875505,33.165717],[130.875155,33.166259],[130.874805,33.166459],[130.874667,33.166617],[130.87448,33.166959],[130.874217,33.167225],[130.874105,33.167275],[130.87398,33.167525],[130.87398,33.167592],[130.873605,33.16775],[130.873418,33.168083],[130.873443,33.168308],[130.87358,33.168558],[130.873793,33.168833],[130.874267,33.169192],[130.87438,33.169233],[130.874992,33.169708],[130.875367,33.169842],[130.875642,33.170008],[130.875692,33.170092],[130.875717,33.170567],[130.875792,33.170792],[130.876292,33.17105],[130.876954,33.171558],[130.877167,33.171583],[130.877754,33.171792],[130.878067,33.172158],[130.878117,33.172475],[130.878454,33.172775],[130.878042,33.173383],[130.877992,33.173691],[130.877904,33.173808],[130.877867,33.174191],[130.877892,33.174283],[130.878666,33.174516],[130.879954,33.174741],[130.880666,33.174975],[130.881179,33.174983],[130.881691,33.174833],[130.881991,33.174908],[130.882603,33.175141],[130.883078,33.175575],[130.884353,33.176091],[130.885715,33.1762],[130.88569,33.176266],[130.885715,33.176316],[130.885603,33.176691],[130.885553,33.177733],[130.885578,33.178166],[130.885728,33.178616],[130.885853,33.1788],[130.885978,33.179341],[130.885928,33.179658],[130.88629,33.180049],[130.886553,33.180483],[130.886615,33.180999],[130.886615,33.181524],[130.886915,33.182358],[130.886852,33.183041],[130.886627,33.183441],[130.886615,33.183891],[130.886177,33.184882],[130.886252,33.185041],[130.886752,33.185632],[130.887415,33.186207],[130.88754,33.186591],[130.88729,33.186866],[130.886027,33.18689],[130.885752,33.186974],[130.884565,33.187707],[130.883815,33.18724],[130.883178,33.187049],[130.882665,33.187182],[130.882065,33.187557],[130.880903,33.188124],[130.880041,33.188382],[130.879666,33.188424],[130.878853,33.18864],[130.878078,33.188898],[130.877316,33.189115],[130.876479,33.189215],[130.875566,33.189223],[130.874979,33.189282],[130.874866,33.189373],[130.874529,33.190248],[130.874179,33.190423],[130.873829,33.19069],[130.873492,33.191048],[130.873067,33.191423],[130.872652,33.191635],[130.872379,33.191731],[130.871304,33.191731],[130.871092,33.191773],[130.870629,33.192423],[130.870442,33.192623],[130.870255,33.193281],[130.870117,33.193523],[130.869717,33.193881],[130.869205,33.194039],[130.86798,33.194148],[130.86658,33.194106],[130.866155,33.194031],[130.865855,33.193939],[130.864843,33.193356],[130.86433,33.193131],[130.863905,33.193014],[130.863631,33.193106],[130.863531,33.193214],[130.863443,33.193731],[130.863393,33.193848],[130.863068,33.194073],[130.862906,33.194273],[130.862668,33.194839],[130.861906,33.195197],[130.861556,33.195331],[130.861268,33.195506],[130.860918,33.195931],[130.860756,33.196222],[130.860243,33.196606],[130.859918,33.196806],[130.859468,33.197239],[130.859193,33.19773],[130.858768,33.198155],[130.858394,33.198355],[130.857994,33.198497],[130.857181,33.19858],[130.856381,33.198555],[130.856056,33.198597],[130.855756,33.198739],[130.855331,33.199097],[130.854394,33.200063],[130.854044,33.200238],[130.853607,33.200397],[130.853182,33.200505],[130.852344,33.200547],[130.852057,33.200613],[130.851844,33.200797],[130.851544,33.20113],[130.851332,33.201497],[130.851144,33.201697],[130.850632,33.201921],[130.85052,33.201896],[130.849745,33.20198],[130.849232,33.202271],[130.848832,33.202613],[130.848245,33.202921],[130.847682,33.20308],[130.84727,33.203146],[130.847195,33.20328],[130.84722,33.20378],[130.847057,33.204321],[130.846945,33.204388],[130.845795,33.204696],[130.845233,33.204804],[130.84512,33.204921],[130.84507,33.205146],[130.844958,33.205463],[130.84472,33.205771],[130.84467,33.205954],[130.844445,33.206204],[130.844258,33.206496],[130.843745,33.207171],[130.843483,33.207412],[130.843058,33.207371],[130.842083,33.207904],[130.841358,33.208446],[130.840608,33.208754],[130.840371,33.209054],[130.840146,33.209679],[130.839858,33.209862],[130.839296,33.209995],[130.838834,33.20997],[130.838484,33.210012],[130.837921,33.210212],[130.837546,33.210412],[130.836771,33.210687],[130.836334,33.21082],[130.836496,33.211337],[130.836496,33.211512],[130.836609,33.21192],[130.836759,33.212953],[130.837034,33.213545],[130.837321,33.213995],[130.837484,33.214353],[130.837721,33.215411],[130.838146,33.216003],[130.838521,33.216678],[130.838708,33.216903],[130.839546,33.21742],[130.839946,33.217603],[130.840208,33.21767],[130.841308,33.217628],[130.84177,33.217653],[130.841958,33.21772],[130.842283,33.218078],[130.842333,33.218286],[130.842758,33.21842],[130.843245,33.218553],[130.843482,33.218736],[130.843857,33.21887],[130.844207,33.219103],[130.84447,33.219328],[130.844582,33.219503],[130.844532,33.21957],[130.84447,33.219845],[130.84437,33.220136],[130.844345,33.220428],[130.844445,33.220545],[130.844907,33.220811],[130.844982,33.221103],[130.844845,33.222253],[130.84492,33.222819],[130.845219,33.223019],[130.845969,33.223203],[130.847282,33.223703],[130.847869,33.223811],[130.847957,33.223903],[130.848119,33.223969],[130.848169,33.223861],[130.848144,33.223769],[130.848219,33.223361],[130.848382,33.223119],[130.848656,33.223053],[130.849244,33.223095],[130.849569,33.223236],[130.849881,33.223461],[130.850156,33.223594],[130.850256,33.223595],[130.850794,33.223736],[130.850981,33.22387],[130.851169,33.224186],[130.851169,33.224269],[130.851256,33.224453],[130.851468,33.224569],[130.851568,33.224544],[130.852106,33.224661],[130.852781,33.225136],[130.853418,33.225295],[130.853581,33.225386],[130.853718,33.225744],[130.853931,33.226061],[130.854255,33.226378],[130.854493,33.226511],[130.85473,33.226603],[130.855405,33.226561],[130.856593,33.226295],[130.857255,33.22587],[130.85753,33.225753],[130.85788,33.225711],[130.858167,33.225845],[130.858467,33.226136],[130.858517,33.226278],[130.858405,33.227086],[130.858517,33.227603],[130.85868,33.22787],[130.859155,33.228145],[130.859505,33.228395],[130.859642,33.229519],[130.858992,33.229628],[130.85873,33.229786],[130.858542,33.229944],[130.85768,33.230502],[130.856792,33.230952],[130.856417,33.230994],[130.856068,33.230836],[130.855555,33.230952],[130.85523,33.231086],[130.85483,33.231152],[130.854568,33.231286],[130.85438,33.231486],[130.854268,33.231669],[130.853943,33.231894],[130.853543,33.232069],[130.852905,33.232244],[130.852493,33.232294],[130.851906,33.23231],[130.851018,33.232419],[130.849868,33.232485],[130.848494,33.232643],[130.848094,33.232935],[130.847794,33.233085],[130.847394,33.233202],[130.847106,33.233202],[130.846669,33.233285],[130.846406,33.23331],[130.845706,33.233243],[130.845057,33.233301],[130.844232,33.233418],[130.843994,33.233351],[130.843857,33.233276],[130.843269,33.233101],[130.842707,33.233076],[130.841844,33.23316],[130.84072,33.233493],[130.840395,33.233493],[130.83962,33.233385],[130.839232,33.233426],[130.838807,33.233534],[130.838132,33.233643],[130.837095,33.233618],[130.83682,33.233668],[130.836283,33.233934],[130.836045,33.234001],[130.835808,33.233934],[130.835458,33.233526],[130.834783,33.233909],[130.83422,33.233951],[130.833358,33.234109],[130.833008,33.234217],[130.832771,33.234167],[130.831808,33.233767],[130.831558,33.233717],[130.831133,33.233809],[130.830871,33.233967],[130.830483,33.234301],[130.830133,33.234726],[130.829983,33.234842],[130.829446,33.234859],[130.829033,33.235109],[130.828746,33.2354],[130.828609,33.235484],[130.828396,33.235734],[130.827834,33.236117],[130.827421,33.236359],[130.826596,33.236767],[130.826221,33.236833],[130.826134,33.2369],[130.826184,33.237008],[130.826221,33.237233],[130.826184,33.237508],[130.826321,33.238158],[130.826071,33.239575],[130.825971,33.239916],[130.825671,33.24025],[130.825321,33.240475],[130.825109,33.240658],[130.825084,33.240725],[130.825184,33.24095],[130.825434,33.241216],[130.826234,33.241758],[130.826309,33.242033],[130.826334,33.242324],[130.826259,33.242749],[130.826259,33.243041],[130.826171,33.243399],[130.826284,33.243808],[130.826383,33.244033],[130.826521,33.244099],[130.827196,33.244624],[130.827533,33.245008],[130.827433,33.245249],[130.827058,33.245682],[130.826871,33.246041],[130.826621,33.246374],[130.826196,33.247299],[130.825683,33.24804],[130.825358,33.249299],[130.825196,33.249774],[130.824896,33.250307],[130.824546,33.251115],[130.824708,33.25139],[130.824896,33.252132],[130.824971,33.252557],[130.824858,33.253032],[130.824788,33.253249],[130.824808,33.253473],[130.824996,33.253782],[130.825321,33.254032],[130.825833,33.254373],[130.826496,33.254915],[130.826796,33.255273],[130.826896,33.255615],[130.827108,33.256015],[130.827433,33.256531],[130.827783,33.256898],[130.828558,33.257415],[130.829683,33.257848],[130.829958,33.257773],[130.830033,33.257731],[130.83057,33.25769],[130.83117,33.257865],[130.831895,33.257981],[130.83197,33.25794],[130.832207,33.257956],[130.832582,33.258481],[130.832882,33.258681],[130.83307,33.25864],[130.833657,33.258323],[130.834919,33.257448],[130.834919,33.257398],[130.835294,33.25709],[130.835482,33.257173],[130.835807,33.257398],[130.837469,33.25819],[130.837844,33.258306],[130.838244,33.258256],[130.838869,33.25804],[130.839081,33.257857],[130.839244,33.257632],[130.839506,33.25754],[130.839669,33.257523],[130.840069,33.257565],[130.840531,33.257565],[130.840931,33.257407],[130.841956,33.257207],[130.843943,33.257348],[130.845018,33.257482],[130.845468,33.25764],[130.846118,33.258132],[130.846493,33.258382],[130.846943,33.258632],[130.847293,33.258923],[130.848655,33.260956],[130.84903,33.260906],[130.849755,33.26064],[130.850005,33.26064],[130.85038,33.260773],[130.850705,33.260798],[130.850805,33.260773],[130.851042,33.260598],[130.851155,33.260548],[130.851505,33.260598],[130.851805,33.260773],[130.852492,33.261115],[130.85268,33.261315],[130.852767,33.261656],[130.852905,33.261906],[130.853142,33.262173],[130.853592,33.262398],[130.854079,33.262398],[130.854317,33.262465],[130.854754,33.262673],[130.855104,33.262715],[130.855504,33.262581],[130.855879,33.262265],[130.856742,33.261973],[130.857242,33.261956],[130.858079,33.261998],[130.858941,33.261798],[130.859879,33.261931],[130.860304,33.261865],[130.860841,33.261981],[130.861241,33.261956],[130.862054,33.261557],[130.862129,33.261557],[130.863066,33.26149],[130.863453,33.261357],[130.863766,33.261332],[130.864041,33.261807],[130.864253,33.26199],[130.864703,33.26219],[130.865003,33.26219],[130.865353,33.262123],[130.866078,33.262098],[130.866341,33.262015],[130.866469,33.262186],[130.866719,33.262431],[130.86709,33.262756],[130.867765,33.263365],[130.867978,33.263681],[130.868065,33.264156],[130.868003,33.264914],[130.867765,33.265973],[130.867928,33.267014],[130.86784,33.267597],[130.867653,33.267981],[130.867515,33.268022],[130.86714,33.267956],[130.86679,33.267956],[130.866365,33.267906],[130.86594,33.267756],[130.865541,33.267664],[130.865403,33.267664],[130.864816,33.267772],[130.864466,33.267731],[130.864053,33.267614],[130.863703,33.267572],[130.863228,33.267614],[130.862741,33.267614],[130.862203,33.267497],[130.861616,33.267164],[130.860941,33.266864],[130.860754,33.266756],[130.860629,33.266781],[130.860591,33.267156],[130.860541,33.267406],[130.860054,33.267789],[130.859841,33.268172],[130.859604,33.268281],[130.859116,33.268422],[130.858641,33.268955],[130.858204,33.269564],[130.857804,33.269905],[130.857616,33.270105],[130.857341,33.270489],[130.857366,33.270805],[130.857554,33.271189],[130.857554,33.271839],[130.857391,33.272263],[130.857241,33.272738],[130.857079,33.273055],[130.856966,33.273572],[130.856941,33.27413],[130.856854,33.27463],[130.856616,33.275147],[130.856566,33.275505],[130.856216,33.275397],[130.856054,33.275305],[130.855654,33.275213],[130.855216,33.275372],[130.854417,33.275796],[130.854204,33.275863],[130.853792,33.276063],[130.853392,33.276405],[130.853092,33.27683],[130.852829,33.27703],[130.852642,33.27708],[130.852154,33.277413],[130.852104,33.27748],[130.852154,33.277688],[130.852554,33.278296],[130.852779,33.278838],[130.852829,33.279263],[130.852929,33.279621],[130.853117,33.279913],[130.853391,33.280121],[130.853629,33.280254],[130.853954,33.280838],[130.854279,33.281154],[130.854779,33.281854],[130.854916,33.282329],[130.855054,33.282646],[130.855991,33.283771],[130.857116,33.284896],[130.857678,33.285321],[130.858216,33.285571],[130.858941,33.285796],[130.859553,33.286321],[130.860178,33.286521],[130.860528,33.286812],[130.861053,33.287404],[130.861165,33.287471],[130.861428,33.287762],[130.861615,33.287896],[130.861915,33.287987],[130.862403,33.288412],[130.862615,33.288687],[130.86294,33.288779],[130.863552,33.289112],[130.863715,33.289162],[130.863927,33.289337],[130.864227,33.289721],[130.864727,33.290421],[130.864915,33.290579],[130.865165,33.290871],[130.865327,33.291187],[130.865427,33.291304],[130.86589,33.291546],[130.86599,33.291704],[130.866152,33.292087],[130.866152,33.292362],[130.866077,33.292629],[130.866102,33.292946],[130.866202,33.293079],[130.866202,33.293304],[130.86604,33.293579],[130.86569,33.294029],[130.86524,33.295129],[130.865152,33.295645],[130.865215,33.296029],[130.86534,33.296437],[130.86534,33.296729],[130.865177,33.297087],[130.864915,33.297445],[130.864515,33.297879],[130.864327,33.298212],[130.864102,33.298479],[130.86384,33.298729],[130.86344,33.298954],[130.863065,33.299495],[130.862952,33.299562],[130.862627,33.29992],[130.862627,33.300645],[130.862327,33.301228],[130.86204,33.301612],[130.861477,33.30237],[130.861577,33.30287],[130.861815,33.303345],[130.86209,33.303437],[130.862377,33.303595],[130.862627,33.30377],[130.862815,33.304045],[130.862952,33.304428],[130.863027,33.304987],[130.862914,33.305278],[130.862465,33.306161],[130.862352,33.306586],[130.862165,33.307061],[130.862165,33.307353],[130.861927,33.30902],[130.861952,33.30922],[130.862164,33.309578],[130.86149,33.309736],[130.861352,33.309711],[130.86079,33.309869],[130.86039,33.310053],[130.860277,33.310211],[130.860202,33.310836],[130.860115,33.310953],[130.85999,33.311311],[130.85964,33.312053],[130.859065,33.313294],[130.859102,33.313444],[130.858965,33.314594],[130.858565,33.314461],[130.858315,33.314327],[130.85824,33.314327],[130.857965,33.314777],[130.857752,33.315319],[130.857677,33.315427],[130.857402,33.316144],[130.857165,33.316619],[130.856752,33.317094],[130.856652,33.317969],[130.856565,33.318194],[130.85624,33.318619],[130.856165,33.318919],[130.85614,33.31941],[130.856165,33.320177],[130.856078,33.320377],[130.856003,33.320468],[130.855253,33.321168],[130.85509,33.321502],[130.85504,33.321885],[130.854903,33.322293],[130.85434,33.323193],[130.854228,33.323593],[130.854203,33.32411],[130.854253,33.324426],[130.85444,33.324768],[130.854628,33.324968],[130.855753,33.325668],[130.856265,33.325876],[130.856615,33.326051],[130.856727,33.326143],[130.856827,33.326526],[130.85729,33.326951],[130.857102,33.32711],[130.85624,33.327876],[130.855353,33.328509],[130.854915,33.328909],[130.854465,33.329451],[130.854003,33.330301],[130.853815,33.330801],[130.853578,33.331859],[130.853278,33.332484],[130.852603,33.333751],[130.852278,33.334176],[130.851078,33.335975],[130.850615,33.336534],[130.850615,33.3367],[130.850315,33.337034],[130.849403,33.33775],[130.848603,33.33815],[130.847591,33.3385],[130.846666,33.338658],[130.845766,33.338742],[130.845116,33.338708],[130.844941,33.3386],[130.844566,33.338142],[130.844166,33.337558],[130.843979,33.336942],[130.843979,33.336658],[130.843879,33.336575],[130.843929,33.336458],[130.843979,33.336458],[130.844416,33.336233],[130.844841,33.335967],[130.845378,33.335517],[130.845653,33.334959],[130.845753,33.334575],[130.845653,33.334075],[130.845416,33.333625],[130.845116,33.333442],[130.844816,33.3334],[130.844229,33.333375],[130.843966,33.333442],[130.843766,33.333559],[130.843366,33.333867],[130.842966,33.334317],[130.842666,33.334792],[130.842691,33.335108],[130.842641,33.335517],[130.842479,33.335808],[130.842291,33.336033],[130.842241,33.336233],[130.842179,33.336658],[130.841541,33.33715],[130.841191,33.3376],[130.840429,33.338341],[130.839779,33.338766],[130.838992,33.339025],[130.838242,33.339425],[130.837642,33.339833],[130.837404,33.340075],[130.836517,33.341424],[130.835879,33.342774],[130.835379,33.343599],[130.835754,33.343716],[130.836504,33.343858],[130.837004,33.344041],[130.837417,33.344341],[130.837591,33.344524],[130.838491,33.345024],[130.838691,33.345366],[130.839191,33.345683],[130.839891,33.345916],[130.840191,33.345983],[130.840454,33.346324],[130.840829,33.346641],[130.841054,33.346757],[130.841129,33.347249],[130.841329,33.347482],[130.841529,33.347457],[130.841729,33.347574],[130.841879,33.347932],[130.842466,33.348682],[130.842641,33.348957],[130.842291,33.349382],[130.842178,33.349857],[130.842178,33.350057],[130.842603,33.350516],[130.843541,33.351332],[130.843991,33.35149],[130.844141,33.351474],[130.844853,33.351474],[130.845903,33.35144],[130.846903,33.351899],[130.847615,33.352507],[130.84794,33.35269],[130.848715,33.352807],[130.84929,33.352999],[130.849915,33.353449],[130.85044,33.353932],[130.851527,33.355398],[130.85219,33.356215],[130.852815,33.356673],[130.853465,33.356907],[130.854715,33.357682],[130.856164,33.358365],[130.856689,33.358532],[130.857214,33.358756],[130.857002,33.359231],[130.857052,33.359548],[130.857677,33.359756],[130.858089,33.360565],[130.858589,33.360823],[130.859339,33.361006],[130.859964,33.360873],[130.860964,33.36149],[130.861789,33.362531],[130.861839,33.362556],[130.861776,33.362939],[130.861651,33.363481],[130.861401,33.364039],[130.861239,33.364264],[130.860864,33.364689],[130.860789,33.365298],[130.860451,33.365864],[130.860051,33.366106],[130.860026,33.366156],[130.860051,33.366489],[130.860314,33.367172],[130.860289,33.367731],[130.859914,33.369647],[130.859689,33.370322],[130.860276,33.370914],[130.860426,33.371455],[130.860351,33.372038],[130.859989,33.372447],[130.859789,33.373122],[130.860164,33.373388],[130.860776,33.37403],[130.861176,33.374571],[130.862038,33.375955],[130.862363,33.37663],[130.862663,33.376971],[130.863138,33.37718],[130.863538,33.377296],[130.864638,33.377396],[130.865338,33.377371],[130.865888,33.377246],[130.866388,33.377271],[130.866963,33.377363],[130.867738,33.377121],[130.86825,33.376788],[130.868625,33.37663],[130.8688,33.37663],[130.869425,33.376863],[130.870275,33.377346],[130.872647,33.377777],[130.873437,33.377588],[130.874137,33.377738],[130.874562,33.377888],[130.875712,33.378088],[130.876062,33.378188],[130.876649,33.378272],[130.877062,33.378163],[130.877512,33.378097],[130.877649,33.377905],[130.878137,33.376772],[130.878399,33.376355],[130.878574,33.37633],[130.878687,33.376572],[130.878849,33.377838],[130.878987,33.378272],[130.879474,33.378397],[130.879999,33.378472],[130.880699,33.378497],[130.880987,33.378222],[130.881199,33.378172],[130.881974,33.378247],[130.882849,33.378372],[130.883899,33.378563],[130.884536,33.378772],[130.885724,33.37923],[130.886249,33.379755],[130.886286,33.379938],[130.886261,33.380805],[130.886036,33.381238],[130.885724,33.381646],[130.885686,33.381896],[130.885923,33.382288],[130.885998,33.382663],[130.885836,33.383088],[130.885661,33.383371],[130.885561,33.383871],[130.885698,33.384321],[130.885786,33.384946],[130.885773,33.385563],[130.885648,33.385829],[130.885086,33.386654],[130.884811,33.387237],[130.884561,33.389312],[130.884573,33.38962],[130.884936,33.390312],[130.885086,33.39087],[130.885136,33.390904],[130.885748,33.392529],[130.886035,33.393728],[130.886323,33.394637],[130.886485,33.39527],[130.886535,33.395728],[130.886523,33.396545],[130.886348,33.396995],[130.88636,33.397245],[130.886685,33.397786],[130.88691,33.398278],[130.887023,33.399369],[130.887385,33.400194],[130.88746,33.400519],[130.887298,33.400836],[130.886823,33.401561],[130.88661,33.402094],[130.88701,33.402927],[130.887335,33.403736],[130.88746,33.404319],[130.887372,33.404927],[130.887222,33.405227],[130.887335,33.405311],[130.887622,33.405402],[130.888097,33.405461],[130.88861,33.405469],[130.889197,33.405419],[130.88966,33.405486],[130.890147,33.405936],[130.890435,33.405969],[130.890797,33.405877],[130.891134,33.405919],[130.891522,33.406144],[130.891784,33.406352],[130.891859,33.406669],[130.891584,33.40746],[130.891522,33.407944],[130.891284,33.40846],[130.890872,33.409052],[130.890372,33.409643],[130.890322,33.409993],[130.890772,33.411685],[130.890709,33.412102],[130.890434,33.412368],[130.890247,33.412751],[130.889472,33.413451],[130.889359,33.413801],[130.889384,33.413918],[130.889609,33.414301],[130.889734,33.414626],[130.889622,33.414918],[130.889622,33.415693],[130.889959,33.416326],[130.890596,33.417043],[130.890946,33.417551],[130.891021,33.419067],[130.891321,33.419476],[130.892334,33.419984],[130.892309,33.420009],[130.892359,33.420009],[130.892521,33.420159],[130.892521,33.420234],[130.892396,33.420951],[130.892321,33.4221],[130.892246,33.42255],[130.891909,33.423592],[130.891859,33.424042],[130.892196,33.4253],[130.892096,33.42575],[130.891983,33.425867],[130.891646,33.426067],[130.891246,33.426367],[130.891021,33.426617],[130.890983,33.427225],[130.891183,33.428283],[130.891571,33.429691],[130.891758,33.430058],[130.892821,33.430749],[130.893396,33.431483],[130.893858,33.432024],[130.894921,33.433032],[130.895408,33.433432],[130.895708,33.433882],[130.89587,33.434349],[130.895933,33.435207],[130.896395,33.43599],[130.897083,33.436824],[130.897195,33.437315],[130.897195,33.437832],[130.89742,33.43839],[130.897558,33.438932],[130.897483,33.439381],[130.897408,33.43954],[130.897408,33.44004],[130.897258,33.441323],[130.897108,33.441973],[130.89697,33.443572],[130.896758,33.444206],[130.89662,33.444364],[130.896033,33.444822],[130.895745,33.445114],[130.895558,33.445389],[130.895345,33.445614],[130.895233,33.445681],[130.894895,33.446064],[130.89487,33.446139],[130.89492,33.44618],[130.895295,33.446289],[130.896758,33.446505],[130.897483,33.446814],[130.897783,33.447014],[130.898083,33.447105],[130.898133,33.447172],[130.89827,33.447239],[130.898432,33.447414],[130.89862,33.44753],[130.899432,33.448089],[130.899845,33.44898],[130.90017,33.449255]]]},"properties":{"name":"日田","yomi":"ひだ","kuni_id":"K66","pref":"大分県","kuni_url":"/kg/resource/K66.html","id_url":"G66006.html","kuni":"豊後","id":"G66006"},"type":"Feature"}]}