{"type":"FeatureCollection","features":[{"geometry":{"coordinates":[[[131.425998,33.573422],[131.430873,33.573889],[131.43106,33.574139],[131.431034,33.574379],[131.431035,33.57463],[131.430418,33.575473],[131.430273,33.576463],[131.430085,33.57653],[131.429998,33.57633],[131.42731,33.576888],[131.425548,33.57908],[131.424285,33.582604],[131.423873,33.58662],[131.423685,33.588095],[131.42396,33.591853],[131.445233,33.607102],[131.462219,33.619234],[131.469231,33.61226],[131.470118,33.612935],[131.470393,33.61331],[131.470618,33.613968],[131.470506,33.614327],[131.470243,33.614618],[131.469843,33.615368],[131.469631,33.615343],[131.469556,33.615435],[131.469581,33.615926],[131.469637,33.616138],[131.469643,33.616335],[131.469643,33.616901],[131.470205,33.617343],[131.471293,33.618018],[131.471543,33.618218],[131.471568,33.618151],[131.47148,33.617968],[131.471755,33.617768],[131.471805,33.617768],[131.472055,33.618309],[131.472355,33.619226],[131.472568,33.619659],[131.47268,33.619768],[131.473418,33.620193],[131.473905,33.620576],[131.473743,33.620984],[131.473368,33.621659],[131.47313,33.622017],[131.473105,33.622201],[131.473218,33.622942],[131.47368,33.623551],[131.47518,33.62505],[131.475367,33.625325],[131.475192,33.626992],[131.475217,33.627759],[131.474867,33.627867],[131.474742,33.627942],[131.474692,33.62825],[131.47488,33.628817],[131.474917,33.62945],[131.474805,33.629967],[131.47503,33.630442],[131.475267,33.630667],[131.47603,33.631225],[131.476567,33.6314],[131.477379,33.631958],[131.478117,33.632291],[131.478792,33.632333],[131.478867,33.632491],[131.479704,33.632375],[131.480254,33.633025],[131.479492,33.633191],[131.479942,33.634383],[131.480829,33.6342],[131.481367,33.6344],[131.481479,33.634558],[131.481767,33.634616],[131.483254,33.6352],[131.483641,33.635625],[131.483804,33.636191],[131.484029,33.636641],[131.484241,33.636749],[131.484379,33.636949],[131.483404,33.637408],[131.483004,33.637908],[131.483204,33.638583],[131.482854,33.638533],[131.482766,33.638491],[131.482466,33.638174],[131.481742,33.638224],[131.480404,33.638949],[131.480129,33.639199],[131.480729,33.639874],[131.480629,33.639899],[131.480229,33.640149],[131.480117,33.640332],[131.480117,33.641049],[131.480342,33.641616],[131.480891,33.642149],[131.481666,33.642824],[131.481841,33.643024],[131.482129,33.643274],[131.482804,33.643357],[131.483104,33.643357],[131.483916,33.643582],[131.484104,33.643574],[131.484691,33.643465],[131.485504,33.643732],[131.485789,33.644403],[131.485729,33.644924],[131.485716,33.64564],[131.485604,33.646232],[131.485429,33.646865],[131.485487,33.647225],[131.485504,33.647429],[131.485453,33.647659],[131.485524,33.64775],[131.485631,33.647782],[131.485729,33.647807],[131.486353,33.648273],[131.486566,33.648365],[131.487128,33.648382],[131.487778,33.648115],[131.489141,33.647248],[131.489741,33.646907],[131.490378,33.646457],[131.491103,33.645824],[131.492628,33.644799],[131.494428,33.643666],[131.495565,33.644382],[131.495465,33.644474],[131.49584,33.644782],[131.49619,33.644491],[131.496403,33.644691],[131.49624,33.644874],[131.496815,33.645274],[131.497215,33.645232],[131.49754,33.645407],[131.497558,33.645877],[131.497515,33.646082],[131.497303,33.64624],[131.497253,33.646532],[131.496853,33.64694],[131.49624,33.64744],[131.495728,33.648299],[131.495703,33.64864],[131.495953,33.648907],[131.496065,33.648948],[131.496603,33.648923],[131.49674,33.648948],[131.496978,33.649173],[131.497194,33.649476],[131.497415,33.649557],[131.497558,33.649419],[131.497853,33.649498],[131.497558,33.649985],[131.497265,33.650498],[131.497015,33.650365],[131.49669,33.650257],[131.49664,33.650482],[131.496803,33.650907],[131.49624,33.65134],[131.494509,33.652205],[131.494365,33.652523],[131.494315,33.652631],[131.49429,33.652948],[131.49439,33.653306],[131.494778,33.653731],[131.494965,33.65414],[131.49554,33.654815],[131.496003,33.654923],[131.49654,33.654856],[131.49699,33.654831],[131.49729,33.654898],[131.497515,33.655098],[131.49864,33.655948],[131.499352,33.656123],[131.499765,33.656073],[131.50104,33.655765],[131.502315,33.65539],[131.502865,33.655373],[131.503515,33.655306],[131.503977,33.655215],[131.504065,33.65524],[131.504415,33.655506],[131.504689,33.656531],[131.504671,33.656793],[131.504664,33.657048],[131.504802,33.657364],[131.504502,33.657389],[131.504289,33.657164],[131.504102,33.657214],[131.504015,33.657048],[131.503665,33.657114],[131.503902,33.657981],[131.503889,33.658348],[131.503502,33.658548],[131.502427,33.658989],[131.50074,33.659864],[131.499965,33.660389],[131.499252,33.660922],[131.49869,33.661631],[131.498315,33.662322],[131.49819,33.662614],[131.497865,33.662755],[131.49758,33.663004],[131.49754,33.663139],[131.497015,33.663597],[131.496927,33.663772],[131.49694,33.664222],[131.496852,33.66488],[131.496615,33.665488],[131.496727,33.665938],[131.496865,33.666138],[131.497252,33.666272],[131.49754,33.666247],[131.49809,33.665972],[131.498677,33.666138],[131.499177,33.665914],[131.49954,33.666255],[131.499865,33.666247],[131.499977,33.666797],[131.499927,33.667088],[131.499815,33.66708],[131.499652,33.667155],[131.498152,33.668263],[131.49819,33.668405],[131.498477,33.668947],[131.498402,33.669163],[131.498502,33.669621],[131.498839,33.669971],[131.499114,33.670488],[131.499464,33.671046],[131.500702,33.671746],[131.501439,33.671855],[131.501639,33.671771],[131.501664,33.671338],[131.501777,33.670913],[131.502327,33.670913],[131.502789,33.671046],[131.503152,33.671271],[131.504114,33.671471],[131.504739,33.671655],[131.505814,33.671271],[131.506476,33.670822],[131.506714,33.670588],[131.507464,33.671063],[131.507851,33.671763],[131.507789,33.672263],[131.507264,33.672571],[131.506826,33.673071],[131.506551,33.673746],[131.506551,33.674804],[131.507101,33.674963],[131.507601,33.675029],[131.508564,33.674538],[131.509276,33.674263],[131.509801,33.67388],[131.509963,33.673588],[131.511113,33.673296],[131.511347,33.673215],[131.511613,33.673071],[131.512488,33.67183],[131.512188,33.671647],[131.512813,33.670947],[131.513451,33.670655],[131.514113,33.670497],[131.514438,33.670297],[131.514538,33.669913],[131.514613,33.66963],[131.515701,33.669014],[131.516588,33.669314],[131.516963,33.669464],[131.517788,33.669714],[131.518188,33.66988],[131.52035,33.67103],[131.520588,33.670605],[131.520925,33.670714],[131.520675,33.671172],[131.520425,33.671305],[131.521037,33.672297],[131.52114,33.672489],[131.521275,33.672655],[131.522137,33.674438],[131.521687,33.674955],[131.521725,33.675205],[131.5218,33.675246],[131.5221,33.675271],[131.522675,33.67493],[131.522737,33.674838],[131.523262,33.675196],[131.524737,33.673738],[131.525149,33.674005],[131.525374,33.673822],[131.525624,33.674005],[131.525512,33.674138],[131.525624,33.67423],[131.525837,33.674005],[131.525562,33.673597],[131.525899,33.672788],[131.526312,33.672339],[131.526574,33.672272],[131.527462,33.672155],[131.528537,33.672447],[131.529249,33.673014],[131.529636,33.673572],[131.529774,33.673955],[131.528811,33.675697],[131.528399,33.67653],[131.527486,33.677721],[131.526724,33.678446],[131.526362,33.678713],[131.525699,33.679388],[131.525374,33.679863],[131.525287,33.680113],[131.524737,33.680629],[131.523887,33.681129],[131.523449,33.681487],[131.523287,33.681671],[131.522899,33.681646],[131.522549,33.681712],[131.522249,33.682412],[131.522112,33.683562],[131.522049,33.683679],[131.522024,33.683904],[131.522524,33.684195],[131.522849,33.684354],[131.523199,33.684579],[131.523974,33.684237],[131.524687,33.683537],[131.525349,33.682771],[131.526249,33.681913],[131.527049,33.681329],[131.527761,33.681346],[131.528286,33.681571],[131.528536,33.681888],[131.529061,33.681821],[131.530786,33.680938],[131.531748,33.680263],[131.532436,33.679388],[131.532848,33.678438],[131.533148,33.677947],[131.533448,33.67758],[131.533511,33.677447],[131.533424,33.67731],[131.533336,33.67718],[131.533536,33.677038],[131.534323,33.676705],[131.535011,33.676705],[131.535623,33.676947],[131.535698,33.677013],[131.535873,33.677263],[131.535536,33.677697],[131.535461,33.678255],[131.535898,33.67873],[131.536248,33.679222],[131.536635,33.679472],[131.53721,33.679972],[131.537798,33.680055],[131.53886,33.679655],[131.539548,33.679497],[131.540072,33.679647],[131.540622,33.679472],[131.541222,33.678997],[131.541285,33.678747],[131.541447,33.678572],[131.54246,33.677689],[131.542785,33.677105],[131.54296,33.676831],[131.54306,33.676764],[131.54326,33.676739],[131.54353,33.676753],[131.54386,33.676739],[131.544335,33.676739],[131.544634,33.676806],[131.545072,33.675206],[131.546197,33.672231],[131.546584,33.671648],[131.546934,33.670948],[131.547184,33.670365],[131.547484,33.669973],[131.548247,33.66904],[131.549247,33.667382],[131.5493,33.666969],[131.549197,33.666323],[131.549309,33.66569],[131.549504,33.664964],[131.549509,33.664149],[131.549506,33.663276],[131.549343,33.662747],[131.549084,33.662399],[131.549035,33.662049],[131.549435,33.660966],[131.549485,33.659332],[131.549847,33.658607],[131.549897,33.658024],[131.549835,33.657066],[131.549858,33.65659],[131.54991,33.656233],[131.550025,33.655815],[131.550237,33.655224],[131.550372,33.653916],[131.550647,33.65305],[131.551035,33.652183],[131.551472,33.651066],[131.551947,33.650116],[131.552672,33.649392],[131.554447,33.64825],[131.554997,33.647633],[131.555522,33.646242],[131.556022,33.645584],[131.55671,33.645142],[131.556935,33.6445],[131.55696,33.644034],[131.556569,33.64357],[131.55611,33.643275],[131.555279,33.642896],[131.554635,33.642184],[131.554635,33.641734],[131.55487,33.640472],[131.55506,33.639217],[131.55526,33.638001],[131.55561,33.637784],[131.557673,33.636951],[131.557848,33.636076],[131.557848,33.634743],[131.558135,33.634034],[131.558235,33.633651],[131.557948,33.632643],[131.557848,33.631485],[131.55791,33.630693],[131.557885,33.630468],[131.55751,33.630226],[131.557423,33.630101],[131.557161,33.62936],[131.556823,33.629035],[131.556261,33.628743],[131.555936,33.628335],[131.556123,33.626902],[131.556561,33.626552],[131.557198,33.626343],[131.557536,33.625885],[131.558111,33.625535],[131.558473,33.625185],[131.559211,33.624819],[131.560285,33.623894],[131.560567,33.623597],[131.560998,33.623569],[131.561249,33.623696],[131.561898,33.623661],[131.562577,33.623341],[131.563183,33.623225],[131.563717,33.623179],[131.564188,33.622935],[131.56421,33.622519],[131.564298,33.622204],[131.56436,33.621936],[131.564323,33.621327],[131.564673,33.620653],[131.565348,33.620128],[131.566023,33.619653],[131.567369,33.619764],[131.56786,33.619361],[131.567835,33.618944],[131.56841,33.618728],[131.56881,33.618519],[131.56961,33.618545],[131.570235,33.618744],[131.570685,33.61862],[131.571697,33.618453],[131.57201,33.618511],[131.57276,33.618586],[131.573385,33.618995],[131.574083,33.61893],[131.574422,33.618695],[131.575959,33.617161],[131.576084,33.616462],[131.576109,33.61577],[131.576204,33.615342],[131.576484,33.615112],[131.577259,33.614912],[131.577509,33.614728],[131.578149,33.614161],[131.578297,33.613395],[131.577762,33.612524],[131.576797,33.612062],[131.576072,33.611754],[131.575347,33.611112],[131.575385,33.610929],[131.575772,33.610287],[131.575847,33.609629],[131.57541,33.608537],[131.575197,33.608296],[131.575094,33.607783],[131.575097,33.607004],[131.57501,33.606837],[131.57361,33.605987],[131.573198,33.605229],[131.572298,33.604054],[131.57231,33.603321],[131.572535,33.602663],[131.572998,33.601967],[131.573148,33.601255],[131.573185,33.601155],[131.573385,33.600908],[131.573527,33.60063],[131.573473,33.600255],[131.573284,33.599809],[131.572948,33.598763],[131.572661,33.59823],[131.572598,33.597105],[131.572873,33.596405],[131.573198,33.595322],[131.573573,33.59448],[131.573844,33.594135],[131.574223,33.593964],[131.575023,33.593697],[131.575467,33.593514],[131.576423,33.592281],[131.576573,33.592139],[131.576834,33.591864],[131.577185,33.591614],[131.577748,33.591297],[131.57781,33.591206],[131.57766,33.590539],[131.577573,33.589506],[131.577685,33.589073],[131.578085,33.588414],[131.578135,33.588139],[131.577923,33.587623],[131.578011,33.586965],[131.578348,33.58624],[131.578998,33.585448],[131.579273,33.584732],[131.579386,33.584057],[131.579473,33.583832],[131.579626,33.583619],[131.579823,33.583423],[131.580048,33.583465],[131.58076,33.58349],[131.58106,33.583465],[131.581653,33.583568],[131.582085,33.58349],[131.582573,33.583173],[131.58271,33.582899],[131.582868,33.582872],[131.583423,33.582965],[131.584143,33.582962],[131.58486,33.58274],[131.585823,33.582607],[131.586035,33.582632],[131.586535,33.582874],[131.586723,33.583215],[131.587172,33.583457],[131.58761,33.583824],[131.588435,33.584432],[131.588625,33.584407],[131.588785,33.58434],[131.588922,33.58409],[131.589472,33.583507],[131.59016,33.583124],[131.590495,33.583065],[131.591047,33.582895],[131.591235,33.582732],[131.59146,33.582424],[131.591894,33.581885],[131.59231,33.581449],[131.592722,33.581199],[131.593047,33.581091],[131.593985,33.581024],[131.594922,33.581158],[131.595334,33.581158],[131.595334,33.580233],[131.595197,33.579574],[131.59536,33.578899],[131.595597,33.578358],[131.595935,33.578041],[131.596113,33.577571],[131.59601,33.5771],[131.595864,33.576806],[131.595847,33.576425],[131.595822,33.576016],[131.595337,33.575162],[131.59516,33.574641],[131.595086,33.574062],[131.594797,33.573342],[131.594635,33.572208],[131.594247,33.571492],[131.594135,33.570683],[131.594322,33.5691],[131.59441,33.568925],[131.594424,33.56857],[131.594309,33.567876],[131.59391,33.567367],[131.593385,33.566825],[131.593385,33.566125],[131.593273,33.565567],[131.592723,33.564571],[131.592648,33.563384],[131.59256,33.563176],[131.592173,33.562934],[131.591923,33.562417],[131.591648,33.561984],[131.591535,33.561534],[131.591411,33.561191],[131.591123,33.560593],[131.59071,33.560093],[131.590085,33.559418],[131.589336,33.559027],[131.588873,33.558718],[131.588711,33.558251],[131.588761,33.557709],[131.588898,33.557034],[131.588786,33.556585],[131.588786,33.556085],[131.589173,33.555726],[131.589248,33.555276],[131.588998,33.55426],[131.588761,33.553718],[131.588748,33.55356],[131.588923,33.553227],[131.588973,33.552752],[131.588886,33.552568],[131.588236,33.551985],[131.587961,33.551535],[131.587023,33.550952],[131.587048,33.549668],[131.586749,33.548943],[131.586736,33.54836],[131.586411,33.547727],[131.586324,33.547119],[131.586324,33.546802],[131.586849,33.545702],[131.586899,33.545652],[131.587011,33.545361],[131.586436,33.544286],[131.585886,33.544169],[131.585311,33.543994],[131.584861,33.543136],[131.584924,33.542794],[131.585274,33.542319],[131.585274,33.541944],[131.584974,33.541378],[131.585111,33.540836],[131.585061,33.540344],[131.584974,33.540069],[131.585086,33.539036],[131.584911,33.538378],[131.585161,33.538178],[131.585324,33.537795],[131.585361,33.537545],[131.585661,33.537453],[131.585799,33.537453],[131.586174,33.537028],[131.586449,33.53617],[131.586511,33.536062],[131.586286,33.535628],[131.585711,33.535495],[131.585299,33.535162],[131.585349,33.534637],[131.585824,33.534478],[131.585924,33.534212],[131.585874,33.533787],[131.586036,33.53367],[131.586586,33.533537],[131.586949,33.533062],[131.587024,33.532429],[131.587299,33.532029],[131.586911,33.53142],[131.587486,33.531145],[131.587961,33.530829],[131.588286,33.530562],[131.588424,33.530337],[131.588649,33.529187],[131.588861,33.528712],[131.588886,33.528287],[131.588836,33.527813],[131.588886,33.526929],[131.589049,33.526096],[131.589711,33.525554],[131.589849,33.524771],[131.589686,33.523888],[131.589711,33.523646],[131.590086,33.52283],[131.590036,33.52218],[131.589811,33.521746],[131.590036,33.521546],[131.590661,33.521505],[131.591349,33.521163],[131.592036,33.519947],[131.592674,33.51893],[131.593049,33.517988],[131.593299,33.517172],[131.593986,33.516697],[131.594174,33.516522],[131.594586,33.516022],[131.594974,33.515822],[131.595161,33.515689],[131.595411,33.515189],[131.595474,33.514989],[131.595911,33.514581],[131.596673,33.513972],[131.598073,33.512706],[131.598186,33.512281],[131.598161,33.511289],[131.597711,33.510814],[131.597136,33.510414],[131.596674,33.510139],[131.596561,33.509448],[131.596674,33.508839],[131.596449,33.508273],[131.596499,33.507706],[131.596611,33.507531],[131.596936,33.507306],[131.597074,33.507165],[131.597186,33.506623],[131.597211,33.505706],[131.597099,33.50494],[131.597461,33.504532],[131.597624,33.504415],[131.601636,33.504532],[131.601961,33.503332],[131.601998,33.502957],[131.602048,33.502532],[131.602386,33.50154],[131.602436,33.500299],[131.602098,33.500074],[131.601386,33.49974],[131.600949,33.499474],[131.600924,33.499424],[131.601224,33.498749],[131.601386,33.498591],[131.601499,33.498549],[131.601749,33.498524],[131.601961,33.498391],[131.602074,33.498116],[131.602124,33.497799],[131.602261,33.497532],[131.602761,33.497016],[131.603011,33.496832],[131.603086,33.496541],[131.603149,33.496199],[131.603386,33.495566],[131.603474,33.495233],[131.603411,33.494849],[131.603224,33.494399],[131.60328,33.494018],[131.603449,33.493741],[131.603474,33.493674],[131.603299,33.493433],[131.603249,33.493249],[131.603274,33.492983],[131.603499,33.492525],[131.603474,33.492258],[131.603361,33.491991],[131.603324,33.491691],[131.603524,33.491383],[131.603574,33.491133],[131.603549,33.490933],[131.603386,33.490725],[131.603111,33.490525],[131.602974,33.490341],[131.602949,33.490233],[131.603049,33.489825],[131.603076,33.489594],[131.603074,33.489258],[131.602974,33.488475],[131.603074,33.4882],[131.603924,33.487575],[131.604199,33.4873],[131.604474,33.486983],[131.604649,33.486717],[131.604811,33.485975],[131.604817,33.485477],[131.604974,33.485225],[131.605249,33.485133],[131.605799,33.485117],[131.606149,33.4852],[131.606486,33.485225],[131.606649,33.485117],[131.606674,33.484975],[131.606624,33.484733],[131.606511,33.484525],[131.606211,33.484233],[131.605899,33.483758],[131.605386,33.483292],[131.604999,33.483084],[131.604749,33.482884],[131.604549,33.48255],[131.604386,33.4821],[131.604224,33.48185],[131.603999,33.481575],[131.603949,33.481442],[131.603949,33.481217],[131.604086,33.480967],[131.604361,33.4807],[131.604549,33.480567],[131.604686,33.480384],[131.604711,33.480275],[131.604599,33.479234],[131.604661,33.478942],[131.604799,33.47865],[131.604935,33.478073],[131.605012,33.477459],[131.604962,33.477476],[131.604624,33.477434],[131.603774,33.476892],[131.603062,33.476692],[131.602374,33.476626],[131.601687,33.476492],[131.601274,33.476492],[131.600829,33.476444],[131.600499,33.476376],[131.600062,33.476359],[131.599487,33.476559],[131.599024,33.476676],[131.598775,33.476626],[131.598337,33.476359],[131.597975,33.476242],[131.597612,33.476017],[131.5971,33.475367],[131.596762,33.475259],[131.595612,33.475142],[131.59495,33.474809],[131.594237,33.474584],[131.593762,33.474334],[131.5933,33.474176],[131.592725,33.474134],[131.592388,33.473976],[131.591925,33.473859],[131.591238,33.473842],[131.59085,33.473726],[131.590188,33.473342],[131.589475,33.472692],[131.5892,33.472334],[131.58865,33.471884],[131.58811,33.471646],[131.587717,33.471362],[131.587438,33.470759],[131.587363,33.470642],[131.587101,33.470303],[131.586888,33.469968],[131.586838,33.469634],[131.586701,33.469226],[131.586588,33.468684],[131.586151,33.467918],[131.585763,33.467493],[131.585626,33.467426],[131.585188,33.467384],[131.584501,33.467226],[131.584026,33.466859],[131.583451,33.466118],[131.583063,33.465826],[131.582739,33.465668],[131.581914,33.465509],[131.581414,33.465468],[131.581226,33.465426],[131.580814,33.465268],[131.580364,33.464993],[131.580089,33.464951],[131.579789,33.464951],[131.578201,33.465318],[131.577764,33.465451],[131.577451,33.465401],[131.577101,33.465226],[131.576764,33.465159],[131.575802,33.464551],[131.575252,33.464301],[131.574652,33.464209],[131.573802,33.464034],[131.573302,33.464034],[131.571789,33.464351],[131.571602,33.464376],[131.570752,33.464101],[131.570202,33.463834],[131.569015,33.463384],[131.56784,33.463159],[131.567315,33.462801],[131.567015,33.462643],[131.56649,33.462484],[131.565878,33.462351],[131.56459,33.461943],[131.564153,33.461768],[131.563371,33.461429],[131.56246,33.460806],[131.561891,33.460168],[131.561653,33.46001],[131.561316,33.459968],[131.560741,33.459968],[131.560691,33.46001],[131.560466,33.460076],[131.560141,33.460101],[131.558103,33.45956],[131.557853,33.459543],[131.557491,33.45961],[131.556129,33.459451],[131.555466,33.459518],[131.555104,33.459585],[131.554716,33.459726],[131.554279,33.460176],[131.553954,33.460443],[131.553379,33.461009],[131.553129,33.461143],[131.552829,33.461418],[131.552192,33.461893],[131.551804,33.462118],[131.551117,33.462451],[131.551042,33.462567],[131.551067,33.462976],[131.550442,33.463517],[131.550404,33.463742],[131.550654,33.464734],[131.550542,33.464909],[131.550329,33.465042],[131.549967,33.465134],[131.549504,33.465184],[131.549142,33.465275],[131.548317,33.465592],[131.54788,33.4657],[131.54763,33.465834],[131.547392,33.466042],[131.547142,33.466309],[131.546617,33.4671],[131.546455,33.467867],[131.546267,33.467958],[131.54478,33.468383],[131.544255,33.468433],[131.544142,33.468408],[131.543843,33.468433],[131.543755,33.468475],[131.543593,33.468767],[131.543568,33.469308],[131.543455,33.469625],[131.543293,33.469808],[131.54288,33.470142],[131.542143,33.470708],[131.54198,33.470933],[131.541893,33.471275],[131.541755,33.471591],[131.541293,33.472216],[131.54098,33.472825],[131.541068,33.472983],[131.541293,33.473166],[131.541497,33.473671],[131.541612,33.474028],[131.541618,33.474249],[131.541405,33.474566],[131.541155,33.474808],[131.540743,33.474858],[131.54013,33.474883],[131.539618,33.475041],[131.539143,33.475133],[131.539005,33.475133],[131.53848,33.475216],[131.53818,33.475374],[131.537493,33.475899],[131.537193,33.476058],[131.536368,33.476258],[131.536018,33.476416],[131.535768,33.476599],[131.535543,33.477074],[131.535493,33.477116],[131.535381,33.477116],[131.534418,33.477207],[131.533681,33.477182],[131.533206,33.477249],[131.532468,33.477407],[131.532081,33.477432],[131.531718,33.477524],[131.530731,33.477549],[131.529256,33.477324],[131.528806,33.477391],[131.528256,33.477666],[131.528044,33.477641],[131.527606,33.477282],[131.527131,33.477099],[131.525782,33.476491],[131.525319,33.476066],[131.524582,33.475707],[131.523582,33.475416],[131.523257,33.475349],[131.522757,33.475482],[131.521719,33.475999],[131.521307,33.476249],[131.520894,33.476457],[131.520482,33.476591],[131.520145,33.476616],[131.519295,33.476407],[131.51892,33.476524],[131.518745,33.476707],[131.517707,33.47794],[131.517182,33.478082],[131.516657,33.478149],[131.51627,33.478332],[131.515445,33.479407],[131.514845,33.480024],[131.514382,33.480357],[131.513995,33.48054],[131.513357,33.480673],[131.511795,33.48079],[131.51127,33.480882],[131.511195,33.480948],[131.510833,33.480973],[131.51067,33.48079],[131.510583,33.480748],[131.509758,33.480748],[131.50957,33.480698],[131.50927,33.480473],[131.50907,33.480248],[131.508658,33.48014],[131.50827,33.479957],[131.508058,33.479782],[131.507802,33.479822],[131.507144,33.48003],[131.506595,33.480182],[131.506183,33.480548],[131.50602,33.480815],[131.506045,33.481223],[131.506158,33.481515],[131.50607,33.48219],[131.506133,33.483682],[131.506045,33.483882],[131.505933,33.483973],[131.505283,33.484356],[131.504895,33.484631],[131.504783,33.484873],[131.504783,33.485148],[131.504841,33.485407],[131.504637,33.485619],[131.504258,33.485623],[131.503908,33.485465],[131.503567,33.485452],[131.503158,33.485556],[131.50212,33.486415],[131.501733,33.48664],[131.501408,33.486973],[131.500858,33.487648],[131.500445,33.48799],[131.499858,33.488239],[131.499095,33.488598],[131.49882,33.488806],[131.49862,33.488848],[131.498183,33.488823],[131.497995,33.488781],[131.497533,33.488748],[131.496395,33.489489],[131.495895,33.489598],[131.494658,33.489698],[131.493783,33.489898],[131.493633,33.490006],[131.493558,33.490681],[131.49332,33.491381],[131.49297,33.491856],[131.492795,33.491922],[131.49222,33.491756],[131.491808,33.491706],[131.491233,33.492064],[131.490708,33.492197],[131.490333,33.492489],[131.490171,33.493006],[131.489096,33.49358],[131.487833,33.493955],[131.487308,33.49398],[131.486583,33.493905],[131.486158,33.49408],[131.485494,33.494122],[131.485033,33.493914],[131.484712,33.493231],[131.484499,33.493064],[131.484079,33.493228],[131.483659,33.493414],[131.483534,33.493497],[131.483396,33.494089],[131.483146,33.494805],[131.482709,33.495439],[131.481321,33.495922],[131.480721,33.496322],[131.480546,33.496772],[131.481184,33.497547],[131.481209,33.497655],[131.481046,33.498763],[131.480546,33.499363],[131.479634,33.499721],[131.478309,33.499871],[131.477903,33.500179],[131.477696,33.500721],[131.477721,33.500971],[131.477571,33.501288],[131.477134,33.501779],[131.476759,33.502021],[131.476309,33.502221],[131.475709,33.502446],[131.475322,33.502829],[131.475109,33.503346],[131.474897,33.503687],[131.474384,33.504112],[131.473847,33.504504],[131.473447,33.50457],[131.473072,33.504462],[131.472616,33.504522],[131.472022,33.504737],[131.470809,33.504829],[131.470297,33.504679],[131.469622,33.504887],[131.469109,33.504979],[131.468734,33.505429],[131.468684,33.505654],[131.467934,33.506537],[131.467797,33.50652],[131.466997,33.506204],[131.466422,33.50612],[131.466047,33.506187],[131.46586,33.506304],[131.465747,33.506279],[131.465585,33.505895],[131.465447,33.505829],[131.464947,33.50592],[131.464672,33.506604],[131.464222,33.507095],[131.46371,33.507554],[131.463522,33.507962],[131.463347,33.508212],[131.461835,33.50837],[131.46081,33.508578],[131.45976,33.508837],[131.458872,33.508978],[131.457398,33.508912],[131.457335,33.509003],[131.457135,33.510245],[131.456523,33.511628],[131.45636,33.511761],[131.455985,33.511853],[131.45551,33.51222],[131.454973,33.512736],[131.454298,33.513553],[131.453848,33.514569],[131.453773,33.514861],[131.453673,33.515678],[131.453648,33.516286],[131.453573,33.516602],[131.452898,33.517169],[131.452348,33.517923],[131.451485,33.518552],[131.45111,33.518802],[131.450674,33.518965],[131.4502,33.519252],[131.450029,33.519617],[131.45001,33.520294],[131.449748,33.52061],[131.449337,33.520727],[131.449048,33.521002],[131.448886,33.52156],[131.448673,33.52186],[131.448711,33.522243],[131.44896,33.522893],[131.448985,33.52321],[131.448723,33.523702],[131.448023,33.524501],[131.447836,33.524993],[131.447948,33.525493],[131.448223,33.526143],[131.448498,33.527293],[131.44781,33.528059],[131.44701,33.528834],[131.446448,33.529668],[131.445973,33.530618],[131.445536,33.531184],[131.445298,33.531317],[131.444623,33.531276],[131.444036,33.531309],[131.443686,33.531442],[131.442773,33.531876],[131.441936,33.532401],[131.441836,33.532892],[131.441573,33.533659],[131.440961,33.534501],[131.439861,33.535542],[131.439111,33.535859],[131.438686,33.53625],[131.438011,33.537334],[131.437911,33.5376],[131.437136,33.538467],[131.436311,33.539508],[131.436099,33.540092],[131.436036,33.540158],[131.435936,33.540117],[131.434249,33.5378],[131.433786,33.537425],[131.433224,33.5374],[131.432624,33.537517],[131.431824,33.537525],[131.431174,33.537642],[131.430987,33.537592],[131.430824,33.537192],[131.430599,33.536875],[131.430412,33.536917],[131.429408,33.537238],[131.428262,33.537475],[131.427237,33.537659],[131.426724,33.537883],[131.426437,33.537908],[131.426274,33.537867],[131.426162,33.537892],[131.425949,33.538],[131.425674,33.537917],[131.425162,33.537825],[131.425057,33.537866],[131.424975,33.537917],[131.425012,33.538275],[131.425387,33.53875],[131.425412,33.538842],[131.425199,33.539133],[131.424875,33.539267],[131.424562,33.539725],[131.42445,33.540308],[131.424487,33.541033],[131.424437,33.541591],[131.424149,33.542208],[131.423262,33.543766],[131.423399,33.543941],[131.424112,33.544574],[131.425062,33.545649],[131.425231,33.545944],[131.425337,33.546191],[131.425662,33.546658],[131.425712,33.546958],[131.424974,33.547924],[131.424774,33.547774],[131.424374,33.548133],[131.424299,33.548607],[131.424049,33.548691],[131.423687,33.548749],[131.423599,33.548899],[131.423524,33.549441],[131.423312,33.549674],[131.423149,33.549741],[131.422799,33.549741],[131.422383,33.54982],[131.422124,33.549857],[131.421374,33.549882],[131.421237,33.549866],[131.421074,33.549591],[131.420499,33.548941],[131.42045,33.548424],[131.420712,33.547924],[131.421349,33.547266],[131.421349,33.547091],[131.4203,33.546866],[131.419412,33.546783],[131.4192,33.546783],[131.418791,33.546793],[131.41865,33.546899],[131.418612,33.547507],[131.41845,33.548524],[131.418383,33.548952],[131.418419,33.549289],[131.418426,33.549562],[131.41834,33.549949],[131.4182,33.550099],[131.417312,33.551349],[131.416862,33.551624],[131.416187,33.551757],[131.415887,33.551782],[131.415487,33.551899],[131.4147,33.552057],[131.41385,33.552307],[131.41365,33.552399],[131.413337,33.55279],[131.4128,33.553215],[131.412287,33.553898],[131.412862,33.554415],[131.413275,33.554865],[131.4143,33.55614],[131.414875,33.556907],[131.415125,33.557423],[131.41515,33.558215],[131.415137,33.55959],[131.415312,33.561481],[131.415349,33.562331],[131.415462,33.563214],[131.415812,33.563731],[131.416649,33.564181],[131.419162,33.565289],[131.421161,33.565889],[131.423186,33.565856],[131.424186,33.566031],[131.426748,33.566656],[131.427886,33.566981],[131.428348,33.567298],[131.428486,33.567656],[131.428511,33.568331],[131.428386,33.569122],[131.427648,33.570797],[131.427223,33.57163],[131.426636,33.57258],[131.425998,33.573422]]],"type":"Polygon"},"properties":{"kuni":"豊後","id":"G66001","kuni_url":"/kg/resource/K66.html","id_url":"G66001.html","kuni_id":"K66","pref":"大分県","name":"西国東","yomi":"にしくにさき"},"type":"Feature"}]}