{"type":"FeatureCollection","features":[{"type":"Feature","geometry":{"type":"Polygon","coordinates":[[[131.325154,33.172923],[131.327698,33.170183],[131.331926,33.167523],[131.338659,33.162829],[131.342731,33.159543],[131.347428,33.154537],[131.353535,33.14734],[131.358076,33.140612],[131.361051,33.136544],[131.364666,33.131447],[131.366976,33.126562],[131.367038,33.126546],[131.367276,33.126346],[131.368051,33.125671],[131.368438,33.125446],[131.369351,33.124996],[131.369788,33.124779],[131.370238,33.124596],[131.370525,33.124512],[131.3708,33.124454],[131.371038,33.124412],[131.371438,33.124387],[131.371513,33.124387],[131.371538,33.124471],[131.371538,33.124546],[131.371538,33.124646],[131.371488,33.124771],[131.371413,33.124962],[131.371363,33.125079],[131.371275,33.125271],[131.37105,33.125629],[131.370838,33.125937],[131.370725,33.126096],[131.370638,33.126421],[131.37065,33.126529],[131.370675,33.126596],[131.370825,33.126704],[131.370988,33.126779],[131.37105,33.126804],[131.37125,33.126871],[131.37145,33.126979],[131.371538,33.127071],[131.371575,33.127146],[131.371588,33.12722],[131.371563,33.127504],[131.371563,33.127579],[131.371588,33.127712],[131.371675,33.127887],[131.371775,33.127987],[131.371888,33.128095],[131.372611,33.128203],[131.372725,33.128295],[131.372913,33.128729],[131.373088,33.129379],[131.373113,33.12967],[131.372975,33.130104],[131.372875,33.130887],[131.373138,33.13152],[131.373538,33.131862],[131.373938,33.132028],[131.374288,33.132212],[131.374538,33.132395],[131.374637,33.132503],[131.374662,33.132662],[131.374525,33.133112],[131.374525,33.133337],[131.374675,33.133587],[131.374675,33.133637],[131.3751,33.134062],[131.37506,33.134462],[131.375062,33.134695],[131.3751,33.134904],[131.3754,33.135711],[131.375775,33.136211],[131.376275,33.136603],[131.3764,33.137053],[131.376537,33.13737],[131.376637,33.138044],[131.3766,33.139219],[131.37665,33.139494],[131.37675,33.139719],[131.376987,33.140036],[131.377512,33.140419],[131.377612,33.140494],[131.377887,33.140561],[131.378237,33.140653],[131.378417,33.140795],[131.378612,33.141244],[131.378787,33.141403],[131.379049,33.141852],[131.379299,33.142036],[131.379499,33.142102],[131.380099,33.142536],[131.380224,33.142694],[131.380312,33.143602],[131.380487,33.143852],[131.380862,33.143986],[131.381287,33.144194],[131.382962,33.144586],[131.384711,33.144894],[131.385511,33.145061],[131.386211,33.145219],[131.386707,33.145329],[131.387561,33.145527],[131.387767,33.145617],[131.388161,33.145885],[131.389023,33.147069],[131.389273,33.147477],[131.389336,33.148335],[131.389436,33.148518],[131.389661,33.148627],[131.390236,33.148743],[131.390511,33.148885],[131.390661,33.149068],[131.390686,33.149218],[131.390661,33.149452],[131.390486,33.149668],[131.390098,33.149877],[131.389998,33.150077],[131.389973,33.150343],[131.390023,33.150752],[131.390236,33.151202],[131.390436,33.151476],[131.390886,33.151885],[131.391211,33.152093],[131.391811,33.152251],[131.392311,33.15221],[131.393548,33.152018],[131.394348,33.151935],[131.394773,33.151935],[131.395423,33.152026],[131.396223,33.152218],[131.396398,33.152285],[131.396673,33.152335],[131.397098,33.15236],[131.397423,33.152226],[131.398185,33.151643],[131.39841,33.151468],[131.398935,33.151426],[131.39981,33.151385],[131.40101,33.151526],[131.402335,33.152035],[131.40291,33.152101],[131.40336,33.152285],[131.403735,33.152626],[131.403985,33.152926],[131.404435,33.153334],[131.40476,33.153559],[131.405172,33.153809],[131.405472,33.153951],[131.405897,33.154068],[131.406022,33.154001],[131.406096,33.153819],[131.40626,33.153501],[131.406384,33.153317],[131.40651,33.153143],[131.40736,33.153176],[131.407485,33.153193],[131.409372,33.153168],[131.409372,33.153184],[131.410172,33.153218],[131.410822,33.153151],[131.411072,33.153084],[131.411197,33.153084],[131.411397,33.153018],[131.412072,33.153093],[131.413209,33.15301],[131.413609,33.152993],[131.414309,33.153201],[131.414584,33.153226],[131.416634,33.153935],[131.416921,33.154033],[131.417122,33.153986],[131.417259,33.153826],[131.417759,33.153401],[131.418296,33.15316],[131.418996,33.153026],[131.419421,33.152918],[131.420446,33.152477],[131.420983,33.15216],[131.421133,33.15201],[131.421508,33.152035],[131.421758,33.152168],[131.421833,33.15226],[131.422308,33.15251],[131.422408,33.152602],[131.422641,33.152992],[131.422771,33.15321],[131.423396,33.153485],[131.423598,33.153508],[131.423695,33.15351],[131.423795,33.153493],[131.424058,33.153293],[131.424158,33.153135],[131.424333,33.152885],[131.424258,33.152568],[131.424258,33.15246],[131.424408,33.15221],[131.42477,33.152035],[131.425495,33.152193],[131.425695,33.152127],[131.425845,33.151768],[131.426133,33.150869],[131.426308,33.150527],[131.426458,33.150485],[131.426546,33.150483],[131.426908,33.15051],[131.427408,33.150335],[131.42762,33.150244],[131.42787,33.150177],[131.42822,33.150227],[131.428345,33.150185],[131.42837,33.150069],[131.428595,33.149735],[131.428945,33.149602],[131.429095,33.149602],[131.429783,33.149494],[131.430083,33.149544],[131.430483,33.149677],[131.430758,33.149661],[131.430933,33.149569],[131.431507,33.149661],[131.431607,33.149711],[131.431832,33.149686],[131.431907,33.149619],[131.432632,33.149377],[131.432932,33.149227],[131.43397,33.148961],[131.43467,33.148986],[131.43497,33.149102],[131.435045,33.149169],[131.435057,33.149736],[131.435007,33.150527],[131.434982,33.150752],[131.435145,33.151227],[131.435245,33.151336],[131.435426,33.151489],[131.435745,33.151744],[131.43602,33.151886],[131.436772,33.152152],[131.436957,33.152214],[131.437116,33.152192],[131.437169,33.151986],[131.437219,33.151894],[131.437319,33.151844],[131.437419,33.151694],[131.437807,33.151469],[131.438032,33.151361],[131.438507,33.151294],[131.438882,33.151344],[131.439057,33.151319],[131.439282,33.151344],[131.439982,33.151344],[131.440257,33.151419],[131.440807,33.151377],[131.441669,33.151019],[131.442244,33.150844],[131.443119,33.150736],[131.443469,33.150669],[131.443694,33.150678],[131.443832,33.150561],[131.443981,33.150494],[131.446506,33.150286],[131.447344,33.150136],[131.447469,33.150094],[131.447994,33.149986],[131.448319,33.149869],[131.448494,33.149695],[131.448619,33.149245],[131.448606,33.149086],[131.448756,33.148886],[131.449006,33.148728],[131.449581,33.148436],[131.449781,33.14812],[131.449781,33.148053],[131.449919,33.147853],[131.449994,33.147586],[131.450119,33.147445],[131.450893,33.147295],[131.450943,33.147253],[131.451268,33.147187],[131.451656,33.146828],[131.452206,33.146112],[131.452306,33.14602],[131.452518,33.145978],[131.453368,33.145962],[131.453445,33.145867],[131.453493,33.14567],[131.453543,33.145354],[131.453881,33.144995],[131.454656,33.14457],[131.454931,33.144345],[131.455081,33.144079],[131.455268,33.143695],[131.455956,33.142729],[131.456256,33.142346],[131.456606,33.141829],[131.456918,33.141562],[131.457143,33.141004],[131.457293,33.140779],[131.457393,33.140638],[131.457506,33.140396],[131.457604,33.140013],[131.457856,33.139154],[131.457993,33.138929],[131.457818,33.138913],[131.457643,33.138954],[131.456906,33.139488],[131.456606,33.139871],[131.456143,33.140338],[131.455381,33.141687],[131.455231,33.141887],[131.455006,33.142046],[131.454706,33.142112],[131.454068,33.142354],[131.453818,33.142487],[131.453543,33.142712],[131.453243,33.142895],[131.453018,33.142979],[131.452568,33.142954],[131.452243,33.142862],[131.451419,33.14252],[131.451144,33.142204],[131.450769,33.14197],[131.450369,33.14177],[131.449944,33.141654],[131.449294,33.141604],[131.448944,33.14167],[131.448619,33.141887],[131.448131,33.142337],[131.447581,33.143012],[131.447281,33.14312],[131.446706,33.142937],[131.446306,33.142729],[131.445881,33.142679],[131.445581,33.142679],[131.445094,33.142787],[131.444169,33.142712],[131.443844,33.142579],[131.443519,33.14242],[131.443307,33.142145],[131.443082,33.141804],[131.443032,33.141645],[131.442469,33.140537],[131.441894,33.140287],[131.441269,33.139962],[131.441094,33.139787],[131.440744,33.139262],[131.440619,33.138762],[131.440082,33.137637],[131.440082,33.137546],[131.439895,33.136887],[131.43952,33.136146],[131.439295,33.135821],[131.438682,33.135462],[131.437857,33.135137],[131.437232,33.134771],[131.436257,33.134312],[131.434932,33.133787],[131.434183,33.133446],[131.432508,33.132796],[131.431983,33.132546],[131.430795,33.132046],[131.43052,33.131971],[131.430045,33.131746],[131.429745,33.131538],[131.429296,33.131088],[131.429196,33.130788],[131.428533,33.129654],[131.428108,33.128779],[131.427821,33.128413],[131.427621,33.128071],[131.427442,33.12753],[131.427458,33.126896],[131.427758,33.126113],[131.427946,33.125546],[131.428246,33.12503],[131.428296,33.12483],[131.428558,33.124288],[131.428658,33.123772],[131.428871,33.123388],[131.429021,33.123163],[131.429221,33.122988],[131.429346,33.122938],[131.430758,33.122339],[131.430933,33.122139],[131.431158,33.121755],[131.431408,33.121447],[131.431696,33.121247],[131.431771,33.121247],[131.431971,33.121222],[131.43252,33.121297],[131.43282,33.121272],[131.43332,33.120964],[131.433452,33.120764],[131.433683,33.120264],[131.433958,33.119956],[131.43444,33.119696],[131.434426,33.119507],[131.434395,33.119281],[131.434045,33.118689],[131.433995,33.118281],[131.433795,33.117939],[131.433633,33.117739],[131.433383,33.117531],[131.433283,33.117489],[131.432833,33.117414],[131.432743,33.117379],[131.432633,33.117347],[131.432158,33.117097],[131.432058,33.116889],[131.431952,33.116522],[131.431821,33.115948],[131.43168,33.115307],[131.431596,33.115014],[131.431358,33.114498],[131.431258,33.114206],[131.431108,33.113956],[131.43105,33.113472],[131.431021,33.11289],[131.431046,33.112556],[131.431233,33.111765],[131.431383,33.111565],[131.431558,33.111473],[131.432333,33.111506],[131.432683,33.11139],[131.433083,33.111056],[131.433196,33.110765],[131.433521,33.109757],[131.433579,33.109522],[131.433633,33.109232],[131.433633,33.108965],[131.433433,33.108532],[131.432696,33.107557],[131.431759,33.105949],[131.430934,33.105065],[131.430771,33.104774],[131.430696,33.104249],[131.430721,33.103865],[131.430796,33.103707],[131.430896,33.103557],[131.430909,33.103399],[131.430734,33.10324],[131.430309,33.103099],[131.429534,33.102691],[131.429059,33.102166],[131.428671,33.101549],[131.428571,33.101099],[131.428372,33.100757],[131.428197,33.100557],[131.427847,33.100441],[131.427647,33.100349],[131.427022,33.100141],[131.426872,33.100049],[131.425372,33.099607],[131.424997,33.099632],[131.424622,33.099582],[131.424072,33.099441],[131.423897,33.099282],[131.423759,33.099082],[131.423684,33.098858],[131.423584,33.098091],[131.423609,33.097816],[131.423516,33.097516],[131.423422,33.097316],[131.423197,33.097116],[131.422847,33.096974],[131.422472,33.097044],[131.422047,33.097149],[131.421822,33.097149],[131.421197,33.096941],[131.420822,33.096783],[131.420572,33.096716],[131.419222,33.096074],[131.418897,33.095866],[131.418822,33.095683],[131.418947,33.095508],[131.41901,33.095325],[131.419135,33.095141],[131.419285,33.094516],[131.41946,33.094241],[131.419522,33.09395],[131.419497,33.093775],[131.419173,33.092892],[131.41876,33.092033],[131.418441,33.091995],[131.417985,33.091958],[131.41766,33.091975],[131.41736,33.091933],[131.416985,33.091633],[131.416785,33.091317],[131.41661,33.091133],[131.416135,33.09095],[131.416085,33.090908],[131.41576,33.090742],[131.415598,33.090542],[131.415538,33.090339],[131.415523,33.090109],[131.415523,33.089909],[131.415398,33.089525],[131.415248,33.089384],[131.41466,33.088975],[131.41446,33.088975],[131.413236,33.088717],[131.412711,33.088442],[131.412561,33.088259],[131.412436,33.087992],[131.412311,33.087584],[131.412236,33.087492],[131.412098,33.087134],[131.412098,33.087017],[131.411998,33.086767],[131.411923,33.086559],[131.411898,33.086176],[131.411761,33.085542],[131.411561,33.085159],[131.411098,33.084643],[131.410661,33.084301],[131.410211,33.084126],[131.409524,33.083943],[131.409111,33.083901],[131.408736,33.083784],[131.407599,33.083159],[131.407136,33.082976],[131.406086,33.082393],[131.405399,33.082126],[131.405099,33.081968],[131.404711,33.081901],[131.404436,33.081834],[131.403912,33.081384],[131.403929,33.08129],[131.404024,33.08116],[131.404274,33.08116],[131.404461,33.081018],[131.404436,33.080635],[131.404461,33.080501],[131.404661,33.080185],[131.404736,33.07996],[131.404849,33.079193],[131.404936,33.078768],[131.405099,33.078427],[131.404961,33.078318],[131.404249,33.078293],[131.403974,33.077643],[131.403774,33.077052],[131.403562,33.076968],[131.403174,33.07656],[131.403087,33.076427],[131.402812,33.076152],[131.402699,33.075952],[131.402699,33.075635],[131.402624,33.075344],[131.402424,33.07516],[131.402349,33.074985],[131.402212,33.074869],[131.402049,33.074869],[131.401874,33.074644],[131.401874,33.074419],[131.401987,33.074194],[131.401962,33.073719],[131.401955,33.073514],[131.401962,33.073269],[131.401912,33.073069],[131.401774,33.073002],[131.401574,33.073069],[131.400974,33.073569],[131.400562,33.073744],[131.399649,33.07386],[131.399374,33.073794],[131.399324,33.07361],[131.399437,33.072977],[131.399349,33.07251],[131.39934,33.072268],[131.399349,33.072169],[131.399462,33.071969],[131.399574,33.071852],[131.399899,33.071652],[131.400062,33.071469],[131.400424,33.070752],[131.400612,33.070477],[131.400862,33.070361],[131.401024,33.070211],[131.401137,33.070027],[131.401187,33.069461],[131.401074,33.069194],[131.400974,33.069036],[131.400837,33.068944],[131.400749,33.068744],[131.400774,33.068628],[131.400912,33.068628],[131.401024,33.068678],[131.401187,33.068836],[131.401274,33.068853],[131.401687,33.068444],[131.401899,33.068178],[131.402449,33.067728],[131.402668,33.067561],[131.402927,33.067394],[131.403087,33.067294],[131.403312,33.067186],[131.403499,33.067028],[131.403735,33.066713],[131.403824,33.066578],[131.404049,33.066261],[131.404141,33.066053],[131.404274,33.065945],[131.404487,33.065945],[131.404949,33.065786],[131.405012,33.06567],[131.404737,33.065586],[131.404487,33.065445],[131.403937,33.064995],[131.403387,33.064528],[131.402699,33.064078],[131.402199,33.063695],[131.401649,33.06342],[131.401162,33.063111],[131.401099,33.06302],[131.400687,33.06277],[131.400062,33.062503],[131.399543,33.062454],[131.399271,33.062447],[131.399037,33.062453],[131.398734,33.062498],[131.398487,33.062528],[131.398187,33.06257],[131.397837,33.062545],[131.3972,33.062345],[131.397012,33.06237],[131.396537,33.062595],[131.39635,33.062753],[131.396225,33.062778],[131.396125,33.062795],[131.395987,33.062753],[131.395937,33.062553],[131.395825,33.062345],[131.395412,33.062236],[131.3952,33.062186],[131.395112,33.062078],[131.395112,33.061895],[131.3952,33.061695],[131.395525,33.06122],[131.395662,33.060837],[131.395825,33.060637],[131.396075,33.06052],[131.397012,33.060495],[131.397225,33.060453],[131.397562,33.060203],[131.397662,33.060203],[131.398112,33.06032],[131.398274,33.06027],[131.398712,33.059978],[131.398799,33.059845],[131.398762,33.059662],[131.398662,33.059478],[131.398024,33.059187],[131.397837,33.059028],[131.397774,33.058945],[131.397912,33.058512],[131.398212,33.058179],[131.398462,33.058104],[131.398712,33.058087],[131.398899,33.057812],[131.399012,33.057479],[131.399099,33.057045],[131.399212,33.056937],[131.399562,33.056912],[131.400087,33.05702],[131.400387,33.057179],[131.400662,33.057704],[131.400687,33.057745],[131.400799,33.05777],[131.401024,33.05772],[131.401262,33.05752],[131.401374,33.057337],[131.401512,33.057229],[131.401849,33.05707],[131.402198,33.056886],[131.402612,33.056795],[131.402974,33.05682],[131.403112,33.056862],[131.403299,33.057045],[131.403799,33.057745],[131.404012,33.057829],[131.404424,33.057787],[131.405061,33.057629],[131.406436,33.057445],[131.406486,33.057445],[131.406874,33.057179],[131.406899,33.056904],[131.406661,33.056546],[131.406161,33.056004],[131.405724,33.055646],[131.405611,33.055462],[131.405586,33.055079],[131.405449,33.054696],[131.405366,33.054544],[131.405218,33.05445],[131.405061,33.054379],[131.404237,33.054271],[131.403849,33.054162],[131.403412,33.053846],[131.403112,33.053571],[131.402724,33.052962],[131.402562,33.052629],[131.402499,33.052287],[131.402362,33.051929],[131.402312,33.051521],[131.402362,33.051187],[131.402474,33.051046],[131.403274,33.050371],[131.403687,33.050196],[131.404012,33.050146],[131.404537,33.050013],[131.404862,33.049963],[131.405499,33.049738],[131.405799,33.049579],[131.406186,33.049179],[131.406186,33.048996],[131.406074,33.048771],[131.405824,33.048588],[131.405311,33.048496],[131.405062,33.048321],[131.404949,33.048029],[131.404749,33.047846],[131.404337,33.047779],[131.403899,33.047779],[131.403524,33.047829],[131.403187,33.047938],[131.402774,33.048146],[131.402424,33.048229],[131.401949,33.048121],[131.401874,33.048054],[131.401324,33.047779],[131.400874,33.047629],[131.400637,33.047513],[131.400669,33.047353],[131.400774,33.047221],[131.402037,33.046929],[131.402362,33.046704],[131.402562,33.046521],[131.402587,33.046388],[131.402562,33.046046],[131.402424,33.045821],[131.402087,33.045713],[131.401782,33.045648],[131.401404,33.045538],[131.401099,33.045463],[131.400662,33.045396],[131.399724,33.04508],[131.399537,33.04508],[131.399362,33.045038],[131.399199,33.04483],[131.399037,33.044471],[131.398649,33.044363],[131.398437,33.044363],[131.398212,33.044205],[131.397781,33.043561],[131.397799,33.043371],[131.397992,33.043201],[131.398437,33.04278],[131.398574,33.042463],[131.398599,33.042288],[131.398462,33.041655],[131.398212,33.04123],[131.397962,33.040713],[131.397861,33.040509],[131.397774,33.040305],[131.397612,33.040105],[131.397199,33.039946],[131.396887,33.039921],[131.396512,33.040038],[131.3956,33.04013],[131.395237,33.039988],[131.394825,33.03938],[131.39455,33.03918],[131.394225,33.039021],[131.393925,33.038996],[131.392737,33.03878],[131.392275,33.038397],[131.392025,33.03808],[131.391612,33.037922],[131.391312,33.037897],[131.390462,33.037947],[131.3901,33.038055],[131.389775,33.03808],[131.389025,33.03783],[131.388588,33.03763],[131.388538,33.03743],[131.38865,33.037272],[131.38895,33.037113],[131.389225,33.036955],[131.389825,33.036505],[131.389963,33.036438],[131.39035,33.036072],[131.390713,33.035847],[131.391475,33.03513],[131.391775,33.034655],[131.392,33.034047],[131.392113,33.032447],[131.392075,33.032197],[131.392169,33.031881],[131.39225,33.03143],[131.392138,33.031114],[131.392075,33.031072],[131.391938,33.031072],[131.39141,33.031197],[131.39116,33.03125],[131.390925,33.031297],[131.39064,33.031386],[131.390214,33.031392],[131.389875,33.031322],[131.389438,33.031205],[131.389,33.031139],[131.388101,33.031072],[131.387026,33.030805],[131.386113,33.03078],[131.385763,33.030739],[131.385488,33.030755],[131.384988,33.030689],[131.384576,33.03058],[131.383088,33.030605],[131.382851,33.030447],[131.382676,33.029856],[131.382239,33.029656],[131.382101,33.029639],[131.381689,33.029656],[131.381039,33.029589],[131.380676,33.029547],[131.380563,33.029564],[131.380452,33.02961],[131.380362,33.029651],[131.380214,33.02973],[131.380039,33.029772],[131.380076,33.029839],[131.379964,33.029839],[131.379876,33.029797],[131.379076,33.029614],[131.378914,33.029614],[131.379051,33.029255],[131.379076,33.028981],[131.379027,33.028514],[131.378839,33.027972],[131.378639,33.027247],[131.378527,33.026572],[131.378589,33.026456],[131.378752,33.026281],[131.379189,33.025939],[131.379189,33.025872],[131.379439,33.024856],[131.379902,33.024048],[131.380427,33.023439],[131.381164,33.022848],[131.381277,33.022606],[131.381277,33.02249],[131.381202,33.022265],[131.380677,33.021273],[131.380589,33.020798],[131.380652,33.020598],[131.380889,33.020465],[131.381027,33.02024],[131.381064,33.019873],[131.381277,33.019315],[131.381577,33.018548],[131.381439,33.017957],[131.381502,33.01769],[131.381827,33.017215],[131.382352,33.016657],[131.382814,33.015973],[131.383089,33.015957],[131.383727,33.016132],[131.384464,33.016107],[131.384902,33.016157],[131.385377,33.016398],[131.385589,33.016782],[131.386252,33.017148],[131.386664,33.017532],[131.387126,33.017682],[131.387301,33.017707],[131.387351,33.01764],[131.387464,33.017148],[131.387739,33.016607],[131.388152,33.01649],[131.388314,33.01649],[131.388702,33.016648],[131.389139,33.016982],[131.389664,33.017207],[131.389989,33.017257],[131.390514,33.017123],[131.390564,33.017073],[131.390839,33.01674],[131.391577,33.01559],[131.391552,33.015248],[131.391577,33.014707],[131.392214,33.014057],[131.392852,33.013965],[131.393339,33.014032],[131.394002,33.014207],[131.39464,33.014371],[131.394877,33.01419],[131.394964,33.013507],[131.395102,33.012899],[131.395814,33.011999],[131.396114,33.011507],[131.396227,33.011099],[131.396139,33.010374],[131.396277,33.010015],[131.396664,33.009657],[131.397239,33.009365],[131.397627,33.009315],[131.398089,33.009515],[131.398252,33.009515],[131.398639,33.009407],[131.399027,33.009341],[131.399439,33.009291],[131.399695,33.009249],[131.400014,33.009224],[131.401164,33.009199],[131.401276,33.009224],[131.401714,33.009224],[131.402189,33.009157],[131.402989,33.009091],[131.403639,33.009157],[131.404214,33.009199],[131.405214,33.008999],[131.406338,33.008632],[131.406476,33.008566],[131.406713,33.008499],[131.407263,33.008274],[131.407538,33.007932],[131.407676,33.007841],[131.407876,33.007533],[131.408563,33.007124],[131.409876,33.006491],[131.410588,33.005991],[131.411388,33.005066],[131.412188,33.004391],[131.412676,33.004058],[131.412975,33.0039],[131.413063,33.0039],[131.41345,33.003983],[131.413963,33.004008],[131.414713,33.003983],[131.415038,33.003875],[131.415425,33.00365],[131.415775,33.003366],[131.415888,33.003183],[131.416213,33.003025],[131.416738,33.002883],[131.4177,33.003091],[131.417975,33.003108],[131.418163,33.002883],[131.418025,33.002183],[131.417775,33.001575],[131.4174,33.000992],[131.417326,33.000738],[131.417263,33.000292],[131.417256,32.9999],[131.417288,32.999575],[131.417278,32.999125],[131.41725,32.998675],[131.41725,32.998084],[131.417313,32.997859],[131.417663,32.997475],[131.418413,32.997384],[131.4189,32.997409],[131.419075,32.997367],[131.41935,32.99705],[131.419537,32.995917],[131.41965,32.995717],[131.419812,32.994617],[131.420112,32.994159],[131.420475,32.993934],[131.42055,32.993351],[131.420137,32.992226],[131.420162,32.991868],[131.420662,32.991526],[131.4208,32.991118],[131.420847,32.990608],[131.421012,32.989876],[131.420987,32.98916],[131.420912,32.988685],[131.42055,32.988393],[131.42005,32.98776],[131.419813,32.987535],[131.419725,32.987243],[131.419638,32.987152],[131.418675,32.98691],[131.418463,32.986568],[131.418075,32.98576],[131.417275,32.984993],[131.41725,32.984677],[131.417243,32.984307],[131.4173,32.983935],[131.417388,32.983752],[131.417738,32.983327],[131.417875,32.982535],[131.418125,32.982177],[131.418263,32.98206],[131.418763,32.981769],[131.419038,32.981319],[131.41925,32.980511],[131.4195,32.979877],[131.4198,32.979586],[131.420025,32.979494],[131.4206,32.979336],[131.421472,32.979033],[131.42196,32.978727],[131.42225,32.978319],[131.422269,32.978021],[131.42225,32.977778],[131.4217,32.977419],[131.420875,32.977078],[131.420738,32.976994],[131.420488,32.976628],[131.420325,32.976003],[131.420263,32.975328],[131.42015,32.974736],[131.419938,32.974445],[131.4198,32.974353],[131.419325,32.97422],[131.418775,32.974178],[131.418725,32.974128],[131.418725,32.97352],[131.418863,32.972961],[131.419275,32.972237],[131.419688,32.971762],[131.419963,32.971587],[131.420863,32.971112],[131.421313,32.97077],[131.421663,32.970662],[131.422054,32.970512],[131.422412,32.970387],[131.422987,32.970028],[131.423062,32.969895],[131.423125,32.969529],[131.423425,32.969104],[131.42425,32.96847],[131.42455,32.968129],[131.424525,32.967995],[131.424412,32.967887],[131.423537,32.968154],[131.423175,32.968112],[131.42265,32.967929],[131.42185,32.96782],[131.421475,32.967479],[131.421275,32.967395],[131.421088,32.967012],[131.4212,32.966246],[131.421663,32.965562],[131.4218,32.965179],[131.42175,32.964571],[131.421575,32.964037],[131.420675,32.963471],[131.420175,32.962771],[131.420106,32.962365],[131.4202,32.961988],[131.420288,32.961488],[131.41995,32.961038],[131.419463,32.960771],[131.4193,32.960746],[131.4188,32.960863],[131.418613,32.960838],[131.418113,32.960679],[131.417613,32.960571],[131.416626,32.960121],[131.416326,32.959488],[131.416163,32.959013],[131.415726,32.958696],[131.415201,32.957913],[131.414313,32.957438],[131.414013,32.957096],[131.413963,32.956605],[131.413663,32.95568],[131.413427,32.955257],[131.413076,32.954938],[131.412564,32.954513],[131.411976,32.954147],[131.411376,32.953563],[131.411239,32.953138],[131.411264,32.953022],[131.411601,32.952547],[131.411764,32.952097],[131.411814,32.95133],[131.412314,32.950547],[131.412364,32.950389],[131.412298,32.950072],[131.412176,32.949597],[131.412064,32.949056],[131.411976,32.949014],[131.411314,32.949014],[131.410714,32.949056],[131.410551,32.949014],[131.409726,32.948631],[131.409176,32.948272],[131.408901,32.947706],[131.408876,32.947481],[131.408677,32.947031],[131.408289,32.946647],[131.407939,32.945931],[131.407714,32.945789],[131.407302,32.945906],[131.406864,32.945931],[131.406652,32.945864],[131.406539,32.945681],[131.406589,32.945548],[131.406589,32.945256],[131.406427,32.945006],[131.406564,32.944731],[131.406914,32.944556],[131.407464,32.944348],[131.407777,32.944081],[131.407914,32.944014],[131.408352,32.943923],[131.408652,32.943739],[131.409039,32.942498],[131.409039,32.941715],[131.408927,32.94124],[131.408727,32.940673],[131.408377,32.939932],[131.408239,32.939757],[131.407939,32.939215],[131.407689,32.938448],[131.407739,32.937948],[131.408102,32.93739],[131.408514,32.93694],[131.409089,32.936415],[131.409139,32.936215],[131.408864,32.935874],[131.408514,32.935565],[131.408064,32.935315],[131.407352,32.93509],[131.406615,32.93509],[131.40574,32.935182],[131.40554,32.935274],[131.405102,32.93559],[131.404577,32.935749],[131.40444,32.935724],[131.40414,32.935607],[131.403815,32.935315],[131.403315,32.934799],[131.402827,32.934349],[131.402028,32.93374],[131.402028,32.933491],[131.402278,32.933382],[131.402852,32.933357],[131.403702,32.933424],[131.404302,32.933399],[131.405077,32.933241],[131.405377,32.933016],[131.405465,32.932816],[131.405015,32.932141],[131.404552,32.931641],[131.403915,32.931282],[131.402903,32.930949],[131.402353,32.930566],[131.401965,32.929958],[131.40164,32.929841],[131.400978,32.929799],[131.399965,32.929774],[131.399603,32.930066],[131.398978,32.930724],[131.398703,32.930724],[131.397741,32.930816],[131.397078,32.930724],[131.396753,32.930524],[131.396828,32.930366],[131.397516,32.930024],[131.398128,32.929574],[131.398915,32.928624],[131.399353,32.927999],[131.399665,32.927474],[131.399803,32.927091],[131.399216,32.925791],[131.399191,32.925091],[131.399416,32.9243],[131.400016,32.9236],[131.400453,32.923175],[131.400978,32.9225],[131.401203,32.922117],[131.401278,32.921733],[131.401116,32.921434],[131.400703,32.9213],[131.399303,32.921075],[131.398641,32.920875],[131.398478,32.920742],[131.398478,32.920584],[131.398828,32.920067],[131.399453,32.919384],[131.400078,32.918984],[131.400403,32.91865],[131.400616,32.918292],[131.400741,32.917776],[131.400591,32.917434],[131.400491,32.917342],[131.399991,32.917342],[131.399566,32.917451],[131.399241,32.917442],[131.399191,32.917267],[131.399553,32.916501],[131.399553,32.916117],[131.399653,32.915709],[131.399616,32.915284],[131.399241,32.915034],[131.398566,32.914776],[131.397791,32.914393],[131.397616,32.914251],[131.397191,32.914093],[131.396666,32.914109],[131.396166,32.914451],[131.395866,32.914426],[131.395666,32.914259],[131.395641,32.913834],[131.395841,32.913268],[131.396329,32.912534],[131.397266,32.911476],[131.397504,32.911001],[131.397154,32.910593],[131.395929,32.90996],[131.394429,32.909493],[131.393979,32.909176],[131.393429,32.908701],[131.393217,32.90856],[131.392967,32.908126],[131.393192,32.907435],[131.393879,32.90721],[131.394404,32.907218],[131.394829,32.906968],[131.395841,32.905802],[131.396585,32.90454],[131.396466,32.90351],[131.39651,32.90308],[131.396579,32.902719],[131.396654,32.902377],[131.397004,32.902044],[131.397216,32.901502],[131.397941,32.900719],[131.398154,32.900361],[131.398229,32.900319],[131.398504,32.900027],[131.399091,32.898769],[131.399391,32.898361],[131.399529,32.897953],[131.399154,32.897319],[131.398666,32.896661],[131.398291,32.896278],[131.398142,32.895845],[131.398242,32.895511],[131.398279,32.894995],[131.398229,32.894453],[131.398379,32.894086],[131.398792,32.893778],[131.399241,32.893378],[131.399554,32.892945],[131.399654,32.892337],[131.399866,32.89162],[131.400166,32.891037],[131.400404,32.890337],[131.400379,32.889279],[131.400217,32.88842],[131.400042,32.887895],[131.399917,32.887787],[131.399829,32.887354],[131.399729,32.886612],[131.399767,32.886021],[131.399992,32.885396],[131.400404,32.884721],[131.400717,32.883979],[131.400892,32.883412],[131.400729,32.881379],[131.400567,32.880996],[131.400167,32.880546],[131.399892,32.879979],[131.39938,32.879546],[131.398905,32.879338],[131.39813,32.878746],[131.398005,32.878546],[131.397517,32.877571],[131.397342,32.87743],[131.396892,32.876913],[131.396792,32.876613],[131.396405,32.876096],[131.39563,32.875705],[131.39503,32.875021],[131.39448,32.874613],[131.394118,32.874097],[131.393368,32.873363],[131.392818,32.873138],[131.392368,32.872997],[131.391943,32.872588],[131.391006,32.871797],[131.390681,32.87143],[131.390206,32.87113],[131.389281,32.870747],[131.388818,32.870222],[131.388481,32.868797],[131.388156,32.86823],[131.388131,32.86773],[131.388019,32.86728],[131.388369,32.866656],[131.388781,32.866181],[131.389156,32.865347],[131.389594,32.865064],[131.390494,32.864506],[131.390844,32.864343],[131.391261,32.864252],[131.391656,32.864173],[131.392406,32.863798],[131.393656,32.863873],[131.393956,32.863873],[131.394593,32.863764],[131.395168,32.863564],[131.395468,32.863231],[131.395836,32.862766],[131.396281,32.862464],[131.396731,32.862198],[131.397031,32.861864],[131.397143,32.861523],[131.397043,32.861165],[131.396431,32.85994],[131.396106,32.859465],[131.394919,32.858348],[131.394644,32.857807],[131.393831,32.856898],[131.393656,32.856673],[131.393231,32.856332],[131.393081,32.85604],[131.392044,32.855107],[131.391594,32.85454],[131.391494,32.854357],[131.391457,32.853815],[131.391332,32.853457],[131.391382,32.853074],[131.391119,32.852366],[131.390569,32.852024],[131.390419,32.851982],[131.389919,32.851682],[131.389244,32.851382],[131.388669,32.851041],[131.387782,32.850382],[131.387357,32.849999],[131.387307,32.849541],[131.387357,32.849341],[131.38727,32.848824],[131.387295,32.848324],[131.387269,32.848032],[131.387207,32.847533],[131.386882,32.847083],[131.386707,32.847033],[131.385782,32.846508],[131.385332,32.846058],[131.383945,32.845349],[131.383395,32.845116],[131.38307,32.844866],[131.382795,32.844575],[131.38232,32.8443],[131.381995,32.844],[131.380608,32.843266],[131.379833,32.843058],[131.378983,32.842875],[131.378308,32.842575],[131.377708,32.842166],[131.377483,32.84205],[131.377058,32.841733],[131.376958,32.841641],[131.376446,32.840625],[131.376146,32.840258],[131.375634,32.8398],[131.375484,32.839442],[131.373934,32.838575],[131.373359,32.838592],[131.372859,32.838675],[131.372659,32.838675],[131.372621,32.838644],[131.372546,32.838608],[131.371371,32.838517],[131.370734,32.838425],[131.369947,32.838108],[131.369472,32.838],[131.368847,32.837908],[131.368484,32.837642],[131.368297,32.837417],[131.367747,32.837008],[131.366909,32.8367],[131.366384,32.836408],[131.364347,32.835642],[131.363972,32.835458],[131.36306,32.834808],[131.36221,32.834108],[131.362097,32.834],[131.36166,32.83395],[131.361022,32.834025],[131.360248,32.834067],[131.359735,32.834025],[131.359235,32.83405],[131.35836,32.834225],[131.35786,32.83425],[131.356623,32.834158],[131.35571,32.833983],[131.355048,32.8338],[131.352548,32.832908],[131.351698,32.8327],[131.350436,32.832233],[131.349824,32.832183],[131.349136,32.831958],[131.348124,32.831358],[131.347511,32.830858],[131.347161,32.830458],[131.347099,32.830025],[131.347078,32.829789],[131.347069,32.829553],[131.347049,32.829283],[131.347021,32.828918],[131.346981,32.828526],[131.346937,32.828108],[131.346299,32.828716],[131.345424,32.829441],[131.344712,32.830116],[131.343912,32.831091],[131.343424,32.831449],[131.342949,32.831716],[131.342099,32.832124],[131.341574,32.832533],[131.340424,32.833324],[131.339824,32.833499],[131.339187,32.833433],[131.337537,32.833033],[131.336737,32.832899],[131.335937,32.832858],[131.335037,32.833033],[131.334262,32.833241],[131.333775,32.833332],[131.332863,32.833424],[131.3325,32.833507],[131.3319,32.833599],[131.330963,32.833557],[131.329613,32.833149],[131.32945,32.833016],[131.328301,32.832974],[131.327988,32.833091],[131.327688,32.833291],[131.327476,32.833632],[131.327476,32.834057],[131.327638,32.834999],[131.327663,32.835924],[131.327613,32.836291],[131.3275,32.836649],[131.327438,32.836715],[131.327388,32.836882],[131.327025,32.83749],[131.326675,32.837982],[131.326513,32.838415],[131.326488,32.838932],[131.326425,32.839024],[131.325663,32.839157],[131.325463,32.839224],[131.324538,32.839807],[131.324038,32.839948],[131.323413,32.840332],[131.323051,32.84069],[131.3231,32.84114],[131.323025,32.841323],[131.32275,32.84159],[131.322613,32.84204],[131.322725,32.842673],[131.322838,32.842873],[131.3228,32.843415],[131.3227,32.844023],[131.322263,32.844315],[131.321738,32.844498],[131.321188,32.845015],[131.320663,32.845831],[131.31995,32.846481],[131.319488,32.846848],[131.319013,32.847139],[131.318163,32.847473],[131.317563,32.847614],[131.317125,32.847748],[131.316238,32.848223],[131.315663,32.848489],[131.315338,32.848856],[131.3155,32.849639],[131.315475,32.849731],[131.314988,32.850089],[131.314213,32.850972],[131.313613,32.851239],[131.313363,32.851264],[131.312763,32.851222],[131.312213,32.851514],[131.310775,32.852597],[131.310063,32.852914],[131.307626,32.853164],[131.305701,32.853189],[131.305063,32.853139],[131.304513,32.853164],[131.304463,32.853439],[131.304513,32.853613],[131.304238,32.854272],[131.303801,32.854588],[131.302288,32.855038],[131.301551,32.855372],[131.300613,32.855605],[131.299676,32.85558],[131.299076,32.855513],[131.298476,32.85558],[131.297901,32.855738],[131.297426,32.855938],[131.297126,32.85628],[131.296601,32.856621],[131.295976,32.856846],[131.295176,32.857005],[131.294439,32.857204],[131.294239,32.857338],[131.293939,32.857879],[131.293501,32.858488],[131.292726,32.859054],[131.292564,32.859213],[131.291501,32.859729],[131.291051,32.859979],[131.290314,32.860904],[131.290089,32.861154],[131.289489,32.861604],[131.288552,32.862412],[131.287727,32.863337],[131.287352,32.863862],[131.287152,32.86447],[131.287014,32.86537],[131.286852,32.865595],[131.285864,32.865345],[131.285427,32.865503],[131.285227,32.865795],[131.285314,32.866136],[131.285064,32.866228],[131.284464,32.866136],[131.283777,32.865961],[131.283115,32.865936],[131.282927,32.866453],[131.282152,32.866903],[131.281465,32.867403],[131.28034,32.868486],[131.280227,32.868661],[131.280177,32.869503],[131.280065,32.869703],[131.279577,32.869952],[131.279003,32.869927],[131.277628,32.869819],[131.27694,32.869794],[131.276603,32.869836],[131.275315,32.870377],[131.273778,32.870944],[131.273553,32.871127],[131.273166,32.871619],[131.273166,32.872077],[131.273478,32.873069],[131.273553,32.873902],[131.273365,32.874577],[131.272953,32.875252],[131.27284,32.875502],[131.272428,32.87606],[131.272041,32.876493],[131.271741,32.876918],[131.271691,32.877051],[131.271603,32.877843],[131.27174,32.878426],[131.27224,32.879485],[131.27279,32.880209],[131.273203,32.880884],[131.273427,32.881559],[131.273427,32.881693],[131.273177,32.881809],[131.272952,32.881743],[131.272353,32.881318],[131.271915,32.881176],[131.271603,32.880909],[131.27114,32.880568],[131.27054,32.880684],[131.270228,32.880801],[131.269328,32.880801],[131.268616,32.880684],[131.268116,32.880509],[131.267703,32.880259],[131.267404,32.879651],[131.266966,32.879468],[131.266354,32.879309],[131.264517,32.879001],[131.263967,32.879267],[131.263029,32.880351],[131.263029,32.880401],[131.261817,32.881567],[131.261279,32.882267],[131.260692,32.883258],[131.260392,32.883575],[131.260179,32.883917],[131.259929,32.884367],[131.258967,32.88565],[131.258805,32.886058],[131.258442,32.88635],[131.258305,32.886508],[131.257954,32.886914],[131.25753,32.887408],[131.257237,32.888224],[131.25693,32.889399],[131.256467,32.890316],[131.255755,32.892032],[131.25523,32.893615],[131.254655,32.894849],[131.254243,32.895507],[131.253718,32.896182],[131.253468,32.896657],[131.25328,32.897982],[131.253468,32.898348],[131.25363,32.89884],[131.253905,32.899356],[131.254405,32.900373],[131.25443,32.901115],[131.254422,32.901531],[131.25443,32.901864],[131.254455,32.902173],[131.254343,32.902739],[131.254293,32.903281],[131.254268,32.904473],[131.254343,32.905131],[131.25438,32.906031],[131.254455,32.906664],[131.25443,32.907447],[131.254243,32.907972],[131.253743,32.908714],[131.25363,32.908897],[131.253555,32.909205],[131.253143,32.910155],[131.252981,32.910655],[131.252893,32.911355],[131.252843,32.912163],[131.252843,32.913446],[131.252981,32.914096],[131.252981,32.914713],[131.252868,32.915388],[131.252893,32.915855],[131.253356,32.917613],[131.253331,32.918246],[131.253393,32.918696],[131.253606,32.919171],[131.253631,32.919421],[131.253606,32.919663],[131.253456,32.920037],[131.253468,32.920087],[131.253318,32.921362],[131.253343,32.921862],[131.253206,32.922712],[131.253093,32.923346],[131.252968,32.924237],[131.252818,32.924904],[131.252443,32.92552],[131.251831,32.926212],[131.251118,32.92707],[131.250606,32.927879],[131.250131,32.929087],[131.249868,32.929595],[131.249443,32.930145],[131.248406,32.931328],[131.248181,32.931653],[131.248068,32.932095],[131.247993,32.932578],[131.247906,32.932928],[131.247584,32.934033],[131.247143,32.93557],[131.247068,32.93652],[131.24688,32.937378],[131.246631,32.937778],[131.245906,32.938953],[131.245831,32.939336],[131.24583,32.939744],[131.245905,32.940144],[131.246118,32.940444],[131.246768,32.940936],[131.24733,32.941478],[131.247568,32.941594],[131.24788,32.941636],[131.248042,32.941669],[131.248505,32.941869],[131.248692,32.942119],[131.248817,32.942603],[131.249067,32.942836],[131.24923,32.942919],[131.249617,32.943194],[131.249867,32.943519],[131.250204,32.943803],[131.250854,32.944586],[131.251192,32.945311],[131.251429,32.945519],[131.252016,32.945853],[131.252654,32.946453],[131.252629,32.946453],[131.252716,32.946553],[131.252729,32.946636],[131.252416,32.947061],[131.252179,32.947502],[131.251966,32.947786],[131.251641,32.948077],[131.251254,32.948294],[131.251104,32.948319],[131.250666,32.948294],[131.250279,32.948352],[131.249842,32.948319],[131.249429,32.948119],[131.249317,32.947994],[131.248979,32.947894],[131.248667,32.947936],[131.248479,32.948077],[131.248104,32.948577],[131.247892,32.948777],[131.247667,32.949185],[131.247592,32.949377],[131.247292,32.949827],[131.247079,32.95086],[131.246679,32.952077],[131.246654,32.952352],[131.246704,32.952669],[131.246842,32.95296],[131.246967,32.953135],[131.247192,32.953252],[131.247592,32.953319],[131.247867,32.953344],[131.248266,32.953385],[131.248441,32.953377],[131.249329,32.953194],[131.250366,32.95316],[131.250554,32.95321],[131.250954,32.953477],[131.251466,32.953677],[131.252053,32.95371],[131.252503,32.953844],[131.252616,32.954635],[131.252766,32.955194],[131.253091,32.955952],[131.253041,32.956085],[131.252903,32.956168],[131.252466,32.956318],[131.252078,32.956527],[131.251628,32.95696],[131.251103,32.957127],[131.250278,32.957277],[131.249854,32.957485],[131.249529,32.95786],[131.249391,32.95791],[131.249204,32.957777],[131.248754,32.958002],[131.248204,32.95821],[131.247941,32.958368],[131.247866,32.958635],[131.247754,32.958751],[131.247627,32.958788],[131.247554,32.958751],[131.247366,32.958776],[131.246991,32.958643],[131.246704,32.95866],[131.246266,32.958751],[131.246004,32.958776],[131.245916,32.959451],[131.245941,32.959793],[131.246054,32.960243],[131.246216,32.960601],[131.246241,32.960826],[131.246379,32.961801],[131.246454,32.961976],[131.246829,32.962501],[131.247129,32.962968],[131.247154,32.963084],[131.247341,32.963401],[131.247553,32.963559],[131.247628,32.963584],[131.248141,32.963784],[131.248391,32.963909],[131.248728,32.964009],[131.249203,32.964043],[131.249591,32.963926],[131.250216,32.963459],[131.250578,32.963251],[131.251178,32.963018],[131.251465,32.963184],[131.251853,32.963251],[131.252353,32.963218],[131.253065,32.963093],[131.253428,32.963251],[131.253965,32.963393],[131.254765,32.963526],[131.255752,32.963476],[131.25619,32.963576],[131.256677,32.964159],[131.257052,32.964784],[131.257202,32.965343],[131.257265,32.965843],[131.25739,32.966468],[131.25809,32.966626],[131.25844,32.966792],[131.258789,32.967417],[131.259677,32.968667],[131.260127,32.969176],[131.260439,32.969234],[131.260864,32.969209],[131.261202,32.970442],[131.261439,32.971092],[131.261852,32.971467],[131.262076,32.9718],[131.262139,32.972575],[131.262426,32.973292],[131.263264,32.974408],[131.263564,32.975042],[131.263739,32.975908],[131.263626,32.976383],[131.263251,32.977133],[131.262164,32.977783],[131.261689,32.978108],[131.261251,32.97825],[131.260251,32.978408],[131.259639,32.978475],[131.258389,32.978375],[131.257564,32.978691],[131.257427,32.978783],[131.256964,32.979616],[131.256727,32.980324],[131.256339,32.980658],[131.255339,32.981049],[131.254777,32.981316],[131.254489,32.981408],[131.252752,32.981766],[131.251852,32.981691],[131.251152,32.981741],[131.250552,32.981908],[131.250002,32.981983],[131.248802,32.982358],[131.248247,32.982406],[131.247628,32.982418],[131.247252,32.982457],[131.247052,32.982524],[131.246977,32.982657],[131.246721,32.983481],[131.246711,32.983599],[131.246753,32.983706],[131.246815,32.983766],[131.246677,32.984216],[131.24619,32.985524],[131.246115,32.985857],[131.24614,32.986399],[131.246277,32.987215],[131.246302,32.987915],[131.24614,32.988881],[131.24649,32.98924],[131.24714,32.989581],[131.247477,32.989898],[131.247452,32.990373],[131.247628,32.990959],[131.247852,32.991206],[131.247952,32.991731],[131.247877,32.992073],[131.247628,32.992201],[131.247477,32.992531],[131.247565,32.992831],[131.24759,32.993189],[131.247502,32.99393],[131.247628,32.99435],[131.24774,32.994397],[131.247677,32.99458],[131.247727,32.99478],[131.247702,32.995172],[131.247565,32.995447],[131.246965,32.996071],[131.246565,32.996546],[131.246478,32.996838],[131.246215,32.997246],[131.245915,32.997538],[131.245091,32.998054],[131.244303,32.998979],[131.243253,32.999854],[131.242553,33.000329],[131.241991,33.000445],[131.241054,33.000287],[131.240704,33.000462],[131.240354,33.000845],[131.240054,33.001345],[131.239779,33.00202],[131.238729,33.002628],[131.238379,33.003628],[131.238304,33.003778],[131.237929,33.004161],[131.236741,33.005011],[131.236441,33.005353],[131.236529,33.005886],[131.236654,33.006336],[131.236516,33.006903],[131.236141,33.00757],[131.234754,33.009095],[131.234266,33.009228],[131.233679,33.009095],[131.233254,33.008936],[131.232416,33.009494],[131.231854,33.010144],[131.231242,33.010386],[131.230404,33.010478],[131.229017,33.010428],[131.228105,33.010469],[131.227842,33.010736],[131.227917,33.011094],[131.228242,33.011411],[131.228404,33.011728],[131.228292,33.012044],[131.227354,33.012894],[131.226679,33.013136],[131.22588,33.013519],[131.225717,33.014119],[131.225929,33.014594],[131.225929,33.014952],[131.225367,33.015427],[131.224479,33.016319],[131.224042,33.016902],[131.223642,33.017302],[131.223754,33.017669],[131.224092,33.018494],[131.224367,33.018636],[131.224842,33.018702],[131.225966,33.018752],[131.226416,33.018861],[131.226466,33.019294],[131.226366,33.019561],[131.225991,33.020077],[131.225266,33.020794],[131.225391,33.021019],[131.225854,33.021286],[131.225854,33.021602],[131.225716,33.022702],[131.225341,33.022836],[131.225229,33.023036],[131.225516,33.023419],[131.225628,33.023619],[131.225541,33.023869],[131.223741,33.026877],[131.223291,33.027368],[131.223466,33.027727],[131.223316,33.02811],[131.222016,33.029093],[131.221616,33.029743],[131.221266,33.030035],[131.221291,33.031068],[131.221129,33.031668],[131.220754,33.032168],[131.220754,33.032768],[131.220941,33.033309],[131.220929,33.034076],[131.220804,33.034384],[131.220479,33.034476],[131.220454,33.034809],[131.220179,33.035443],[131.220254,33.035868],[131.219666,33.036409],[131.219429,33.037101],[131.219554,33.037659],[131.219529,33.037884],[131.219366,33.038384],[131.219628,33.038967],[131.219528,33.039417],[131.219441,33.040017],[131.219203,33.040534],[131.218741,33.041184],[131.218279,33.041609],[131.218154,33.042175],[131.218041,33.042867],[131.217741,33.043183],[131.217441,33.043408],[131.217654,33.044033],[131.218028,33.044575],[131.218166,33.044867],[131.218191,33.045317],[131.217466,33.046033],[131.217116,33.046525],[131.217004,33.046933],[131.216491,33.047399],[131.215904,33.048116],[131.215579,33.048724],[131.215392,33.049349],[131.215442,33.050024],[131.215767,33.050874],[131.216154,33.051691],[131.216454,33.05254],[131.216766,33.053307],[131.216691,33.053574],[131.215267,33.055165],[131.214479,33.055815],[131.213754,33.056506],[131.21298,33.05704],[131.212092,33.057289],[131.211155,33.057439],[131.210355,33.057639],[131.20953,33.058114],[131.20893,33.058647],[131.20848,33.059255],[131.207406,33.060372],[131.206681,33.060997],[131.205869,33.06178],[131.203769,33.063904],[131.203556,33.064038],[131.202944,33.064621],[131.200444,33.067354],[131.199656,33.068112],[131.198394,33.069212],[131.197782,33.069662],[131.197482,33.069929],[131.197269,33.070237],[131.196569,33.071271],[131.197019,33.071812],[131.197394,33.072196],[131.197718,33.072688],[131.198331,33.073429],[131.198381,33.073454],[131.198431,33.073546],[131.198143,33.073879],[131.197681,33.074196],[131.195931,33.075629],[131.195456,33.075963],[131.195106,33.076254],[131.194993,33.076296],[131.194406,33.076763],[131.194168,33.076904],[131.193843,33.077188],[131.193356,33.077529],[131.193168,33.077704],[131.192956,33.077796],[131.193355,33.078204],[131.193468,33.078204],[131.193655,33.078113],[131.193943,33.078138],[131.19418,33.078204],[131.194455,33.078388],[131.19453,33.078521],[131.19453,33.078588],[131.194643,33.078788],[131.19498,33.079038],[131.195255,33.079354],[131.195467,33.080338],[131.195617,33.080654],[131.195992,33.080971],[131.196105,33.081221],[131.19653,33.081379],[131.196605,33.081354],[131.196742,33.081379],[131.197192,33.081871],[131.197397,33.082281],[131.197654,33.082613],[131.197867,33.082954],[131.197942,33.083141],[131.198079,33.083246],[131.198271,33.083356],[131.198382,33.083507],[131.198504,33.083696],[131.198904,33.084254],[131.199091,33.084888],[131.198891,33.085788],[131.198941,33.085946],[131.199095,33.086091],[131.199379,33.086413],[131.199754,33.086596],[131.200116,33.086688],[131.200279,33.086913],[131.200304,33.087046],[131.200266,33.087271],[131.200029,33.087813],[131.200078,33.087971],[131.200303,33.088063],[131.200678,33.088104],[131.200803,33.088221],[131.201078,33.088579],[131.201228,33.088621],[131.201716,33.088696],[131.202278,33.088938],[131.202578,33.089163],[131.202978,33.089279],[131.203028,33.089388],[131.203053,33.089796],[131.203166,33.089929],[131.203478,33.090138],[131.203778,33.090563],[131.203965,33.090588],[131.204528,33.090471],[131.204628,33.090471],[131.204928,33.090563],[131.20514,33.090521],[131.205378,33.090429],[131.205678,33.090404],[131.20584,33.090321],[131.206342,33.08998],[131.206665,33.089846],[131.207265,33.089513],[131.208015,33.089329],[131.20879,33.089271],[131.209403,33.089313],[131.210177,33.089471],[131.210502,33.089588],[131.210599,33.089661],[131.21064,33.089746],[131.210877,33.090171],[131.211065,33.090263],[131.211815,33.090288],[131.212215,33.090221],[131.213715,33.089746],[131.214227,33.089638],[131.214702,33.089479],[131.215115,33.08923],[131.215322,33.089014],[131.215989,33.088763],[131.216314,33.088696],[131.217114,33.088455],[131.217814,33.088313],[131.218002,33.088338],[131.218277,33.088546],[131.218464,33.08863],[131.218539,33.08863],[131.219077,33.088388],[131.219827,33.08828],[131.220202,33.088296],[131.221464,33.08823],[131.221914,33.088305],[131.222176,33.088396],[131.222664,33.088413],[131.223039,33.088346],[131.223601,33.088055],[131.224489,33.08743],[131.224751,33.087271],[131.225376,33.086805],[131.225776,33.086505],[131.226026,33.086121],[131.226204,33.085877],[131.226401,33.085538],[131.226501,33.08543],[131.226614,33.085405],[131.226914,33.085538],[131.227101,33.085672],[131.227389,33.085972],[131.227601,33.086438],[131.227626,33.086621],[131.227751,33.086713],[131.228263,33.086921],[131.228426,33.08703],[131.236275,33.089271],[131.236775,33.089496],[131.23705,33.089655],[131.237663,33.091055],[131.238012,33.091771],[131.238137,33.092246],[131.237687,33.093121],[131.237712,33.093438],[131.238037,33.093571],[131.238512,33.093838],[131.238812,33.094205],[131.239187,33.094563],[131.239775,33.094946],[131.240712,33.095804],[131.241,33.095963],[131.24135,33.096071],[131.241862,33.096454],[131.242099,33.096796],[131.242312,33.097421],[131.242412,33.097938],[131.242574,33.098454],[131.242737,33.098796],[131.242812,33.099113],[131.243162,33.099896],[131.243324,33.100438],[131.243424,33.101046],[131.243612,33.101654],[131.243912,33.102054],[131.244149,33.102262],[131.245037,33.102512],[131.245762,33.102962],[131.246074,33.103254],[131.246449,33.103837],[131.246662,33.104471],[131.246774,33.105054],[131.246774,33.105571],[131.246824,33.106021],[131.247036,33.106287],[131.247361,33.106271],[131.247499,33.106287],[131.248061,33.106479],[131.248099,33.106487],[131.248286,33.106554],[131.248536,33.106687],[131.249024,33.106962],[131.250111,33.107746],[131.250636,33.108321],[131.250799,33.108496],[131.250961,33.108637],[131.251099,33.108779],[131.251249,33.108912],[131.251398,33.109104],[131.251561,33.109296],[131.251661,33.109396],[131.252111,33.109754],[131.252286,33.109896],[131.252573,33.110162],[131.252611,33.110212],[131.252673,33.110304],[131.252823,33.110496],[131.252961,33.110671],[131.253086,33.110796],[131.253323,33.110987],[131.253473,33.111146],[131.253561,33.111229],[131.253648,33.111346],[131.253661,33.111371],[131.253686,33.111446],[131.253698,33.111521],[131.253711,33.111662],[131.253611,33.112196],[131.253598,33.112304],[131.253611,33.112395],[131.253598,33.11252],[131.253598,33.112604],[131.253598,33.112879],[131.253573,33.11332],[131.253573,33.113645],[131.253548,33.11417],[131.253523,33.11432],[131.253498,33.114529],[131.253486,33.114645],[131.253486,33.114704],[131.253473,33.114837],[131.253461,33.114954],[131.253448,33.115337],[131.253461,33.115795],[131.253461,33.115912],[131.253436,33.116154],[131.253411,33.116304],[131.253411,33.116387],[131.253411,33.116437],[131.253411,33.11647],[131.253398,33.116837],[131.253386,33.116995],[131.253373,33.117245],[131.253348,33.117487],[131.253336,33.11827],[131.253311,33.119212],[131.253261,33.119778],[131.253248,33.12017],[131.253186,33.120628],[131.253136,33.121137],[131.253123,33.121362],[131.253123,33.121528],[131.253123,33.121645],[131.253136,33.121803],[131.253148,33.121895],[131.253173,33.121962],[131.253273,33.12202],[131.253523,33.122103],[131.253886,33.122195],[131.254648,33.122378],[131.255073,33.122512],[131.255223,33.122545],[131.255723,33.122678],[131.256323,33.122962],[131.257073,33.123245],[131.256973,33.123437],[131.256798,33.123695],[131.25666,33.123837],[131.25656,33.123978],[131.256535,33.12412],[131.25656,33.124287],[131.256648,33.12447],[131.25681,33.124712],[131.256973,33.124928],[131.257035,33.125045],[131.25706,33.125137],[131.25706,33.125228],[131.257035,33.125287],[131.25706,33.125512],[131.257085,33.125628],[131.257123,33.125695],[131.257148,33.125745],[131.257235,33.125945],[131.25736,33.126212],[131.257485,33.126528],[131.257573,33.126812],[131.257598,33.126987],[131.257573,33.127195],[131.25741,33.127703],[131.257335,33.127845],[131.257223,33.128261],[131.257223,33.128503],[131.25721,33.128628],[131.257223,33.128745],[131.257248,33.128886],[131.257273,33.128995],[131.257273,33.129161],[131.257298,33.129303],[131.257373,33.129428],[131.257435,33.129511],[131.25746,33.129653],[131.257448,33.12987],[131.257435,33.129945],[131.257485,33.130045],[131.257598,33.130153],[131.25776,33.130378],[131.257823,33.130545],[131.257848,33.130728],[131.257848,33.130861],[131.25786,33.130945],[131.257885,33.13102],[131.25786,33.13112],[131.257848,33.131286],[131.25781,33.131511],[131.257748,33.13162],[131.257623,33.131828],[131.257573,33.131911],[131.257535,33.13202],[131.257485,33.132095],[131.257435,33.13222],[131.25736,33.132395],[131.25726,33.132578],[131.257135,33.132803],[131.25706,33.132928],[131.25701,33.133045],[131.256985,33.133161],[131.256985,33.133253],[131.25696,33.133361],[131.256898,33.133461],[131.256785,33.133536],[131.256611,33.133603],[131.256573,33.133669],[131.256573,33.133744],[131.256623,33.133819],[131.256673,33.133936],[131.25676,33.134144],[131.256948,33.134428],[131.257085,33.134753],[131.257123,33.134803],[131.257148,33.134836],[131.25721,33.134878],[131.257285,33.134894],[131.257335,33.134894],[131.257473,33.134878],[131.257673,33.134819],[131.25786,33.134769],[131.258035,33.134736],[131.25811,33.134744],[131.258173,33.134744],[131.258273,33.134786],[131.258373,33.134836],[131.25841,33.134886],[131.258535,33.135028],[131.258585,33.135136],[131.258623,33.135311],[131.258635,33.135561],[131.258685,33.135728],[131.258748,33.135828],[131.258823,33.135928],[131.258898,33.136019],[131.259048,33.136194],[131.259148,33.136303],[131.259198,33.136361],[131.259273,33.136428],[131.259348,33.136478],[131.259548,33.136569],[131.25971,33.136653],[131.259923,33.136761],[131.260148,33.136878],[131.260685,33.137111],[131.261098,33.137244],[131.261285,33.137311],[131.26141,33.137344],[131.261573,33.137319],[131.261723,33.137344],[131.261822,33.137444],[131.261872,33.137536],[131.26191,33.137778],[131.261922,33.138011],[131.26196,33.138119],[131.26206,33.138219],[131.26221,33.138253],[131.262535,33.138294],[131.262622,33.138286],[131.262772,33.138319],[131.262897,33.138402],[131.262947,33.138494],[131.262972,33.138652],[131.26296,33.138736],[131.262935,33.138869],[131.262947,33.138986],[131.26296,33.139019],[131.262972,33.139069],[131.26301,33.139169],[131.263072,33.139261],[131.263097,33.139294],[131.263135,33.139369],[131.26321,33.139436],[131.263322,33.139502],[131.263672,33.139669],[131.263772,33.139736],[131.264172,33.139936],[131.26476,33.140286],[131.265547,33.140802],[131.266247,33.141294],[131.266485,33.141452],[131.266635,33.141552],[131.266985,33.141802],[131.267722,33.142294],[131.268134,33.142536],[131.268297,33.142677],[131.268634,33.142944],[131.268959,33.143144],[131.269134,33.143244],[131.269284,33.143252],[131.269447,33.143302],[131.269522,33.143302],[131.269822,33.143302],[131.270209,33.143352],[131.270409,33.143369],[131.271034,33.14341],[131.271309,33.143444],[131.271597,33.143544],[131.271672,33.143602],[131.271709,33.143669],[131.271759,33.143785],[131.271709,33.144185],[131.271772,33.14436],[131.271946,33.144502],[131.272609,33.144819],[131.272896,33.144994],[131.272971,33.145085],[131.273046,33.145194],[131.273071,33.145252],[131.273159,33.145427],[131.273184,33.145519],[131.273309,33.145585],[131.273534,33.145652],[131.273771,33.145735],[131.273896,33.145885],[131.273971,33.14601],[131.274071,33.146194],[131.274146,33.146352],[131.274284,33.146769],[131.274359,33.146977],[131.274584,33.14771],[131.274646,33.147843],[131.274771,33.148302],[131.274909,33.14861],[131.275121,33.148843],[131.275259,33.14896],[131.275559,33.149152],[131.275909,33.14936],[131.276259,33.149568],[131.276759,33.149868],[131.277258,33.150177],[131.277771,33.150543],[131.278096,33.15076],[131.278683,33.151085],[131.279033,33.151235],[131.279333,33.151385],[131.279596,33.151552],[131.279808,33.151702],[131.279958,33.151777],[131.280308,33.151918],[131.280783,33.152093],[131.281733,33.152576],[131.282333,33.153018],[131.283045,33.153685],[131.283508,33.15411],[131.283958,33.154501],[131.284483,33.154868],[131.285045,33.155243],[131.285345,33.155435],[131.285682,33.15561],[131.286095,33.155851],[131.28672,33.156126],[131.287295,33.15641],[131.287807,33.156635],[131.287995,33.156701],[131.289495,33.157234],[131.290707,33.157626],[131.291194,33.157751],[131.291607,33.157893],[131.292807,33.158309],[131.293882,33.158784],[131.294644,33.159043],[131.295344,33.159284],[131.296206,33.159459],[131.296956,33.159601],[131.297169,33.159618],[131.297919,33.159643],[131.298469,33.159759],[131.298856,33.159893],[131.299656,33.160301],[131.300243,33.160584],[131.300481,33.160709],[131.300618,33.160743],[131.300793,33.160751],[131.301693,33.160384],[131.301918,33.160318],[131.302181,33.160251],[131.302531,33.160209],[131.302693,33.160218],[131.303081,33.160218],[131.303306,33.160176],[131.303431,33.160134],[131.303643,33.160076],[131.303856,33.159868],[131.30413,33.159526],[131.304355,33.159284],[131.304505,33.159176],[131.30518,33.158793],[131.305405,33.158759],[131.305555,33.158801],[131.305793,33.158884],[131.30638,33.159168],[131.306993,33.159501],[131.307343,33.159701],[131.307705,33.159917],[131.308118,33.160209],[131.308768,33.160676],[131.309105,33.160992],[131.30958,33.161492],[131.309817,33.161642],[131.31008,33.161792],[131.310355,33.161934],[131.310667,33.162042],[131.310905,33.162084],[131.31103,33.162109],[131.311417,33.1623],[131.31168,33.16245],[131.311867,33.162509],[131.312305,33.162609],[131.312717,33.162692],[131.313542,33.163167],[131.313792,33.163325],[131.313905,33.163409],[131.314229,33.163584],[131.314767,33.163917],[131.314942,33.164134],[131.315004,33.164258],[131.315067,33.1644],[131.315117,33.164542],[131.315204,33.1647],[131.315342,33.165083],[131.315454,33.165367],[131.315567,33.165692],[131.315604,33.165867],[131.315692,33.166108],[131.315942,33.166542],[131.316092,33.166717],[131.316179,33.166758],[131.316229,33.166783],[131.316629,33.166908],[131.316704,33.166941],[131.316904,33.167041],[131.316979,33.167116],[131.317042,33.167291],[131.317017,33.167483],[131.316954,33.167708],[131.316929,33.167925],[131.316922,33.168003],[131.316929,33.168066],[131.316967,33.168141],[131.317004,33.168233],[131.317067,33.168366],[131.317242,33.168541],[131.317442,33.168666],[131.317592,33.1688],[131.317979,33.169033],[131.318167,33.169166],[131.318792,33.169591],[131.319142,33.169799],[131.319417,33.169916],[131.319554,33.169941],[131.319629,33.169941],[131.320141,33.169883],[131.320479,33.169833],[131.320629,33.169833],[131.320779,33.169858],[131.320954,33.169916],[131.321166,33.170016],[131.321329,33.170199],[131.322429,33.171099],[131.323579,33.172249],[131.324191,33.17259],[131.324916,33.172815],[131.325154,33.172923]]]},"properties":{"id_url":"G66007.html","kuni_url":"/kg/resource/K66.html","kuni":"豊後","id":"G66007","yomi":"なおいり","name":"直入","pref":"大分県","kuni_id":"K66"}}]}