{"features":[{"type":"Feature","geometry":{"coordinates":[[[131.215709,33.361506],[131.215946,33.361164],[131.216084,33.360673],[131.216384,33.360248],[131.216621,33.360356],[131.216971,33.360723],[131.217271,33.360881],[131.217433,33.360831],[131.217671,33.360523],[131.217808,33.360456],[131.218183,33.360773],[131.218496,33.361106],[131.218708,33.361131],[131.218796,33.360948],[131.218846,33.360523],[131.218908,33.360523],[131.219071,33.36064],[131.219333,33.360906],[131.219733,33.360931],[131.220508,33.360773],[131.220733,33.360781],[131.220783,33.360798],[131.221021,33.36109],[131.221183,33.361231],[131.221346,33.36114],[131.221833,33.360556],[131.222046,33.360556],[131.222396,33.361348],[131.222446,33.361365],[131.223083,33.36099],[131.223383,33.360765],[131.223758,33.360648],[131.22397,33.36074],[131.22392,33.360881],[131.223658,33.361081],[131.223545,33.361306],[131.223808,33.361506],[131.224158,33.361423],[131.224345,33.361331],[131.224645,33.361131],[131.224783,33.361148],[131.225158,33.361423],[131.225908,33.361631],[131.226258,33.361473],[131.226333,33.361115],[131.226358,33.360748],[131.226745,33.360506],[131.226933,33.36044],[131.227658,33.360281],[131.228008,33.360081],[131.228133,33.359856],[131.227733,33.359157],[131.22777,33.359107],[131.227933,33.35904],[131.228458,33.359048],[131.22857,33.358957],[131.228358,33.35814],[131.228495,33.357898],[131.228708,33.357782],[131.22917,33.35774],[131.229295,33.357448],[131.229358,33.35704],[131.22947,33.35684],[131.22992,33.35664],[131.230508,33.356615],[131.230995,33.356549],[131.23132,33.35619],[131.231395,33.356215],[131.23177,33.356599],[131.233007,33.357032],[131.233595,33.357082],[131.234132,33.357032],[131.23432,33.357107],[131.234695,33.357349],[131.235395,33.357465],[131.236007,33.357399],[131.236282,33.356815],[131.236895,33.356774],[131.23722,33.356799],[131.237969,33.356932],[131.238432,33.356915],[131.238807,33.356824],[131.240032,33.356874],[131.240407,33.357124],[131.240732,33.357599],[131.240732,33.358274],[131.240857,33.35904],[131.241394,33.360373],[131.241707,33.360823],[131.241732,33.360982],[131.241682,33.361948],[131.241757,33.362356],[131.241994,33.362465],[131.242619,33.36249],[131.243481,33.362432],[131.244119,33.362298],[131.244519,33.361915],[131.244819,33.361782],[131.245244,33.361915],[131.245731,33.361873],[131.245819,33.361807],[131.245981,33.361465],[131.246006,33.36129],[131.246594,33.360998],[131.247019,33.36154],[131.247344,33.361698],[131.247819,33.361723],[131.248044,33.361657],[131.248481,33.360982],[131.248731,33.36089],[131.249031,33.361098],[131.249306,33.361232],[131.249631,33.361298],[131.250018,33.361432],[131.250268,33.361565],[131.250481,33.36159],[131.250756,33.361407],[131.251093,33.361049],[131.251393,33.360615],[131.251607,33.360459],[131.251718,33.360349],[131.251856,33.36019],[131.252406,33.35929],[131.252656,33.358007],[131.252818,33.357666],[131.253156,33.357416],[131.253593,33.357216],[131.253918,33.357124],[131.254606,33.356899],[131.254968,33.356624],[131.255406,33.356358],[131.255793,33.356266],[131.256305,33.356224],[131.256343,33.356241],[131.256393,33.356224],[131.256416,33.356153],[131.256505,33.356041],[131.256621,33.356],[131.25683,33.355991],[131.25713,33.356174],[131.25733,33.356241],[131.25758,33.356199],[131.257796,33.356193],[131.258268,33.356283],[131.259193,33.356283],[131.259493,33.356216],[131.25958,33.356083],[131.25963,33.355766],[131.25958,33.355541],[131.259255,33.355049],[131.259218,33.354775],[131.25928,33.354616],[131.259693,33.353875],[131.259906,33.353695],[131.260043,33.353583],[131.260543,33.353241],[131.260705,33.35295],[131.261093,33.352633],[131.261555,33.352433],[131.261643,33.352342],[131.261822,33.352123],[131.262055,33.351958],[131.262258,33.35191],[131.262445,33.351786],[131.26258,33.351642],[131.262718,33.351508],[131.263317,33.351392],[131.263705,33.351167],[131.266317,33.349967],[131.266967,33.349792],[131.267492,33.349767],[131.267878,33.349633],[131.26813,33.3492],[131.268286,33.348922],[131.268455,33.348642],[131.26878,33.348301],[131.269579,33.347534],[131.270154,33.346792],[131.270429,33.346317],[131.270679,33.345101],[131.270994,33.34462],[131.271167,33.344376],[131.271554,33.343993],[131.271779,33.343634],[131.271829,33.343476],[131.271779,33.342685],[131.271829,33.342126],[131.271692,33.341201],[131.271804,33.34086],[131.272054,33.340526],[131.272629,33.339935],[131.273196,33.339674],[131.273567,33.339235],[131.274029,33.338243],[131.274379,33.337685],[131.275454,33.336669],[131.275866,33.336094],[131.276504,33.335577],[131.276804,33.335435],[131.277466,33.335052],[131.278154,33.334852],[131.279166,33.334719],[131.280304,33.335052],[131.280766,33.335011],[131.283053,33.335436],[131.284253,33.335544],[131.28549,33.335494],[131.286865,33.335611],[131.288003,33.335786],[131.289565,33.336211],[131.29044,33.336236],[131.291515,33.336211],[131.292427,33.336369],[131.292977,33.336369],[131.293777,33.336236],[131.294577,33.336227],[131.29529,33.336002],[131.295477,33.335803],[131.296114,33.335353],[131.296602,33.335261],[131.297214,33.335436],[131.298039,33.335503],[131.298752,33.335503],[131.298977,33.335553],[131.299552,33.335886],[131.299851,33.335978],[131.300676,33.336161],[131.301689,33.336669],[131.302326,33.336986],[131.302539,33.337053],[131.302676,33.337053],[131.302951,33.337119],[131.303289,33.337103],[131.303614,33.336961],[131.303913,33.336786],[131.304001,33.33667],[131.304365,33.336378],[131.305538,33.335795],[131.305763,33.33552],[131.306226,33.334778],[131.306701,33.334262],[131.306938,33.333379],[131.307571,33.332364],[131.308075,33.331846],[131.308125,33.331662],[131.307988,33.330879],[131.307988,33.329862],[131.30815,33.328088],[131.308363,33.327471],[131.309,33.326821],[131.310075,33.325513],[131.310675,33.324905],[131.311175,33.324838],[131.312,33.324813],[131.312325,33.324538],[131.312325,33.324047],[131.312462,33.323097],[131.312737,33.322897],[131.314024,33.322464],[131.315237,33.322105],[131.316112,33.321905],[131.316837,33.32188],[131.317624,33.321947],[131.318586,33.321722],[131.319661,33.321339],[131.320711,33.321156],[131.324148,33.320989],[131.325508,33.320732],[131.326373,33.320631],[131.326923,33.320514],[131.328823,33.319389],[131.32961,33.319048],[131.33051,33.318633],[131.331535,33.318081],[131.332223,33.317631],[131.332723,33.317515],[131.332523,33.317023],[131.332173,33.316323],[131.331973,33.315581],[131.331648,33.314856],[131.331173,33.314365],[131.330945,33.313899],[131.330573,33.313348],[131.329998,33.313015],[131.329748,33.312898],[131.329198,33.312873],[131.328398,33.312315],[131.327548,33.312181],[131.326636,33.31184],[131.325811,33.311373],[131.325261,33.310606],[131.324849,33.309881],[131.324624,33.308848],[131.324961,33.30799],[131.324961,33.307832],[131.322399,33.307473],[131.320337,33.306865],[131.318737,33.306506],[131.3175,33.306331],[131.316812,33.306131],[131.316462,33.305881],[131.31685,33.305681],[131.318162,33.304798],[131.319862,33.303448],[131.320587,33.302882],[131.321237,33.302115],[131.322037,33.301457],[131.322454,33.300757],[131.322775,33.300082],[131.32325,33.299223],[131.323737,33.298865],[131.325087,33.298774],[131.326049,33.298749],[131.326787,33.298415],[131.327662,33.29769],[131.328599,33.297015],[131.330686,33.29604],[131.331924,33.295341],[131.332586,33.294799],[131.333374,33.292707],[131.333186,33.292457],[131.333099,33.292441],[131.330936,33.291157],[131.329149,33.290191],[131.328487,33.288924],[131.327987,33.288382],[131.327075,33.287532],[131.325738,33.286449],[131.325075,33.28584],[131.324363,33.285074],[131.323613,33.284382],[131.322988,33.283841],[131.320039,33.281049],[131.319326,33.280416],[131.318639,33.279649],[131.317039,33.278233],[131.315502,33.276749],[131.313827,33.275258],[131.313027,33.27445],[131.311565,33.273033],[131.310878,33.272491],[131.310328,33.271975],[131.307616,33.270125],[131.306128,33.269317],[131.305241,33.268892],[131.304866,33.268533],[131.303291,33.267717],[131.302391,33.267184],[131.300854,33.266075],[131.299992,33.265609],[131.299167,33.264859],[131.298242,33.263559],[131.297717,33.262676],[131.297105,33.261892],[131.296642,33.261142],[131.29648,33.260692],[131.29598,33.260018],[131.295792,33.259301],[131.29593,33.258709],[131.29598,33.257943],[131.295955,33.257043],[131.295891,33.256426],[131.29598,33.255943],[131.29603,33.255218],[131.295843,33.254451],[131.295543,33.253776],[131.295455,33.253351],[131.295268,33.252651],[131.294993,33.25161],[131.294983,33.251391],[131.294947,33.25097],[131.295039,33.250364],[131.295105,33.249835],[131.29468,33.249441],[131.294176,33.249251],[131.293655,33.249043],[131.29328,33.248793],[131.292931,33.248502],[131.292343,33.247985],[131.291968,33.247693],[131.291406,33.247443],[131.290606,33.247218],[131.290068,33.247152],[131.289606,33.24706],[131.289293,33.246877],[131.288919,33.24661],[131.288219,33.246027],[131.287094,33.245302],[131.286419,33.244735],[131.286206,33.244352],[131.286231,33.244085],[131.286344,33.243723],[131.286288,33.2432],[131.286131,33.242844],[131.285756,33.242127],[131.285057,33.240952],[131.284582,33.240369],[131.283932,33.239402],[131.283432,33.238819],[131.282332,33.237802],[131.281095,33.236902],[131.280432,33.236494],[131.278895,33.235819],[131.278145,33.235394],[131.277395,33.235094],[131.277083,33.235003],[131.276433,33.234711],[131.275208,33.233811],[131.274458,33.233494],[131.273808,33.233178],[131.272446,33.232328],[131.271721,33.231961],[131.270671,33.231694],[131.269918,33.231531],[131.269821,33.231244],[131.270074,33.230797],[131.270429,33.230148],[131.270651,33.229837],[131.270833,33.229553],[131.270978,33.2293],[131.271246,33.22917],[131.272183,33.228586],[131.272283,33.228228],[131.272183,33.22782],[131.272346,33.227461],[131.272771,33.227145],[131.273198,33.226726],[131.273421,33.226203],[131.273445,33.22583],[131.273498,33.225459],[131.273665,33.224998],[131.273658,33.223995],[131.273708,33.223504],[131.274646,33.222445],[131.275033,33.222154],[131.275595,33.221437],[131.275745,33.220829],[131.27637,33.220312],[131.276658,33.219812],[131.277045,33.219187],[131.277445,33.218912],[131.277795,33.218287],[131.278333,33.217771],[131.278808,33.217429],[131.279083,33.217004],[131.27977,33.216354],[131.280308,33.215971],[131.280795,33.215704],[131.281491,33.215254],[131.282007,33.214688],[131.28222,33.213854],[131.282482,33.212663],[131.282732,33.212013],[131.283132,33.21118],[131.28332,33.210913],[131.283645,33.21028],[131.283907,33.20963],[131.28487,33.20783],[131.284932,33.207647],[131.28507,33.207422],[131.28507,33.207313],[131.285845,33.206139],[131.286195,33.205489],[131.28702,33.203872],[131.287107,33.203597],[131.287432,33.202989],[131.288582,33.200947],[131.289519,33.199573],[131.289682,33.199389],[131.290507,33.198939],[131.290994,33.198606],[131.291568,33.198125],[131.29148,33.197943],[131.290944,33.197748],[131.290382,33.197298],[131.290269,33.196914],[131.290619,33.195323],[131.290869,33.195115],[131.291319,33.195431],[131.291807,33.19559],[131.293081,33.195906],[131.293244,33.195973],[131.293831,33.196131],[131.294619,33.196248],[131.294931,33.196248],[131.295419,33.195998],[131.296756,33.19519],[131.297431,33.194698],[131.298318,33.19409],[131.299381,33.193548],[131.300731,33.193007],[131.302305,33.192248],[131.302893,33.191998],[131.304105,33.191298],[131.304618,33.190915],[131.30563,33.190065],[131.306867,33.189232],[131.308105,33.188224],[131.308667,33.187815],[131.308792,33.187682],[131.308863,33.187437],[131.30888,33.187299],[131.30843,33.186424],[131.30848,33.185699],[131.308392,33.185366],[131.308055,33.185024],[131.307592,33.184732],[131.307192,33.184416],[131.30708,33.184282],[131.306955,33.183941],[131.30698,33.183741],[131.307167,33.183541],[131.308055,33.183224],[131.30928,33.182891],[131.310117,33.182549],[131.310792,33.182124],[131.312179,33.181541],[131.312529,33.181249],[131.312579,33.181108],[131.312579,33.180866],[131.312479,33.180591],[131.312204,33.180258],[131.311854,33.179983],[131.311354,33.179666],[131.309905,33.179266],[131.309392,33.179216],[131.308667,33.179241],[131.307517,33.179125],[131.306692,33.179258],[131.306442,33.179016],[131.306342,33.178966],[131.30623,33.179016],[131.30623,33.179083],[131.306417,33.179416],[131.30636,33.179604],[131.305718,33.17985],[131.305055,33.179933],[131.30443,33.180091],[131.303793,33.180291],[131.30318,33.180583],[131.30258,33.180966],[131.301993,33.181416],[131.301455,33.181574],[131.300393,33.181416],[131.299581,33.181374],[131.298831,33.181391],[131.298243,33.181299],[131.297356,33.180966],[131.296606,33.180716],[131.296131,33.180516],[131.295669,33.180266],[131.295381,33.180041],[131.295319,33.179841],[131.295456,33.179699],[131.296181,33.179458],[131.296881,33.179166],[131.298331,33.178333],[131.298943,33.177908],[131.299643,33.1773],[131.300981,33.176425],[131.30138,33.176058],[131.301705,33.175833],[131.30288,33.17525],[131.302993,33.17505],[131.303068,33.174758],[131.303318,33.174667],[131.305668,33.174733],[131.30608,33.174667],[131.306667,33.174267],[131.307067,33.173833],[131.30733,33.1733],[131.30753,33.172242],[131.307717,33.172125],[131.308142,33.172108],[131.308567,33.171967],[131.308766,33.171989],[131.309055,33.172283],[131.30948,33.172425],[131.309905,33.17265],[131.310555,33.172733],[131.31093,33.172875],[131.31128,33.1731],[131.31173,33.173275],[131.312192,33.173575],[131.312667,33.173708],[131.313401,33.174097],[131.313767,33.174425],[131.314492,33.174966],[131.315617,33.176116],[131.315992,33.176299],[131.316654,33.176249],[131.316767,33.176299],[131.316929,33.176566],[131.317117,33.177174],[131.317442,33.177332],[131.318054,33.177741],[131.318504,33.177624],[131.318991,33.177332],[131.320191,33.176499],[131.321454,33.175557],[131.322904,33.174257],[131.323491,33.173782],[131.323921,33.173549],[131.324166,33.173399],[131.325154,33.172923],[131.324916,33.172815],[131.324191,33.17259],[131.323579,33.172249],[131.322429,33.171099],[131.321329,33.170199],[131.321166,33.170016],[131.320954,33.169916],[131.320779,33.169858],[131.320629,33.169833],[131.320479,33.169833],[131.320141,33.169883],[131.319629,33.169941],[131.319554,33.169941],[131.319417,33.169916],[131.319142,33.169799],[131.318792,33.169591],[131.318167,33.169166],[131.317979,33.169033],[131.317592,33.1688],[131.317442,33.168666],[131.317242,33.168541],[131.317067,33.168366],[131.317004,33.168233],[131.316967,33.168141],[131.316929,33.168066],[131.316922,33.168003],[131.316929,33.167925],[131.316954,33.167708],[131.317017,33.167483],[131.317042,33.167291],[131.316979,33.167116],[131.316904,33.167041],[131.316704,33.166941],[131.316629,33.166908],[131.316229,33.166783],[131.316179,33.166758],[131.316092,33.166717],[131.315942,33.166542],[131.315692,33.166108],[131.315604,33.165867],[131.315567,33.165692],[131.315454,33.165367],[131.315342,33.165083],[131.315204,33.1647],[131.315117,33.164542],[131.315067,33.1644],[131.315004,33.164258],[131.314942,33.164134],[131.314767,33.163917],[131.314229,33.163584],[131.313905,33.163409],[131.313792,33.163325],[131.313542,33.163167],[131.312717,33.162692],[131.312305,33.162609],[131.311867,33.162509],[131.31168,33.16245],[131.311417,33.1623],[131.31103,33.162109],[131.310905,33.162084],[131.310667,33.162042],[131.310355,33.161934],[131.31008,33.161792],[131.309817,33.161642],[131.30958,33.161492],[131.309105,33.160992],[131.308768,33.160676],[131.308118,33.160209],[131.307705,33.159917],[131.307343,33.159701],[131.306993,33.159501],[131.30638,33.159168],[131.305793,33.158884],[131.305555,33.158801],[131.305405,33.158759],[131.30518,33.158793],[131.304505,33.159176],[131.304355,33.159284],[131.30413,33.159526],[131.303856,33.159868],[131.303643,33.160076],[131.303431,33.160134],[131.303306,33.160176],[131.303081,33.160218],[131.302693,33.160218],[131.302531,33.160209],[131.302181,33.160251],[131.301918,33.160318],[131.301693,33.160384],[131.300793,33.160751],[131.300618,33.160743],[131.300481,33.160709],[131.300243,33.160584],[131.299656,33.160301],[131.298856,33.159893],[131.298469,33.159759],[131.297919,33.159643],[131.297169,33.159618],[131.296956,33.159601],[131.296206,33.159459],[131.295344,33.159284],[131.294644,33.159043],[131.293882,33.158784],[131.292807,33.158309],[131.291607,33.157893],[131.291194,33.157751],[131.290707,33.157626],[131.289495,33.157234],[131.287995,33.156701],[131.287807,33.156635],[131.287295,33.15641],[131.28672,33.156126],[131.286095,33.155851],[131.285682,33.15561],[131.285345,33.155435],[131.285045,33.155243],[131.284483,33.154868],[131.283958,33.154501],[131.283508,33.15411],[131.283045,33.153685],[131.282333,33.153018],[131.281733,33.152576],[131.280783,33.152093],[131.280308,33.151918],[131.279958,33.151777],[131.279808,33.151702],[131.279596,33.151552],[131.279333,33.151385],[131.279033,33.151235],[131.278683,33.151085],[131.278096,33.15076],[131.277771,33.150543],[131.277258,33.150177],[131.276759,33.149868],[131.276259,33.149568],[131.275909,33.14936],[131.275559,33.149152],[131.275259,33.14896],[131.275121,33.148843],[131.274909,33.14861],[131.274771,33.148302],[131.274646,33.147843],[131.274584,33.14771],[131.274359,33.146977],[131.274284,33.146769],[131.274146,33.146352],[131.274071,33.146194],[131.273971,33.14601],[131.273896,33.145885],[131.273771,33.145735],[131.273534,33.145652],[131.273309,33.145585],[131.273184,33.145519],[131.273159,33.145427],[131.273071,33.145252],[131.273046,33.145194],[131.272971,33.145085],[131.272896,33.144994],[131.272609,33.144819],[131.271946,33.144502],[131.271772,33.14436],[131.271709,33.144185],[131.271759,33.143785],[131.271709,33.143669],[131.271672,33.143602],[131.271597,33.143544],[131.271309,33.143444],[131.271034,33.14341],[131.270409,33.143369],[131.270209,33.143352],[131.269822,33.143302],[131.269522,33.143302],[131.269447,33.143302],[131.269284,33.143252],[131.269134,33.143244],[131.268959,33.143144],[131.268634,33.142944],[131.268297,33.142677],[131.268134,33.142536],[131.267722,33.142294],[131.266985,33.141802],[131.266635,33.141552],[131.266485,33.141452],[131.266247,33.141294],[131.265547,33.140802],[131.26476,33.140286],[131.264172,33.139936],[131.263772,33.139736],[131.263672,33.139669],[131.263322,33.139502],[131.26321,33.139436],[131.263135,33.139369],[131.263097,33.139294],[131.263072,33.139261],[131.26301,33.139169],[131.262972,33.139069],[131.26296,33.139019],[131.262947,33.138986],[131.262935,33.138869],[131.26296,33.138736],[131.262972,33.138652],[131.262947,33.138494],[131.262897,33.138402],[131.262772,33.138319],[131.262622,33.138286],[131.262535,33.138294],[131.26221,33.138253],[131.26206,33.138219],[131.26196,33.138119],[131.261922,33.138011],[131.26191,33.137778],[131.261872,33.137536],[131.261822,33.137444],[131.261723,33.137344],[131.261573,33.137319],[131.26141,33.137344],[131.261285,33.137311],[131.261098,33.137244],[131.260685,33.137111],[131.260148,33.136878],[131.259923,33.136761],[131.25971,33.136653],[131.259548,33.136569],[131.259348,33.136478],[131.259273,33.136428],[131.259198,33.136361],[131.259148,33.136303],[131.259048,33.136194],[131.258898,33.136019],[131.258823,33.135928],[131.258748,33.135828],[131.258685,33.135728],[131.258635,33.135561],[131.258623,33.135311],[131.258585,33.135136],[131.258535,33.135028],[131.25841,33.134886],[131.258373,33.134836],[131.258273,33.134786],[131.258173,33.134744],[131.25811,33.134744],[131.258035,33.134736],[131.25786,33.134769],[131.257673,33.134819],[131.257473,33.134878],[131.257335,33.134894],[131.257285,33.134894],[131.25721,33.134878],[131.257148,33.134836],[131.257123,33.134803],[131.257085,33.134753],[131.256948,33.134428],[131.25676,33.134144],[131.256673,33.133936],[131.256623,33.133819],[131.256573,33.133744],[131.256573,33.133669],[131.256611,33.133603],[131.256785,33.133536],[131.256898,33.133461],[131.25696,33.133361],[131.256985,33.133253],[131.256985,33.133161],[131.25701,33.133045],[131.25706,33.132928],[131.257135,33.132803],[131.25726,33.132578],[131.25736,33.132395],[131.257435,33.13222],[131.257485,33.132095],[131.257535,33.13202],[131.257573,33.131911],[131.257623,33.131828],[131.257748,33.13162],[131.25781,33.131511],[131.257848,33.131286],[131.25786,33.13112],[131.257885,33.13102],[131.25786,33.130945],[131.257848,33.130861],[131.257848,33.130728],[131.257823,33.130545],[131.25776,33.130378],[131.257598,33.130153],[131.257485,33.130045],[131.257435,33.129945],[131.257448,33.12987],[131.25746,33.129653],[131.257435,33.129511],[131.257373,33.129428],[131.257298,33.129303],[131.257273,33.129161],[131.257273,33.128995],[131.257248,33.128886],[131.257223,33.128745],[131.25721,33.128628],[131.257223,33.128503],[131.257223,33.128261],[131.257335,33.127845],[131.25741,33.127703],[131.257573,33.127195],[131.257598,33.126987],[131.257573,33.126812],[131.257485,33.126528],[131.25736,33.126212],[131.257235,33.125945],[131.257148,33.125745],[131.257123,33.125695],[131.257085,33.125628],[131.25706,33.125512],[131.257035,33.125287],[131.25706,33.125228],[131.25706,33.125137],[131.257035,33.125045],[131.256973,33.124928],[131.25681,33.124712],[131.256648,33.12447],[131.25656,33.124287],[131.256535,33.12412],[131.25656,33.123978],[131.25666,33.123837],[131.256798,33.123695],[131.256973,33.123437],[131.257073,33.123245],[131.256323,33.122962],[131.255723,33.122678],[131.255223,33.122545],[131.255073,33.122512],[131.254648,33.122378],[131.253886,33.122195],[131.253523,33.122103],[131.253273,33.12202],[131.253173,33.121962],[131.253148,33.121895],[131.253136,33.121803],[131.253123,33.121645],[131.253123,33.121528],[131.253123,33.121362],[131.253136,33.121137],[131.253186,33.120628],[131.253248,33.12017],[131.253261,33.119778],[131.253311,33.119212],[131.253336,33.11827],[131.253348,33.117487],[131.253373,33.117245],[131.253386,33.116995],[131.253398,33.116837],[131.253411,33.11647],[131.253411,33.116437],[131.253411,33.116387],[131.253411,33.116304],[131.253436,33.116154],[131.253461,33.115912],[131.253461,33.115795],[131.253448,33.115337],[131.253461,33.114954],[131.253473,33.114837],[131.253486,33.114704],[131.253486,33.114645],[131.253498,33.114529],[131.253523,33.11432],[131.253548,33.11417],[131.253573,33.113645],[131.253573,33.11332],[131.253598,33.112879],[131.253598,33.112604],[131.253598,33.11252],[131.253611,33.112395],[131.253598,33.112304],[131.253611,33.112196],[131.253711,33.111662],[131.253698,33.111521],[131.253686,33.111446],[131.253661,33.111371],[131.253648,33.111346],[131.253561,33.111229],[131.253473,33.111146],[131.253323,33.110987],[131.253086,33.110796],[131.252961,33.110671],[131.252823,33.110496],[131.252673,33.110304],[131.252611,33.110212],[131.252573,33.110162],[131.252286,33.109896],[131.252111,33.109754],[131.251661,33.109396],[131.251561,33.109296],[131.251398,33.109104],[131.251249,33.108912],[131.251099,33.108779],[131.250961,33.108637],[131.250799,33.108496],[131.250636,33.108321],[131.250111,33.107746],[131.249024,33.106962],[131.248536,33.106687],[131.248286,33.106554],[131.248099,33.106487],[131.248061,33.106479],[131.247499,33.106287],[131.247361,33.106271],[131.247036,33.106287],[131.246824,33.106021],[131.246774,33.105571],[131.246774,33.105054],[131.246662,33.104471],[131.246449,33.103837],[131.246074,33.103254],[131.245762,33.102962],[131.245037,33.102512],[131.244149,33.102262],[131.243912,33.102054],[131.243612,33.101654],[131.243424,33.101046],[131.243324,33.100438],[131.243162,33.099896],[131.242812,33.099113],[131.242737,33.098796],[131.242574,33.098454],[131.242412,33.097938],[131.242312,33.097421],[131.242099,33.096796],[131.241862,33.096454],[131.24135,33.096071],[131.241,33.095963],[131.240712,33.095804],[131.239775,33.094946],[131.239187,33.094563],[131.238812,33.094205],[131.238512,33.093838],[131.238037,33.093571],[131.237712,33.093438],[131.237687,33.093121],[131.238137,33.092246],[131.238012,33.091771],[131.237663,33.091055],[131.23705,33.089655],[131.236775,33.089496],[131.236275,33.089271],[131.228426,33.08703],[131.228263,33.086921],[131.227751,33.086713],[131.227626,33.086621],[131.227601,33.086438],[131.227389,33.085972],[131.227101,33.085672],[131.226914,33.085538],[131.226614,33.085405],[131.226501,33.08543],[131.226401,33.085538],[131.226204,33.085877],[131.226026,33.086121],[131.225776,33.086505],[131.225376,33.086805],[131.224751,33.087271],[131.224489,33.08743],[131.223601,33.088055],[131.223039,33.088346],[131.222664,33.088413],[131.222176,33.088396],[131.221914,33.088305],[131.221464,33.08823],[131.220202,33.088296],[131.219827,33.08828],[131.219077,33.088388],[131.218539,33.08863],[131.218464,33.08863],[131.218277,33.088546],[131.218002,33.088338],[131.217814,33.088313],[131.217114,33.088455],[131.216314,33.088696],[131.215989,33.088763],[131.215322,33.089014],[131.215115,33.08923],[131.214702,33.089479],[131.214227,33.089638],[131.213715,33.089746],[131.212215,33.090221],[131.211815,33.090288],[131.211065,33.090263],[131.210877,33.090171],[131.21064,33.089746],[131.210599,33.089661],[131.210502,33.089588],[131.210177,33.089471],[131.209403,33.089313],[131.20879,33.089271],[131.208015,33.089329],[131.207265,33.089513],[131.206665,33.089846],[131.206342,33.08998],[131.20584,33.090321],[131.205678,33.090404],[131.205378,33.090429],[131.20514,33.090521],[131.204928,33.090563],[131.204628,33.090471],[131.204528,33.090471],[131.203965,33.090588],[131.203778,33.090563],[131.203478,33.090138],[131.203166,33.089929],[131.203053,33.089796],[131.203028,33.089388],[131.202978,33.089279],[131.202578,33.089163],[131.202278,33.088938],[131.201716,33.088696],[131.201228,33.088621],[131.201078,33.088579],[131.200803,33.088221],[131.200678,33.088104],[131.200303,33.088063],[131.200078,33.087971],[131.200029,33.087813],[131.200266,33.087271],[131.200304,33.087046],[131.200279,33.086913],[131.200116,33.086688],[131.199754,33.086596],[131.199379,33.086413],[131.199095,33.086091],[131.198941,33.085946],[131.198891,33.085788],[131.199091,33.084888],[131.198904,33.084254],[131.198504,33.083696],[131.198382,33.083507],[131.198271,33.083356],[131.198079,33.083246],[131.197942,33.083141],[131.197867,33.082954],[131.197654,33.082613],[131.197397,33.082281],[131.197192,33.081871],[131.196742,33.081379],[131.196605,33.081354],[131.19653,33.081379],[131.196105,33.081221],[131.195992,33.080971],[131.195617,33.080654],[131.195467,33.080338],[131.195255,33.079354],[131.19498,33.079038],[131.194643,33.078788],[131.19453,33.078588],[131.19453,33.078521],[131.194455,33.078388],[131.19418,33.078204],[131.193943,33.078138],[131.193655,33.078113],[131.193468,33.078204],[131.193355,33.078204],[131.192956,33.077796],[131.192556,33.077321],[131.192631,33.077188],[131.192793,33.077079],[131.192718,33.076871],[131.192531,33.076713],[131.192231,33.076604],[131.192106,33.076421],[131.192131,33.076379],[131.191993,33.076154],[131.191919,33.076104],[131.191594,33.076063],[131.191169,33.075613],[131.190981,33.075546],[131.190506,33.075546],[131.190206,33.075387],[131.189994,33.075337],[131.189619,33.075296],[131.189456,33.075154],[131.189569,33.074412],[131.189807,33.073921],[131.189807,33.073787],[131.189732,33.073679],[131.189569,33.073879],[131.189269,33.074012],[131.188869,33.074054],[131.188394,33.074229],[131.188307,33.074279],[131.188119,33.074321],[131.187932,33.074546],[131.187607,33.074812],[131.187369,33.074812],[131.187319,33.074787],[131.187132,33.074654],[131.187107,33.074479],[131.186994,33.074187],[131.186944,33.074112],[131.186732,33.074029],[131.186432,33.074004],[131.186332,33.074021],[131.186195,33.074004],[131.185845,33.073887],[131.185745,33.073979],[131.18542,33.074112],[131.185182,33.074287],[131.184907,33.074579],[131.184607,33.075546],[131.184144,33.076596],[131.183694,33.076979],[131.183482,33.077046],[131.183044,33.076979],[131.182832,33.077087],[131.182707,33.077246],[131.182169,33.077646],[131.181732,33.077896],[131.181357,33.078004],[131.181195,33.078096],[131.180557,33.078562],[131.180232,33.078654],[131.180232,33.078679],[131.179745,33.07872],[131.17897,33.078962],[131.17862,33.079137],[131.17852,33.079162],[131.178195,33.079387],[131.177707,33.080037],[131.177407,33.080395],[131.176607,33.080929],[131.17607,33.081445],[131.175345,33.082428],[131.174945,33.08277],[131.174645,33.082945],[131.174483,33.083212],[131.174432,33.083553],[131.17432,33.084112],[131.17432,33.084362],[131.174207,33.084603],[131.17402,33.084853],[131.173882,33.085387],[131.173807,33.08552],[131.173607,33.086062],[131.173582,33.086603],[131.17352,33.086687],[131.17357,33.086845],[131.173457,33.087087],[131.173195,33.087312],[131.173082,33.087561],[131.173057,33.087961],[131.17297,33.088253],[131.17282,33.088461],[131.17262,33.088861],[131.17262,33.089136],[131.172357,33.089536],[131.172432,33.089986],[131.17257,33.09017],[131.17302,33.090553],[131.173182,33.09082],[131.172857,33.091403],[131.172944,33.091945],[131.173094,33.092436],[131.173469,33.09287],[131.173582,33.093095],[131.173657,33.093628],[131.173632,33.093878],[131.173657,33.094419],[131.173794,33.094686],[131.173944,33.095269],[131.173944,33.095386],[131.174081,33.095703],[131.174381,33.096194],[131.174694,33.096803],[131.174669,33.097386],[131.174481,33.097944],[131.174181,33.098528],[131.173969,33.098778],[131.173569,33.099136],[131.173194,33.099519],[131.172731,33.100194],[131.172706,33.100302],[131.172781,33.100552],[131.172919,33.101402],[131.173019,33.102644],[131.173156,33.10341],[131.173318,33.104552],[131.173279,33.104665],[131.173256,33.104735],[131.172856,33.10536],[131.172319,33.106285],[131.171781,33.106935],[131.171131,33.107293],[131.170194,33.107427],[131.169107,33.107443],[131.168532,33.107826],[131.16717,33.108943],[131.16652,33.110093],[131.166232,33.111218],[131.166332,33.111668],[131.166632,33.112051],[131.167182,33.112276],[131.167432,33.112434],[131.167407,33.112543],[131.167157,33.112743],[131.16702,33.113126],[131.166995,33.113642],[131.16662,33.114226],[131.165632,33.115126],[131.16512,33.115526],[131.164557,33.115909],[131.163858,33.116242],[131.16362,33.116517],[131.163508,33.116825],[131.163483,33.1173],[131.163508,33.117817],[131.16382,33.118717],[131.164032,33.119142],[131.164307,33.119367],[131.165882,33.119692],[131.166994,33.128699],[131.166907,33.128841],[131.166745,33.128974],[131.16662,33.129333],[131.166482,33.130024],[131.166345,33.130433],[131.165507,33.132432],[131.16527,33.133666],[131.164807,33.134182],[131.164383,33.134741],[131.164058,33.13544],[131.163845,33.136157],[131.163433,33.136407],[131.163033,33.13679],[131.162958,33.137082],[131.162958,33.137257],[131.163108,33.137682],[131.163008,33.138115],[131.162058,33.139482],[131.161446,33.14054],[131.160533,33.141007],[131.159646,33.141248],[131.157958,33.141657],[131.157533,33.141898],[131.156909,33.142415],[131.156134,33.14289],[131.155409,33.143556],[131.154496,33.144706],[131.153796,33.14529],[131.152771,33.146048],[131.151759,33.147031],[131.151246,33.147464],[131.150384,33.147681],[131.149559,33.148039],[131.149147,33.148464],[131.148834,33.148939],[131.148372,33.149498],[131.147947,33.149789],[131.147222,33.150081],[131.146384,33.150147],[131.145659,33.150322],[131.145184,33.150706],[131.145072,33.151047],[131.145209,33.151114],[131.145472,33.151131],[131.146997,33.151314],[131.148659,33.151906],[131.148934,33.152172],[131.148872,33.152672],[131.148197,33.153639],[131.147959,33.154239],[131.147984,33.154914],[131.147747,33.155189],[131.147259,33.155455],[131.146534,33.155747],[131.145809,33.15608],[131.145172,33.156172],[131.144659,33.156438],[131.144359,33.15693],[131.144072,33.156997],[131.143347,33.156997],[131.142597,33.157355],[131.141947,33.157622],[131.141384,33.15778],[131.140309,33.158138],[131.139509,33.158497],[131.138859,33.158988],[131.138297,33.159322],[131.137434,33.159613],[131.136634,33.159838],[131.136047,33.16008],[131.135534,33.160146],[131.134522,33.159897],[131.134009,33.159988],[131.133847,33.160163],[131.133759,33.16048],[131.133659,33.161696],[131.133084,33.163671],[131.132547,33.164813],[131.132059,33.165221],[131.131047,33.166029],[131.130697,33.166204],[131.130209,33.166229],[131.128922,33.167013],[131.127722,33.16723],[131.126934,33.167296],[131.126159,33.167255],[131.124985,33.167388],[131.124047,33.167563],[131.123372,33.16763],[131.122628,33.167766],[131.122472,33.167938],[131.12231,33.167988],[131.122097,33.167922],[131.121722,33.167672],[131.121585,33.167655],[131.121297,33.167722],[131.120997,33.16788],[131.12081,33.168055],[131.11991,33.168755],[131.119797,33.168797],[131.119423,33.169114],[131.118673,33.169855],[131.118648,33.170014],[131.118673,33.170189],[131.118535,33.170297],[131.118323,33.171089],[131.118322,33.171855],[131.117947,33.172805],[131.11756,33.173372],[131.117247,33.173572],[131.116922,33.174272],[131.116947,33.174747],[131.11746,33.176305],[131.117347,33.176555],[131.11711,33.176621],[131.11676,33.176846],[131.116647,33.177138],[131.116622,33.177546],[131.116735,33.177821],[131.11716,33.178363],[131.117072,33.178588],[131.116922,33.178746],[131.116222,33.179129],[131.115785,33.180004],[131.115597,33.180213],[131.114635,33.180729],[131.11396,33.181271],[131.113185,33.181788],[131.11251,33.182396],[131.111622,33.183121],[131.111222,33.183279],[131.11036,33.183429],[131.109885,33.183546],[131.109335,33.183737],[131.108347,33.184312],[131.10746,33.184962],[131.10696,33.185446],[131.10646,33.185862],[131.105885,33.186262],[131.105235,33.18662],[131.104622,33.186854],[131.103635,33.18717],[131.10196,33.187528],[131.100435,33.187887],[131.09976,33.187953],[131.099423,33.187878],[131.099035,33.187537],[131.09836,33.186828],[131.09781,33.18637],[131.09726,33.186029],[131.096298,33.18557],[131.095111,33.18517],[131.094823,33.18517],[131.094198,33.185362],[131.093536,33.18562],[131.092798,33.185837],[131.091961,33.186037],[131.088936,33.186978],[131.088211,33.187162],[131.087536,33.187303],[131.086349,33.187337],[131.085736,33.187303],[131.085062,33.187412],[131.083724,33.187803],[131.082899,33.188062],[131.082487,33.188245],[131.082174,33.188445],[131.082012,33.18862],[131.081997,33.188771],[131.081987,33.18892],[131.081994,33.189217],[131.082038,33.189496],[131.082149,33.18962],[131.082324,33.189753],[131.082412,33.19032],[131.082399,33.19062],[131.082237,33.190878],[131.082199,33.191311],[131.082262,33.192244],[131.082437,33.193086],[131.082686,33.193536],[131.083424,33.194586],[131.083636,33.195027],[131.083699,33.195586],[131.083999,33.196611],[131.084024,33.197152],[131.084349,33.19866],[131.084599,33.199102],[131.084661,33.199435],[131.084649,33.199619],[131.084524,33.200094],[131.084036,33.202368],[131.084024,33.202918],[131.084199,33.20391],[131.084998,33.207051],[131.085036,33.207976],[131.085123,33.208551],[131.085898,33.209526],[131.086273,33.210176],[131.086648,33.210659],[131.086973,33.211184],[131.087123,33.211792],[131.087561,33.212942],[131.087648,33.213651],[131.087848,33.214092],[131.088011,33.214634],[131.08856,33.215434],[131.088685,33.215959],[131.088535,33.216434],[131.088248,33.216717],[131.088185,33.21685],[131.088148,33.217192],[131.088248,33.217659],[131.08841,33.218067],[131.088373,33.218384],[131.08816,33.218825],[131.088048,33.219325],[131.088023,33.2198],[131.087948,33.220175],[131.088073,33.220575],[131.088198,33.22075],[131.088348,33.221267],[131.088423,33.221775],[131.088385,33.221917],[131.087835,33.222292],[131.08766,33.222691],[131.087648,33.2232],[131.087885,33.223958],[131.087935,33.224308],[131.087873,33.2244],[131.087598,33.2246],[131.087373,33.224866],[131.08736,33.2255],[131.086835,33.226208],[131.086848,33.226524],[131.087085,33.227016],[131.087373,33.227716],[131.087398,33.228574],[131.087535,33.229924],[131.087598,33.230091],[131.087823,33.231174],[131.087673,33.231566],[131.087173,33.232124],[131.086923,33.232582],[131.086898,33.232966],[131.087048,33.233282],[131.087435,33.234399],[131.087897,33.234799],[131.08821,33.235215],[131.088522,33.235499],[131.088672,33.235565],[131.088997,33.23584],[131.089347,33.236265],[131.089485,33.236382],[131.089872,33.236482],[131.090185,33.236607],[131.090385,33.236899],[131.09046,33.237082],[131.09071,33.237424],[131.090697,33.237707],[131.09051,33.238049],[131.090135,33.238382],[131.08939,33.239167],[131.088835,33.239798],[131.088422,33.240298],[131.088097,33.240807],[131.08781,33.241098],[131.087672,33.241132],[131.087135,33.24114],[131.086522,33.241207],[131.085872,33.241723],[131.08551,33.242065],[131.085197,33.24249],[131.084722,33.24284],[131.08426,33.242998],[131.083847,33.242906],[131.083372,33.242865],[131.083035,33.24304],[131.083035,33.243448],[131.082847,33.243731],[131.082497,33.244031],[131.082447,33.244398],[131.08266,33.244981],[131.082647,33.24544],[131.082485,33.245823],[131.082297,33.246098],[131.082197,33.246131],[131.08191,33.246081],[131.081635,33.245881],[131.08141,33.245666],[131.08091,33.245315],[131.080323,33.245306],[131.080035,33.245589],[131.079898,33.246048],[131.079585,33.246264],[131.07941,33.246298],[131.078873,33.246298],[131.078323,33.246106],[131.077923,33.245923],[131.077635,33.245956],[131.077323,33.246206],[131.077335,33.246698],[131.077398,33.246948],[131.077373,33.247006],[131.077285,33.247023],[131.076373,33.247081],[131.075723,33.247181],[131.075098,33.247231],[131.074473,33.247339],[131.074148,33.247564],[131.073923,33.247764],[131.073761,33.248006],[131.073661,33.248431],[131.073573,33.248672],[131.073061,33.248847],[131.072636,33.249172],[131.072498,33.249347],[131.071798,33.249814],[131.071686,33.249947],[131.071336,33.250539],[131.071261,33.251047],[131.071361,33.251697],[131.071377,33.252024],[131.071411,33.252381],[131.071448,33.252747],[131.07139,33.253011],[131.071173,33.253605],[131.070573,33.254597],[131.070523,33.25498],[131.070498,33.256089],[131.070523,33.256589],[131.070473,33.25708],[131.06996,33.257647],[131.069723,33.258122],[131.069373,33.258463],[131.069185,33.258913],[131.068648,33.261055],[131.068585,33.261505],[131.068698,33.262021],[131.069335,33.263713],[131.069423,33.264171],[131.069235,33.264305],[131.06896,33.264413],[131.068373,33.264846],[131.067973,33.265071],[131.06706,33.265005],[131.06566,33.265138],[131.064698,33.265071],[131.064398,33.264896],[131.063036,33.264921],[131.062336,33.264963],[131.059524,33.265329],[131.058899,33.265238],[131.058586,33.265038],[131.058361,33.264496],[131.058374,33.263863],[131.058424,33.263496],[131.058286,33.263071],[131.058336,33.261805],[131.058311,33.261405],[131.058161,33.260705],[131.057886,33.260188],[131.057537,33.25998],[131.057087,33.259846],[131.056224,33.26003],[131.055499,33.260255],[131.054937,33.260504],[131.054399,33.260954],[131.053187,33.261613],[131.052499,33.261904],[131.0519,33.262038],[131.051425,33.262063],[131.050987,33.261704],[131.050325,33.260096],[131.04995,33.259538],[131.04955,33.259196],[131.048687,33.259179],[131.0467,33.259288],[131.045013,33.259454],[131.043888,33.259363],[131.043213,33.259229],[131.042438,33.259138],[131.04174,33.259052],[131.041392,33.259303],[131.041176,33.259837],[131.041288,33.261646],[131.041226,33.263021],[131.041151,33.26367],[131.040876,33.26412],[131.039888,33.26507],[131.039288,33.265454],[131.038763,33.265995],[131.038138,33.266995],[131.037713,33.267303],[131.037313,33.267312],[131.036526,33.267537],[131.035776,33.267962],[131.034089,33.268712],[131.033714,33.268978],[131.033501,33.26927],[131.033501,33.269412],[131.033689,33.269745],[131.033839,33.270353],[131.034026,33.27067],[131.034676,33.270986],[131.035351,33.271145],[131.035988,33.271186],[131.037413,33.271661],[131.038263,33.272003],[131.039176,33.272153],[131.03985,33.272087],[131.040688,33.271837],[131.042588,33.272112],[131.0427,33.272153],[131.042825,33.273461],[131.0431,33.273886],[131.043314,33.274276],[131.043338,33.274745],[131.043225,33.275511],[131.043438,33.27617],[131.043875,33.276686],[131.044112,33.277136],[131.044062,33.277611],[131.0435,33.277636],[131.04275,33.27757],[131.042213,33.277453],[131.041613,33.277453],[131.04095,33.277278],[131.04037,33.277192],[131.039875,33.277119],[131.039125,33.277211],[131.038913,33.277278],[131.038998,33.277512],[131.039079,33.277788],[131.03915,33.278086],[131.039338,33.278811],[131.039438,33.279511],[131.040088,33.280619],[131.040088,33.280927],[131.039925,33.281519],[131.040113,33.282261],[131.0399,33.282802],[131.039863,33.283319],[131.040188,33.283752],[131.04065,33.284202],[131.040837,33.284785],[131.040887,33.285535],[131.04075,33.28596],[131.040375,33.286619],[131.040212,33.287094],[131.04035,33.287427],[131.040987,33.287743],[131.0412,33.28831],[131.04115,33.289118],[131.04107,33.289995],[131.041075,33.290718],[131.041175,33.291443],[131.041337,33.291785],[131.041387,33.29201],[131.041637,33.292368],[131.04181,33.292628],[131.042087,33.292935],[131.042574,33.293468],[131.043187,33.293835],[131.043637,33.294193],[131.044262,33.294459],[131.044637,33.294484],[131.045149,33.294601],[131.045737,33.294576],[131.046999,33.295068],[131.047611,33.295768],[131.048174,33.296284],[131.048849,33.296534],[131.049361,33.296576],[131.049699,33.296759],[131.049974,33.297776],[131.050186,33.298134],[131.050111,33.298584],[131.049886,33.299034],[131.049574,33.299534],[131.049486,33.300051],[131.049536,33.30055],[131.049674,33.301],[131.050349,33.301809],[131.050636,33.302059],[131.051099,33.302192],[131.051799,33.302084],[131.052811,33.301542],[131.053323,33.301425],[131.053586,33.30145],[131.053786,33.301584],[131.053911,33.302242],[131.054211,33.302509],[131.054611,33.302775],[131.055098,33.304517],[131.055148,33.304625],[131.055473,33.305575],[131.055548,33.306092],[131.055873,33.306525],[131.057023,33.306858],[131.057673,33.306858],[131.057673,33.307016],[131.057486,33.30715],[131.057211,33.307266],[131.056886,33.307766],[131.056698,33.308325],[131.056298,33.308891],[131.055598,33.311599],[131.055573,33.313424],[131.055648,33.313874],[131.055698,33.313966],[131.055912,33.314165],[131.056476,33.314521],[131.056886,33.31489],[131.057985,33.315815],[131.060373,33.316874],[131.061198,33.317374],[131.061773,33.317823],[131.062298,33.31834],[131.063647,33.319823],[131.06491,33.321357],[131.064985,33.32179],[131.065003,33.322193],[131.065046,33.322579],[131.065117,33.322788],[131.065247,33.323073],[131.06581,33.325281],[131.065972,33.325598],[131.066247,33.325939],[131.066572,33.325964],[131.067135,33.325873],[131.067485,33.325581],[131.068309,33.324723],[131.069122,33.323948],[131.069547,33.323773],[131.069809,33.323615],[131.070197,33.323615],[131.070534,33.323656],[131.070947,33.323631],[131.071447,33.323681],[131.071984,33.323565],[131.072715,33.323566],[131.073197,33.323606],[131.073597,33.323606],[131.074109,33.323656],[131.074184,33.32379],[131.074297,33.324173],[131.074297,33.32469],[131.073997,33.325256],[131.074084,33.326048],[131.074297,33.326406],[131.074159,33.327131],[131.073647,33.327081],[131.072709,33.327156],[131.072009,33.327606],[131.071134,33.327989],[131.070109,33.328372],[131.069522,33.328439],[131.068734,33.328264],[131.068547,33.328331],[131.068609,33.328872],[131.068572,33.329431],[131.068634,33.330156],[131.068984,33.330964],[131.069197,33.33158],[131.069597,33.332255],[131.069972,33.332655],[131.070159,33.333089],[131.070422,33.333513],[131.070459,33.333672],[131.070134,33.333963],[131.069734,33.334213],[131.069613,33.334582],[131.069672,33.334872],[131.070072,33.33523],[131.070984,33.335888],[131.071472,33.33613],[131.071609,33.336313],[131.071459,33.336663],[131.071109,33.336946],[131.070734,33.337171],[131.070222,33.33718],[131.069634,33.337088],[131.069122,33.337271],[131.068497,33.337363],[131.067909,33.337255],[131.067259,33.336913],[131.066984,33.336655],[131.066884,33.336538],[131.066534,33.336388],[131.065622,33.336296],[131.064947,33.336271],[131.064547,33.33618],[131.064272,33.336071],[131.063872,33.33573],[131.063397,33.335438],[131.062235,33.334922],[131.061972,33.334963],[131.061647,33.33508],[131.060735,33.335213],[131.059897,33.335713],[131.059522,33.335821],[131.059172,33.335846],[131.058772,33.335938],[131.058347,33.336121],[131.057997,33.33623],[131.057697,33.33623],[131.05751,33.336163],[131.057435,33.335913],[131.057185,33.335763],[131.056547,33.335713],[131.056335,33.335671],[131.055935,33.335513],[131.055847,33.335513],[131.055797,33.33608],[131.056247,33.336505],[131.05656,33.336663],[131.056997,33.337221],[131.057647,33.337921],[131.058047,33.338296],[131.058272,33.338746],[131.058572,33.339988],[131.058997,33.342604],[131.059222,33.344379],[131.05926,33.345754],[131.059234,33.34632],[131.059322,33.348003],[131.059834,33.348187],[131.060834,33.348703],[131.060972,33.348878],[131.060809,33.34917],[131.060597,33.349762],[131.060609,33.350503],[131.060659,33.350703],[131.061072,33.351603],[131.061697,33.352795],[131.062209,33.353161],[131.062642,33.353415],[131.062834,33.353828],[131.063059,33.354711],[131.063146,33.355253],[131.063746,33.356219],[131.063746,33.356461],[131.063859,33.357119],[131.063884,33.357612],[131.063721,33.358219],[131.063509,33.358877],[131.063271,33.359286],[131.062446,33.359669],[131.061796,33.359561],[131.061171,33.359811],[131.060022,33.360394],[131.058722,33.360719],[131.056847,33.360969],[131.056721,33.361137],[131.056689,33.361453],[131.056759,33.361669],[131.056872,33.36176],[131.056959,33.362094],[131.056909,33.36221],[131.056822,33.36266],[131.057122,33.36331],[131.057209,33.363877],[131.057397,33.36421],[131.057759,33.365043],[131.057972,33.365452],[131.058321,33.365718],[131.058759,33.36671],[131.059196,33.367135],[131.059359,33.367252],[131.059496,33.367652],[131.059609,33.368285],[131.059671,33.368893],[131.060021,33.370243],[131.060271,33.370268],[131.060371,33.37031],[131.060398,33.370395],[131.060409,33.370468],[131.060514,33.371378],[131.060571,33.371976],[131.060471,33.37211],[131.060309,33.372476],[131.060421,33.372676],[131.060934,33.372943],[131.061171,33.373284],[131.061308,33.373826],[131.061883,33.374543],[131.062296,33.375243],[131.062883,33.375601],[131.063046,33.375751],[131.064083,33.377193],[131.064546,33.378117],[131.065508,33.380551],[131.06597,33.381492],[131.066383,33.382192],[131.06687,33.382842],[131.067333,33.383292],[131.068195,33.3836],[131.070245,33.38405],[131.070545,33.383234],[131.070945,33.382892],[131.071395,33.382759],[131.07192,33.3833],[131.072457,33.383225],[131.07307,33.383342],[131.073695,33.383334],[131.07397,33.383425],[131.07402,33.383559],[131.074346,33.383695],[131.07472,33.383742],[131.075932,33.383175],[131.076232,33.383167],[131.077232,33.383684],[131.077469,33.383734],[131.079194,33.383659],[131.080169,33.383792],[131.080169,33.384467],[131.080394,33.384959],[131.080719,33.3855],[131.080881,33.385525],[131.081369,33.385275],[131.081819,33.384934],[131.082031,33.384842],[131.082631,33.385017],[131.083656,33.385492],[131.084631,33.385867],[131.084981,33.386075],[131.086868,33.386717],[131.087306,33.387192],[131.088393,33.387775],[131.089068,33.388017],[131.090605,33.388334],[131.091443,33.388284],[131.09238,33.388434],[131.094618,33.38845],[131.095618,33.388359],[131.097317,33.388442],[131.098205,33.388534],[131.09883,33.388484],[131.100005,33.387625],[131.10093,33.387192],[131.10143,33.386784],[131.102555,33.385409],[131.102955,33.385226],[131.10328,33.384976],[131.103767,33.383959],[131.104005,33.383284],[131.104267,33.382876],[131.105017,33.382876],[131.105292,33.382826],[131.106067,33.382534],[131.106555,33.382176],[131.106905,33.381584],[131.107242,33.380751],[131.107617,33.380251],[131.108155,33.379935],[131.110392,33.378801],[131.112917,33.377377],[131.113104,33.377285],[131.114154,33.37701],[131.114879,33.376735],[131.115492,33.376152],[131.115892,33.375835],[131.116104,33.375785],[131.116866,33.375719],[131.117916,33.375869],[131.118379,33.375827],[131.118566,33.375552],[131.118504,33.375127],[131.117391,33.37441],[131.116804,33.374119],[131.115454,33.373719],[131.115117,33.373402],[131.115067,33.37281],[131.115361,33.372368],[131.115792,33.372094],[131.116054,33.371936],[131.116917,33.371144],[131.118741,33.370503],[131.119716,33.370728],[131.119929,33.370703],[131.121629,33.370086],[131.122829,33.369678],[131.123578,33.369461],[131.124703,33.368961],[131.125328,33.368853],[131.126103,33.36877],[131.126503,33.36877],[131.126878,33.368653],[131.127316,33.36857],[131.128978,33.368103],[131.129328,33.367895],[131.130003,33.366612],[131.130353,33.365787],[131.130578,33.365579],[131.13074,33.365512],[131.131065,33.365112],[131.131465,33.364795],[131.13179,33.36477],[131.131978,33.364845],[131.132028,33.365087],[131.131915,33.365879],[131.131965,33.36617],[131.132315,33.366487],[131.13234,33.366762],[131.132153,33.367028],[131.13194,33.367187],[131.131715,33.367503],[131.131015,33.369661],[131.130903,33.369795],[131.129928,33.370511],[131.129178,33.371011],[131.12869,33.371478],[131.12859,33.371661],[131.128478,33.371994],[131.12864,33.372294],[131.129928,33.372903],[131.13064,33.373561],[131.131528,33.374144],[131.131765,33.374377],[131.13249,33.374894],[131.132652,33.374944],[131.132965,33.375144],[131.133027,33.375502],[131.13329,33.375961],[131.133452,33.376161],[131.134065,33.377361],[131.13459,33.377852],[131.135177,33.378285],[131.135577,33.37876],[131.135665,33.378985],[131.13574,33.379594],[131.13574,33.380269],[131.135927,33.380677],[131.136052,33.38056],[131.136702,33.379735],[131.136839,33.379619],[131.137189,33.37951],[131.137864,33.379802],[131.138639,33.380235],[131.139277,33.380502],[131.139389,33.38051],[131.139364,33.380077],[131.139414,33.379427],[131.139877,33.378594],[131.139989,33.377961],[131.140314,33.377802],[131.141039,33.377586],[131.141464,33.377536],[131.141677,33.377677],[131.141914,33.378169],[131.141952,33.378327],[131.142164,33.378686],[131.142502,33.378802],[131.146101,33.378661],[131.146239,33.378452],[131.146264,33.378119],[131.146026,33.377711],[131.146001,33.377461],[131.146114,33.377302],[131.146676,33.375753],[131.146714,33.375303],[131.146951,33.374894],[131.147226,33.374536],[131.147651,33.37382],[131.147876,33.373161],[131.148114,33.372895],[131.148676,33.372695],[131.149301,33.372287],[131.149864,33.371837],[131.150264,33.371637],[131.151051,33.37162],[131.151263,33.371437],[131.151313,33.371278],[131.151376,33.37072],[131.151963,33.369529],[131.152238,33.368712],[131.152913,33.367454],[131.152976,33.366871],[131.153226,33.365904],[131.153576,33.365471],[131.154651,33.364896],[131.154788,33.364713],[131.155263,33.364238],[131.156238,33.363746],[131.156963,33.363571],[131.157413,33.363346],[131.157926,33.363238],[131.158363,33.363305],[131.158738,33.363438],[131.159138,33.363663],[131.159325,33.363738],[131.159888,33.363763],[131.160263,33.36383],[131.16085,33.364371],[131.160975,33.364621],[131.161438,33.365188],[131.161813,33.365729],[131.162313,33.366021],[131.163038,33.366338],[131.1635,33.366654],[131.16355,33.366771],[131.164212,33.368529],[131.164525,33.369179],[131.165087,33.369887],[131.16555,33.369954],[131.166591,33.369919],[131.1678,33.369962],[131.168037,33.369829],[131.168237,33.369529],[131.168712,33.369062],[131.169762,33.368429],[131.169899,33.368296],[131.169962,33.367846],[131.169899,33.367371],[131.170099,33.366971],[131.171224,33.366163],[131.172112,33.365738],[131.173349,33.365763],[131.173862,33.365605],[131.173887,33.365288],[131.173299,33.365113],[131.172787,33.36488],[131.172687,33.364563],[131.172874,33.364255],[131.173387,33.363822],[131.174137,33.36338],[131.174749,33.362905],[131.174862,33.362705],[131.175049,33.36198],[131.175274,33.361355],[131.175324,33.360297],[131.176136,33.35933],[131.176386,33.358789],[131.176362,33.358447],[131.176224,33.358264],[131.175637,33.357706],[131.175612,33.357547],[131.175687,33.357272],[131.175937,33.357189],[131.176199,33.357189],[131.176637,33.357281],[131.176974,33.357256],[131.177411,33.356872],[131.178374,33.356514],[131.178511,33.355998],[131.178811,33.355231],[131.178736,33.354531],[131.178824,33.354039],[131.178949,33.353948],[131.179486,33.354131],[131.180186,33.354431],[131.180824,33.354448],[131.181449,33.354523],[131.181686,33.354773],[131.181711,33.355131],[131.181761,33.355248],[131.182011,33.355423],[131.182461,33.355514],[131.182836,33.355723],[131.183286,33.356056],[131.184286,33.356239],[131.184812,33.356216],[131.185523,33.355998],[131.186436,33.355414],[131.186948,33.355373],[131.187661,33.355556],[131.188311,33.355914],[131.188873,33.356189],[131.18946,33.356348],[131.189573,33.356348],[131.189785,33.356173],[131.189923,33.355206],[131.190023,33.355131],[131.190435,33.355065],[131.191048,33.355073],[131.191185,33.355023],[131.191585,33.354598],[131.191985,33.354373],[131.192498,33.354265],[131.192585,33.354223],[131.192698,33.353615],[131.192585,33.352915],[131.192373,33.352148],[131.19256,33.351607],[131.192973,33.35104],[131.193023,33.350682],[131.192923,33.350432],[131.19311,33.350365],[131.19381,33.350373],[131.194635,33.350482],[131.194873,33.35044],[131.19501,33.350082],[131.195523,33.34974],[131.195985,33.349565],[131.196223,33.349115],[131.196573,33.348665],[131.196923,33.348532],[131.197485,33.348582],[131.198048,33.348449],[131.198398,33.34849],[131.19891,33.34879],[131.19936,33.349215],[131.199797,33.349849],[131.199872,33.350415],[131.20006,33.350682],[131.201072,33.350932],[131.201685,33.35114],[131.201772,33.35114],[131.202122,33.351298],[131.20236,33.351723],[131.202247,33.352023],[131.202272,33.352248],[131.202785,33.352498],[131.203085,33.35254],[131.203647,33.352473],[131.203722,33.35254],[131.203835,33.35299],[131.203885,33.353582],[131.203985,33.353715],[131.204285,33.353873],[131.204659,33.35374],[131.204734,33.35374],[131.204872,33.353873],[131.205184,33.35514],[131.205484,33.355615],[131.205509,33.355998],[131.205484,33.356381],[131.205397,33.35649],[131.205372,33.356715],[131.205984,33.357781],[131.205959,33.357848],[131.205634,33.357981],[131.205497,33.358139],[131.205497,33.358314],[131.205609,33.358723],[131.205784,33.358906],[131.206088,33.359237],[131.206672,33.359564],[131.207347,33.359764],[131.207422,33.359764],[131.207909,33.359564],[131.209059,33.359498],[131.209359,33.359364],[131.209896,33.359006],[131.210509,33.358781],[131.210571,33.358831],[131.210696,33.359256],[131.210559,33.359981],[131.210259,33.360764],[131.210321,33.361081],[131.210721,33.361398],[131.211121,33.361381],[131.211359,33.361198],[131.211471,33.360481],[131.211746,33.359914],[131.211871,33.359806],[131.212359,33.359673],[131.212984,33.359689],[131.213271,33.359873],[131.213834,33.360981],[131.214259,33.361364],[131.214871,33.361614],[131.215359,33.361681],[131.215709,33.361506]]],"type":"Polygon"},"properties":{"yomi":"くす","name":"玖珠","pref":"大分県","kuni_id":"K66","id_url":"G66005.html","kuni_url":"/kg/resource/K66.html","kuni":"豊後","id":"G66005"}}],"type":"FeatureCollection"}