{"features":[{"type":"Feature","geometry":{"type":"Polygon","coordinates":[[[131.701544,33.267791],[131.703082,33.26489],[131.704155,33.260778],[131.705408,33.255952],[131.70505,33.250589],[131.701651,33.243082],[131.699325,33.237719],[131.699146,33.233787],[131.700515,33.225774],[131.702046,33.216599],[131.699495,33.207169],[131.692608,33.201052],[131.692778,33.189333],[131.692596,33.17975],[131.690654,33.173685],[131.69924,33.1669],[131.705491,33.161879],[131.709698,33.156196],[131.71288,33.153621],[131.716707,33.153122],[131.718783,33.153403],[131.71932,33.153186],[131.719652,33.152976],[131.71997,33.152603],[131.720359,33.152324],[131.720995,33.151953],[131.721533,33.152003],[131.72172,33.152078],[131.722282,33.151986],[131.722857,33.151536],[131.723232,33.15092],[131.723845,33.15032],[131.723845,33.150136],[131.723745,33.149803],[131.724345,33.148662],[131.724232,33.148012],[131.72372,33.147187],[131.723045,33.146187],[131.722445,33.145229],[131.721983,33.14432],[131.72172,33.143429],[131.721495,33.142962],[131.721178,33.141931],[131.720995,33.140321],[131.720433,33.139496],[131.720508,33.138937],[131.720683,33.138371],[131.720508,33.137854],[131.719895,33.137438],[131.718883,33.137238],[131.71842,33.137071],[131.717945,33.136346],[131.717783,33.136154],[131.71732,33.135988],[131.716246,33.135854],[131.716121,33.135679],[131.715896,33.134638],[131.716021,33.133871],[131.716283,33.132963],[131.716671,33.13213],[131.716995,33.131888],[131.717795,33.131755],[131.718258,33.131522],[131.718633,33.131022],[131.71937,33.13058],[131.719783,33.130022],[131.71972,33.129155],[131.719795,33.128514],[131.71992,33.128264],[131.719695,33.127997],[131.718095,33.12713],[131.717608,33.126314],[131.717321,33.125497],[131.716921,33.124597],[131.716721,33.124264],[131.716258,33.123306],[131.716108,33.122656],[131.716018,33.121534],[131.715596,33.120689],[131.715183,33.120239],[131.714758,33.119456],[131.714183,33.11879],[131.713671,33.118015],[131.713571,33.117415],[131.713483,33.117165],[131.712484,33.11554],[131.712146,33.115065],[131.712034,33.114782],[131.711871,33.113948],[131.712009,33.112899],[131.712334,33.112824],[131.712546,33.112924],[131.713671,33.11329],[131.714408,33.113174],[131.715046,33.112749],[131.715408,33.112107],[131.715296,33.110999],[131.715171,33.110916],[131.714246,33.110815],[131.713971,33.110732],[131.713071,33.110291],[131.712221,33.109791],[131.712184,33.109616],[131.711696,33.109074],[131.711484,33.108599],[131.710984,33.108532],[131.710634,33.108299],[131.710209,33.107607],[131.710109,33.107091],[131.710246,33.106399],[131.710646,33.105666],[131.711559,33.104791],[131.712209,33.104316],[131.712496,33.103891],[131.713596,33.103091],[131.713721,33.102866],[131.713859,33.102283],[131.713759,33.101967],[131.712971,33.101267],[131.712271,33.1008],[131.711859,33.100425],[131.711247,33.099758],[131.709647,33.09835],[131.708984,33.097917],[131.708222,33.097217],[131.707809,33.097059],[131.707572,33.096809],[131.707522,33.096367],[131.707322,33.09585],[131.706222,33.094925],[131.70581,33.094592],[131.705597,33.094175],[131.705185,33.09385],[131.704922,33.093384],[131.70486,33.092959],[131.704758,33.092737],[131.704606,33.092551],[131.704235,33.092384],[131.70411,33.092259],[131.704022,33.091667],[131.704235,33.091117],[131.704485,33.089859],[131.704735,33.089301],[131.704647,33.088968],[131.704297,33.088426],[131.704247,33.088276],[131.704385,33.087959],[131.704472,33.087543],[131.704272,33.086893],[131.704372,33.086701],[131.704397,33.086635],[131.704489,33.086476],[131.70436,33.08626],[131.70426,33.086051],[131.70436,33.085876],[131.70438,33.085646],[131.70431,33.085335],[131.70436,33.08491],[131.704385,33.084776],[131.704735,33.084343],[131.70506,33.083876],[131.705197,33.083426],[131.70551,33.082977],[131.705722,33.082752],[131.706097,33.082093],[131.706285,33.081402],[131.70621,33.079327],[131.706447,33.078744],[131.706472,33.078227],[131.706145,33.077875],[131.705635,33.077602],[131.704908,33.077274],[131.704487,33.07705],[131.704083,33.07687],[131.703497,33.076744],[131.702773,33.076569],[131.702235,33.076502],[131.701273,33.076727],[131.700335,33.077019],[131.69981,33.077577],[131.699435,33.077693],[131.699223,33.077668],[131.698573,33.077735],[131.69791,33.077735],[131.69766,33.077443],[131.697623,33.076825],[131.697377,33.076555],[131.696935,33.076477],[131.696616,33.076369],[131.696273,33.076252],[131.695123,33.07601],[131.693786,33.076102],[131.693086,33.076352],[131.692573,33.076618],[131.692211,33.077093],[131.691273,33.078126],[131.690386,33.079476],[131.689748,33.080285],[131.688948,33.080984],[131.687261,33.082243],[131.686699,33.082743],[131.686349,33.082809],[131.684824,33.082693],[131.684211,33.082293],[131.683699,33.082001],[131.683511,33.081868],[131.683461,33.081868],[131.683349,33.082068],[131.683061,33.082492],[131.682874,33.082651],[131.682361,33.083217],[131.681937,33.083642],[131.681824,33.083842],[131.681749,33.083842],[131.681424,33.083734],[131.681237,33.083709],[131.680887,33.083959],[131.680249,33.084567],[131.678674,33.085734],[131.678462,33.08585],[131.678749,33.086384],[131.678862,33.0867],[131.678987,33.087034],[131.678912,33.0872],[131.678637,33.087209],[131.678424,33.087192],[131.677737,33.08725],[131.676849,33.087617],[131.676187,33.088025],[131.675612,33.088167],[131.6747,33.087483],[131.673687,33.087008],[131.672787,33.086833],[131.672075,33.086883],[131.6714,33.087017],[131.6705,33.087058],[131.670029,33.087243],[131.669613,33.087775],[131.669563,33.087808],[131.668525,33.087467],[131.668388,33.087483],[131.66785,33.088125],[131.667263,33.088516],[131.666938,33.08855],[131.666463,33.088375],[131.665988,33.088366],[131.665825,33.088466],[131.6655,33.088858],[131.663801,33.090108],[131.663526,33.090341],[131.662976,33.090624],[131.662163,33.090174],[131.661826,33.090024],[131.661676,33.089899],[131.661401,33.089316],[131.661151,33.088633],[131.660988,33.088458],[131.659801,33.088116],[131.659401,33.087925],[131.658601,33.087849],[131.658014,33.087358],[131.657464,33.087191],[131.657006,33.086791],[131.656726,33.086741],[131.656126,33.086816],[131.655951,33.086783],[131.655876,33.086699],[131.65589,33.086585],[131.655864,33.086241],[131.655647,33.085904],[131.655326,33.085616],[131.655079,33.085463],[131.654843,33.085209],[131.654564,33.084871],[131.654239,33.084583],[131.654201,33.084383],[131.654239,33.083708],[131.654013,33.083362],[131.653589,33.0829],[131.652627,33.083075],[131.65194,33.083267],[131.651374,33.083325],[131.650889,33.083325],[131.650543,33.083368],[131.650227,33.08338],[131.649977,33.083374],[131.649339,33.083391],[131.648452,33.083241],[131.647677,33.083016],[131.646952,33.082541],[131.646064,33.082091],[131.64529,33.081999],[131.644602,33.082074],[131.643765,33.082233],[131.643152,33.082608],[131.642565,33.083916],[131.642377,33.084474],[131.642302,33.085174],[131.64154,33.086699],[131.641015,33.087124],[131.640577,33.087107],[131.64024,33.08714],[131.63984,33.087299],[131.63944,33.087357],[131.63894,33.08769],[131.638415,33.08824],[131.637902,33.088607],[131.636878,33.08884],[131.636178,33.089032],[131.635878,33.088782],[131.635628,33.08834],[131.635478,33.088157],[131.635228,33.088132],[131.634528,33.088765],[131.634228,33.08899],[131.633953,33.089148],[131.633465,33.089223],[131.633103,33.08944],[131.63274,33.089415],[131.63214,33.089157],[131.631528,33.088973],[131.631303,33.089007],[131.631153,33.089365],[131.63064,33.089965],[131.630253,33.090031],[131.629866,33.089948],[131.629301,33.09013],[131.628903,33.090131],[131.628753,33.090073],[131.628166,33.09009],[131.627878,33.090415],[131.627891,33.090748],[131.628141,33.090848],[131.628418,33.090996],[131.628541,33.091156],[131.628266,33.09129],[131.628116,33.091306],[131.627391,33.09114],[131.626766,33.090948],[131.626453,33.091031],[131.626053,33.091698],[131.625303,33.092531],[131.624978,33.092614],[131.624391,33.092623],[131.624116,33.092664],[131.623591,33.092948],[131.623316,33.093331],[131.622966,33.093464],[131.62259,33.09341],[131.622439,33.093447],[131.622291,33.093506],[131.621566,33.093573],[131.621216,33.093664],[131.620629,33.093939],[131.620166,33.094256],[131.619741,33.094614],[131.619529,33.094747],[131.618991,33.094614],[131.618616,33.094664],[131.617991,33.094822],[131.617754,33.094914],[131.616841,33.095414],[131.616242,33.095639],[131.615417,33.09603],[131.615117,33.096347],[131.614742,33.096664],[131.614392,33.097222],[131.614179,33.097447],[131.613681,33.097729],[131.613004,33.098064],[131.611554,33.098522],[131.610604,33.09893],[131.609904,33.099313],[131.609405,33.099697],[131.608592,33.10038],[131.607955,33.100713],[131.607492,33.101013],[131.607155,33.10158],[131.606894,33.101797],[131.606617,33.102005],[131.606129,33.102175],[131.60578,33.102305],[131.604992,33.102463],[131.604705,33.102371],[131.604192,33.102305],[131.60368,33.102196],[131.603105,33.10213],[131.60233,33.102404],[131.60168,33.102588],[131.600793,33.103088],[131.600155,33.103179],[131.599718,33.103313],[131.599455,33.103338],[131.599043,33.103271],[131.598343,33.103004],[131.598043,33.102729],[131.597768,33.102329],[131.597418,33.102129],[131.597393,33.102146],[131.597256,33.102129],[131.596881,33.102129],[131.596481,33.102021],[131.596131,33.101996],[131.595181,33.102313],[131.594081,33.102254],[131.593681,33.102121],[131.593456,33.101979],[131.593268,33.101529],[131.593181,33.100921],[131.592618,33.100454],[131.592094,33.099963],[131.591994,33.099805],[131.591506,33.099396],[131.590506,33.098746],[131.590044,33.098705],[131.589531,33.098413],[131.589069,33.098305],[131.588631,33.097788],[131.588256,33.097655],[131.587769,33.097588],[131.587419,33.097813],[131.586694,33.098063],[131.585244,33.098405],[131.584544,33.098921],[131.584444,33.099038],[131.583957,33.099263],[131.583607,33.099738],[131.583482,33.100488],[131.583233,33.100944],[131.582269,33.101254],[131.581682,33.101213],[131.581382,33.100804],[131.581132,33.100579],[131.58062,33.100404],[131.580057,33.100538],[131.579845,33.100679],[131.579332,33.100854],[131.578732,33.100838],[131.578282,33.100638],[131.577657,33.100413],[131.57747,33.100479],[131.57707,33.101179],[131.57682,33.101337],[131.576507,33.101787],[131.576132,33.102021],[131.57527,33.101979],[131.574746,33.102185],[131.574495,33.102696],[131.57417,33.102971],[131.573845,33.10302],[131.573845,33.103537],[131.573745,33.104012],[131.573283,33.104329],[131.572704,33.104667],[131.572533,33.104979],[131.57227,33.105254],[131.571483,33.105479],[131.570795,33.106003],[131.570633,33.106637],[131.569483,33.107895],[131.568708,33.108461],[131.568358,33.10892],[131.568308,33.109095],[131.568408,33.109453],[131.568258,33.109953],[131.56844,33.110285],[131.568333,33.110536],[131.56777,33.110453],[131.567345,33.110678],[131.566433,33.111336],[131.565321,33.111428],[131.564971,33.111586],[131.564571,33.111703],[131.564171,33.111569],[131.563896,33.111278],[131.563783,33.111053],[131.563596,33.111028],[131.563008,33.111186],[131.562633,33.111411],[131.562196,33.111594],[131.562146,33.111594],[131.561596,33.111011],[131.561409,33.110944],[131.560959,33.111128],[131.560446,33.110969],[131.560096,33.110769],[131.559734,33.110503],[131.559309,33.110503],[131.559221,33.110528],[131.559309,33.111153],[131.558859,33.111627],[131.558234,33.112011],[131.557834,33.112627],[131.557384,33.113169],[131.556871,33.113577],[131.556821,33.113885],[131.556909,33.115102],[131.556696,33.115627],[131.556371,33.116052],[131.556059,33.116168],[131.555434,33.116577],[131.554734,33.116893],[131.554384,33.117302],[131.554472,33.117618],[131.555846,33.118402],[131.556584,33.118735],[131.556634,33.118935],[131.555859,33.119618],[131.555721,33.11986],[131.555384,33.120318],[131.554971,33.120451],[131.554734,33.120293],[131.554272,33.120118],[131.553547,33.119935],[131.553222,33.119718],[131.553184,33.119193],[131.553322,33.11861],[131.553259,33.118001],[131.552959,33.117593],[131.552347,33.11746],[131.551697,33.11751],[131.551447,33.117576],[131.550972,33.117893],[131.550759,33.117943],[131.549835,33.117651],[131.549272,33.117585],[131.548697,33.117426],[131.547572,33.11746],[131.547272,33.117393],[131.54671,33.117118],[131.546197,33.117101],[131.545648,33.116943],[131.544898,33.117035],[131.544573,33.11711],[131.54396,33.116993],[131.543523,33.116993],[131.542773,33.116885],[131.54226,33.116685],[131.54206,33.116193],[131.541823,33.115835],[131.541735,33.115651],[131.54171,33.115135],[131.541548,33.114593],[131.541161,33.114276],[131.540648,33.114143],[131.540061,33.114101],[131.538885,33.115618],[131.533519,33.11591],[131.529065,33.116444],[131.52568,33.11769],[131.523186,33.12036],[131.521583,33.121963],[131.518554,33.121606],[131.514991,33.119292],[131.510003,33.118936],[131.506083,33.120894],[131.500738,33.121606],[131.49575,33.12125],[131.489514,33.120004],[131.483279,33.118758],[131.478291,33.118758],[131.474906,33.118936],[131.469026,33.122319],[131.463682,33.128193],[131.464038,33.130507],[131.462829,33.134111],[131.461723,33.135605],[131.459633,33.137817],[131.457993,33.138929],[131.457856,33.139154],[131.457604,33.140013],[131.457506,33.140396],[131.457393,33.140638],[131.457293,33.140779],[131.457143,33.141004],[131.456918,33.141562],[131.456606,33.141829],[131.456256,33.142346],[131.455956,33.142729],[131.455268,33.143695],[131.455081,33.144079],[131.454931,33.144345],[131.454656,33.14457],[131.453881,33.144995],[131.453543,33.145354],[131.453493,33.14567],[131.453445,33.145867],[131.453368,33.145962],[131.452518,33.145978],[131.452306,33.14602],[131.452206,33.146112],[131.451656,33.146828],[131.451268,33.147187],[131.450943,33.147253],[131.450893,33.147295],[131.450119,33.147445],[131.449994,33.147586],[131.449919,33.147853],[131.449781,33.148053],[131.449781,33.14812],[131.449581,33.148436],[131.449006,33.148728],[131.448756,33.148886],[131.448606,33.149086],[131.448619,33.149245],[131.448494,33.149695],[131.448319,33.149869],[131.447994,33.149986],[131.447469,33.150094],[131.447344,33.150136],[131.446506,33.150286],[131.443981,33.150494],[131.443832,33.150561],[131.443694,33.150678],[131.443469,33.150669],[131.443119,33.150736],[131.442244,33.150844],[131.441669,33.151019],[131.440807,33.151377],[131.440257,33.151419],[131.439982,33.151344],[131.439282,33.151344],[131.439057,33.151319],[131.438882,33.151344],[131.438507,33.151294],[131.438032,33.151361],[131.437807,33.151469],[131.437419,33.151694],[131.437319,33.151844],[131.437219,33.151894],[131.437169,33.151986],[131.437116,33.152192],[131.436957,33.152214],[131.436772,33.152152],[131.43602,33.151886],[131.435745,33.151744],[131.435426,33.151489],[131.435245,33.151336],[131.435145,33.151227],[131.434982,33.150752],[131.435007,33.150527],[131.435057,33.149736],[131.435045,33.149169],[131.43497,33.149102],[131.43467,33.148986],[131.43397,33.148961],[131.432932,33.149227],[131.432632,33.149377],[131.431907,33.149619],[131.431832,33.149686],[131.431607,33.149711],[131.431507,33.149661],[131.430933,33.149569],[131.430758,33.149661],[131.430483,33.149677],[131.430083,33.149544],[131.429783,33.149494],[131.429095,33.149602],[131.428945,33.149602],[131.428595,33.149735],[131.42837,33.150069],[131.428345,33.150185],[131.42822,33.150227],[131.42787,33.150177],[131.42762,33.150244],[131.427408,33.150335],[131.426908,33.15051],[131.426546,33.150483],[131.426458,33.150485],[131.426308,33.150527],[131.426133,33.150869],[131.425845,33.151768],[131.425695,33.152127],[131.425495,33.152193],[131.42477,33.152035],[131.424408,33.15221],[131.424258,33.15246],[131.424258,33.152568],[131.424333,33.152885],[131.424158,33.153135],[131.424058,33.153293],[131.423795,33.153493],[131.423695,33.15351],[131.423598,33.153508],[131.423396,33.153485],[131.422771,33.15321],[131.422641,33.152992],[131.422408,33.152602],[131.422308,33.15251],[131.421833,33.15226],[131.421758,33.152168],[131.421508,33.152035],[131.421133,33.15201],[131.420983,33.15216],[131.420446,33.152477],[131.419421,33.152918],[131.418996,33.153026],[131.418296,33.15316],[131.417759,33.153401],[131.417259,33.153826],[131.417122,33.153986],[131.416921,33.154033],[131.416634,33.153935],[131.414584,33.153226],[131.414309,33.153201],[131.413609,33.152993],[131.413209,33.15301],[131.412072,33.153093],[131.411397,33.153018],[131.411197,33.153084],[131.411072,33.153084],[131.410822,33.153151],[131.410172,33.153218],[131.409372,33.153184],[131.409372,33.153168],[131.407485,33.153193],[131.40736,33.153176],[131.40651,33.153143],[131.406384,33.153317],[131.40626,33.153501],[131.406096,33.153819],[131.406022,33.154001],[131.405897,33.154068],[131.405472,33.153951],[131.405172,33.153809],[131.40476,33.153559],[131.404435,33.153334],[131.403985,33.152926],[131.403735,33.152626],[131.40336,33.152285],[131.40291,33.152101],[131.402335,33.152035],[131.40101,33.151526],[131.39981,33.151385],[131.398935,33.151426],[131.39841,33.151468],[131.398185,33.151643],[131.397423,33.152226],[131.397098,33.15236],[131.396673,33.152335],[131.396398,33.152285],[131.396223,33.152218],[131.395423,33.152026],[131.394773,33.151935],[131.394348,33.151935],[131.393548,33.152018],[131.392311,33.15221],[131.391811,33.152251],[131.391211,33.152093],[131.390886,33.151885],[131.390436,33.151476],[131.390236,33.151202],[131.390023,33.150752],[131.389973,33.150343],[131.389998,33.150077],[131.390098,33.149877],[131.390486,33.149668],[131.390661,33.149452],[131.390686,33.149218],[131.390661,33.149068],[131.390511,33.148885],[131.390236,33.148743],[131.389661,33.148627],[131.389436,33.148518],[131.389336,33.148335],[131.389273,33.147477],[131.389023,33.147069],[131.388161,33.145885],[131.387767,33.145617],[131.387561,33.145527],[131.386707,33.145329],[131.386211,33.145219],[131.385511,33.145061],[131.384711,33.144894],[131.382962,33.144586],[131.381287,33.144194],[131.380862,33.143986],[131.380487,33.143852],[131.380312,33.143602],[131.380224,33.142694],[131.380099,33.142536],[131.379499,33.142102],[131.379299,33.142036],[131.379049,33.141852],[131.378787,33.141403],[131.378612,33.141244],[131.378417,33.140795],[131.378237,33.140653],[131.377887,33.140561],[131.377612,33.140494],[131.377512,33.140419],[131.376987,33.140036],[131.37675,33.139719],[131.37665,33.139494],[131.3766,33.139219],[131.376637,33.138044],[131.376537,33.13737],[131.3764,33.137053],[131.376275,33.136603],[131.375775,33.136211],[131.3754,33.135711],[131.3751,33.134904],[131.375062,33.134695],[131.37506,33.134462],[131.3751,33.134062],[131.374675,33.133637],[131.374675,33.133587],[131.374525,33.133337],[131.374525,33.133112],[131.374662,33.132662],[131.374637,33.132503],[131.374538,33.132395],[131.374288,33.132212],[131.373938,33.132028],[131.373538,33.131862],[131.373138,33.13152],[131.372875,33.130887],[131.372975,33.130104],[131.373113,33.12967],[131.373088,33.129379],[131.372913,33.128729],[131.372725,33.128295],[131.372611,33.128203],[131.371888,33.128095],[131.371775,33.127987],[131.371675,33.127887],[131.371588,33.127712],[131.371563,33.127579],[131.371563,33.127504],[131.371588,33.12722],[131.371575,33.127146],[131.371538,33.127071],[131.37145,33.126979],[131.37125,33.126871],[131.37105,33.126804],[131.370988,33.126779],[131.370825,33.126704],[131.370675,33.126596],[131.37065,33.126529],[131.370638,33.126421],[131.370725,33.126096],[131.370838,33.125937],[131.37105,33.125629],[131.371275,33.125271],[131.371363,33.125079],[131.371413,33.124962],[131.371488,33.124771],[131.371538,33.124646],[131.371538,33.124546],[131.371538,33.124471],[131.371513,33.124387],[131.371438,33.124387],[131.371038,33.124412],[131.3708,33.124454],[131.370525,33.124512],[131.370238,33.124596],[131.369788,33.124779],[131.369351,33.124996],[131.368438,33.125446],[131.368051,33.125671],[131.367276,33.126346],[131.367038,33.126546],[131.366976,33.126562],[131.364666,33.131447],[131.361051,33.136544],[131.358076,33.140612],[131.353535,33.14734],[131.347428,33.154537],[131.342731,33.159543],[131.338659,33.162829],[131.331926,33.167523],[131.327698,33.170183],[131.325154,33.172923],[131.325334,33.172878],[131.325487,33.172862],[131.325712,33.172862],[131.325941,33.172857],[131.326529,33.172815],[131.327091,33.172698],[131.327941,33.172615],[131.328803,33.172748],[131.329978,33.173223],[131.330541,33.173265],[131.332316,33.173131],[131.333041,33.173181],[131.334078,33.173539],[131.334541,33.173881],[131.334828,33.174239],[131.335178,33.174755],[131.335553,33.175139],[131.336115,33.175547],[131.336645,33.176226],[131.337403,33.176872],[131.338128,33.177214],[131.33989,33.177889],[131.340615,33.178114],[131.34164,33.178272],[131.342015,33.178564],[131.342227,33.179147],[131.342415,33.179355],[131.343427,33.180189],[131.344289,33.180797],[131.345177,33.181156],[131.346402,33.181881],[131.347014,33.181922],[131.347714,33.182081],[131.348489,33.182397],[131.349326,33.182464],[131.349914,33.182673],[131.350989,33.183231],[131.351601,33.183706],[131.352164,33.183864],[131.353688,33.184156],[131.354176,33.184314],[131.354738,33.184564],[131.355251,33.184681],[131.355813,33.184748],[131.356288,33.184839],[131.3569,33.185014],[131.357225,33.185173],[131.357813,33.185514],[131.358963,33.186006],[131.359425,33.186306],[131.359663,33.186389],[131.36025,33.186756],[131.360738,33.187089],[131.361189,33.187354],[131.362237,33.187906],[131.362375,33.187989],[131.362912,33.188173],[131.363516,33.188336],[131.36465,33.188539],[131.365287,33.188739],[131.365849,33.189031],[131.366412,33.189214],[131.366637,33.189373],[131.366739,33.189652],[131.366849,33.189889],[131.367367,33.190421],[131.367431,33.190974],[131.366974,33.191373],[131.366762,33.191914],[131.366687,33.192456],[131.3664,33.192916],[131.365995,33.193549],[131.365749,33.194281],[131.365824,33.194747],[131.365774,33.195095],[131.365687,33.195514],[131.365262,33.196547],[131.365149,33.197139],[131.365174,33.197539],[131.365499,33.197722],[131.366137,33.19813],[131.366387,33.198355],[131.366599,33.198755],[131.366674,33.199005],[131.367074,33.19943],[131.367424,33.200038],[131.367487,33.200488],[131.367799,33.201147],[131.368424,33.202088],[131.368986,33.203263],[131.369361,33.203688],[131.369674,33.204138],[131.369724,33.204571],[131.369761,33.205338],[131.369624,33.205738],[131.369186,33.206504],[131.368974,33.207296],[131.368786,33.208754],[131.368811,33.209929],[131.368711,33.210537],[131.368686,33.211096],[131.368974,33.21182],[131.369374,33.212404],[131.369461,33.212629],[131.369749,33.21362],[131.369886,33.214387],[131.370024,33.214745],[131.370286,33.215262],[131.370686,33.215645],[131.371549,33.216278],[131.371836,33.216595],[131.372086,33.216953],[131.372211,33.217336],[131.372261,33.218711],[131.372324,33.219069],[131.372561,33.219494],[131.372674,33.219711],[131.372811,33.219911],[131.373223,33.221194],[131.373636,33.222052],[131.373698,33.222119],[131.375061,33.222569],[131.375723,33.222752],[131.375786,33.222769],[131.375861,33.222886],[131.375723,33.223744],[131.375473,33.224461],[131.375423,33.22496],[131.375448,33.225477],[131.375373,33.225819],[131.374986,33.226402],[131.374161,33.22726],[131.373748,33.227552],[131.373561,33.227818],[131.373611,33.228293],[131.373911,33.228702],[131.374111,33.228952],[131.374298,33.229468],[131.374573,33.229785],[131.375011,33.230168],[131.375321,33.230736],[131.376027,33.231513],[131.376398,33.231907],[131.376685,33.23229],[131.376823,33.233068],[131.377023,33.233568],[131.377536,33.234285],[131.378036,33.234718],[131.378362,33.234948],[131.378755,33.23513],[131.379048,33.23521],[131.379393,33.23515],[131.379959,33.235002],[131.38076,33.234777],[131.381085,33.23451],[131.381285,33.233927],[131.38131,33.233768],[131.381635,33.232952],[131.382023,33.23291],[131.383447,33.233068],[131.384385,33.233243],[131.384885,33.233152],[131.385072,33.233085],[131.38541,33.232885],[131.385847,33.232318],[131.386422,33.231685],[131.38706,33.231594],[131.387847,33.231577],[131.388434,33.231394],[131.389034,33.231102],[131.389934,33.230869],[131.390297,33.230852],[131.391484,33.230602],[131.391622,33.230535],[131.391647,33.230535],[131.392772,33.229944],[131.392884,33.229852],[131.393459,33.229586],[131.393621,33.229536],[131.394146,33.229069],[131.394696,33.228611],[131.394834,33.228661],[131.395571,33.228702],[131.396071,33.228294],[131.396371,33.228136],[131.396646,33.228361],[131.396759,33.228386],[131.397171,33.228361],[131.397584,33.228269],[131.398821,33.228253],[131.399921,33.228403],[131.400358,33.228428],[131.401158,33.228178],[131.401233,33.228178],[131.402121,33.227886],[131.402646,33.227611],[131.403245,33.226936],[131.40347,33.226828],[131.403795,33.226803],[131.404045,33.22687],[131.405283,33.22752],[131.405445,33.227586],[131.40597,33.227728],[131.406933,33.227861],[131.407282,33.227995],[131.40737,33.227995],[131.407482,33.228061],[131.407945,33.22822],[131.408745,33.22817],[131.41012,33.228845],[131.410557,33.229161],[131.41102,33.229678],[131.411307,33.229928],[131.411744,33.230086],[131.412294,33.230153],[131.412432,33.230195],[131.412757,33.23042],[131.413007,33.230736],[131.413394,33.230936],[131.413719,33.231211],[131.414019,33.231345],[131.414382,33.231436],[131.414882,33.231886],[131.415432,33.232811],[131.415757,33.233053],[131.416282,33.233144],[131.417157,33.233103],[131.417794,33.233394],[131.419169,33.234178],[131.419306,33.234269],[131.419744,33.234336],[131.420794,33.234311],[131.421119,33.234469],[131.421506,33.234428],[131.421894,33.234536],[131.422244,33.234853],[131.422631,33.234944],[131.422768,33.234944],[131.423018,33.235144],[131.423543,33.235103],[131.423868,33.235169],[131.424056,33.235369],[131.424168,33.235394],[131.424193,33.235369],[131.424668,33.235344],[131.425381,33.235461],[131.425931,33.235303],[131.426206,33.235345],[131.426568,33.23532],[131.426981,33.235386],[131.427331,33.235611],[131.427468,33.235661],[131.42788,33.235661],[131.428155,33.23577],[131.428593,33.235728],[131.429043,33.235795],[131.429143,33.235811],[131.429593,33.235811],[131.429918,33.235653],[131.430443,33.235861],[131.43088,33.235928],[131.431593,33.23622],[131.43223,33.236328],[131.43258,33.237003],[131.432942,33.237028],[131.43308,33.237095],[131.433355,33.237478],[131.43363,33.237995],[131.434067,33.23847],[131.434405,33.238653],[131.434917,33.238603],[131.435417,33.23847],[131.435692,33.23847],[131.435992,33.238578],[131.436192,33.238695],[131.43668,33.238853],[131.437017,33.238761],[131.437704,33.238828],[131.438079,33.238986],[131.438629,33.239253],[131.439017,33.239278],[131.439217,33.23887],[131.439404,33.238395],[131.439654,33.238061],[131.439767,33.237678],[131.439954,33.237536],[131.440317,33.237761],[131.440392,33.237761],[131.440592,33.237628],[131.440692,33.237136],[131.440667,33.23702],[131.440417,33.236637],[131.440254,33.236462],[131.440167,33.236303],[131.440254,33.236145],[131.440642,33.23592],[131.440892,33.235712],[131.441167,33.235153],[131.441192,33.234245],[131.441492,33.233778],[131.442092,33.233212],[131.442367,33.232987],[131.442454,33.232962],[131.442842,33.233095],[131.444179,33.233929],[131.444429,33.234337],[131.444679,33.234378],[131.445141,33.234378],[131.445454,33.234428],[131.445729,33.234445],[131.445866,33.23447],[131.447241,33.234604],[131.448578,33.235004],[131.449816,33.235295],[131.450616,33.235254],[131.451116,33.235162],[131.451528,33.235204],[131.451528,33.235295],[131.451391,33.235662],[131.451253,33.235904],[131.451116,33.237437],[131.450891,33.237595],[131.450103,33.237978],[131.450041,33.23807],[131.450128,33.238362],[131.450216,33.23917],[131.451003,33.239537],[131.451778,33.239803],[131.452378,33.23987],[131.453128,33.24007],[131.453928,33.24097],[131.454453,33.241312],[131.455028,33.241787],[131.455515,33.242303],[131.45604,33.242462],[131.456524,33.242585],[131.456927,33.242662],[131.457477,33.24282],[131.457665,33.242837],[131.458052,33.24282],[131.459502,33.242545],[131.460052,33.242495],[131.461077,33.242362],[131.461739,33.241912],[131.462039,33.24157],[131.462252,33.241187],[131.462552,33.240287],[131.462752,33.239387],[131.462889,33.23817],[131.462939,33.23797],[131.463164,33.237587],[131.463464,33.23722],[131.463539,33.236454],[131.463927,33.23587],[131.464152,33.235687],[131.465002,33.235196],[131.465489,33.235037],[131.465689,33.235012],[131.466889,33.235037],[131.467202,33.234896],[131.467439,33.234654],[131.467752,33.234221],[131.468027,33.234129],[131.468539,33.234062],[131.468876,33.233904],[131.469077,33.233724],[131.469564,33.233271],[131.470301,33.232596],[131.471314,33.231804],[131.472639,33.231088],[131.473101,33.230796],[131.473926,33.230113],[131.474364,33.230046],[131.474888,33.230071],[131.475413,33.230004],[131.476038,33.229821],[131.476588,33.229821],[131.476863,33.229929],[131.476953,33.229877],[131.476838,33.229638],[131.476063,33.228738],[131.476038,33.228629],[131.476451,33.228563],[131.477713,33.228104],[131.478126,33.228063],[131.478626,33.227946],[131.478951,33.227746],[131.479176,33.227521],[131.479588,33.227313],[131.480213,33.227113],[131.480688,33.227088],[131.481038,33.227113],[131.481563,33.226771],[131.482,33.226438],[131.482438,33.226346],[131.483163,33.226296],[131.483575,33.226213],[131.483788,33.226213],[131.484038,33.226546],[131.484588,33.22783],[131.485113,33.228346],[131.485725,33.228846],[131.486138,33.229246],[131.486687,33.229538],[131.48715,33.229746],[131.487887,33.230463],[131.487975,33.230488],[131.488937,33.230105],[131.490262,33.229763],[131.49125,33.229646],[131.491875,33.229921],[131.492237,33.229805],[131.492862,33.229288],[131.493362,33.228788],[131.493412,33.228563],[131.493662,33.228363],[131.494262,33.228205],[131.495174,33.228021],[131.495537,33.227846],[131.495699,33.227796],[131.495912,33.227688],[131.495974,33.227688],[131.496024,33.228088],[131.496274,33.228496],[131.496362,33.228971],[131.496412,33.228988],[131.496612,33.228988],[131.496937,33.228696],[131.497187,33.228205],[131.497399,33.227996],[131.497599,33.227826],[131.497734,33.227723],[131.497937,33.227647],[131.498462,33.227738],[131.499174,33.227938],[131.499449,33.227913],[131.499886,33.227638],[131.500049,33.227438],[131.500099,33.226963],[131.500499,33.226488],[131.500474,33.226155],[131.500386,33.225838],[131.500386,33.225663],[131.500661,33.225455],[131.500874,33.225347],[131.501061,33.225113],[131.501361,33.224647],[131.501936,33.224213],[131.502261,33.224055],[131.502586,33.224005],[131.503374,33.223964],[131.503836,33.224005],[131.504524,33.224164],[131.504774,33.224314],[131.505136,33.224672],[131.505049,33.225172],[131.504949,33.225505],[131.504899,33.225913],[131.504949,33.226588],[131.505774,33.226855],[131.505974,33.22703],[131.506311,33.228313],[131.506249,33.22838],[131.506249,33.228522],[131.506061,33.228922],[131.505986,33.229238],[131.506049,33.229805],[131.505911,33.23018],[131.505724,33.230588],[131.505724,33.230813],[131.505586,33.23133],[131.505699,33.231621],[131.505974,33.231913],[131.506111,33.232121],[131.506249,33.232613],[131.506286,33.232946],[131.506261,33.233171],[131.506286,33.233263],[131.506236,33.233738],[131.506299,33.234346],[131.505861,33.235579],[131.505811,33.235921],[131.505899,33.236371],[131.505799,33.236929],[131.505886,33.237588],[131.506136,33.237946],[131.506024,33.238121],[131.505536,33.238579],[131.505399,33.238913],[131.505324,33.239412],[131.504724,33.240354],[131.505036,33.241187],[131.505286,33.242312],[131.505174,33.242446],[131.504824,33.242604],[131.504686,33.242721],[131.504286,33.244029],[131.504124,33.244429],[131.504049,33.244862],[131.504162,33.245354],[131.503924,33.246745],[131.503799,33.247045],[131.503137,33.247745],[131.502787,33.248262],[131.502387,33.249187],[131.502337,33.249503],[131.502649,33.250487],[131.502787,33.250803],[131.502837,33.250828],[131.503187,33.250237],[131.503562,33.249812],[131.503899,33.249587],[131.504162,33.249512],[131.504599,33.249578],[131.505012,33.249987],[131.505262,33.250278],[131.505424,33.250345],[131.506524,33.250453],[131.506912,33.250628],[131.507724,33.250787],[131.508174,33.251145],[131.509049,33.25152],[131.509374,33.251703],[131.509761,33.251837],[131.510299,33.251678],[131.511336,33.251128],[131.511936,33.250862],[131.512211,33.250187],[131.512374,33.250003],[131.513074,33.249778],[131.513773,33.248712],[131.513911,33.248604],[131.514411,33.248445],[131.514673,33.248395],[131.515136,33.248237],[131.515436,33.247904],[131.515736,33.247829],[131.516148,33.247829],[131.516373,33.24787],[131.516998,33.24792],[131.517411,33.248004],[131.517686,33.248162],[131.517761,33.248254],[131.518098,33.248479],[131.518398,33.248495],[131.519486,33.248204],[131.52031,33.248179],[131.520685,33.24822],[131.52091,33.248329],[131.520935,33.248379],[131.52036,33.248779],[131.519623,33.249104],[131.519386,33.249262],[131.519223,33.249412],[131.519173,33.249529],[131.519148,33.249795],[131.519198,33.250587],[131.519073,33.25092],[131.518848,33.251262],[131.518361,33.251803],[131.517823,33.252478],[131.517011,33.25332],[131.516773,33.253561],[131.516498,33.253945],[131.516361,33.25442],[131.516261,33.255636],[131.516336,33.25667],[131.516599,33.257461],[131.516624,33.257711],[131.516524,33.258069],[131.516311,33.258469],[131.516021,33.259184],[131.516136,33.260053],[131.516274,33.260294],[131.516549,33.260436],[131.516886,33.260927],[131.516924,33.261019],[131.516836,33.261311],[131.516836,33.261444],[131.517074,33.261627],[131.517655,33.262329],[131.517708,33.262937],[131.517674,33.263252],[131.517661,33.263561],[131.517824,33.264036],[131.517799,33.264327],[131.517918,33.265157],[131.517961,33.265319],[131.518474,33.265185],[131.519548,33.265169],[131.520961,33.265194],[131.521611,33.265169],[131.522286,33.265194],[131.522548,33.265261],[131.523411,33.265394],[131.523486,33.265444],[131.523786,33.265444],[131.524161,33.265377],[131.52496,33.265311],[131.52526,33.265194],[131.52556,33.264994],[131.527273,33.264136],[131.528535,33.263353],[131.529372,33.262719],[131.529722,33.262386],[131.530122,33.261778],[131.530822,33.261078],[131.531872,33.260245],[131.532185,33.260045],[131.532785,33.260178],[131.53291,33.260161],[131.533372,33.25982],[131.534259,33.259053],[131.535009,33.258312],[131.534984,33.258137],[131.534872,33.257862],[131.534984,33.257795],[131.535759,33.257728],[131.536347,33.257795],[131.536672,33.257795],[131.537447,33.25757],[131.537634,33.257553],[131.538747,33.257195],[131.539221,33.257103],[131.540034,33.257103],[131.540409,33.257237],[131.540646,33.257195],[131.540859,33.257195],[131.540996,33.257104],[131.541284,33.257104],[131.542071,33.25697],[131.542609,33.256879],[131.543084,33.256837],[131.543621,33.256679],[131.543809,33.256654],[131.544883,33.255962],[131.545633,33.25567],[131.547196,33.255312],[131.549071,33.255337],[131.549321,33.255379],[131.549821,33.255562],[131.55052,33.256054],[131.550895,33.256437],[131.55117,33.256646],[131.551295,33.256962],[131.551833,33.257271],[131.552045,33.257362],[131.552183,33.257271],[131.55228,33.257204],[131.552395,33.257137],[131.553045,33.257071],[131.553533,33.256896],[131.55387,33.256687],[131.554145,33.256487],[131.554595,33.256421],[131.554845,33.256221],[131.555033,33.256062],[131.555545,33.255904],[131.555995,33.255729],[131.556345,33.255521],[131.55637,33.255454],[131.556507,33.255412],[131.55672,33.255387],[131.556932,33.255321],[131.557282,33.255413],[131.55777,33.255413],[131.558032,33.255321],[131.558399,33.255359],[131.559107,33.255704],[131.559432,33.255913],[131.559595,33.255913],[131.559807,33.255846],[131.559995,33.255863],[131.560132,33.255846],[131.560482,33.255596],[131.560692,33.255305],[131.560932,33.255096],[131.561169,33.254804],[131.562032,33.254088],[131.563032,33.253346],[131.563844,33.253013],[131.565594,33.25238],[131.566107,33.252263],[131.566294,33.252196],[131.567031,33.25208],[131.568231,33.252005],[131.568781,33.251938],[131.569244,33.25178],[131.569894,33.251488],[131.570494,33.251255],[131.571256,33.251055],[131.572756,33.250864],[131.572931,33.250864],[131.574343,33.250505],[131.575081,33.25023],[131.576031,33.249706],[131.576243,33.249572],[131.576768,33.249347],[131.578105,33.248956],[131.57903,33.248731],[131.579605,33.248522],[131.58028,33.248431],[131.580443,33.248548],[131.580418,33.248656],[131.582143,33.249281],[131.58228,33.249098],[131.583455,33.248439],[131.583392,33.247473],[131.583692,33.247206],[131.583792,33.247298],[131.584317,33.246823],[131.584342,33.24684],[131.584555,33.246865],[131.584867,33.247448],[131.585105,33.247423],[131.58478,33.246798],[131.584992,33.246681],[131.58518,33.246723],[131.586792,33.246365],[131.587242,33.247823],[131.587817,33.247731],[131.589192,33.245673],[131.589304,33.245673],[131.591192,33.246523],[131.591704,33.24589],[131.592392,33.246007],[131.593154,33.246048],[131.593991,33.247032],[131.592545,33.249623],[131.593416,33.250115],[131.598491,33.252415],[131.599328,33.25109],[131.598366,33.25064],[131.598653,33.250215],[131.599566,33.250615],[131.600291,33.249557],[131.600916,33.249482],[131.601216,33.249482],[131.601391,33.249523],[131.601803,33.249707],[131.601878,33.249732],[131.601803,33.249865],[131.606715,33.25214],[131.608352,33.253348],[131.608078,33.253573],[131.607378,33.254048],[131.606878,33.254615],[131.60674,33.25459],[131.605878,33.254298],[131.605178,33.253981],[131.604335,33.253649],[131.603703,33.253348],[131.60344,33.25319],[131.603353,33.253165],[131.602053,33.253173],[131.601778,33.253148],[131.601191,33.253865],[131.600966,33.254289],[131.600278,33.255298],[131.599816,33.255839],[131.599815,33.255947],[131.599865,33.256153],[131.599891,33.256289],[131.599978,33.256381],[131.600303,33.256606],[131.600841,33.256881],[131.602253,33.257531],[131.603165,33.257981],[131.604303,33.258414],[131.604865,33.258706],[131.605028,33.258823],[131.60564,33.259114],[131.607253,33.259614],[131.60889,33.260156],[131.610315,33.260698],[131.612002,33.261264],[131.613877,33.261964],[131.614202,33.262047],[131.614602,33.261939],[131.614927,33.261781],[131.615539,33.261623],[131.616352,33.261606],[131.618201,33.261739],[131.619751,33.261789],[131.620064,33.261771],[131.620239,33.261764],[131.620431,33.261762],[131.620589,33.261789],[131.620726,33.261814],[131.620751,33.261656],[131.620639,33.260773],[131.620426,33.259515],[131.620451,33.259156],[131.620939,33.25924],[131.622439,33.259715],[131.622588,33.259693],[131.622664,33.259698],[131.622789,33.25974],[131.622801,33.259923],[131.623438,33.26019],[131.623501,33.259923],[131.624201,33.260206],[131.624813,33.263856],[131.624701,33.264239],[131.627788,33.265106],[131.626476,33.268539],[131.626401,33.268647],[131.631744,33.272006],[131.632007,33.271781],[131.626776,33.268422],[131.626776,33.268331],[131.628001,33.265239],[131.66001,33.273606],[131.660447,33.273606],[131.660735,33.273381],[131.661772,33.271098],[131.661972,33.271148],[131.666634,33.258583],[131.666497,33.258175],[131.666609,33.25775],[131.668847,33.25855],[131.668847,33.258825],[131.670009,33.25965],[131.672284,33.260275],[131.666897,33.274715],[131.676083,33.277881],[131.677033,33.27529],[131.676821,33.275265],[131.678696,33.270257],[131.678858,33.270232],[131.67937,33.269107],[131.679358,33.268699],[131.67982,33.267907],[131.683633,33.266633],[131.684233,33.266474],[131.685007,33.266158],[131.68642,33.267891],[131.683633,33.271032],[131.68067,33.279131],[131.691507,33.27934],[131.691882,33.279223],[131.692044,33.278973],[131.690844,33.272466],[131.690869,33.268116],[131.698819,33.268274],[131.700081,33.268133],[131.700981,33.26795],[131.701544,33.267791]]]},"properties":{"id_url":"G66004.html","kuni_url":"/kg/resource/K66.html","kuni":"豊後","id":"G66004","yomi":"おおいた","name":"大分","pref":"大分県","kuni_id":"K66"}}],"type":"FeatureCollection"}