{"type":"FeatureCollection","features":[{"type":"Feature","properties":{"id":"G67007","kuni":"肥前","kuni_url":"/kg/resource/K67.html","id_url":"G67007.html","kuni_id":"K67","pref":"佐賀県","name":"杵島","yomi":"きしま"},"geometry":{"type":"Polygon","coordinates":[[[130.025447,33.283147],[130.025797,33.282964],[130.026172,33.282856],[130.02666,33.282789],[130.026972,33.282656],[130.027197,33.282472],[130.02741,33.282114],[130.027435,33.281814],[130.027385,33.281506],[130.02741,33.281231],[130.027697,33.280964],[130.029097,33.281006],[130.029447,33.280989],[130.030334,33.280581],[130.031034,33.280106],[130.031784,33.279431],[130.032597,33.278848],[130.033396,33.278465],[130.034309,33.277856],[130.034534,33.277631],[130.034821,33.277648],[130.035896,33.277898],[130.036571,33.27799],[130.036921,33.278173],[130.037184,33.278781],[130.037246,33.279006],[130.037134,33.279348],[130.037296,33.279706],[130.037696,33.280115],[130.038583,33.280565],[130.038983,33.280856],[130.039308,33.281173],[130.039733,33.28144],[130.040033,33.281506],[130.040171,33.281506],[130.041008,33.282031],[130.042108,33.283115],[130.042396,33.283356],[130.043608,33.284556],[130.04487,33.285906],[130.045245,33.286156],[130.04557,33.286223],[130.04632,33.286523],[130.046695,33.286698],[130.04737,33.286764],[130.047508,33.286764],[130.047933,33.286606],[130.048395,33.286631],[130.049032,33.286856],[130.049445,33.286906],[130.050032,33.286748],[130.050357,33.286548],[130.05057,33.286365],[130.050732,33.285981],[130.05092,33.28614],[130.051132,33.286473],[130.05137,33.287156],[130.051745,33.287715],[130.051857,33.287965],[130.051915,33.288361],[130.052045,33.288731],[130.051961,33.28671],[130.051559,33.284391],[130.050482,33.282043],[130.049488,33.28025],[130.049209,33.27786],[130.049296,33.275679],[130.050235,33.272864],[130.050307,33.270266],[130.049007,33.268173],[130.047129,33.266874],[130.045106,33.266296],[130.041494,33.266296],[130.037593,33.267523],[130.034054,33.268822],[130.028781,33.270555],[130.026397,33.270266],[130.02526,33.269624],[130.025047,33.269332],[130.024772,33.269174],[130.023972,33.268565],[130.023597,33.268174],[130.023222,33.267299],[130.02306,33.266715],[130.023035,33.266374],[130.023435,33.265699],[130.023385,33.265407],[130.023222,33.265024],[130.02311,33.264257],[130.022797,33.263557],[130.02261,33.262724],[130.02236,33.262316],[130.02226,33.261958],[130.02226,33.261616],[130.022847,33.260899],[130.023147,33.260333],[130.023085,33.259341],[130.022922,33.259116],[130.022797,33.258775],[130.022822,33.258441],[130.022897,33.258308],[130.023147,33.258075],[130.023597,33.257925],[130.023922,33.2577],[130.024222,33.257541],[130.02476,33.257425],[130.025022,33.257425],[130.025506,33.25693],[130.025772,33.255983],[130.025884,33.255575],[130.025997,33.255416],[130.026372,33.255191],[130.026822,33.255016],[130.027172,33.254833],[130.027284,33.254541],[130.027497,33.254225],[130.027947,33.253842],[130.028359,33.253642],[130.028459,33.253317],[130.028472,33.25325],[130.028209,33.25255],[130.028109,33.252458],[130.027597,33.252275],[130.027409,33.252142],[130.027222,33.251617],[130.027197,33.25085],[130.027397,33.250042],[130.027534,33.249775],[130.027697,33.249725],[130.028472,33.249592],[130.029097,33.249759],[130.030759,33.250084],[130.031159,33.250217],[130.032146,33.250333],[130.033971,33.250567],[130.034434,33.2505],[130.034896,33.250392],[130.035221,33.250192],[130.035484,33.249875],[130.035759,33.24965],[130.036421,33.249454],[130.036971,33.249517],[130.037233,33.249767],[130.037746,33.249934],[130.038521,33.249909],[130.039196,33.250025],[130.039708,33.250184],[130.039858,33.250325],[130.039858,33.251109],[130.039971,33.251267],[130.040933,33.251234],[130.042521,33.250767],[130.042983,33.250675],[130.043641,33.250489],[130.044058,33.250184],[130.044295,33.249867],[130.044433,33.249759],[130.045008,33.249059],[130.045758,33.248617],[130.04632,33.248118],[130.046708,33.247876],[130.047158,33.247626],[130.047995,33.247109],[130.048245,33.246776],[130.048383,33.24646],[130.048495,33.245943],[130.048633,33.245585],[130.048708,33.245201],[130.04887,33.244843],[130.04917,33.244526],[130.04942,33.244168],[130.049583,33.243718],[130.04982,33.24281],[130.050258,33.24241],[130.05107,33.241919],[130.051745,33.241219],[130.05202,33.240835],[130.052233,33.240369],[130.052395,33.24016],[130.053208,33.240035],[130.054657,33.239319],[130.054982,33.239069],[130.055333,33.238922],[130.055731,33.238989],[130.055945,33.239186],[130.056245,33.239461],[130.056595,33.239711],[130.056807,33.239961],[130.05707,33.240186],[130.057495,33.240369],[130.05847,33.240419],[130.058782,33.240577],[130.059195,33.240827],[130.059807,33.241119],[130.060157,33.241394],[130.061144,33.242369],[130.061432,33.242502],[130.062107,33.242985],[130.062244,33.243227],[130.062482,33.24346],[130.062882,33.243727],[130.063207,33.243885],[130.063657,33.243844],[130.063982,33.243935],[130.064184,33.243809],[130.064257,33.243577],[130.064357,33.243244],[130.064769,33.243036],[130.065244,33.243111],[130.065657,33.243086],[130.065844,33.243002],[130.066244,33.242886],[130.066432,33.242777],[130.066432,33.242502],[130.066707,33.242077],[130.067357,33.241561],[130.068107,33.241002],[130.068457,33.240936],[130.068594,33.240869],[130.069032,33.240378],[130.069194,33.240103],[130.069446,33.239732],[130.069766,33.239541],[130.070294,33.239478],[130.071531,33.239461],[130.072231,33.239328],[130.072606,33.239461],[130.073331,33.239494],[130.073569,33.239536],[130.073731,33.239828],[130.073806,33.240144],[130.073994,33.240261],[130.074531,33.240236],[130.074806,33.240086],[130.075406,33.239636],[130.075669,33.239319],[130.075881,33.239161],[130.076269,33.239161],[130.076719,33.239078],[130.077068,33.238944],[130.077606,33.23852],[130.077806,33.238178],[130.078093,33.237978],[130.078231,33.237936],[130.078506,33.237686],[130.078693,33.237395],[130.078906,33.237145],[130.080231,33.23702],[130.080518,33.23702],[130.080981,33.237245],[130.081431,33.237228],[130.081943,33.237295],[130.082406,33.236936],[130.082668,33.236845],[130.082918,33.236803],[130.083581,33.237053],[130.083793,33.236961],[130.084093,33.236945],[130.084743,33.23722],[130.08613,33.237878],[130.086455,33.237995],[130.087443,33.238086],[130.088393,33.238161],[130.090243,33.238078],[130.091155,33.238286],[130.091905,33.238311],[130.092442,33.238245],[130.093005,33.238245],[130.093605,33.23832],[130.094355,33.238503],[130.09473,33.238686],[130.09523,33.238778],[130.095667,33.238778],[130.096067,33.238711],[130.096467,33.238603],[130.096855,33.238403],[130.09723,33.238128],[130.098192,33.237686],[130.098492,33.237053],[130.098767,33.236828],[130.099304,33.236537],[130.100054,33.236362],[130.100467,33.236228],[130.101029,33.236003],[130.101642,33.235645],[130.101942,33.235537],[130.102267,33.235487],[130.102729,33.235495],[130.103529,33.235087],[130.103642,33.23507],[130.104666,33.23512],[130.105354,33.235078],[130.105541,33.23512],[130.106054,33.23562],[130.106404,33.235712],[130.106704,33.235687],[130.107016,33.235778],[130.107316,33.235962],[130.107716,33.236037],[130.107954,33.23617],[130.108204,33.236603],[130.108329,33.236687],[130.108604,33.236737],[130.108841,33.236828],[130.109104,33.237078],[130.109404,33.237278],[130.109504,33.237595],[130.109641,33.237803],[130.110341,33.238186],[130.110504,33.238236],[130.110691,33.238436],[130.110878,33.23887],[130.111278,33.23912],[130.111653,33.239211],[130.111816,33.239186],[130.112053,33.239028],[130.112241,33.238803],[130.112328,33.238561],[130.112466,33.238312],[130.113003,33.23782],[130.113378,33.237595],[130.113941,33.23717],[130.114216,33.237078],[130.114753,33.23697],[130.115153,33.236762],[130.115915,33.236495],[130.117015,33.23632],[130.117465,33.236028],[130.11774,33.235962],[130.118253,33.236262],[130.118378,33.236303],[130.118703,33.236303],[130.119353,33.236195],[130.119978,33.235795],[130.120378,33.235687],[130.121052,33.235779],[130.121315,33.235729],[130.121502,33.235645],[130.121915,33.235237],[130.122452,33.234879],[130.122712,33.23466],[130.122852,33.234579],[130.123127,33.234529],[130.123902,33.234595],[130.124415,33.234712],[130.124677,33.234712],[130.125165,33.234529],[130.12554,33.234287],[130.126214,33.23487],[130.126702,33.235212],[130.127202,33.235462],[130.127827,33.235662],[130.128127,33.235887],[130.127964,33.236387],[130.127664,33.236945],[130.127227,33.237329],[130.126589,33.237553],[130.126364,33.237578],[130.126264,33.23762],[130.126239,33.237695],[130.126477,33.238003],[130.126623,33.238349],[130.126766,33.238619],[130.126852,33.238795],[130.127114,33.238978],[130.127464,33.238912],[130.128114,33.239003],[130.128814,33.239545],[130.129239,33.239703],[130.129939,33.239745],[130.131201,33.239453],[130.131639,33.239795],[130.132514,33.240603],[130.132676,33.240853],[130.132701,33.241012],[130.132676,33.241195],[130.132701,33.241528],[130.133076,33.242278],[130.133426,33.242753],[130.133614,33.243086],[130.133351,33.24372],[130.133289,33.244011],[130.133501,33.245411],[130.134226,33.246494],[130.134526,33.246786],[130.134813,33.247036],[130.134951,33.247036],[130.149712,33.244763],[130.14975,33.244978],[130.14945,33.245428],[130.149375,33.245786],[130.149025,33.246394],[130.148887,33.246761],[130.149237,33.246961],[130.149487,33.247207],[130.149687,33.247819],[130.149926,33.248488],[130.15015,33.248927],[130.151137,33.249311],[130.151974,33.249419],[130.152862,33.249402],[130.153962,33.249136],[130.154374,33.249269],[130.154361,33.249677],[130.154474,33.250169],[130.154474,33.250869],[130.154612,33.25116],[130.155337,33.251435],[130.156511,33.251702],[130.156924,33.25191],[130.157111,33.252085],[130.157586,33.252652],[130.157511,33.253169],[130.157561,33.253319],[130.157711,33.253518],[130.158195,33.253873],[130.158511,33.254027],[130.158811,33.254185],[130.159136,33.253802],[130.159286,33.25351],[130.159461,33.253319],[130.159961,33.25281],[130.160411,33.252027],[130.160961,33.250377],[130.161286,33.249636],[130.162124,33.248194],[130.162549,33.247136],[130.162924,33.246569],[130.163499,33.246078],[130.164111,33.245603],[130.164811,33.244878],[130.165272,33.244303],[130.165649,33.243712],[130.165649,33.243437],[130.165549,33.242737],[130.164961,33.241653],[130.164774,33.240754],[130.164499,33.24042],[130.164261,33.240212],[130.163674,33.239829],[130.162949,33.23967],[130.162274,33.239604],[130.161712,33.23942],[130.161224,33.23897],[130.160849,33.238429],[130.160337,33.237929],[130.159912,33.237704],[130.159774,33.237596],[130.159637,33.235988],[130.159562,33.235829],[130.159587,33.234979],[130.159374,33.234504],[130.159137,33.233079],[130.159224,33.232696],[130.159737,33.231996],[130.159812,33.231546],[130.159974,33.231163],[130.160112,33.23103],[130.160599,33.23078],[130.160999,33.230355],[130.161374,33.22988],[130.161724,33.22923],[130.162099,33.228822],[130.162562,33.228597],[130.163637,33.228463],[130.164262,33.228463],[130.164712,33.22858],[130.165249,33.228755],[130.166436,33.22928],[130.166836,33.229638],[130.167136,33.22973],[130.167586,33.229663],[130.168024,33.229413],[130.168474,33.22903],[130.168886,33.228488],[130.169474,33.228197],[130.170086,33.228064],[130.170899,33.227772],[130.171386,33.227797],[130.171674,33.227905],[130.171811,33.227997],[130.172561,33.228722],[130.173448,33.228997],[130.173861,33.228838],[130.174586,33.228272],[130.175098,33.227939],[130.175611,33.22773],[130.176086,33.22773],[130.176686,33.227805],[130.177811,33.227664],[130.178586,33.227805],[130.178998,33.22783],[130.180473,33.225531],[130.180423,33.225439],[130.179998,33.225097],[130.179536,33.224847],[130.180261,33.223748],[130.181423,33.224314],[130.184548,33.219873],[130.185785,33.220481],[130.185885,33.220373],[130.186723,33.220756],[130.18656,33.221115],[130.187635,33.221548],[130.188335,33.22114],[130.18866,33.220915],[130.18976,33.221573],[130.190085,33.221706],[130.190272,33.221456],[130.190735,33.221165],[130.191247,33.22069],[130.19076,33.22049],[130.190435,33.22024],[130.190223,33.219831],[130.19001,33.219023],[130.19001,33.218482],[130.190273,33.217782],[130.190898,33.216749],[130.19146,33.21614],[130.192435,33.215232],[130.192785,33.214832],[130.193235,33.214399],[130.193747,33.214107],[130.194397,33.213949],[130.195072,33.213957],[130.19571,33.213999],[130.196285,33.213999],[130.196847,33.214116],[130.197922,33.214449],[130.198397,33.214565],[130.198534,33.214565],[130.199022,33.214432],[130.199322,33.214207],[130.199559,33.213866],[130.200122,33.212741],[130.201072,33.211341],[130.201334,33.210916],[130.201472,33.210508],[130.201497,33.210191],[130.201047,33.20875],[130.200297,33.2071],[130.199922,33.20645],[130.199547,33.206017],[130.199172,33.205792],[130.198547,33.205592],[130.19826,33.205525],[130.19761,33.205525],[130.197122,33.205592],[130.196797,33.205725],[130.196485,33.20595],[130.195535,33.207258],[130.19516,33.207683],[130.194835,33.207933],[130.194385,33.208183],[130.193785,33.208225],[130.193272,33.208158],[130.192548,33.207816],[130.192035,33.207475],[130.191014,33.206568],[130.190708,33.206187],[130.190623,33.205992],[130.190998,33.205583],[130.191448,33.205159],[130.19511,33.201367],[130.19616,33.200134],[130.196272,33.199951],[130.19671,33.199434],[130.197372,33.198693],[130.198297,33.197543],[130.200172,33.195402],[130.200709,33.194952],[130.201222,33.19461],[130.201947,33.194252],[130.202484,33.194052],[130.203184,33.193893],[130.203809,33.193852],[130.204509,33.193918],[130.205396,33.194077],[130.206184,33.194288],[130.206468,33.194359],[130.206634,33.194393],[130.207171,33.19451],[130.207996,33.194735],[130.208859,33.195052],[130.209746,33.195318],[130.211808,33.195843],[130.215683,33.196901],[130.216058,33.19551],[130.22152,33.192468],[130.222733,33.192785],[130.22617,33.19241],[130.231445,33.188827],[130.231582,33.188402],[130.23212,33.185852],[130.232282,33.185128],[130.232332,33.184344],[130.232307,33.183819],[130.231932,33.182786],[130.231795,33.182578],[130.231257,33.18152],[130.230507,33.180212],[130.229807,33.178862],[130.22952,33.178362],[130.228845,33.177345],[130.227832,33.175362],[130.226945,33.173579],[130.225545,33.171055],[130.225158,33.16998],[130.223945,33.167822],[130.222558,33.165439],[130.221995,33.164964],[130.221383,33.164647],[130.221321,33.16458],[130.219996,33.163814],[130.210659,33.158239],[130.207447,33.156347],[130.206772,33.156464],[130.206385,33.156172],[130.206385,33.155789],[130.206322,33.155722],[130.197785,33.150681],[130.190011,33.146206],[130.192261,33.143123],[130.192473,33.142715],[130.192561,33.142315],[130.192473,33.141998],[130.192023,33.141615],[130.189236,33.140173],[130.17145,33.131141],[130.171512,33.130983],[130.17095,33.130691],[130.170862,33.130849],[130.1696,33.130174],[130.169237,33.129974],[130.168775,33.129658],[130.168237,33.129324],[130.168087,33.129141],[130.16745,33.128599],[130.152651,33.115267],[130.149889,33.112793],[130.149389,33.112409],[130.149001,33.112434],[130.148676,33.112501],[130.142389,33.114309],[130.141364,33.114667],[130.140952,33.114892],[130.140889,33.114867],[130.140427,33.114917],[130.137727,33.11575],[130.136752,33.115884],[130.136252,33.116],[130.13329,33.116858],[130.13114,33.117558],[130.130702,33.117867],[130.13044,33.118167],[130.130265,33.118633],[130.130227,33.119041],[130.130302,33.123408],[130.130565,33.125791],[130.130477,33.125766],[130.128752,33.125524],[130.127665,33.125366],[130.126428,33.125232],[130.12604,33.125166],[130.122778,33.124832],[130.12319,33.123233],[130.122678,33.123433],[130.122453,33.123516],[130.122015,33.123766],[130.121665,33.124107],[130.12139,33.124491],[130.121165,33.124916],[130.121003,33.125682],[130.120978,33.126132],[130.121278,33.126857],[130.121415,33.127282],[130.121415,33.12769],[130.121253,33.128049],[130.12104,33.12834],[130.120888,33.128467],[130.12059,33.128657],[130.12024,33.128749],[130.11974,33.128615],[130.118641,33.128207],[130.117791,33.128007],[130.116878,33.127849],[130.116228,33.127899],[130.114191,33.128282],[130.113478,33.128348],[130.112928,33.128457],[130.112728,33.128457],[130.111941,33.128707],[130.111441,33.129207],[130.111254,33.12954],[130.111229,33.129998],[130.111254,33.130648],[130.111091,33.13119],[130.110891,33.131456],[130.110791,33.131548],[130.110429,33.131598],[130.109829,33.131506],[130.109516,33.131415],[130.108729,33.131006],[130.108116,33.130781],[130.107866,33.130765],[130.105891,33.131106],[130.104817,33.13119],[130.103992,33.131148],[130.103117,33.131015],[130.102067,33.13079],[130.100667,33.130456],[130.099842,33.130631],[130.098967,33.130865],[130.098305,33.131065],[130.097342,33.131248],[130.095755,33.131273],[130.094905,33.131114],[130.094455,33.130889],[130.094292,33.130756],[130.09358,33.129856],[130.093168,33.129515],[130.092205,33.129156],[130.091955,33.129131],[130.091518,33.129223],[130.09083,33.129473],[130.090005,33.129656],[130.088655,33.129723],[130.087993,33.129723],[130.087343,33.129631],[130.086518,33.129723],[130.085256,33.130014],[130.084018,33.130223],[130.082718,33.130648],[130.082369,33.130789],[130.081269,33.131173],[130.080719,33.131306],[130.080704,33.131055],[130.080833,33.130671],[130.080931,33.129998],[130.080681,33.129298],[130.077769,33.129189],[130.077806,33.130114],[130.077881,33.130606],[130.077881,33.130881],[130.077394,33.131014],[130.077007,33.131081],[130.076707,33.131039],[130.076069,33.130631],[130.075632,33.130456],[130.075469,33.130431],[130.074169,33.130497],[130.073657,33.130614],[130.073157,33.130839],[130.072557,33.130972],[130.07222,33.131114],[130.07187,33.131647],[130.071732,33.132081],[130.07157,33.132439],[130.07162,33.132755],[130.071732,33.133164],[130.071645,33.133522],[130.071345,33.133864],[130.070957,33.134155],[130.070437,33.134684],[130.070332,33.134764],[130.070607,33.134922],[130.070846,33.134694],[130.071132,33.134922],[130.071707,33.135372],[130.072144,33.135638],[130.072394,33.135838],[130.072894,33.136897],[130.073194,33.137422],[130.073519,33.13773],[130.074894,33.138588],[130.075057,33.138655],[130.075394,33.138696],[130.076269,33.139238],[130.077231,33.139963],[130.077918,33.140422],[130.078469,33.14068],[130.079319,33.140838],[130.080594,33.14113],[130.081106,33.141221],[130.081468,33.141146],[130.081793,33.14113],[130.083581,33.141513],[130.083668,33.141555],[130.083693,33.14153],[130.083806,33.141621],[130.085793,33.147429],[130.086018,33.147971],[130.08623,33.148221],[130.086455,33.148329],[130.086593,33.148579],[130.086618,33.148712],[130.08643,33.149437],[130.086455,33.149479],[130.086405,33.149504],[130.08668,33.149845],[130.087505,33.15052],[130.087605,33.150562],[130.08778,33.150762],[130.087805,33.151329],[130.087935,33.151979],[130.087943,33.152254],[130.087068,33.152678],[130.086405,33.152903],[130.085855,33.153178],[130.085443,33.153337],[130.085118,33.153537],[130.084568,33.15397],[130.084343,33.154262],[130.084118,33.154711],[130.084093,33.155886],[130.084018,33.15667],[130.084068,33.156945],[130.083955,33.157411],[130.083768,33.157936],[130.083743,33.158294],[130.08363,33.158519],[130.083518,33.158544],[130.083031,33.158519],[130.082693,33.158544],[130.082368,33.158703],[130.082068,33.159019],[130.081293,33.160078],[130.080943,33.160503],[130.079893,33.161902],[130.079681,33.162327],[130.079343,33.163502],[130.079381,33.164152],[130.079681,33.165594],[130.079793,33.166002],[130.079818,33.166952],[130.079743,33.167577],[130.079518,33.168143],[130.079493,33.168593],[130.079606,33.169202],[130.079544,33.169968],[130.079356,33.170385],[130.079119,33.170651],[130.078331,33.171076],[130.077738,33.17149],[130.077278,33.171823],[130.076769,33.172126],[130.076369,33.171807],[130.075856,33.171243],[130.075539,33.170855],[130.075057,33.17041],[130.074694,33.169993],[130.074407,33.169685],[130.074107,33.169301],[130.073799,33.169018],[130.073657,33.168893],[130.073419,33.168485],[130.073057,33.168193],[130.072832,33.168085],[130.072644,33.167835],[130.072282,33.167252],[130.071894,33.166868],[130.071382,33.166577],[130.071069,33.166485],[130.070932,33.16651],[130.070519,33.16671],[130.06967,33.167068],[130.069232,33.167118],[130.068707,33.16696],[130.068295,33.166893],[130.068132,33.166893],[130.067745,33.167052],[130.067532,33.167185],[130.066895,33.16771],[130.066407,33.167976],[130.065957,33.16811],[130.065632,33.168185],[130.06517,33.168135],[130.065033,33.168026],[130.06497,33.16771],[130.064758,33.16751],[130.064195,33.167327],[130.063508,33.167218],[130.063095,33.167218],[130.062683,33.167326],[130.062108,33.167576],[130.06167,33.167735],[130.061508,33.16776],[130.060983,33.16771],[130.059996,33.16756],[130.059608,33.167376],[130.059146,33.16706],[130.059633,33.166727],[130.059796,33.166652],[130.059796,33.166452],[130.060133,33.166452],[130.060133,33.166227],[130.059858,33.166135],[130.059971,33.165868],[130.060071,33.165527],[130.060071,33.165302],[130.060321,33.164718],[130.059683,33.164518],[130.059008,33.165935],[130.059083,33.166002],[130.059083,33.166068],[130.059008,33.166135],[130.058421,33.16636],[130.058027,33.166446],[130.057959,33.166326],[130.058046,33.166002],[130.057933,33.165935],[130.057133,33.165618],[130.056746,33.165285],[130.056671,33.16501],[130.056858,33.164002],[130.057021,33.163569],[130.057021,33.163052],[130.056933,33.162669],[130.056796,33.16231],[130.056446,33.161794],[130.056267,33.161626],[130.055996,33.161519],[130.055446,33.161502],[130.054896,33.161369],[130.054484,33.161369],[130.053884,33.16141],[130.053521,33.161344],[130.052871,33.16116],[130.051597,33.160944],[130.050747,33.160694],[130.049897,33.160244],[130.049459,33.159902],[130.048609,33.158961],[130.048409,33.158827],[130.047697,33.158761],[130.047197,33.158777],[130.04646,33.158644],[130.04591,33.158469],[130.04561,33.158444],[130.045222,33.158286],[130.044647,33.158177],[130.044097,33.158244],[130.043797,33.158152],[130.043347,33.157861],[130.043022,33.157794],[130.04261,33.157819],[130.042498,33.157885],[130.042248,33.158202],[130.042148,33.158494],[130.04201,33.159419],[130.041862,33.159486],[130.041493,33.159468],[130.041148,33.159444],[130.040223,33.15946],[130.039773,33.159419],[130.039619,33.159416],[130.03936,33.159377],[130.038919,33.159296],[130.038573,33.159219],[130.038048,33.159177],[130.037711,33.159019],[130.037198,33.15836],[130.036811,33.158135],[130.036536,33.158027],[130.036311,33.157844],[130.036036,33.157552],[130.035848,33.15746],[130.03564,33.157396],[130.035436,33.157327],[130.035161,33.157285],[130.034773,33.157352],[130.034361,33.15751],[130.033761,33.157802],[130.033511,33.157869],[130.033398,33.157827],[130.033011,33.157352],[130.032874,33.15706],[130.032824,33.156769],[130.032849,33.156477],[130.032986,33.156202],[130.033199,33.155419],[130.033398,33.155185],[130.033423,33.154919],[130.033373,33.154602],[130.033561,33.153994],[130.033536,33.153794],[130.033373,33.153661],[130.033011,33.153502],[130.032686,33.153277],[130.032461,33.153027],[130.032274,33.152961],[130.031686,33.152986],[130.031411,33.152961],[130.031249,33.152619],[130.030974,33.152219],[130.030724,33.152086],[130.030511,33.151836],[130.030286,33.151494],[130.030211,33.151177],[130.030124,33.150102],[130.029986,33.149811],[130.029111,33.148953],[130.028961,33.148544],[130.028824,33.148294],[130.028524,33.148211],[130.028274,33.148253],[130.027487,33.148569],[130.027124,33.148661],[130.026574,33.148777],[130.026162,33.148886],[130.024949,33.149386],[130.024712,33.149452],[130.024212,33.149519],[130.023937,33.149702],[130.023387,33.149861],[130.022924,33.149927],[130.022699,33.150061],[130.022287,33.150627],[130.0222,33.150802],[130.021987,33.15101],[130.021762,33.151102],[130.021412,33.15121],[130.020387,33.151419],[130.019762,33.151577],[130.019487,33.151552],[130.019375,33.15146],[130.018875,33.151327],[130.018362,33.151127],[130.018137,33.151077],[130.0177,33.150927],[130.017595,33.150887],[130.017134,33.150647],[130.01685,33.150385],[130.016675,33.150069],[130.016487,33.149869],[130.015613,33.149277],[130.01525,33.149194],[130.014863,33.149169],[130.014175,33.148944],[130.0139,33.14881],[130.013575,33.148294],[130.013238,33.148019],[130.012638,33.147727],[130.012175,33.14766],[130.011375,33.147685],[130.010875,33.147752],[130.010463,33.147752],[130.01005,33.147794],[130.009888,33.147844],[130.009563,33.148044],[130.009226,33.148069],[130.008926,33.147885],[130.008101,33.147169],[130.007801,33.14701],[130.007601,33.146969],[130.007163,33.146969],[130.006538,33.14681],[130.006401,33.146744],[130.005926,33.146677],[130.005788,33.14661],[130.005651,33.146402],[130.005538,33.146069],[130.005326,33.145844],[130.004064,33.14526],[130.003839,33.145077],[130.003864,33.144894],[130.004114,33.144244],[130.004026,33.143861],[130.003539,33.143361],[130.003476,33.141919],[130.003614,33.141494],[130.004139,33.140903],[130.004364,33.140478],[130.004526,33.139936],[130.004614,33.139444],[130.004614,33.139078],[130.004276,33.138811],[130.003814,33.138628],[130.003592,33.138519],[130.003153,33.138304],[130.002301,33.137953],[130.001501,33.137528],[130.000264,33.13667],[129.999414,33.136603],[129.999027,33.136653],[129.998814,33.136761],[129.998677,33.13697],[129.998564,33.137061],[129.998452,33.137061],[129.998064,33.136853],[129.997725,33.136783],[129.997189,33.136903],[129.996577,33.136995],[129.995265,33.137028],[129.99454,33.136961],[129.99379,33.136794],[129.993252,33.136769],[129.992827,33.136819],[129.992577,33.136686],[129.99214,33.135861],[129.991952,33.135703],[129.990953,33.135261],[129.990628,33.134861],[129.990303,33.134795],[129.989928,33.134953],[129.989553,33.135178],[129.98899,33.13532],[129.988678,33.13517],[129.98829,33.134495],[129.988228,33.134295],[129.988703,33.133412],[129.98889,33.133162],[129.988965,33.132962],[129.989365,33.132503],[129.98984,33.132095],[129.990203,33.131578],[129.99044,33.131353],[129.99084,33.130737],[129.991028,33.130537],[129.99139,33.130237],[129.991553,33.130062],[129.991765,33.129612],[129.99189,33.129454],[129.992315,33.129129],[129.992555,33.128854],[129.99304,33.128537],[129.993378,33.128246],[129.993574,33.128132],[129.993803,33.127996],[129.994353,33.127271],[129.99454,33.127112],[129.994778,33.126996],[129.99484,33.126929],[129.99499,33.126296],[129.995106,33.125558],[129.995078,33.124679],[129.995128,33.124138],[129.99509,33.123805],[129.99474,33.123538],[129.994603,33.12313],[129.994566,33.122863],[129.994403,33.122588],[129.994378,33.122413],[129.994528,33.121938],[129.994478,33.121646],[129.994466,33.121197],[129.993828,33.11983],[129.993528,33.119497],[129.993341,33.118955],[129.993091,33.118622],[129.993066,33.118372],[129.993166,33.118039],[129.993541,33.117897],[129.993779,33.117739],[129.993829,33.117647],[129.993879,33.117222],[129.993829,33.11713],[129.993641,33.117089],[129.993579,33.117114],[129.992929,33.116755],[129.992641,33.116689],[129.992529,33.116647],[129.992454,33.116447],[129.992466,33.116039],[129.992391,33.115722],[129.992166,33.115522],[129.991254,33.115422],[129.990967,33.115439],[129.990504,33.115764],[129.989979,33.116039],[129.989029,33.117014],[129.988592,33.117039],[129.988092,33.117105],[129.987767,33.117339],[129.987317,33.117472],[129.986704,33.117347],[129.986267,33.117055],[129.98583,33.116289],[129.985505,33.115939],[129.985155,33.115739],[129.985017,33.115622],[129.98488,33.115155],[129.984205,33.11473],[129.98388,33.114714],[129.983455,33.114939],[129.983205,33.114964],[129.982617,33.114897],[129.982692,33.113981],[129.982655,33.113797],[129.982355,33.113397],[129.981955,33.113039],[129.98173,33.112747],[129.98138,33.112731],[129.980768,33.112597],[129.980255,33.112422],[129.979993,33.112556],[129.979743,33.112539],[129.978993,33.111889],[129.97858,33.111397],[129.97828,33.111381],[129.97773,33.111497],[129.97748,33.111389],[129.977555,33.111097],[129.977443,33.110806],[129.97713,33.110714],[129.976755,33.110739],[129.97648,33.110447],[129.976155,33.110381],[129.97493,33.110572],[129.974768,33.110639],[129.97418,33.111414],[129.973656,33.111689],[129.97303,33.112797],[129.97278,33.112905],[129.972143,33.112955],[129.971631,33.113097],[129.971343,33.113389],[129.970918,33.113572],[129.970468,33.113872],[129.970393,33.114005],[129.970118,33.11428],[129.969831,33.114663],[129.969256,33.115205],[129.968768,33.115347],[129.967506,33.11488],[129.966831,33.114572],[129.966206,33.114397],[129.965681,33.114355],[129.965543,33.114405],[129.965143,33.114697],[129.964831,33.115222],[129.964506,33.115355],[129.964406,33.115355],[129.963868,33.115138],[129.963406,33.114822],[129.962968,33.11433],[129.962506,33.114047],[129.961106,33.113605],[129.960406,33.113297],[129.959844,33.11278],[129.959481,33.112338],[129.959244,33.111822],[129.959019,33.111055],[129.959031,33.110405],[129.958844,33.109955],[129.958731,33.109489],[129.958506,33.109105],[129.958106,33.108997],[129.957431,33.109047],[129.956619,33.10858],[129.956382,33.108472],[129.955682,33.108314],[129.954844,33.108214],[129.954157,33.108305],[129.953707,33.108647],[129.952982,33.109055],[129.952507,33.109172],[129.951884,33.109663],[129.951576,33.10987],[129.951357,33.109997],[129.951519,33.110172],[129.951832,33.111338],[129.952082,33.111922],[129.952469,33.112413],[129.952757,33.112588],[129.953057,33.113013],[129.953494,33.113505],[129.954094,33.113821],[129.954581,33.114221],[129.954744,33.114963],[129.955419,33.116713],[129.955719,33.117154],[129.956119,33.117421],[129.956581,33.117979],[129.956644,33.118479],[129.956569,33.119171],[129.956344,33.120371],[129.956356,33.120754],[129.956518,33.121762],[129.956318,33.12282],[129.956531,33.123945],[129.956593,33.125362],[129.956531,33.126795],[129.956181,33.128778],[129.955981,33.129186],[129.955868,33.129253],[129.955418,33.129886],[129.954468,33.130728],[129.954531,33.131044],[129.954443,33.131153],[129.953993,33.131403],[129.953656,33.131769],[129.953581,33.132128],[129.953468,33.132378],[129.952881,33.132428],[129.952293,33.132319],[129.951506,33.131969],[129.951156,33.132036],[129.950793,33.132353],[129.950443,33.132761],[129.949918,33.133261],[129.949681,33.133327],[129.949169,33.133561],[129.948881,33.133786],[129.948831,33.134211],[129.948943,33.134686],[129.948918,33.135177],[129.948843,33.13561],[129.948956,33.135985],[129.949256,33.136185],[129.949393,33.136527],[129.949318,33.136794],[129.948981,33.137202],[129.948656,33.137385],[129.948093,33.137794],[129.947918,33.138044],[129.948143,33.138668],[129.948256,33.13921],[129.948218,33.140585],[129.948081,33.140918],[129.947643,33.141735],[129.947568,33.142118],[129.947593,33.14266],[129.947418,33.143201],[129.947018,33.143676],[129.946518,33.14406],[129.946068,33.144085],[129.945768,33.144151],[129.945693,33.144518],[129.945668,33.144984],[129.945493,33.145551],[129.945093,33.145984],[129.944906,33.146301],[129.945006,33.147043],[129.945006,33.147417],[129.944856,33.148184],[129.944693,33.148459],[129.944168,33.149184],[129.944006,33.149317],[129.943906,33.149476],[129.943906,33.149634],[129.943806,33.150126],[129.943618,33.150442],[129.943468,33.15085],[129.943606,33.151142],[129.943631,33.151342],[129.943406,33.151817],[129.943243,33.152342],[129.943306,33.153234],[129.943368,33.153842],[129.943318,33.15425],[129.943168,33.154725],[129.943118,33.154767],[129.942806,33.155358],[129.941594,33.157208],[129.941444,33.158158],[129.941481,33.158875],[129.941381,33.159366],[129.941443,33.159883],[129.941543,33.160108],[129.941818,33.16045],[129.941956,33.160958],[129.942106,33.161974],[129.942856,33.163383],[129.943206,33.163966],[129.943406,33.164457],[129.944137,33.16463],[129.944906,33.164516],[129.945431,33.163991],[129.945881,33.163408],[129.946381,33.162999],[129.946806,33.162566],[129.947018,33.162074],[129.947256,33.161733],[129.947706,33.161233],[129.94898,33.160258],[129.949055,33.1601],[129.94948,33.159758],[129.950143,33.1591],[129.950543,33.158741],[129.951418,33.157833],[129.951705,33.157358],[129.951855,33.156908],[129.952093,33.156433],[129.95313,33.1562],[129.953692,33.155992],[129.955292,33.155308],[129.955855,33.155142],[129.956255,33.154917],[129.956542,33.154825],[129.95733,33.154975],[129.957917,33.15495],[129.958405,33.154992],[129.958888,33.155166],[129.959417,33.15525],[129.960067,33.1552],[129.960417,33.155225],[129.961817,33.155617],[129.962517,33.156017],[129.962979,33.156442],[129.963279,33.157],[129.963416,33.157492],[129.964191,33.159125],[129.964316,33.159735],[129.964366,33.1605],[129.964554,33.160833],[129.964941,33.161308],[129.965216,33.161908],[129.965541,33.16245],[129.966279,33.162825],[129.966654,33.163183],[129.967328,33.163674],[129.968441,33.164116],[129.968978,33.164174],[129.969403,33.163883],[129.969653,33.163383],[129.970003,33.1632],[129.970403,33.163291],[129.971066,33.164049],[129.971166,33.164066],[129.971328,33.164],[129.971753,33.163641],[129.972315,33.163433],[129.972878,33.16345],[129.973628,33.163941],[129.97379,33.163983],[129.974565,33.163883],[129.975215,33.163675],[129.975378,33.163725],[129.975565,33.164083],[129.976053,33.164575],[129.976827,33.165916],[129.97704,33.166499],[129.976915,33.167016],[129.976415,33.167583],[129.975915,33.167966],[129.975702,33.168424],[129.975715,33.169391],[129.975665,33.169774],[129.975752,33.169991],[129.97584,33.170407],[129.97594,33.170716],[129.975815,33.171232],[129.975777,33.171974],[129.975802,33.172241],[129.97564,33.172824],[129.975804,33.173098],[129.975915,33.173324],[129.975965,33.17359],[129.97594,33.173882],[129.97604,33.174357],[129.976102,33.174424],[129.976452,33.174449],[129.976584,33.174656],[129.976665,33.174874],[129.976477,33.175324],[129.976552,33.175549],[129.97669,33.175749],[129.977327,33.176399],[129.97784,33.176715],[129.977964,33.176795],[129.978165,33.176982],[129.978265,33.177257],[129.978502,33.177432],[129.978727,33.177524],[129.979015,33.177749],[129.979227,33.178248],[129.979252,33.178582],[129.979259,33.178638],[129.979252,33.17869],[129.979202,33.17894],[129.979365,33.179165],[129.979627,33.179257],[129.979739,33.17944],[129.979652,33.180265],[129.979739,33.180332],[129.980189,33.180382],[129.981214,33.180315],[129.981539,33.180273],[129.981827,33.18014],[129.982264,33.180115],[129.982502,33.180165],[129.982927,33.180565],[129.983064,33.180815],[129.983177,33.181307],[129.983089,33.18234],[129.983089,33.182948],[129.983252,33.18361],[129.983511,33.183803],[129.983864,33.183756],[129.984189,33.183823],[129.984452,33.183915],[129.984614,33.183915],[129.985689,33.18374],[129.985989,33.183832],[129.986526,33.184032],[129.986748,33.184191],[129.986901,33.184482],[129.987026,33.18504],[129.987139,33.185198],[129.987214,33.185248],[129.987514,33.185315],[129.987614,33.185448],[129.987564,33.185648],[129.987519,33.18574],[129.987451,33.185873],[129.987235,33.186304],[129.987101,33.186773],[129.987001,33.18729],[129.987026,33.187665],[129.987078,33.187964],[129.987101,33.188248],[129.987239,33.188656],[129.987964,33.189623],[129.988126,33.189981],[129.988089,33.190139],[129.988021,33.190531],[129.988114,33.190839],[129.988251,33.191039],[129.988364,33.191064],[129.989251,33.191039],[129.989588,33.191314],[129.989676,33.191623],[129.989701,33.192414],[129.989776,33.192856],[129.990026,33.193514],[129.990026,33.193623],[129.989751,33.194006],[129.989676,33.194231],[129.989751,33.194589],[129.989963,33.194947],[129.990451,33.195331],[129.990763,33.195731],[129.990915,33.195966],[129.991244,33.196102],[129.991622,33.196118],[129.992088,33.196189],[129.992371,33.196495],[129.992426,33.196972],[129.992376,33.197106],[129.992351,33.197464],[129.992588,33.197872],[129.992589,33.198345],[129.992588,33.198722],[129.992563,33.199014],[129.992638,33.199439],[129.992638,33.19978],[129.992538,33.199955],[129.992238,33.200022],[129.991813,33.199914],[129.991726,33.199864],[129.991513,33.199864],[129.991088,33.199664],[129.990763,33.199639],[129.989713,33.199947],[129.989151,33.200014],[129.988401,33.199997],[129.987914,33.20008],[129.987426,33.200214],[129.987139,33.200347],[129.986439,33.200505],[129.986064,33.20053],[129.985714,33.200613],[129.985364,33.200638],[129.984964,33.200747],[129.984589,33.200905],[129.983677,33.200988],[129.983464,33.201038],[129.983052,33.20133],[129.982953,33.201428],[129.982864,33.201505],[129.982252,33.201597],[129.981577,33.202263],[129.981202,33.202355],[129.980852,33.202263],[129.980177,33.202355],[129.979327,33.201838],[129.978952,33.20168],[129.978652,33.20163],[129.978352,33.201446],[129.97779,33.20163],[129.977465,33.201805],[129.977365,33.202146],[129.97709,33.202146],[129.976265,33.202321],[129.976177,33.202296],[129.976052,33.202188],[129.975965,33.201846],[129.975965,33.201738],[129.97584,33.201688],[129.97559,33.201713],[129.974603,33.202205],[129.97384,33.202696],[129.972965,33.202788],[129.97264,33.202671],[129.97239,33.202738],[129.972265,33.202896],[129.971803,33.203029],[129.971378,33.202871],[129.97114,33.202829],[129.969903,33.202796],[129.969653,33.202688],[129.969441,33.202329],[129.969341,33.202263],[129.968403,33.202371],[129.968103,33.202596],[129.967916,33.202838],[129.967703,33.202863],[129.967403,33.202954],[129.967291,33.203063],[129.967103,33.203379],[129.966728,33.203354],[129.966378,33.203396],[129.966328,33.203529],[129.966941,33.204121],[129.967316,33.204454],[129.967778,33.204796],[129.968253,33.205329],[129.968441,33.205671],[129.968503,33.205988],[129.968603,33.206279],[129.968928,33.206546],[129.969253,33.206704],[129.969353,33.206954],[129.969628,33.207737],[129.969783,33.208025],[129.970078,33.208546],[129.970503,33.208954],[129.970878,33.209196],[129.971928,33.209496],[129.972253,33.209654],[129.972565,33.209962],[129.972028,33.210596],[129.971603,33.210929],[129.97139,33.211037],[129.97064,33.210946],[129.96994,33.210929],[129.969215,33.210721],[129.968822,33.210646],[129.968407,33.21067],[129.967953,33.210812],[129.967678,33.210829],[129.967228,33.210671],[129.966615,33.210179],[129.966615,33.210112],[129.96674,33.210046],[129.967015,33.209996],[129.967115,33.209912],[129.96704,33.209796],[129.966778,33.209837],[129.966203,33.209862],[129.96594,33.209837],[129.965703,33.209729],[129.965241,33.209729],[129.964353,33.209412],[129.963953,33.209321],[129.963603,33.209162],[129.963041,33.208662],[129.962691,33.208621],[129.962053,33.208621],[129.961566,33.208412],[129.960866,33.207896],[129.960391,33.207787],[129.960091,33.207671],[129.959791,33.207471],[129.959391,33.207287],[129.958941,33.207154],[129.958454,33.206946],[129.958379,33.206862],[129.958191,33.206787],[129.957704,33.206837],[129.957354,33.206612],[129.956691,33.206021],[129.956341,33.205862],[129.955966,33.205846],[129.955504,33.205929],[129.955016,33.205862],[129.954454,33.205862],[129.953654,33.206087],[129.953279,33.205971],[129.952604,33.205612],[129.952479,33.205337],[129.952254,33.205096],[129.951804,33.205071],[129.950729,33.205112],[129.950492,33.205362],[129.950354,33.205829],[129.950479,33.206371],[129.950754,33.206637],[129.950967,33.206754],[129.951292,33.207429],[129.951217,33.207724],[129.950917,33.207946],[129.950804,33.208162],[129.950692,33.208612],[129.950967,33.209287],[129.951067,33.209712],[129.951369,33.210469],[129.951579,33.211045],[129.951648,33.211439],[129.951604,33.211829],[129.951541,33.212145],[129.951629,33.212437],[129.951791,33.212545],[129.952054,33.212637],[129.952754,33.212754],[129.952991,33.213628],[129.952991,33.21367],[129.952216,33.21407],[129.951891,33.21432],[129.951566,33.214478],[129.951116,33.214545],[129.950741,33.214745],[129.950579,33.214945],[129.950254,33.21557],[129.950066,33.215795],[129.949741,33.215912],[129.949367,33.215887],[129.948967,33.215678],[129.948029,33.215053],[129.947917,33.215003],[129.947592,33.214987],[129.946767,33.215253],[129.946354,33.215403],[129.946279,33.215495],[129.946354,33.215853],[129.946629,33.216353],[129.946867,33.216645],[129.947079,33.216978],[129.947129,33.217178],[129.947054,33.217786],[129.947179,33.218195],[129.947429,33.218528],[129.947742,33.21882],[129.948629,33.219253],[129.948816,33.219495],[129.949116,33.220936],[129.949141,33.221269],[129.949596,33.222037],[129.949764,33.222481],[129.949854,33.222778],[129.949991,33.223069],[129.950016,33.223453],[129.949916,33.223853],[129.949566,33.224436],[129.949241,33.224794],[129.949054,33.225111],[129.948566,33.226411],[129.948129,33.226769],[129.947916,33.227152],[129.947841,33.227577],[129.947729,33.22791],[129.947454,33.228294],[129.94734,33.228536],[129.947191,33.22881],[129.947104,33.228927],[129.946654,33.229194],[129.946192,33.229194],[129.945092,33.229594],[129.944367,33.229794],[129.943992,33.229952],[129.943242,33.230352],[129.942867,33.230668],[129.941892,33.231135],[129.941604,33.231202],[129.941113,33.231195],[129.940717,33.231285],[129.940305,33.231443],[129.939905,33.231468],[129.939742,33.231377],[129.939367,33.231035],[129.938892,33.230835],[129.93848,33.23081],[129.93798,33.230477],[129.93773,33.230427],[129.937092,33.230227],[129.936655,33.230202],[129.936117,33.230293],[129.935742,33.230135],[129.935343,33.229818],[129.93508,33.229527],[129.933893,33.229343],[129.93213,33.229568],[129.931718,33.229652],[129.931393,33.229835],[129.931343,33.229943],[129.931243,33.230102],[129.93123,33.23066],[129.931393,33.231068],[129.931634,33.231423],[129.931818,33.231743],[129.933005,33.232593],[129.933243,33.232843],[129.93338,33.233093],[129.933455,33.233385],[129.93338,33.233718],[129.933405,33.23401],[129.93348,33.234218],[129.933755,33.234526],[129.93418,33.235201],[129.934717,33.235968],[129.935255,33.236151],[129.935567,33.236193],[129.936167,33.236668],[129.93648,33.237026],[129.936667,33.237301],[129.936592,33.237568],[129.93643,33.237793],[129.93638,33.238101],[129.936405,33.238576],[129.93648,33.238693],[129.936717,33.238843],[129.937092,33.239026],[129.93723,33.239159],[129.937205,33.239184],[129.93728,33.239634],[129.937467,33.239859],[129.937605,33.239951],[129.937842,33.240218],[129.938005,33.240468],[129.938055,33.240826],[129.93803,33.241026],[129.938142,33.241317],[129.938305,33.241384],[129.938517,33.241384],[129.938967,33.241184],[129.939317,33.240984],[129.939879,33.240743],[129.940204,33.241301],[129.940129,33.241926],[129.940154,33.242217],[129.940342,33.242359],[129.940554,33.242426],[129.940692,33.242601],[129.940817,33.242942],[129.941117,33.243526],[129.941542,33.244001],[129.941729,33.244492],[129.942054,33.244742],[129.942717,33.24535],[129.943204,33.245525],[129.943417,33.245659],[129.943979,33.246134],[129.944354,33.246159],[129.944679,33.246267],[129.944979,33.246609],[129.945354,33.247217],[129.945379,33.247867],[129.945504,33.24805],[129.945804,33.24825],[129.946366,33.248542],[129.946791,33.249084],[129.946816,33.250183],[129.947029,33.250567],[129.947029,33.2507],[129.946679,33.251033],[129.946554,33.251283],[129.946604,33.251392],[129.946841,33.251667],[129.947085,33.251854],[129.947404,33.251975],[129.948004,33.251692],[129.948404,33.251667],[129.948566,33.251758],[129.948729,33.252],[129.949129,33.252542],[129.949254,33.252658],[129.949579,33.253108],[129.949666,33.253316],[129.949779,33.2535],[129.950066,33.253816],[129.950231,33.254023],[129.950441,33.254183],[129.950754,33.2543],[129.951003,33.254433],[129.951053,33.254616],[129.950966,33.255266],[129.950878,33.255516],[129.950966,33.255808],[129.950903,33.255916],[129.950741,33.2561],[129.950629,33.256416],[129.950579,33.256999],[129.950916,33.257208],[129.951778,33.257274],[129.953316,33.257133],[129.953928,33.257],[129.954203,33.256975],[129.955391,33.256716],[129.956603,33.256425],[129.956891,33.256433],[129.957028,33.256358],[129.957141,33.256158],[129.957141,33.256091],[129.957303,33.255916],[129.958216,33.255375],[129.959403,33.25475],[129.95994,33.254641],[129.960453,33.254625],[129.960915,33.254741],[129.961203,33.254941],[129.961578,33.255258],[129.962278,33.255808],[129.963015,33.256308],[129.96339,33.256516],[129.96369,33.256766],[129.963653,33.257008],[129.963903,33.25735],[129.96419,33.257599],[129.964678,33.257916],[129.964915,33.258191],[129.965228,33.258799],[129.965328,33.259233],[129.965403,33.259858],[129.965353,33.260424],[129.965428,33.260516],[129.96629,33.260791],[129.966765,33.261066],[129.967303,33.261266],[129.968102,33.261457],[129.969177,33.261391],[129.969715,33.261282],[129.970252,33.261307],[129.970602,33.261449],[129.970902,33.261607],[129.971215,33.261832],[129.971352,33.262016],[129.971427,33.262332],[129.971377,33.262624],[129.971077,33.263182],[129.97104,33.263407],[129.971152,33.26364],[129.971627,33.263999],[129.971927,33.264299],[129.972077,33.264524],[129.972102,33.26484],[129.972015,33.265582],[129.972102,33.265807],[129.972602,33.266307],[129.972715,33.266532],[129.97294,33.267232],[129.972865,33.267498],[129.972752,33.268023],[129.972477,33.268607],[129.972877,33.268948],[129.973952,33.269515],[129.975127,33.270198],[129.976052,33.270948],[129.976477,33.271423],[129.976777,33.27219],[129.976952,33.272373],[129.977652,33.272781],[129.978452,33.273373],[129.979651,33.274123],[129.981076,33.274814],[129.981426,33.274923],[129.982764,33.275222],[129.983589,33.275364],[129.983976,33.275347],[129.984264,33.275256],[129.984351,33.275189],[129.984639,33.275172],[129.984864,33.275239],[129.985288,33.275306],[129.986488,33.275656],[129.986876,33.275706],[129.987276,33.275906],[129.987751,33.276114],[129.988613,33.276006],[129.988913,33.276031],[129.989263,33.276147],[129.989601,33.276305],[129.990513,33.276922],[129.991126,33.277214],[129.991501,33.277355],[129.991588,33.277464],[129.991851,33.278213],[129.992088,33.27853],[129.9927,33.278663],[129.993213,33.278672],[129.993375,33.278713],[129.993775,33.278738],[129.994338,33.278838],[129.994663,33.278813],[129.995275,33.278888],[129.99665,33.278963],[129.997488,33.27908],[129.998762,33.27923],[129.999037,33.279297],[129.999812,33.279755],[130.000137,33.279838],[130.001125,33.279863],[130.001425,33.280113],[130.001912,33.280763],[130.002149,33.280922],[130.003174,33.28088],[130.005024,33.280747],[130.006374,33.280564],[130.006474,33.28048],[130.006726,33.280236],[130.007036,33.280022],[130.007499,33.279822],[130.007761,33.279647],[130.008224,33.279555],[130.008461,33.279597],[130.008949,33.279955],[130.009274,33.280139],[130.009399,33.280389],[130.009624,33.280639],[130.009886,33.280772],[130.010048,33.280797],[130.010373,33.28093],[130.010798,33.281039],[130.011548,33.281022],[130.011961,33.281497],[130.012386,33.28163],[130.013061,33.282039],[130.013161,33.28208],[130.013411,33.282055],[130.014161,33.28143],[130.014536,33.281289],[130.015886,33.281272],[130.017335,33.281406],[130.01806,33.281381],[130.020048,33.281181],[130.022248,33.281139],[130.02251,33.281231],[130.022897,33.281456],[130.023535,33.281564],[130.023925,33.281888],[130.02421,33.282089],[130.02451,33.282264],[130.025053,33.282801],[130.025447,33.283147]]]}}]}