{"type":"FeatureCollection","features":[{"type":"Feature","properties":{"kuni":"肥後","id":"G68007","kuni_url":"/kg/resource/K68.html","id_url":"G68007.html","kuni_id":"K68","pref":"熊本県","name":"山本","yomi":"やまもと"},"geometry":{"coordinates":[[[130.733559,32.972024],[130.733409,32.971866],[130.732334,32.970633],[130.731109,32.9692],[130.731009,32.969091],[130.730834,32.968891],[130.730572,32.968575],[130.729972,32.967858],[130.729884,32.967792],[130.729659,32.967492],[130.729459,32.967192],[130.729347,32.967092],[130.729172,32.966983],[130.728934,32.966758],[130.728759,32.9666],[130.728709,32.96655],[130.728497,32.966275],[130.728347,32.96605],[130.728272,32.965725],[130.728197,32.96545],[130.728185,32.965342],[130.728235,32.965175],[130.728372,32.965067],[130.728497,32.965],[130.728485,32.96495],[130.728372,32.964875],[130.72821,32.964834],[130.728097,32.964742],[130.728047,32.964592],[130.728022,32.964442],[130.728085,32.964217],[130.728247,32.963867],[130.728497,32.9635],[130.72881,32.963034],[130.728885,32.962884],[130.728972,32.962709],[130.728997,32.962575],[130.728985,32.962359],[130.72886,32.962142],[130.728797,32.961967],[130.728772,32.961676],[130.72861,32.961326],[130.728597,32.961101],[130.728647,32.960909],[130.72886,32.960659],[130.729122,32.960426],[130.72921,32.960317],[130.729247,32.960051],[130.72926,32.959901],[130.729385,32.959709],[130.72941,32.959676],[130.729647,32.959426],[130.72976,32.959259],[130.729835,32.959151],[130.729922,32.958959],[130.729935,32.958759],[130.729885,32.958401],[130.73001,32.958243],[130.730135,32.958143],[130.730222,32.958093],[130.730785,32.958034],[130.73081,32.957918],[130.73076,32.957809],[130.730497,32.957684],[130.730297,32.957543],[130.730122,32.957384],[130.729847,32.957026],[130.729722,32.956851],[130.729597,32.956634],[130.729585,32.956534],[130.729572,32.956443],[130.729572,32.956076],[130.729547,32.955726],[130.729535,32.95566],[130.729397,32.955193],[130.72946,32.954776],[130.729472,32.954593],[130.729597,32.954126],[130.72956,32.953901],[130.729572,32.953685],[130.729647,32.953552],[130.72976,32.953452],[130.72986,32.953402],[130.729897,32.95331],[130.729872,32.953268],[130.729747,32.952752],[130.729572,32.952227],[130.729522,32.95201],[130.72956,32.951752],[130.729572,32.951652],[130.729572,32.951502],[130.729497,32.951327],[130.729285,32.950902],[130.729235,32.950768],[130.729222,32.95066],[130.72921,32.950593],[130.729235,32.950543],[130.729297,32.950493],[130.729347,32.95046],[130.729397,32.950435],[130.729447,32.950418],[130.729497,32.950385],[130.729535,32.950368],[130.730072,32.950169],[130.730172,32.950135],[130.73026,32.950035],[130.730185,32.949919],[130.730172,32.949817],[130.73021,32.949685],[130.730297,32.949635],[130.730321,32.949508],[130.730235,32.949344],[130.729648,32.948652],[130.729498,32.948552],[130.729435,32.948502],[130.729423,32.948419],[130.729648,32.94821],[130.729623,32.948044],[130.729485,32.947827],[130.729498,32.947202],[130.729498,32.947052],[130.72951,32.946444],[130.728898,32.946386],[130.728598,32.946377],[130.72861,32.945736],[130.728685,32.945369],[130.728685,32.944961],[130.728685,32.944777],[130.728623,32.944461],[130.72851,32.944336],[130.728434,32.943911],[130.72886,32.942469],[130.729098,32.941861],[130.729448,32.941161],[130.72951,32.941061],[130.729598,32.940886],[130.729748,32.940428],[130.729798,32.940261],[130.730123,32.93962],[130.730598,32.939053],[130.730648,32.938878],[130.730698,32.938603],[130.730698,32.93792],[130.730685,32.937211],[130.730623,32.936578],[130.730635,32.935753],[130.730598,32.93492],[130.730573,32.934478],[130.730598,32.934112],[130.730685,32.93387],[130.73071,32.933778],[130.731135,32.933695],[130.731298,32.933662],[130.731635,32.933603],[130.732435,32.933595],[130.732673,32.933612],[130.732698,32.933612],[130.732735,32.933303],[130.732598,32.933295],[130.73196,32.933295],[130.731623,32.933287],[130.731248,32.933262],[130.731085,32.93327],[130.730935,32.933295],[130.73076,32.933312],[130.73061,32.933303],[130.73053,32.933305],[130.730448,32.933278],[130.730348,32.933228],[130.730248,32.933178],[130.730173,32.933145],[130.73006,32.933053],[130.730048,32.933012],[130.730048,32.932695],[130.72998,32.932538],[130.72991,32.932412],[130.729869,32.932328],[130.729698,32.932287],[130.72946,32.93227],[130.729185,32.93222],[130.729048,32.932195],[130.729023,32.93217],[130.729023,32.932112],[130.729048,32.931987],[130.729048,32.93182],[130.729048,32.931662],[130.729023,32.931603],[130.72896,32.931478],[130.728935,32.931245],[130.728948,32.931078],[130.729035,32.930854],[130.729123,32.930712],[130.72931,32.930579],[130.72941,32.930487],[130.729535,32.930395],[130.729623,32.930329],[130.729723,32.930245],[130.729785,32.930195],[130.729823,32.930154],[130.729885,32.930087],[130.72991,32.93002],[130.729923,32.929979],[130.729923,32.92987],[130.729898,32.929829],[130.729885,32.929795],[130.729823,32.929737],[130.72976,32.929704],[130.729648,32.92967],[130.729573,32.929645],[130.729498,32.929645],[130.729523,32.928779],[130.72956,32.928362],[130.729648,32.928095],[130.729785,32.92777],[130.729826,32.927622],[130.72986,32.927445],[130.729885,32.92732],[130.72981,32.927287],[130.729186,32.92717],[130.729011,32.927112],[130.728848,32.926954],[130.728711,32.926662],[130.728661,32.92652],[130.728373,32.925696],[130.728073,32.924962],[130.728011,32.924754],[130.727823,32.923671],[130.72777,32.92338],[130.727623,32.923137],[130.727337,32.922995],[130.727181,32.922767],[130.727111,32.922421],[130.727073,32.922204],[130.726986,32.921962],[130.726761,32.921604],[130.726661,32.921487],[130.726261,32.920821],[130.725986,32.920304],[130.725911,32.920121],[130.725873,32.920063],[130.725873,32.920029],[130.725886,32.919904],[130.725848,32.919729],[130.725786,32.919521],[130.725673,32.919246],[130.725398,32.918679],[130.725223,32.918263],[130.724923,32.917546],[130.724848,32.917104],[130.724823,32.916829],[130.724736,32.916221],[130.724673,32.915763],[130.724523,32.915313],[130.724273,32.914655],[130.724061,32.914188],[130.723711,32.91338],[130.723448,32.912638],[130.723398,32.91248],[130.723261,32.912005],[130.723098,32.91118],[130.722836,32.910138],[130.722748,32.90968],[130.722474,32.908588],[130.721936,32.90698],[130.721861,32.906422],[130.721849,32.906288],[130.721899,32.90588],[130.721999,32.905413],[130.722049,32.905005],[130.722199,32.904197],[130.722374,32.903105],[130.722549,32.902505],[130.722636,32.902005],[130.722761,32.901497],[130.722824,32.900839],[130.722861,32.900489],[130.722811,32.900297],[130.722611,32.899897],[130.722199,32.899322],[130.721924,32.898964],[130.721661,32.898681],[130.721299,32.898289],[130.721086,32.897981],[130.720724,32.897506],[130.720486,32.897214],[130.720124,32.897047],[130.719974,32.896972],[130.719498,32.896624],[130.718999,32.896706],[130.718774,32.896881],[130.718561,32.897006],[130.718336,32.897064],[130.717936,32.897147],[130.717499,32.897214],[130.717286,32.897231],[130.716874,32.897297],[130.716387,32.897372],[130.715974,32.897472],[130.715224,32.897672],[130.714449,32.897806],[130.714112,32.897822],[130.713812,32.897847],[130.713312,32.897831],[130.712912,32.897789],[130.712474,32.897739],[130.711962,32.897664],[130.711249,32.897547],[130.710399,32.897364],[130.7098,32.897247],[130.709012,32.897122],[130.708087,32.897356],[130.706625,32.897739],[130.7063,32.897781],[130.705762,32.897806],[130.705287,32.897822],[130.70485,32.89778],[130.70425,32.897622],[130.703937,32.897539],[130.703575,32.897372],[130.702975,32.897105],[130.70265,32.897022],[130.702313,32.896997],[130.7016,32.896939],[130.700963,32.89683],[130.700538,32.896722],[130.700013,32.89653],[130.699288,32.896189],[130.699075,32.896081],[130.698688,32.895806],[130.698563,32.895747],[130.698225,32.895472],[130.697967,32.895403],[130.6977,32.895347],[130.6973,32.895189],[130.696863,32.895122],[130.696413,32.895089],[130.695863,32.895064],[130.695551,32.895072],[130.694701,32.895097],[130.694063,32.895172],[130.693801,32.89523],[130.693263,32.895364],[130.693088,32.895422],[130.692826,32.895497],[130.692363,32.895664],[130.692263,32.895664],[130.692238,32.895547],[130.692213,32.894164],[130.692188,32.894006],[130.692201,32.893697],[130.692151,32.892756],[130.692063,32.890622],[130.692076,32.890456],[130.692063,32.889989],[130.692026,32.888898],[130.692101,32.888556],[130.692276,32.887264],[130.692338,32.887073],[130.692488,32.886623],[130.692688,32.886248],[130.693188,32.885415],[130.693876,32.884365],[130.694788,32.883348],[130.695176,32.882923],[130.695513,32.882556],[130.695743,32.882268],[130.695888,32.881998],[130.696351,32.88144],[130.696651,32.881173],[130.696738,32.881098],[130.697013,32.880715],[130.697076,32.88064],[130.697713,32.879907],[130.697838,32.879807],[130.698238,32.879432],[130.698375,32.879298],[130.698688,32.879024],[130.699138,32.878815],[130.70025,32.87849],[130.700575,32.878349],[130.700688,32.87829],[130.700863,32.878132],[130.701025,32.877882],[130.701113,32.877707],[130.701175,32.877182],[130.701238,32.876674],[130.701288,32.87624],[130.70135,32.875974],[130.701538,32.875416],[130.701613,32.875107],[130.701625,32.874791],[130.701513,32.874749],[130.701413,32.874732],[130.7012,32.874632],[130.7011,32.874616],[130.700838,32.874682],[130.70065,32.874741],[130.700338,32.874907],[130.700263,32.874982],[130.699913,32.875241],[130.699613,32.875491],[130.699288,32.875724],[130.699163,32.875765],[130.698588,32.875865],[130.698088,32.875965],[130.697851,32.87604],[130.697751,32.876074],[130.697551,32.876149],[130.697213,32.876232],[130.697038,32.876224],[130.696851,32.876215],[130.696301,32.876215],[130.694638,32.876215],[130.694088,32.876182],[130.693913,32.876165],[130.693818,32.876075],[130.693726,32.875857],[130.693501,32.875757],[130.693426,32.875774],[130.693076,32.876065],[130.692788,32.875815],[130.692638,32.87559],[130.692488,32.875532],[130.692251,32.87549],[130.691951,32.875432],[130.691676,32.875315],[130.690976,32.874807],[130.690651,32.874574],[130.690401,32.874449],[130.689289,32.874207],[130.688839,32.874074],[130.688451,32.873899],[130.688214,32.873799],[130.687839,32.873607],[130.687239,32.873432],[130.686576,32.87344],[130.686289,32.873449],[130.685739,32.873415],[130.685101,32.873349],[130.683826,32.87314],[130.683526,32.873115],[130.683114,32.873057],[130.682639,32.873015],[130.682539,32.873032],[130.682452,32.873015],[130.682102,32.872924],[130.681764,32.872774],[130.680127,32.872124],[130.679814,32.872007],[130.679289,32.871857],[130.678614,32.871599],[130.677902,32.871324],[130.677302,32.871024],[130.676902,32.870832],[130.67614,32.870474],[130.67574,32.870324],[130.67559,32.870257],[130.67534,32.870207],[130.674902,32.870099],[130.674727,32.870049],[130.674302,32.869874],[130.67404,32.869782],[130.67384,32.869724],[130.673527,32.869616],[130.672915,32.869474],[130.672403,32.869424],[130.671628,32.869391],[130.671203,32.869407],[130.670528,32.869274],[130.66919,32.869074],[130.668415,32.868966],[130.668065,32.868849],[130.667228,32.868591],[130.665978,32.868233],[130.664516,32.868049],[130.663666,32.867916],[130.662553,32.867774],[130.662328,32.867658],[130.661704,32.867424],[130.660816,32.867258],[130.660591,32.867149],[130.660204,32.866983],[130.659704,32.866924],[130.659641,32.866941],[130.658841,32.866724],[130.658679,32.866674],[130.658141,32.866516],[130.657379,32.866258],[130.657054,32.866074],[130.656804,32.865816],[130.656454,32.865524],[130.656117,32.865291],[130.655729,32.865116],[130.655292,32.864991],[130.655004,32.864924],[130.654692,32.864799],[130.654354,32.864608],[130.653829,32.864283],[130.653442,32.863933],[130.653279,32.863816],[130.653042,32.863683],[130.652792,32.863591],[130.652304,32.863433],[130.652042,32.863275],[130.651617,32.862975],[130.650742,32.86245],[130.650717,32.862441],[130.65068,32.862416],[130.650205,32.862175],[130.64943,32.861716],[130.649042,32.861466],[130.648355,32.861008],[130.64813,32.860883],[130.648042,32.860833],[130.647792,32.86075],[130.64708,32.860475],[130.64698,32.860425],[130.646868,32.860366],[130.646105,32.860066],[130.645768,32.859866],[130.645518,32.859783],[130.645255,32.8597],[130.645055,32.859608],[130.64473,32.859433],[130.64433,32.859208],[130.644018,32.859058],[130.643743,32.858833],[130.643181,32.858783],[130.643018,32.858775],[130.642543,32.858791],[130.642218,32.858808],[130.641731,32.858908],[130.641018,32.859166],[130.640468,32.85945],[130.640243,32.859541],[130.639681,32.859675],[130.639368,32.8597],[130.638893,32.859733],[130.638481,32.859775],[130.638194,32.859833],[130.637756,32.86005],[130.636981,32.86055],[130.636869,32.860575],[130.636506,32.860525],[130.636356,32.86055],[130.636156,32.860616],[130.635769,32.860783],[130.635419,32.860899],[130.635144,32.860949],[130.634831,32.860916],[130.634619,32.860791],[130.634869,32.861283],[130.635444,32.862141],[130.635619,32.862324],[130.635819,32.862483],[130.635981,32.862608],[130.63613,32.862752],[130.636231,32.862874],[130.636369,32.862999],[130.636794,32.863283],[130.636981,32.863466],[130.637181,32.863683],[130.637418,32.864008],[130.637856,32.864474],[130.637931,32.864549],[130.638381,32.864966],[130.638506,32.865133],[130.638506,32.865358],[130.638818,32.866266],[130.638881,32.866674],[130.639143,32.867624],[130.639318,32.868132],[130.639493,32.868507],[130.639855,32.869457],[130.63998,32.870007],[130.639993,32.870307],[130.639968,32.870741],[130.639905,32.871191],[130.639855,32.871715],[130.639755,32.872274],[130.63978,32.873032],[130.639793,32.873332],[130.639855,32.873482],[130.639968,32.873674],[130.640143,32.87389],[130.640418,32.87414],[130.640743,32.874299],[130.64123,32.874557],[130.641405,32.874707],[130.642042,32.875182],[130.642367,32.875407],[130.64248,32.875482],[130.642655,32.875715],[130.642755,32.875965],[130.642842,32.876215],[130.642842,32.876374],[130.642905,32.876932],[130.642955,32.877298],[130.642967,32.877523],[130.642955,32.877598],[130.642767,32.877648],[130.64213,32.877932],[130.642055,32.878007],[130.64193,32.878207],[130.641942,32.87839],[130.642042,32.87859],[130.642142,32.87874],[130.642255,32.878848],[130.642542,32.879157],[130.642742,32.879382],[130.64283,32.879482],[130.64298,32.879698],[130.643355,32.880165],[130.643555,32.880465],[130.64368,32.880748],[130.643917,32.881598],[130.644005,32.881981],[130.644292,32.882998],[130.644355,32.883256],[130.64448,32.883756],[130.644692,32.884323],[130.644842,32.884614],[130.64502,32.884941],[130.645267,32.885306],[130.645792,32.885698],[130.646217,32.885914],[130.646604,32.885956],[130.646842,32.885956],[130.647629,32.885923],[130.648192,32.885881],[130.648492,32.885906],[130.649017,32.886023],[130.649442,32.886148],[130.649431,32.886531],[130.649504,32.886722],[130.649942,32.886856],[130.650216,32.887047],[130.650291,32.887131],[130.650454,32.887181],[130.650641,32.887206],[130.650829,32.887181],[130.651054,32.887306],[130.651079,32.887364],[130.651166,32.887481],[130.651554,32.887631],[130.651729,32.887706],[130.651866,32.887814],[130.651929,32.887947],[130.651879,32.889006],[130.651891,32.889547],[130.651829,32.889889],[130.651729,32.890139],[130.651454,32.890822],[130.651304,32.891155],[130.651204,32.891214],[130.651166,32.89123],[130.651079,32.891289],[130.650491,32.891447],[130.650154,32.89168],[130.649966,32.89183],[130.649929,32.891855],[130.649591,32.892263],[130.649354,32.892522],[130.649267,32.89273],[130.649204,32.89328],[130.649217,32.893555],[130.649154,32.894305],[130.649029,32.895605],[130.648917,32.896263],[130.648879,32.896455],[130.648929,32.896696],[130.649041,32.89698],[130.649191,32.897263],[130.649204,32.897396],[130.649179,32.897579],[130.649129,32.897754],[130.649041,32.897946],[130.648067,32.899229],[130.647917,32.899446],[130.647942,32.899571],[130.647967,32.899696],[130.648217,32.899996],[130.648217,32.900046],[130.648167,32.900121],[130.648029,32.900246],[130.648017,32.900396],[130.648104,32.900487],[130.648279,32.900637],[130.648429,32.900737],[130.648604,32.900929],[130.648754,32.901162],[130.648791,32.901337],[130.648904,32.901496],[130.649116,32.901662],[130.649441,32.901896],[130.649454,32.901987],[130.649466,32.902021],[130.649466,32.902071],[130.649516,32.902262],[130.649629,32.902504],[130.649704,32.902671],[130.649679,32.902771],[130.649541,32.902854],[130.648754,32.903262],[130.648591,32.903412],[130.647954,32.90397],[130.647742,32.904212],[130.647554,32.904545],[130.647479,32.90457],[130.647342,32.904629],[130.647254,32.904687],[130.647117,32.904979],[130.647017,32.905245],[130.646967,32.905454],[130.646954,32.905678],[130.646929,32.905828],[130.646867,32.905953],[130.646754,32.906153],[130.646604,32.90647],[130.646454,32.906662],[130.646392,32.906795],[130.646367,32.90692],[130.646354,32.90702],[130.646354,32.907128],[130.646442,32.90727],[130.646542,32.907745],[130.646567,32.907928],[130.646529,32.908128],[130.646454,32.908295],[130.646392,32.908403],[130.646379,32.908445],[130.646304,32.908536],[130.646217,32.90862],[130.646154,32.908661],[130.646067,32.908745],[130.645967,32.908778],[130.645917,32.908811],[130.645779,32.908795],[130.645642,32.908811],[130.645517,32.908828],[130.645367,32.908886],[130.645229,32.908953],[130.645042,32.90917],[130.644929,32.909411],[130.644879,32.909478],[130.644792,32.909545],[130.644767,32.909561],[130.644642,32.909678],[130.644504,32.909736],[130.644404,32.909853],[130.644292,32.909961],[130.644192,32.91007],[130.644104,32.91017],[130.643992,32.910253],[130.643929,32.910203],[130.643854,32.910161],[130.643779,32.910086],[130.643717,32.91002],[130.643654,32.91007],[130.643529,32.910153],[130.643417,32.910228],[130.64335,32.91029],[130.643279,32.910395],[130.643142,32.910545],[130.642979,32.910695],[130.642954,32.910711],[130.642867,32.91082],[130.642904,32.910853],[130.643067,32.910995],[130.643167,32.911078],[130.643129,32.911178],[130.643029,32.911286],[130.642942,32.911444],[130.642767,32.911628],[130.642504,32.911894],[130.642367,32.912019],[130.642092,32.912278],[130.641879,32.912353],[130.641792,32.912369],[130.641654,32.912411],[130.641567,32.912436],[130.641504,32.912511],[130.641429,32.912561],[130.641367,32.912628],[130.641267,32.912703],[130.641054,32.912878],[130.641029,32.912986],[130.640929,32.913144],[130.640804,32.913261],[130.64063,32.913294],[130.640467,32.913311],[130.640092,32.913603],[130.639967,32.913703],[130.63983,32.913836],[130.639992,32.913936],[130.640255,32.914086],[130.640192,32.914136],[130.640017,32.914319],[130.639905,32.914453],[130.639792,32.914578],[130.639617,32.914561],[130.639505,32.914519],[130.639392,32.914494],[130.639205,32.914453],[130.639105,32.914436],[130.639067,32.914478],[130.63903,32.914586],[130.639042,32.914653],[130.639055,32.914686],[130.639055,32.914728],[130.639067,32.914811],[130.63908,32.914894],[130.63913,32.914978],[130.639167,32.915053],[130.63918,32.915211],[130.63923,32.915352],[130.63913,32.915486],[130.639067,32.915561],[130.638867,32.915652],[130.638767,32.915686],[130.638642,32.915744],[130.638555,32.915786],[130.638405,32.915869],[130.638205,32.915944],[130.638105,32.915994],[130.637967,32.916027],[130.63768,32.916086],[130.637455,32.916136],[130.637267,32.916194],[130.637205,32.916236],[130.637155,32.916269],[130.63693,32.916411],[130.636867,32.916444],[130.636792,32.916511],[130.636667,32.916619],[130.636567,32.916702],[130.636455,32.916794],[130.636405,32.916844],[130.636267,32.916952],[130.636142,32.917036],[130.63598,32.917136],[130.635605,32.917461],[130.63558,32.917561],[130.636067,32.917577],[130.636355,32.917511],[130.636617,32.917511],[130.636767,32.917561],[130.637142,32.917752],[130.637467,32.917961],[130.63778,32.918186],[130.638017,32.918286],[130.637967,32.918344],[130.637755,32.918544],[130.637655,32.918644],[130.63753,32.918727],[130.637067,32.918777],[130.636955,32.918819],[130.637255,32.919044],[130.637542,32.919202],[130.637717,32.919277],[130.63828,32.919485],[130.638505,32.919652],[130.638817,32.920027],[130.63888,32.920119],[130.639055,32.920544],[130.639247,32.920919],[130.639455,32.921227],[130.639555,32.921294],[130.639705,32.921469],[130.63988,32.921669],[130.64023,32.922094],[130.640405,32.922235],[130.640817,32.922752],[130.641592,32.923435],[130.641692,32.923544],[130.641854,32.92371],[130.641879,32.923844],[130.641879,32.923927],[130.641479,32.924294],[130.641104,32.924569],[130.640605,32.924768],[130.640292,32.924902],[130.639817,32.925052],[130.639605,32.925152],[130.639392,32.925277],[130.63923,32.92536],[130.638967,32.925493],[130.63888,32.925543],[130.639455,32.926868],[130.639492,32.92691],[130.639542,32.92696],[130.63973,32.92706],[130.63993,32.927202],[130.640167,32.927435],[130.640567,32.92801],[130.640717,32.928135],[130.64078,32.928168],[130.641179,32.928302],[130.641379,32.928318],[130.641692,32.928393],[130.641917,32.928543],[130.641979,32.928627],[130.642104,32.928793],[130.642142,32.928927],[130.642154,32.929135],[130.642029,32.929501],[130.641892,32.929843],[130.641754,32.930076],[130.641679,32.930318],[130.641717,32.930476],[130.641867,32.93051],[130.642204,32.930476],[130.642517,32.930526],[130.642792,32.930668],[130.642942,32.930718],[130.643267,32.930793],[130.643567,32.930793],[130.643979,32.930818],[130.644167,32.930793],[130.644492,32.930826],[130.644754,32.930876],[130.645179,32.931018],[130.645317,32.931085],[130.645429,32.931185],[130.645654,32.931426],[130.645767,32.931501],[130.645979,32.931576],[130.646467,32.931543],[130.646879,32.931493],[130.648067,32.931301],[130.648667,32.931118],[130.649174,32.931004],[130.649567,32.930968],[130.650066,32.93101],[130.650404,32.931052],[130.650866,32.931068],[130.651029,32.931077],[130.651191,32.931143],[130.651279,32.931193],[130.651379,32.931243],[130.651416,32.931302],[130.651454,32.931352],[130.651541,32.931452],[130.651616,32.93156],[130.651641,32.931577],[130.651654,32.931635],[130.651641,32.931643],[130.651645,32.931762],[130.651642,32.93188],[130.651629,32.932027],[130.651566,32.932235],[130.651779,32.932401],[130.651841,32.932568],[130.651791,32.932776],[130.651654,32.932985],[130.651679,32.933118],[130.651779,32.933285],[130.651879,32.933368],[130.652391,32.93366],[130.652666,32.933751],[130.652866,32.93381],[130.653229,32.934085],[130.653604,32.934393],[130.653766,32.934543],[130.653904,32.934718],[130.654366,32.934968],[130.654491,32.935026],[130.654666,32.93511],[130.654804,32.935193],[130.655041,32.935268],[130.655129,32.93526],[130.655216,32.935176],[130.655391,32.934935],[130.655529,32.934801],[130.655654,32.934693],[130.655791,32.93461],[130.656004,32.934551],[130.656304,32.934568],[130.656404,32.934551],[130.656504,32.934426],[130.656616,32.93431],[130.656691,32.934268],[130.656854,32.934277],[130.657029,32.934277],[130.657129,32.934277],[130.657304,32.934293],[130.657666,32.93426],[130.657854,32.934277],[130.658016,32.934327],[130.658154,32.934393],[130.658466,32.934568],[130.659016,32.934743],[130.659491,32.934827],[130.659978,32.93476],[130.660366,32.93466],[130.660503,32.93456],[130.660778,32.934293],[130.660928,32.934168],[130.661228,32.934127],[130.662028,32.934118],[130.662078,32.934227],[130.662291,32.934543],[130.662653,32.93471],[130.662916,32.934802],[130.663241,32.934802],[130.663516,32.93476],[130.663703,32.934802],[130.664191,32.935027],[130.664328,32.935077],[130.664628,32.935043],[130.664678,32.93506],[130.664691,32.935168],[130.664653,32.935477],[130.664678,32.935552],[130.664703,32.935568],[130.664828,32.935635],[130.664991,32.935752],[130.66554,32.93601],[130.665653,32.936285],[130.665828,32.936402],[130.665978,32.936493],[130.66619,32.936768],[130.666365,32.936827],[130.666578,32.936802],[130.666865,32.936877],[130.667053,32.936968],[130.667178,32.93726],[130.667253,32.937818],[130.667253,32.937927],[130.66719,32.938002],[130.666953,32.938143],[130.666678,32.938235],[130.666603,32.938376],[130.666615,32.938635],[130.666728,32.939035],[130.666953,32.939426],[130.667153,32.939743],[130.667078,32.939985],[130.666953,32.94026],[130.666978,32.940393],[130.667128,32.940518],[130.667753,32.94086],[130.667953,32.94101],[130.668065,32.941093],[130.66814,32.941185],[130.66809,32.941343],[130.66774,32.941668],[130.66759,32.94191],[130.667478,32.942185],[130.66744,32.94231],[130.667415,32.942476],[130.667365,32.94281],[130.667365,32.942868],[130.667353,32.942951],[130.66734,32.943218],[130.667278,32.943393],[130.66724,32.943543],[130.667253,32.943684],[130.667265,32.943726],[130.66744,32.943776],[130.667878,32.943768],[130.668228,32.943784],[130.668503,32.943826],[130.668715,32.943934],[130.668928,32.944043],[130.669028,32.944126],[130.669203,32.944251],[130.669403,32.944368],[130.669478,32.944459],[130.669552,32.944584],[130.669615,32.944834],[130.669677,32.945009],[130.669752,32.945118],[130.66999,32.945618],[130.670077,32.945693],[130.670277,32.946009],[130.670465,32.946368],[130.670615,32.946684],[130.670915,32.947434],[130.670965,32.947751],[130.67094,32.947959],[130.670877,32.948184],[130.67114,32.948409],[130.671165,32.948459],[130.670865,32.948651],[130.67069,32.948692],[130.670477,32.948651],[130.669977,32.948592],[130.669765,32.948584],[130.669565,32.948634],[130.669465,32.948667],[130.669327,32.948842],[130.669415,32.948901],[130.66944,32.948951],[130.669515,32.949009],[130.670402,32.949626],[130.670527,32.949701],[130.670727,32.949809],[130.670865,32.949867],[130.671127,32.949926],[130.67154,32.949959],[130.671615,32.950684],[130.672215,32.950809],[130.672452,32.950817],[130.67264,32.950851],[130.67279,32.950917],[130.672877,32.951009],[130.67309,32.951301],[130.673315,32.951776],[130.673327,32.951951],[130.672902,32.952017],[130.672777,32.952051],[130.672815,32.952425],[130.672815,32.9525],[130.673027,32.952492],[130.67324,32.952467],[130.673452,32.952417],[130.673677,32.952334],[130.674189,32.9526],[130.674777,32.952825],[130.675064,32.952959],[130.675514,32.953059],[130.675964,32.953109],[130.676052,32.953117],[130.676627,32.953367],[130.677202,32.953675],[130.677789,32.954067],[130.678514,32.954317],[130.678989,32.954509],[130.679251,32.954534],[130.679966,32.954741],[130.680326,32.955225],[130.680676,32.955625],[130.681264,32.95615],[130.682176,32.956875],[130.682476,32.957175],[130.682501,32.957175],[130.682714,32.95735],[130.682876,32.95745],[130.683089,32.957525],[130.683251,32.957575],[130.683338,32.957592],[130.683401,32.957584],[130.683476,32.957559],[130.683601,32.957525],[130.683751,32.95745],[130.683901,32.957375],[130.684451,32.957109],[130.684613,32.957084],[130.684838,32.957084],[130.685488,32.957459],[130.685676,32.957542],[130.685988,32.957659],[130.686126,32.957692],[130.686401,32.95775],[130.686888,32.957834],[130.687876,32.957959],[130.688201,32.958025],[130.688563,32.958075],[130.688776,32.958117],[130.688975,32.958192],[130.6891,32.958242],[130.689338,32.958484],[130.689425,32.95855],[130.689538,32.958659],[130.689725,32.958817],[130.68985,32.958934],[130.69015,32.959234],[130.690175,32.959267],[130.690388,32.9593],[130.690513,32.959334],[130.690963,32.959542],[130.691188,32.959559],[130.691363,32.959509],[130.691625,32.959534],[130.691713,32.959509],[130.691825,32.959334],[130.691938,32.959242],[130.692163,32.959167],[130.692275,32.959042],[130.692338,32.958867],[130.692375,32.958742],[130.69235,32.958559],[130.692313,32.9584],[130.692825,32.958175],[130.693113,32.958042],[130.693288,32.957867],[130.693388,32.957684],[130.693375,32.957317],[130.693313,32.956976],[130.693213,32.956776],[130.693156,32.956684],[130.693138,32.956576],[130.6932,32.956442],[130.693438,32.956042],[130.693713,32.955676],[130.693913,32.955492],[130.69405,32.955401],[130.694213,32.955334],[130.694463,32.955251],[130.69455,32.955226],[130.695163,32.955118],[130.6954,32.955068],[130.695688,32.955034],[130.696337,32.954959],[130.696537,32.955093],[130.696975,32.955476],[130.697625,32.956401],[130.697925,32.956801],[130.698225,32.957284],[130.698375,32.957409],[130.69845,32.957501],[130.698987,32.957976],[130.699375,32.958292],[130.699912,32.958592],[130.700187,32.958784],[130.70055,32.959109],[130.700874,32.959417],[130.701049,32.959601],[130.701137,32.959817],[130.701524,32.96035],[130.701624,32.9606],[130.701937,32.960934],[130.702262,32.961309],[130.702474,32.961584],[130.702562,32.961817],[130.702599,32.962125],[130.702624,32.962284],[130.702637,32.962484],[130.702624,32.962909],[130.702524,32.963125],[130.702337,32.963358],[130.702274,32.963458],[130.702299,32.96355],[130.702324,32.963592],[130.702624,32.964067],[130.702812,32.964425],[130.702974,32.964875],[130.702999,32.965125],[130.702999,32.96545],[130.703324,32.96565],[130.703437,32.965708],[130.703512,32.965783],[130.703612,32.965958],[130.703687,32.966042],[130.703849,32.96615],[130.703912,32.96625],[130.703999,32.966441],[130.704037,32.966675],[130.704012,32.966966],[130.703987,32.96725],[130.703912,32.967433],[130.703862,32.967816],[130.703849,32.968],[130.703862,32.9681],[130.703887,32.968166],[130.703937,32.968241],[130.703986,32.968316],[130.704011,32.968366],[130.704049,32.968408],[130.704099,32.96845],[130.704186,32.968466],[130.704274,32.968475],[130.704361,32.968525],[130.704386,32.968591],[130.704411,32.968666],[130.704449,32.968766],[130.704511,32.968825],[130.704586,32.968858],[130.704886,32.968858],[130.705074,32.968883],[130.705199,32.968908],[130.705861,32.969141],[130.705899,32.96915],[130.706111,32.9692],[130.706286,32.969366],[130.706399,32.969616],[130.706486,32.969858],[130.706661,32.970333],[130.706661,32.970783],[130.706749,32.970966],[130.706986,32.971141],[130.707574,32.971641],[130.707886,32.971708],[130.708124,32.971758],[130.708236,32.971766],[130.708399,32.971833],[130.708511,32.971949],[130.708923,32.972266],[130.709061,32.972366],[130.709198,32.972474],[130.709298,32.972766],[130.709361,32.973107],[130.709348,32.973249],[130.709261,32.973399],[130.708923,32.973966],[130.708623,32.974232],[130.708448,32.974307],[130.708148,32.974341],[130.707998,32.974341],[130.707923,32.974432],[130.707799,32.974616],[130.707524,32.974882],[130.707449,32.974991],[130.707449,32.975299],[130.707474,32.975449],[130.707648,32.975307],[130.707761,32.975257],[130.707886,32.975332],[130.708561,32.975882],[130.708698,32.975982],[130.709048,32.975582],[130.709186,32.975716],[130.709273,32.975816],[130.709311,32.975849],[130.709561,32.976065],[130.709461,32.976157],[130.709223,32.976357],[130.709086,32.976557],[130.708998,32.976707],[130.709198,32.976957],[130.709123,32.97714],[130.708161,32.977974],[130.707286,32.978857],[130.707211,32.97894],[130.707411,32.979165],[130.707836,32.97954],[130.707948,32.979657],[130.708111,32.979865],[130.708436,32.979665],[130.708911,32.979357],[130.709773,32.978765],[130.710936,32.978107],[130.711811,32.977565],[130.713273,32.976774],[130.71496,32.975766],[130.715585,32.976532],[130.715748,32.976432],[130.71646,32.976007],[130.716948,32.975716],[130.717348,32.975466],[130.717985,32.975041],[130.718148,32.974974],[130.718623,32.974632],[130.718123,32.974066],[130.71896,32.973541],[130.71906,32.973674],[130.71921,32.973841],[130.71936,32.974007],[130.719522,32.974232],[130.719685,32.974399],[130.719747,32.974499],[130.719935,32.974724],[130.71986,32.974766],[130.72036,32.975391],[130.720622,32.975216],[130.72086,32.975541],[130.721035,32.975732],[130.72121,32.975607],[130.721522,32.975557],[130.72281,32.974724],[130.722972,32.974932],[130.723222,32.975207],[130.723347,32.975366],[130.723706,32.975797],[130.724147,32.976232],[130.724422,32.976549],[130.724522,32.976657],[130.724622,32.976765],[130.724672,32.976832],[130.724722,32.97689],[130.724772,32.976957],[130.724822,32.977024],[130.725072,32.976857],[130.725184,32.976799],[130.726084,32.976241],[130.726209,32.976157],[130.726597,32.976116],[130.726672,32.976082],[130.726997,32.975974],[130.727097,32.975907],[130.727322,32.975491],[130.727384,32.975341],[130.727459,32.975124],[130.727622,32.974974],[130.727759,32.974941],[130.728097,32.974991],[130.728584,32.975091],[130.728834,32.975091],[130.729034,32.974999],[130.729272,32.974824],[130.729534,32.974482],[130.729797,32.974341],[130.729834,32.974307],[130.729922,32.974232],[130.733159,32.972274],[130.733346,32.972158],[130.733559,32.972024]]],"type":"Polygon"}}]}