{"features":[{"type":"Feature","properties":{"yomi":"きくち","name":"菊池","pref":"熊本県","kuni_id":"K68","id_url":"G68005.html","kuni_url":"/kg/resource/K68.html","kuni":"肥後","id":"G68005"},"geometry":{"type":"Polygon","coordinates":[[[130.970176,33.023854],[130.969869,33.023424],[130.955552,33.004148],[130.955503,33.003356],[130.955478,33.002898],[130.955453,33.002248],[130.955528,33.001481],[130.95554,33.00119],[130.955503,33.000981],[130.955415,33.000498],[130.955415,33.000207],[130.95544,33.000048],[130.955478,32.999782],[130.95554,32.999173],[130.955603,32.998748],[130.955665,32.998548],[130.955803,32.99839],[130.955978,32.99824],[130.95609,32.998115],[130.956415,32.997815],[130.956565,32.997665],[130.956828,32.997407],[130.95714,32.997024],[130.957215,32.996815],[130.957228,32.996507],[130.957215,32.995799],[130.957215,32.995374],[130.95729,32.994891],[130.957315,32.994674],[130.957328,32.994324],[130.957278,32.993982],[130.957253,32.993641],[130.957153,32.993191],[130.956978,32.992324],[130.956953,32.992158],[130.956878,32.990666],[130.956915,32.989933],[130.95704,32.989375],[130.957003,32.988858],[130.95689,32.988325],[130.956853,32.988233],[130.956766,32.9877],[130.956716,32.987625],[130.956566,32.987358],[130.956416,32.987016],[130.956328,32.986492],[130.956303,32.986158],[130.956116,32.984967],[130.955878,32.983867],[130.955866,32.983692],[130.955816,32.98275],[130.955766,32.982392],[130.955741,32.982217],[130.955691,32.982017],[130.955578,32.981467],[130.955478,32.981109],[130.955453,32.981034],[130.955366,32.980775],[130.955166,32.980284],[130.955103,32.980175],[130.955091,32.980109],[130.954441,32.978584],[130.953891,32.977151],[130.953679,32.976451],[130.953591,32.976192],[130.953454,32.975859],[130.953154,32.975351],[130.953041,32.975143],[130.952829,32.974868],[130.952616,32.974559],[130.952429,32.974376],[130.952316,32.974293],[130.952191,32.974118],[130.951991,32.973809],[130.951804,32.973618],[130.951104,32.972934],[130.951016,32.972818],[130.950741,32.972468],[130.950154,32.971984],[130.949829,32.971543],[130.949458,32.971087],[130.948904,32.970585],[130.948554,32.970251],[130.947917,32.969701],[130.947854,32.969643],[130.947692,32.969485],[130.947529,32.969235],[130.947467,32.969143],[130.947342,32.968543],[130.947254,32.968385],[130.947179,32.968301],[130.946817,32.967826],[130.946704,32.96736],[130.946604,32.967285],[130.946317,32.967168],[130.945917,32.96706],[130.945679,32.966868],[130.945204,32.966235],[130.944692,32.965568],[130.944404,32.965252],[130.943892,32.964743],[130.943617,32.964468],[130.943517,32.964385],[130.943205,32.964052],[130.943092,32.963968],[130.942892,32.963777],[130.942692,32.963668],[130.942467,32.963527],[130.942055,32.963377],[130.941655,32.963202],[130.940667,32.962693],[130.940405,32.96251],[130.939505,32.96191],[130.939005,32.961602],[130.93863,32.96136],[130.93773,32.96071],[130.937305,32.960435],[130.93698,32.96026],[130.936818,32.960143],[130.93638,32.959885],[130.936155,32.95976],[130.93588,32.95956],[130.93553,32.959402],[130.935005,32.959168],[130.934455,32.958877],[130.933718,32.958502],[130.931818,32.957544],[130.931161,32.95731],[130.930888,32.957458],[130.930793,32.957669],[130.930768,32.957719],[130.930693,32.957819],[130.930493,32.95801],[130.930343,32.958177],[130.930051,32.958514],[130.929843,32.95871],[130.929443,32.959085],[130.929256,32.959218],[130.928906,32.959435],[130.928643,32.959552],[130.928268,32.959752],[130.928218,32.959918],[130.928268,32.96006],[130.928293,32.960227],[130.928231,32.960493],[130.928268,32.960727],[130.928231,32.960852],[130.928043,32.961202],[130.927968,32.961377],[130.927993,32.961577],[130.928031,32.961735],[130.928193,32.961985],[130.928293,32.96216],[130.928293,32.962435],[130.928243,32.962885],[130.928143,32.963143],[130.928006,32.963268],[130.927781,32.963376],[130.927531,32.963493],[130.927418,32.963543],[130.927243,32.96361],[130.927043,32.963718],[130.926868,32.963835],[130.926618,32.963993],[130.926518,32.964051],[130.926168,32.964201],[130.926006,32.964293],[130.925806,32.964435],[130.925718,32.964518],[130.925606,32.964635],[130.925481,32.96476],[130.925418,32.964793],[130.925318,32.964885],[130.925231,32.965026],[130.925106,32.965443],[130.925093,32.965526],[130.925031,32.965601],[130.925006,32.965626],[130.924968,32.965651],[130.924881,32.965685],[130.924817,32.965719],[130.924738,32.965739],[130.924684,32.965744],[130.924618,32.965735],[130.924456,32.96576],[130.924131,32.96591],[130.924031,32.966051],[130.923956,32.966201],[130.923706,32.966543],[130.923606,32.96666],[130.923469,32.966751],[130.923281,32.96681],[130.923156,32.966818],[130.922981,32.966835],[130.922838,32.966832],[130.922736,32.966852],[130.922694,32.966885],[130.922669,32.966918],[130.922594,32.966993],[130.922481,32.967118],[130.922356,32.967293],[130.922181,32.967526],[130.922031,32.967793],[130.921981,32.967901],[130.921931,32.967984],[130.921819,32.968268],[130.921744,32.968451],[130.921656,32.968609],[130.921569,32.968718],[130.921484,32.968824],[130.921393,32.968933],[130.921331,32.969001],[130.921219,32.969084],[130.921119,32.969168],[130.920956,32.969309],[130.920744,32.969418],[130.920606,32.969484],[130.920494,32.969584],[130.920256,32.969759],[130.919969,32.969951],[130.919781,32.970009],[130.919619,32.970018],[130.919406,32.969993],[130.918944,32.969859],[130.917981,32.969501],[130.917769,32.969393],[130.917581,32.969301],[130.917419,32.969268],[130.917219,32.969259],[130.917044,32.969276],[130.916894,32.969309],[130.916544,32.969326],[130.916244,32.969326],[130.915919,32.969409],[130.915769,32.969451],[130.915619,32.969501],[130.915494,32.969584],[130.915107,32.970126],[130.914969,32.970218],[130.914769,32.970301],[130.914419,32.970651],[130.913569,32.971434],[130.913169,32.971851],[130.913107,32.971942],[130.913032,32.972076],[130.912969,32.972267],[130.912944,32.972359],[130.912907,32.972542],[130.912832,32.972734],[130.912769,32.972842],[130.912707,32.973009],[130.912619,32.973176],[130.912494,32.973367],[130.912419,32.973434],[130.912307,32.973559],[130.912119,32.973717],[130.911894,32.973851],[130.911769,32.973892],[130.911257,32.973959],[130.910894,32.973959],[130.910044,32.973892],[130.909682,32.973901],[130.909532,32.973926],[130.909344,32.974001],[130.909144,32.974084],[130.908994,32.974192],[130.908532,32.974467],[130.908157,32.974534],[130.907882,32.974509],[130.907682,32.974459],[130.907395,32.974409],[130.907057,32.974359],[130.906607,32.9742],[130.90627,32.974084],[130.905757,32.973734],[130.905607,32.973717],[130.90527,32.973692],[130.904357,32.973625],[130.904307,32.973617],[130.904032,32.973642],[130.903882,32.973684],[130.903832,32.9737],[130.903707,32.973784],[130.903495,32.974025],[130.903382,32.974109],[130.90297,32.974342],[130.90287,32.974392],[130.902795,32.9744],[130.902507,32.974467],[130.902145,32.974517],[130.901957,32.974517],[130.901532,32.97455],[130.90137,32.974592],[130.901058,32.974725],[130.89997,32.974967],[130.899745,32.975025],[130.899583,32.974967],[130.89937,32.974867],[130.899308,32.974842],[130.899045,32.974708],[130.898795,32.974592],[130.89872,32.97455],[130.898508,32.974508],[130.898345,32.974525],[130.89817,32.974583],[130.897958,32.974633],[130.89772,32.974708],[130.897508,32.974758],[130.897183,32.974808],[130.89707,32.974833],[130.89637,32.975],[130.895745,32.975133],[130.89557,32.975142],[130.895408,32.975117],[130.89512,32.975092],[130.89482,32.975175],[130.894508,32.97525],[130.894071,32.975325],[130.893433,32.975617],[130.892996,32.975792],[130.892508,32.976033],[130.892283,32.976175],[130.892133,32.9764],[130.892033,32.97665],[130.891958,32.976816],[130.891858,32.976983],[130.891633,32.977158],[130.891533,32.977233],[130.891433,32.977266],[130.890671,32.977533],[130.890571,32.977641],[130.890555,32.977724],[130.890546,32.977833],[130.890508,32.978033],[130.890433,32.978108],[130.890333,32.978158],[130.890243,32.978176],[130.890096,32.9782],[130.889982,32.978274],[130.889896,32.97835],[130.889833,32.978433],[130.889783,32.978466],[130.889721,32.9785],[130.889583,32.978558],[130.889163,32.978776],[130.889007,32.978849],[130.888899,32.978901],[130.888783,32.978949],[130.888736,32.978985],[130.888708,32.979024],[130.888708,32.979108],[130.888721,32.979274],[130.888671,32.979441],[130.888558,32.979616],[130.888446,32.979699],[130.888333,32.979708],[130.888058,32.979658],[130.887933,32.979683],[130.887658,32.979991],[130.887508,32.980074],[130.887321,32.980141],[130.887221,32.980141],[130.887083,32.980141],[130.886996,32.980183],[130.886921,32.980299],[130.886883,32.980433],[130.886821,32.980558],[130.886671,32.980791],[130.886583,32.981066],[130.886458,32.981274],[130.886346,32.981399],[130.886283,32.981674],[130.886246,32.981766],[130.886133,32.981816],[130.885996,32.981849],[130.885846,32.981849],[130.885483,32.981849],[130.885246,32.981824],[130.885071,32.981741],[130.884871,32.981591],[130.884671,32.981399],[130.884496,32.981374],[130.883958,32.981358],[130.883846,32.981374],[130.883121,32.981399],[130.882965,32.981394],[130.882883,32.981383],[130.882608,32.981333],[130.882196,32.981141],[130.881721,32.980941],[130.881496,32.980874],[130.881334,32.980824],[130.881071,32.980833],[130.880871,32.980824],[130.880521,32.980824],[130.880296,32.980774],[130.880109,32.980666],[130.879784,32.980499],[130.879309,32.980183],[130.879034,32.980016],[130.878771,32.979949],[130.878459,32.979924],[130.878259,32.979933],[130.878084,32.979883],[130.877859,32.979799],[130.877621,32.979608],[130.877484,32.979474],[130.877059,32.979274],[130.876884,32.979233],[130.876371,32.979124],[130.875897,32.978983],[130.875272,32.978783],[130.874484,32.978608],[130.873859,32.978383],[130.873447,32.978199],[130.873009,32.977933],[130.872657,32.977632],[130.872422,32.977466],[130.872122,32.977199],[130.871947,32.977091],[130.871484,32.976758],[130.871322,32.976691],[130.870959,32.976533],[130.870697,32.976183],[130.87061,32.97595],[130.870635,32.975841],[130.870872,32.975541],[130.870935,32.975416],[130.870885,32.975133],[130.870735,32.974716],[130.87066,32.9746],[130.87021,32.9744],[130.870035,32.974225],[130.869697,32.9737],[130.86966,32.973616],[130.869635,32.973525],[130.869622,32.973466],[130.869622,32.973291],[130.869647,32.973133],[130.869672,32.973033],[130.869697,32.972891],[130.86971,32.972808],[130.869797,32.972567],[130.869847,32.972425],[130.869847,32.972317],[130.869847,32.972233],[130.869835,32.972167],[130.86981,32.972108],[130.869797,32.972042],[130.869747,32.971992],[130.86966,32.971925],[130.869599,32.971904],[130.869547,32.971883],[130.869435,32.971833],[130.869172,32.971758],[130.86891,32.971675],[130.868772,32.9716],[130.868635,32.971483],[130.868447,32.971383],[130.868247,32.971258],[130.868172,32.971208],[130.868085,32.971175],[130.867947,32.9711],[130.867885,32.971067],[130.86781,32.971025],[130.867672,32.970975],[130.867522,32.970925],[130.867298,32.97075],[130.867148,32.970508],[130.866948,32.970225],[130.866923,32.969825],[130.866823,32.969517],[130.866773,32.969392],[130.866673,32.969333],[130.86646,32.969217],[130.866385,32.9691],[130.86626,32.96885],[130.866185,32.968692],[130.866148,32.968525],[130.86611,32.968333],[130.865973,32.968258],[130.865898,32.9682],[130.865723,32.968142],[130.865373,32.968075],[130.86501,32.968017],[130.864723,32.968017],[130.86446,32.968267],[130.864348,32.968342],[130.864235,32.968342],[130.864132,32.968308],[130.8641,32.968251],[130.864098,32.968183],[130.864098,32.968142],[130.864073,32.968033],[130.86406,32.967967],[130.864048,32.967825],[130.863923,32.967725],[130.863223,32.967484],[130.86291,32.967617],[130.86261,32.9676],[130.862248,32.967392],[130.861986,32.967159],[130.861852,32.967],[130.861748,32.96685],[130.861698,32.966759],[130.861586,32.966617],[130.861386,32.966209],[130.861211,32.965567],[130.860948,32.965034],[130.860423,32.964217],[130.860023,32.963592],[130.859898,32.963475],[130.859648,32.963259],[130.859011,32.962517],[130.858436,32.96195],[130.857936,32.961484],[130.857561,32.961151],[130.857449,32.961117],[130.857111,32.961142],[130.856782,32.960985],[130.856474,32.960676],[130.856349,32.960426],[130.856174,32.960209],[130.856009,32.959975],[130.855811,32.959659],[130.855724,32.959534],[130.855574,32.959417],[130.855149,32.959226],[130.854911,32.959201],[130.854774,32.959251],[130.854599,32.959326],[130.854337,32.959326],[130.854024,32.959263],[130.853649,32.959192],[130.853524,32.959159],[130.853387,32.959059],[130.853074,32.958984],[130.852974,32.958901],[130.852849,32.958676],[130.852649,32.958442],[130.852337,32.958326],[130.852049,32.957951],[130.851899,32.957809],[130.851724,32.957717],[130.851449,32.957667],[130.851262,32.957584],[130.850974,32.957484],[130.850549,32.957442],[130.850412,32.957426],[130.850137,32.957359],[130.849724,32.957159],[130.8496,32.957017],[130.8496,32.956867],[130.849675,32.956759],[130.84985,32.956676],[130.850049,32.956609],[130.850037,32.956409],[130.849937,32.956384],[130.849787,32.956417],[130.84965,32.956492],[130.849512,32.956576],[130.849375,32.956501],[130.849287,32.956251],[130.849212,32.956134],[130.84915,32.956042],[130.848625,32.955509],[130.848175,32.954917],[130.847962,32.954217],[130.847725,32.953542],[130.847625,32.953509],[130.847487,32.953467],[130.847262,32.953467],[130.847,32.953517],[130.846862,32.953484],[130.84675,32.953359],[130.846712,32.953242],[130.8468,32.953184],[130.846975,32.953034],[130.847,32.952851],[130.846925,32.952734],[130.846787,32.952334],[130.846662,32.952009],[130.846475,32.951709],[130.84635,32.951426],[130.846,32.951251],[130.845888,32.951143],[130.8458,32.950884],[130.8457,32.950543],[130.845638,32.950418],[130.845363,32.950618],[130.84465,32.951151],[130.8442,32.951484],[130.8441,32.951601],[130.843763,32.952059],[130.843638,32.952159],[130.843411,32.952369],[130.843288,32.952526],[130.843075,32.952768],[130.842825,32.953084],[130.842788,32.953276],[130.842825,32.953501],[130.842925,32.953709],[130.843038,32.954134],[130.843163,32.954501],[130.84325,32.954942],[130.8432,32.955126],[130.843088,32.955242],[130.842913,32.955301],[130.842338,32.955501],[130.842025,32.955809],[130.841838,32.955909],[130.841738,32.955901],[130.841438,32.955792],[130.840238,32.955351],[130.839713,32.955176],[130.838788,32.954776],[130.837851,32.954409],[130.837388,32.954209],[130.837138,32.954109],[130.837076,32.954001],[130.836876,32.953676],[130.836663,32.953409],[130.836463,32.953226],[130.835938,32.952826],[130.835651,32.952618],[130.834976,32.952218],[130.831926,32.950576],[130.830864,32.950026],[130.830589,32.949776],[130.830027,32.949327],[130.829827,32.949185],[130.829364,32.948935],[130.828789,32.94871],[130.828364,32.948593],[130.827777,32.948452],[130.827239,32.948352],[130.826639,32.948243],[130.826514,32.94821],[130.826502,32.948168],[130.826777,32.94796],[130.827139,32.947727],[130.827352,32.947635],[130.827527,32.947602],[130.827702,32.94751],[130.827802,32.947377],[130.827827,32.94731],[130.827964,32.947202],[130.828127,32.947118],[130.828452,32.94706],[130.828764,32.946935],[130.828877,32.94686],[130.829114,32.946585],[130.829177,32.94636],[130.829239,32.946043],[130.828564,32.945935],[130.828102,32.94586],[130.827827,32.945702],[130.827664,32.945702],[130.827552,32.945702],[130.827052,32.945702],[130.826652,32.945677],[130.826502,32.945635],[130.826339,32.945527],[130.826252,32.945352],[130.826052,32.945277],[130.825877,32.94526],[130.825327,32.945144],[130.824615,32.945002],[130.824152,32.944894],[130.823827,32.944535],[130.82364,32.944169],[130.823577,32.94401],[130.823527,32.943952],[130.823077,32.943744],[130.822802,32.943544],[130.822365,32.943177],[130.822102,32.94291],[130.821702,32.943027],[130.82159,32.943077],[130.82109,32.943252],[130.820802,32.943527],[130.820815,32.943744],[130.820765,32.943819],[130.820565,32.943994],[130.82029,32.944119],[130.82009,32.944235],[130.820053,32.944252],[130.819703,32.944102],[130.819453,32.943994],[130.81914,32.943752],[130.818578,32.943485],[130.818478,32.943477],[130.818415,32.943535],[130.818265,32.944027],[130.818015,32.944294],[130.817603,32.94481],[130.817353,32.945127],[130.81704,32.94566],[130.816828,32.94596],[130.81674,32.946068],[130.816528,32.946285],[130.816303,32.946435],[130.816103,32.946543],[130.81594,32.946702],[130.815678,32.94711],[130.815553,32.947285],[130.815453,32.947318],[130.814978,32.947393],[130.814715,32.947493],[130.813715,32.947752],[130.813478,32.947777],[130.813278,32.947785],[130.813078,32.947843],[130.812966,32.94781],[130.812628,32.947618],[130.812003,32.94716],[130.810841,32.946518],[130.810416,32.946318],[130.810191,32.946243],[130.809803,32.946085],[130.809741,32.94606],[130.809091,32.945893],[130.809091,32.94581],[130.809428,32.943644],[130.805479,32.943227],[130.805416,32.943385],[130.805166,32.943369],[130.802842,32.94311],[130.802129,32.943068],[130.801779,32.943077],[130.801129,32.943168],[130.799617,32.940977],[130.797005,32.942285],[130.79608,32.94096],[130.79358,32.942168],[130.793068,32.941377],[130.789556,32.943118],[130.787931,32.943943],[130.786493,32.94181],[130.785968,32.94201],[130.785918,32.94191],[130.785306,32.940227],[130.783969,32.940244],[130.783994,32.940769],[130.778482,32.940527],[130.778557,32.939844],[130.777069,32.939777],[130.777019,32.94011],[130.776969,32.94126],[130.776916,32.941444],[130.776832,32.941602],[130.776894,32.941977],[130.777094,32.94346],[130.777032,32.94366],[130.777019,32.943785],[130.777044,32.943902],[130.777119,32.944018],[130.777344,32.944118],[130.777432,32.944218],[130.777407,32.94446],[130.777057,32.944452],[130.776719,32.944535],[130.776507,32.94471],[130.776144,32.945393],[130.776044,32.945435],[130.775807,32.945485],[130.775582,32.945702],[130.775357,32.946085],[130.775232,32.946118],[130.775169,32.94616],[130.774394,32.946285],[130.774107,32.946368],[130.773969,32.946377],[130.773782,32.946393],[130.773182,32.946493],[130.772807,32.946602],[130.772457,32.946752],[130.772257,32.946868],[130.771919,32.947127],[130.771444,32.947327],[130.771457,32.94756],[130.771407,32.947652],[130.771057,32.947777],[130.770707,32.947885],[130.770457,32.947943],[130.770132,32.94801],[130.769794,32.948102],[130.769382,32.94821],[130.769357,32.948335],[130.769344,32.948668],[130.769294,32.948727],[130.769157,32.94876],[130.768974,32.948771],[130.768882,32.948835],[130.769407,32.948943],[130.769832,32.948927],[130.769794,32.949268],[130.769744,32.949577],[130.769632,32.94971],[130.769582,32.949918],[130.769544,32.950227],[130.769507,32.95056],[130.769482,32.950685],[130.769532,32.950943],[130.769519,32.951151],[130.769407,32.951693],[130.769432,32.95176],[130.769494,32.95176],[130.769644,32.951735],[130.769557,32.95241],[130.769432,32.953351],[130.768229,32.953702],[130.765619,32.954397],[130.763183,32.954832],[130.760573,32.95518],[130.757528,32.955614],[130.755962,32.956136],[130.754135,32.956918],[130.752134,32.958222],[130.750133,32.959439],[130.747262,32.960482],[130.744827,32.961004],[130.742913,32.961699],[130.740477,32.963438],[130.739259,32.965089],[130.737867,32.967262],[130.737345,32.969436],[130.737021,32.971716],[130.737046,32.971741],[130.737059,32.97185],[130.737021,32.972075],[130.736946,32.972383],[130.736884,32.972683],[130.736846,32.973124],[130.736846,32.973308],[130.736721,32.973999],[130.736721,32.974324],[130.736821,32.974774],[130.736859,32.975383],[130.736996,32.975632],[130.737121,32.975632],[130.737296,32.975533],[130.737659,32.975333],[130.737796,32.975249],[130.738058,32.975149],[130.738433,32.975058],[130.738933,32.974883],[130.739183,32.974824],[130.739608,32.974799],[130.739908,32.974791],[130.740096,32.974774],[130.740371,32.974791],[130.740921,32.974783],[130.741058,32.974758],[130.741258,32.974758],[130.741458,32.974791],[130.741946,32.974783],[130.742233,32.974799],[130.742658,32.974824],[130.742908,32.974858],[130.743071,32.974924],[130.743346,32.975074],[130.743446,32.975133],[130.743446,32.975383],[130.743483,32.975558],[130.743596,32.975774],[130.743921,32.976066],[130.744283,32.976349],[130.74462,32.976549],[130.74487,32.976699],[130.745745,32.977299],[130.74627,32.977682],[130.74662,32.977916],[130.747033,32.978249],[130.747667,32.978671],[130.74797,32.978966],[130.748108,32.979032],[130.748345,32.979232],[130.748645,32.979407],[130.74907,32.979657],[130.749582,32.979807],[130.749657,32.979832],[130.75007,32.979982],[130.750407,32.980182],[130.75062,32.980341],[130.750745,32.980491],[130.750907,32.980591],[130.75132,32.981132],[130.75147,32.981257],[130.75187,32.981607],[130.752082,32.98184],[130.75237,32.98209],[130.752645,32.982332],[130.752832,32.982557],[130.753032,32.98274],[130.753257,32.982907],[130.75367,32.983207],[130.754095,32.983532],[130.754494,32.98389],[130.754569,32.983949],[130.754632,32.98404],[130.754694,32.984282],[130.754882,32.984532],[130.755894,32.985557],[130.756644,32.986307],[130.757369,32.986832],[130.758157,32.987598],[130.759144,32.988665],[130.759519,32.989098],[130.759619,32.989248],[130.759681,32.989356],[130.759756,32.989531],[130.759819,32.98959],[130.759869,32.989956],[130.760631,32.989548],[130.760731,32.989498],[130.760931,32.989748],[130.761281,32.990156],[130.761531,32.990456],[130.762031,32.991056],[130.761569,32.991331],[130.762468,32.992498],[130.761831,32.992889],[130.762106,32.992931],[130.762443,32.992914],[130.762868,32.992948],[130.763268,32.993014],[130.763543,32.993148],[130.763768,32.993298],[130.763881,32.993381],[130.764081,32.993631],[130.764318,32.993914],[130.764731,32.994781],[130.764668,32.994948],[130.764581,32.995206],[130.764568,32.995289],[130.764601,32.995557],[130.764706,32.995871],[130.764838,32.996153],[130.765079,32.996744],[130.765418,32.997389],[130.765618,32.997931],[130.765943,32.998889],[130.76598,32.999022],[130.766005,32.999147],[130.766305,32.999822],[130.766455,33.000364],[130.766518,33.000539],[130.766743,33.000855],[130.766893,33.001047],[130.767355,33.001639],[130.767768,33.002138],[130.768026,33.002459],[130.768342,33.002788],[130.768817,33.003013],[130.770117,33.003355],[130.77053,33.003672],[130.770892,33.004255],[130.77098,33.004597],[130.772019,33.00553],[130.773118,33.006143],[130.774063,33.00673],[130.774855,33.007241],[130.775315,33.007701],[130.775852,33.008774],[130.776133,33.009795],[130.776414,33.011583],[130.776619,33.012886],[130.777588,33.014693],[130.778473,33.016715],[130.779958,33.018262],[130.781443,33.019336],[130.783023,33.019968],[130.784824,33.020663],[130.785709,33.021137],[130.786499,33.021737],[130.787257,33.022874],[130.788047,33.024327],[130.788553,33.025653],[130.789636,33.027244],[130.790764,33.02847],[130.792285,33.029548],[130.794296,33.030332],[130.796551,33.030724],[130.798611,33.030871],[130.800377,33.031166],[130.802093,33.031705],[130.803319,33.032636],[130.804398,33.03342],[130.805673,33.033911],[130.806948,33.03445],[130.807751,33.034836],[130.808113,33.03551],[130.808363,33.035802],[130.808713,33.036385],[130.809701,33.037827],[130.809876,33.038393],[130.810078,33.038843],[130.810363,33.039243],[130.8107,33.039851],[130.810681,33.040862],[130.810638,33.04136],[130.810675,33.041701],[130.811363,33.042559],[130.8115,33.042918],[130.81185,33.043251],[130.811913,33.043634],[130.811888,33.043726],[130.811913,33.044242],[130.81205,33.044401],[130.812625,33.044692],[130.813475,33.044942],[130.81375,33.045209],[130.813887,33.045525],[130.81425,33.046],[130.8143,33.046342],[130.8145,33.046767],[130.814752,33.047398],[130.814912,33.048075],[130.815025,33.048633],[130.815537,33.048775],[130.816537,33.049308],[130.816887,33.0496],[130.817187,33.049941],[130.817574,33.050141],[130.818124,33.050641],[130.818424,33.051516],[130.819149,33.051924],[130.819887,33.052466],[130.820461,33.052216],[130.820761,33.052308],[130.821261,33.052549],[130.821899,33.052707],[130.822999,33.053516],[130.823024,33.053949],[130.822724,33.054532],[130.822636,33.05494],[130.822086,33.055974],[130.821674,33.056132],[130.821402,33.056285],[130.821299,33.056607],[130.821599,33.057082],[130.821374,33.05789],[130.820861,33.058815],[130.819786,33.059715],[130.819624,33.060031],[130.819149,33.060665],[130.818524,33.061023],[130.818412,33.061115],[130.817812,33.062331],[130.816874,33.063598],[130.816024,33.064381],[130.815862,33.064606],[130.815749,33.064948],[130.815862,33.065148],[130.816212,33.065306],[130.816874,33.066097],[130.817537,33.066522],[130.818336,33.067264],[130.818724,33.067397],[130.819143,33.067571],[130.819411,33.067847],[130.819849,33.068189],[130.820511,33.068389],[130.821199,33.068389],[130.821886,33.068547],[130.823061,33.068639],[130.823511,33.06888],[130.823861,33.069314],[130.824473,33.070305],[130.825461,33.071155],[130.826061,33.071497],[130.826885,33.071738],[130.82741,33.072055],[130.827848,33.072413],[130.828123,33.072622],[130.828323,33.072705],[130.828623,33.072688],[130.829123,33.072821],[130.82981,33.072955],[130.830573,33.073046],[130.831835,33.073288],[130.832997,33.07318],[130.833797,33.072813],[130.834025,33.072624],[130.834285,33.072296],[130.83486,33.071688],[130.835084,33.071213],[130.835334,33.070855],[130.835522,33.070655],[130.835659,33.070738],[130.836347,33.071638],[130.837372,33.072763],[130.838497,33.073913],[130.839184,33.074772],[130.838747,33.075738],[130.838772,33.075922],[130.838584,33.076188],[130.838147,33.076572],[130.837734,33.077005],[130.837647,33.077388],[130.838109,33.078221],[130.838497,33.078763],[130.838747,33.07923],[130.838697,33.079388],[130.838334,33.079796],[130.837759,33.080271],[130.837297,33.080746],[130.837297,33.081105],[130.837409,33.08153],[130.837347,33.081688],[130.837272,33.082271],[130.837459,33.082771],[130.837847,33.08313],[130.837847,33.08358],[130.837734,33.08408],[130.837759,33.084413],[130.837897,33.084529],[130.838722,33.084613],[130.838922,33.084705],[130.839497,33.085155],[130.839522,33.085296],[130.839884,33.085588],[130.840522,33.085696],[130.841097,33.08563],[130.841621,33.085696],[130.842196,33.086213],[130.842496,33.086371],[130.842909,33.086413],[130.843159,33.086505],[130.843271,33.08668],[130.843471,33.08688],[130.844321,33.087397],[130.845009,33.088163],[130.844946,33.088205],[130.844571,33.088338],[130.844321,33.088655],[130.843959,33.089263],[130.844021,33.089446],[130.844271,33.089896],[130.844821,33.090163],[130.845196,33.090505],[130.845746,33.091746],[130.845784,33.092213],[130.846084,33.092213],[130.847071,33.092463],[130.847483,33.092796],[130.847533,33.093388],[130.847708,33.093838],[130.848908,33.093972],[130.849496,33.093838],[130.850071,33.093838],[130.850671,33.094463],[130.850946,33.094555],[130.851408,33.094355],[130.852845,33.094014],[130.853308,33.094197],[130.854158,33.094214],[130.854683,33.094506],[130.85487,33.094572],[130.855233,33.094506],[130.85542,33.094347],[130.856308,33.093831],[130.856958,33.093764],[130.857408,33.093939],[130.857682,33.094389],[130.858507,33.094548],[130.859132,33.094531],[130.859682,33.094731],[130.86032,33.095181],[130.860757,33.095448],[130.86092,33.095498],[130.86207,33.095406],[130.862207,33.09529],[130.862732,33.095248],[130.863307,33.095315],[130.863782,33.095065],[130.863669,33.094365],[130.863719,33.093873],[130.863807,33.093665],[130.864382,33.093198],[130.864769,33.092949],[130.865044,33.092965],[130.865582,33.09279],[130.865757,33.092699],[130.866382,33.091974],[130.866682,33.091032],[130.867144,33.090449],[130.867257,33.090357],[130.867619,33.090332],[130.868194,33.090741],[130.868831,33.091007],[130.869706,33.091033],[130.869956,33.091099],[130.870619,33.091724],[130.871269,33.092066],[130.872181,33.092224],[130.872619,33.092266],[130.872653,33.092179],[130.872856,33.092183],[130.873131,33.092116],[130.873256,33.092075],[130.874493,33.092],[130.875356,33.091775],[130.875731,33.09175],[130.876506,33.091866],[130.876856,33.091825],[130.877468,33.091483],[130.877843,33.091125],[130.878243,33.090583],[130.878543,33.090425],[130.87883,33.090358],[130.879068,33.090217],[130.879605,33.089608],[130.879818,33.08945],[130.880655,33.089275],[130.880793,33.089267],[130.881105,33.089133],[130.88138,33.088909],[130.881668,33.08875],[130.882368,33.08855],[130.882955,33.088484],[130.88363,33.0885],[130.884105,33.088009],[130.884317,33.08785],[130.884642,33.087692],[130.88528,33.087484],[130.885742,33.087467],[130.886192,33.087376],[130.88713,33.086684],[130.887242,33.086509],[130.88718,33.086267],[130.887205,33.085892],[130.88728,33.085701],[130.887567,33.085351],[130.888517,33.084726],[130.888804,33.084393],[130.889029,33.084043],[130.889179,33.083943],[130.889542,33.083784],[130.889754,33.083451],[130.889967,33.082134],[130.890242,33.081001],[130.890492,33.080368],[130.890617,33.079826],[130.890779,33.07941],[130.890879,33.079276],[130.891029,33.078801],[130.891054,33.07831],[130.890992,33.077927],[130.890592,33.077368],[130.890417,33.077018],[130.890579,33.076668],[130.890654,33.076318],[130.890604,33.076185],[130.890617,33.075793],[130.891154,33.075585],[130.891317,33.075485],[130.892267,33.075085],[130.893054,33.074444],[130.893517,33.074144],[130.894292,33.073894],[130.894992,33.07386],[130.895429,33.073652],[130.895766,33.073402],[130.896441,33.073186],[130.896691,33.072919],[130.896804,33.072469],[130.896879,33.071727],[130.896716,33.070836],[130.896654,33.070702],[130.896616,33.070186],[130.896754,33.069594],[130.896941,33.069194],[130.897291,33.069011],[130.897716,33.068569],[130.897954,33.068094],[130.897966,33.067628],[130.897891,33.067386],[130.897042,33.066028],[130.897042,33.06547],[130.897379,33.065245],[130.897591,33.065186],[130.897891,33.065161],[130.898766,33.064753],[130.899016,33.064336],[130.899291,33.064053],[130.899954,33.064153],[130.900529,33.064361],[130.901754,33.064503],[130.902129,33.064603],[130.903829,33.064845],[130.905066,33.06497],[130.905791,33.065103],[130.906341,33.065086],[130.906529,33.06502],[130.906879,33.064645],[130.907304,33.064436],[130.907754,33.064311],[130.907854,33.064236],[130.908341,33.063503],[130.908629,33.063245],[130.909116,33.06267],[130.909404,33.06252],[130.909916,33.062553],[130.909916,33.062495],[130.910053,33.06252],[130.910453,33.06237],[130.910791,33.06212],[130.911304,33.06097],[130.912041,33.059645],[130.912429,33.059395],[130.913004,33.059253],[130.913379,33.059128],[130.913729,33.058645],[130.914004,33.058103],[130.914841,33.057203],[130.915266,33.05657],[130.915679,33.056078],[130.916391,33.05562],[130.916391,33.05537],[130.916154,33.054587],[130.915791,33.054245],[130.915691,33.053753],[130.915741,33.053587],[130.916216,33.05347],[130.916766,33.053262],[130.917166,33.053062],[130.917578,33.053162],[130.917616,33.053228],[130.917591,33.053237],[130.917878,33.05337],[130.918391,33.053312],[130.918853,33.053403],[130.919278,33.05352],[130.919503,33.05347],[130.920378,33.052762],[130.920903,33.052637],[130.921616,33.052603],[130.922378,33.052453],[130.923216,33.052112],[130.923528,33.05217],[130.923916,33.05282],[130.924378,33.053028],[130.925053,33.052937],[130.925741,33.052745],[130.926353,33.05277],[130.926391,33.052803],[130.927141,33.05257],[130.927903,33.052245],[130.92849,33.05222],[130.929128,33.052711],[130.929753,33.052911],[130.930553,33.053045],[130.931078,33.053295],[130.932553,33.054086],[130.933715,33.054553],[130.934265,33.054953],[130.934678,33.055195],[130.935053,33.05502],[130.935378,33.054453],[130.93624,33.053586],[130.936503,33.053086],[130.93694,33.05247],[130.937378,33.05217],[130.938102,33.052111],[130.938752,33.052128],[130.939365,33.052386],[130.940102,33.05317],[130.940652,33.053528],[130.942302,33.052328],[130.942727,33.05227],[130.943777,33.052736],[130.944289,33.052886],[130.944877,33.052995],[130.945277,33.053011],[130.945952,33.052945],[130.946539,33.052961],[130.946739,33.05292],[130.947189,33.052603],[130.948014,33.051828],[130.948277,33.051686],[130.948902,33.05142],[130.949889,33.051103],[130.950276,33.050928],[130.950739,33.05057],[130.951426,33.050278],[130.951526,33.050187],[130.952001,33.04997],[130.952526,33.049603],[130.953039,33.049353],[130.953501,33.048912],[130.953964,33.048645],[130.954501,33.048695],[130.955163,33.048595],[130.955701,33.048154],[130.956013,33.047737],[130.956751,33.047337],[130.957051,33.046887],[130.957101,33.046462],[130.958026,33.04542],[130.958501,33.045012],[130.958826,33.044529],[130.959013,33.044046],[130.959001,33.043696],[130.959063,33.043037],[130.959076,33.041679],[130.959051,33.041154],[130.958976,33.040737],[130.959001,33.040637],[130.959513,33.039912],[130.959588,33.039604],[130.959526,33.039212],[130.959526,33.038696],[130.959288,33.038137],[130.959126,33.037621],[130.959201,33.037004],[130.959364,33.036321],[130.959614,33.035829],[130.960826,33.034562],[130.961351,33.033729],[130.962126,33.033012],[130.962651,33.032579],[130.964126,33.031046],[130.965626,33.029746],[130.966626,33.028754],[130.967113,33.028237],[130.969163,33.025404],[130.970138,33.023904],[130.970176,33.023854]]]}}],"type":"FeatureCollection"}