{"type":"FeatureCollection","features":[{"type":"Feature","geometry":{"coordinates":[[[130.561757,33.104159],[130.561919,33.104334],[130.563181,33.104884],[130.563556,33.104892],[130.564031,33.104984],[130.564944,33.105259],[130.565269,33.105392],[130.565531,33.105709],[130.565769,33.106075],[130.566119,33.106142],[130.567106,33.105834],[130.567856,33.105775],[130.568931,33.10605],[130.569781,33.106459],[130.570643,33.106692],[130.570806,33.1068],[130.571043,33.107209],[130.571143,33.10755],[130.571006,33.108542],[130.571018,33.108975],[130.571718,33.109858],[130.572218,33.110333],[130.572968,33.110925],[130.573118,33.111083],[130.573143,33.111283],[130.573093,33.111575],[130.573118,33.111808],[130.573493,33.1119],[130.573818,33.112033],[130.574405,33.112441],[130.57533,33.113241],[130.57568,33.113441],[130.576105,33.113625],[130.576368,33.113858],[130.576693,33.114266],[130.576817,33.114983],[130.57843,33.114991],[130.578592,33.115041],[130.578805,33.115316],[130.579167,33.115499],[130.579417,33.115541],[130.58008,33.115999],[130.58038,33.115974],[130.580542,33.115799],[130.580892,33.115683],[130.581317,33.115624],[130.581854,33.115241],[130.582204,33.114908],[130.582342,33.114858],[130.582692,33.114816],[130.584217,33.115116],[130.584667,33.115233],[130.585042,33.1154],[130.585329,33.115941],[130.585629,33.116008],[130.586004,33.115941],[130.586166,33.115849],[130.586816,33.115675],[130.587241,33.115633],[130.587754,33.115641],[130.588554,33.115391],[130.588879,33.115216],[130.589154,33.114833],[130.589529,33.114116],[130.589829,33.113866],[130.590228,33.11385],[130.590741,33.113967],[130.591753,33.1139],[130.592216,33.113817],[130.592541,33.113683],[130.592666,33.113658],[130.593341,33.113867],[130.593503,33.113867],[130.593978,33.113667],[130.594278,33.113425],[130.594578,33.113242],[130.594715,33.113217],[130.595078,33.113383],[130.595403,33.113608],[130.595728,33.113767],[130.596503,33.114225],[130.597228,33.114208],[130.597678,33.11425],[130.598053,33.114367],[130.59899,33.114442],[130.599902,33.114608],[130.600327,33.114717],[130.60084,33.114817],[130.60129,33.114858],[130.601852,33.114892],[130.602652,33.1148],[130.60274,33.114759],[130.602715,33.114575],[130.60274,33.114284],[130.602877,33.114034],[130.603089,33.113809],[130.603227,33.113592],[130.603452,33.113367],[130.603802,33.113159],[130.603989,33.112959],[130.604127,33.112692],[130.604227,33.112625],[130.604827,33.112492],[130.605252,33.112334],[130.605552,33.112109],[130.605789,33.111817],[130.606139,33.111551],[130.606464,33.111217],[130.606814,33.110542],[130.606902,33.110476],[130.607326,33.110342],[130.607976,33.110276],[130.608401,33.110193],[130.608776,33.110034],[130.609314,33.109609],[130.609451,33.109543],[130.609939,33.109384],[130.611201,33.109193],[130.611714,33.109284],[130.612026,33.109193],[130.612214,33.109109],[130.612464,33.109109],[130.612751,33.108843],[130.613139,33.108659],[130.613701,33.108734],[130.614288,33.10856],[130.614763,33.108626],[130.614926,33.108676],[130.615301,33.108676],[130.615388,33.108626],[130.615838,33.108743],[130.616638,33.109176],[130.616776,33.109201],[130.617488,33.109659],[130.617901,33.109843],[130.618426,33.110134],[130.618638,33.110451],[130.618776,33.110993],[130.618826,33.111068],[130.619063,33.111109],[130.619526,33.111026],[130.620026,33.110984],[130.620726,33.111168],[130.620863,33.111234],[130.621238,33.111301],[130.621963,33.111284],[130.622088,33.111218],[130.622338,33.111201],[130.622672,33.111315],[130.622826,33.111368],[130.623126,33.111326],[130.623363,33.111326],[130.623688,33.111393],[130.623975,33.111326],[130.624163,33.111218],[130.624388,33.111151],[130.624625,33.111176],[130.625,33.111309],[130.625288,33.111626],[130.625588,33.111768],[130.625913,33.111718],[130.626225,33.111584],[130.626738,33.111543],[130.626975,33.111568],[130.627513,33.111909],[130.627863,33.112051],[130.628025,33.112068],[130.628375,33.112001],[130.6288,33.111801],[130.6291,33.111493],[130.629475,33.111243],[130.629713,33.111293],[130.630225,33.11161],[130.6307,33.112201],[130.630938,33.112718],[130.631338,33.113126],[130.6316,33.113243],[130.63195,33.113334],[130.6327,33.113384],[130.633425,33.113318],[130.63415,33.112826],[130.6348,33.112351],[130.63515,33.111993],[130.63545,33.111635],[130.6369,33.111443],[130.637362,33.111468],[130.63755,33.11156],[130.637675,33.111693],[130.6377,33.11181],[130.637612,33.11246],[130.637675,33.112685],[130.637912,33.112935],[130.63815,33.113118],[130.638712,33.113326],[130.63925,33.113435],[130.639412,33.113443],[130.639862,33.11351],[130.640125,33.113443],[130.64035,33.113085],[130.640587,33.112768],[130.640887,33.112476],[130.641237,33.112276],[130.641674,33.112168],[130.642574,33.112168],[130.643324,33.112218],[130.643999,33.112243],[130.644749,33.112343],[130.645174,33.112343],[130.645549,33.112276],[130.645662,33.112235],[130.645449,33.11171],[130.645399,33.11126],[130.645537,33.110852],[130.645724,33.110652],[130.646449,33.110427],[130.647124,33.110277],[130.646599,33.109777],[130.646437,33.109527],[130.646362,33.108985],[130.646224,33.108777],[130.646224,33.108535],[130.646337,33.108402],[130.647037,33.108269],[130.647899,33.108252],[130.648586,33.108319],[130.649049,33.10846],[130.649849,33.108935],[130.650249,33.10946],[130.650499,33.110293],[130.650724,33.110477],[130.652136,33.110185],[130.652699,33.110102],[130.653611,33.110085],[130.654148,33.109835],[130.655048,33.109302],[130.655561,33.108877],[130.655661,33.108694],[130.655373,33.108444],[130.655161,33.108177],[130.654973,33.10786],[130.654786,33.107694],[130.654598,33.107469],[130.654661,33.107019],[130.654636,33.106886],[130.654236,33.106677],[130.654074,33.106544],[130.653911,33.106177],[130.652899,33.105769],[130.651936,33.105152],[130.651649,33.104702],[130.651486,33.104344],[130.651411,33.103977],[130.651261,33.103619],[130.651236,33.103461],[130.651311,33.103186],[130.651561,33.102869],[130.651724,33.102511],[130.651961,33.102111],[130.652424,33.101611],[130.652911,33.101411],[130.653361,33.101119],[130.653724,33.100786],[130.653861,33.100444],[130.653911,33.100153],[130.653924,33.099228],[130.654024,33.098936],[130.654674,33.097995],[130.655111,33.097495],[130.655251,33.097299],[130.655461,33.097045],[130.655624,33.09682],[130.655974,33.096578],[130.656274,33.09662],[130.657399,33.096678],[130.657586,33.09652],[130.657785,33.096302],[130.658024,33.096095],[130.658215,33.095944],[130.658499,33.095778],[130.658748,33.095578],[130.658774,33.095353],[130.658611,33.09517],[130.658249,33.09487],[130.657899,33.094512],[130.657024,33.093695],[130.656599,33.09342],[130.656349,33.093104],[130.656299,33.092787],[130.656361,33.092337],[130.656286,33.091904],[130.656211,33.091004],[130.65606,33.090415],[130.655874,33.089871],[130.655499,33.089262],[130.655237,33.089012],[130.654912,33.088854],[130.654324,33.088079],[130.654149,33.087879],[130.654062,33.087829],[130.653399,33.087629],[130.653099,33.087446],[130.652624,33.087079],[130.652462,33.086679],[130.652449,33.086421],[130.652399,33.086037],[130.652412,33.085629],[130.65225,33.084979],[130.651437,33.084046],[130.651112,33.083754],[130.650712,33.083504],[130.6505,33.083571],[130.648812,33.083804],[130.648162,33.083979],[130.647875,33.083979],[130.6475,33.083821],[130.64675,33.083321],[130.646413,33.083138],[130.645925,33.082954],[130.645075,33.082746],[130.64395,33.082371],[130.643463,33.082304],[130.64315,33.082163],[130.642913,33.082004],[130.642513,33.081596],[130.642138,33.081371],[130.641763,33.081163],[130.641363,33.081046],[130.64107,33.080916],[130.640725,33.080704],[130.640326,33.080413],[130.639413,33.080063],[130.639363,33.079954],[130.639401,33.079429],[130.639301,33.078779],[130.638951,33.078238],[130.638638,33.077913],[130.638263,33.077713],[130.637488,33.077413],[130.637326,33.077163],[130.637313,33.076738],[130.637151,33.076463],[130.636776,33.076146],[130.636463,33.075938],[130.636188,33.075713],[130.636063,33.075396],[130.636013,33.075013],[130.636076,33.07458],[130.636238,33.074338],[130.636151,33.074155],[130.635889,33.074021],[130.635301,33.07388],[130.634989,33.073655],[130.634614,33.07363],[130.634076,33.073646],[130.633164,33.073455],[130.632769,33.073415],[130.632454,33.073166],[130.632512,33.072854],[130.632464,33.072448],[130.632214,33.071805],[130.632539,33.071038],[130.632714,33.070388],[130.632851,33.070097],[130.632776,33.069888],[130.632214,33.069663],[130.631864,33.069363],[130.631701,33.069072],[130.631739,33.068847],[130.632176,33.068264],[130.632526,33.06788],[130.632764,33.067497],[130.632639,33.066914],[130.632914,33.06653],[130.633339,33.066239],[130.633664,33.065905],[130.633989,33.065639],[130.634264,33.06548],[130.634427,33.06528],[130.634277,33.064689],[130.634414,33.064356],[130.634714,33.063856],[130.635114,33.063364],[130.635414,33.063097],[130.635439,33.062689],[130.635552,33.062331],[130.635802,33.061947],[130.635964,33.061614],[130.636402,33.060981],[130.636227,33.059856],[130.636152,33.059331],[130.636127,33.058931],[130.635702,33.058698],[130.635427,33.058514],[130.635464,33.058314],[130.635577,33.058064],[130.635627,33.057823],[130.635439,33.057681],[130.634902,33.057456],[130.634777,33.056931],[130.634352,33.056481],[130.634302,33.056281],[130.634389,33.055981],[130.634602,33.05569],[130.635277,33.055065],[130.635277,33.054865],[130.635177,33.054565],[130.635214,33.053798],[130.635214,33.05369],[130.636014,33.053623],[130.636577,33.053432],[130.637489,33.053273],[130.638302,33.053007],[130.639614,33.05284],[130.639964,33.052732],[130.641252,33.05249],[130.642727,33.052074],[130.643164,33.052049],[130.644227,33.052124],[130.644389,33.052215],[130.644714,33.052332],[130.645626,33.052357],[130.646101,33.052474],[130.646401,33.052457],[130.646901,33.052257],[130.647251,33.052215],[130.647464,33.052282],[130.648089,33.052582],[130.648489,33.05254],[130.648801,33.052557],[130.649151,33.052515],[130.649526,33.052407],[130.649689,33.052232],[130.649889,33.051707],[130.650214,33.051307],[130.650326,33.051016],[130.650439,33.050516],[130.650526,33.049707],[130.650639,33.049391],[130.651789,33.049357],[130.652026,33.049224],[130.652153,33.049083],[130.652376,33.048882],[130.653001,33.048483],[130.653114,33.048374],[130.653114,33.047766],[130.652964,33.046924],[130.652914,33.046833],[130.652864,33.046066],[130.652814,33.045816],[130.652789,33.045324],[130.652964,33.044625],[130.653039,33.044425],[130.653014,33.044058],[130.652864,33.043791],[130.652626,33.043491],[130.652464,33.043133],[130.652576,33.0425],[130.652637,33.04214],[130.652776,33.041375],[130.652751,33.041033],[130.652814,33.040883],[130.652827,33.040637],[130.652501,33.040493],[130.651969,33.040417],[130.651151,33.040308],[130.650889,33.040167],[130.650776,33.039967],[130.650726,33.039742],[130.650551,33.03935],[130.650501,33.039058],[130.650563,33.03876],[130.650614,33.038317],[130.650639,33.038117],[130.650989,33.037442],[130.651214,33.036784],[130.651227,33.036242],[130.651277,33.036134],[130.651499,33.035905],[130.651506,33.035653],[130.651314,33.035275],[130.651264,33.035025],[130.651289,33.034692],[130.651264,33.034309],[130.650977,33.033675],[130.650964,33.032992],[130.650914,33.032659],[130.650752,33.032226],[130.650539,33.031976],[130.649714,33.031226],[130.649002,33.030701],[130.648927,33.030609],[130.648527,33.029684],[130.648477,33.029301],[130.648589,33.028692],[130.648339,33.027743],[130.648289,33.027384],[130.648377,33.026726],[130.648166,33.026385],[130.64739,33.026068],[130.646427,33.025859],[130.64584,33.025651],[130.644477,33.025484],[130.643777,33.025326],[130.643165,33.025118],[130.641615,33.024743],[130.64119,33.024676],[130.640727,33.024559],[130.639552,33.024393],[130.638778,33.024093],[130.638565,33.023959],[130.63799,33.022984],[130.63794,33.022851],[130.63759,33.022684],[130.637361,33.022682],[130.637165,33.022751],[130.636865,33.023093],[130.636678,33.023159],[130.636403,33.023201],[130.636065,33.023018],[130.63559,33.022559],[130.635053,33.022243],[130.634765,33.022109],[130.634415,33.021701],[130.632715,33.020201],[130.632215,33.01986],[130.632103,33.019718],[130.63214,33.01956],[130.632328,33.019268],[130.63314,33.018351],[130.633728,33.017635],[130.634765,33.01651],[130.635765,33.015593],[130.636165,33.015302],[130.636253,33.01521],[130.636678,33.014943],[130.63754,33.014519],[130.638053,33.01416],[130.638303,33.013894],[130.638515,33.013244],[130.638628,33.01261],[130.638453,33.011935],[130.637903,33.011052],[130.637578,33.010369],[130.637353,33.009494],[130.637403,33.009244],[130.637628,33.008902],[130.63819,33.008411],[130.638978,33.007969],[130.63954,33.007561],[130.640353,33.007053],[130.641103,33.006669],[130.641428,33.006561],[130.641828,33.006494],[130.643328,33.006594],[130.644878,33.006586],[130.645902,33.006478],[130.64654,33.006278],[130.64679,33.006119],[130.64689,33.00592],[130.64684,33.005561],[130.64679,33.00542],[130.64704,33.004886],[130.64734,33.004436],[130.64729,33.003828],[130.647215,33.003553],[130.647027,33.003353],[130.647027,33.002978],[130.646815,33.002728],[130.646753,33.002628],[130.646728,33.00242],[130.64664,33.002337],[130.646553,33.002303],[130.64644,33.002245],[130.646428,33.002128],[130.646465,33.001953],[130.646465,33.001687],[130.646565,33.001528],[130.64649,33.001253],[130.646478,33.00112],[130.64619,33.000637],[130.646053,33.00032],[130.64604,33.000287],[130.64599,33.00017],[130.645953,33.000037],[130.645965,32.999912],[130.64599,32.999812],[130.646178,32.999337],[130.646203,32.999212],[130.646203,32.999062],[130.646115,32.998545],[130.64599,32.998087],[130.645878,32.997912],[130.64574,32.997787],[130.645453,32.997679],[130.645328,32.997654],[130.645028,32.997545],[130.644815,32.997454],[130.64444,32.997245],[130.644103,32.997012],[130.643465,32.996596],[130.64334,32.996487],[130.643328,32.996479],[130.643303,32.996462],[130.64289,32.996054],[130.642565,32.995729],[130.641978,32.994979],[130.641766,32.994637],[130.641603,32.994387],[130.641553,32.994279],[130.641553,32.994029],[130.641578,32.993829],[130.641691,32.993396],[130.641728,32.993313],[130.641728,32.993271],[130.641766,32.993113],[130.641778,32.993096],[130.641803,32.993013],[130.641828,32.992921],[130.641991,32.992829],[130.642016,32.992813],[130.642216,32.992804],[130.642903,32.992213],[130.643241,32.991788],[130.643428,32.991638],[130.643678,32.991988],[130.644153,32.991721],[130.644741,32.99138],[130.645253,32.991046],[130.645441,32.990905],[130.645628,32.99073],[130.645766,32.990571],[130.645678,32.990171],[130.646503,32.98938],[130.646574,32.989304],[130.646628,32.989246],[130.646716,32.989146],[130.646803,32.989063],[130.646866,32.989055],[130.646991,32.988988],[130.647303,32.988988],[130.647441,32.988972],[130.64754,32.988922],[130.647728,32.988822],[130.64779,32.98868],[130.647778,32.988522],[130.647803,32.988438],[130.647866,32.988313],[130.648078,32.988213],[130.648003,32.98808],[130.647978,32.987713],[130.647966,32.987522],[130.647953,32.987405],[130.647791,32.987138],[130.647703,32.987038],[130.647578,32.986813],[130.647478,32.986322],[130.647416,32.98618],[130.647328,32.986114],[130.647128,32.986005],[130.647091,32.98583],[130.647053,32.985355],[130.646941,32.98468],[130.646903,32.984514],[130.646753,32.98428],[130.646516,32.984072],[130.646391,32.98393],[130.646328,32.983797],[130.646353,32.983639],[130.646503,32.983297],[130.646453,32.983155],[130.646128,32.982764],[130.646041,32.982647],[130.645791,32.982406],[130.645566,32.982372],[130.645253,32.982156],[130.645153,32.982064],[130.644691,32.981664],[130.644603,32.981464],[130.644341,32.981214],[130.644003,32.981022],[130.643679,32.980864],[130.643066,32.980481],[130.642791,32.980331],[130.642604,32.980256],[130.642441,32.980231],[130.642391,32.980264],[130.642391,32.980406],[130.642366,32.980781],[130.642354,32.980864],[130.642391,32.981056],[130.642566,32.981281],[130.642966,32.981781],[130.643016,32.982089],[130.642966,32.982422],[130.642616,32.98288],[130.642503,32.982955],[130.642303,32.98303],[130.642141,32.983039],[130.642016,32.982989],[130.641804,32.982839],[130.641691,32.982772],[130.641566,32.98278],[130.641441,32.982822],[130.641229,32.98298],[130.641129,32.982972],[130.640929,32.982872],[130.640816,32.982714],[130.640779,32.982531],[130.640816,32.982414],[130.641016,32.982139],[130.641016,32.982014],[130.640966,32.981881],[130.640816,32.981739],[130.640754,32.981689],[130.640791,32.981364],[130.640854,32.981281],[130.641066,32.981081],[130.641179,32.980864],[130.641241,32.980714],[130.641204,32.980539],[130.641091,32.980289],[130.641041,32.980097],[130.641054,32.979922],[130.641141,32.979756],[130.641279,32.979631],[130.641366,32.979548],[130.641404,32.979456],[130.641441,32.978998],[130.641354,32.978864],[130.641304,32.978723],[130.641291,32.978606],[130.641304,32.978106],[130.641329,32.977981],[130.641466,32.977681],[130.641779,32.977223],[130.641891,32.977064],[130.641991,32.976981],[130.642179,32.976839],[130.642479,32.976689],[130.642841,32.976365],[130.642978,32.976312],[130.643104,32.976306],[130.643454,32.976365],[130.643704,32.976348],[130.644004,32.976215],[130.644166,32.976156],[130.644579,32.976173],[130.644691,32.976173],[130.644941,32.97604],[130.645091,32.975998],[130.645279,32.976023],[130.645529,32.976073],[130.645654,32.976098],[130.646029,32.97609],[130.646491,32.97604],[130.646791,32.976056],[130.647079,32.976148],[130.647228,32.976181],[130.647478,32.976173],[130.647616,32.976148],[130.647678,32.97604],[130.647741,32.975973],[130.648053,32.97589],[130.648503,32.975798],[130.648803,32.975698],[130.649266,32.975515],[130.649516,32.975465],[130.649803,32.975448],[130.650074,32.97546],[130.650303,32.975448],[130.650466,32.975381],[130.650603,32.975398],[130.650757,32.975391],[130.650891,32.975365],[130.651091,32.975215],[130.651303,32.975148],[130.651428,32.975073],[130.651728,32.974765],[130.651866,32.974665],[130.652203,32.974556],[130.652541,32.974348],[130.652903,32.974173],[130.652941,32.974148],[130.653241,32.973632],[130.653316,32.973465],[130.653328,32.973382],[130.653378,32.973215],[130.653403,32.972957],[130.653478,32.972823],[130.653853,32.972515],[130.653941,32.972432],[130.654003,32.972365],[130.654316,32.97214],[130.654403,32.97209],[130.654478,32.972032],[130.654541,32.972015],[130.654616,32.971948],[130.654653,32.971873],[130.654653,32.971773],[130.654641,32.971723],[130.654603,32.97164],[130.654553,32.971582],[130.654503,32.971532],[130.654316,32.971357],[130.654191,32.971223],[130.654103,32.971032],[130.654003,32.970607],[130.653728,32.970274],[130.653391,32.969924],[130.653191,32.969699],[130.653141,32.969599],[130.652878,32.969057],[130.652853,32.968965],[130.652816,32.968615],[130.652816,32.96839],[130.652716,32.968249],[130.652528,32.967932],[130.652466,32.967765],[130.652466,32.967665],[130.652503,32.967457],[130.652578,32.967257],[130.652578,32.967082],[130.652503,32.966566],[130.652441,32.966407],[130.652278,32.966124],[130.652228,32.965932],[130.652253,32.965374],[130.652241,32.965241],[130.652216,32.965116],[130.652103,32.964907],[130.651978,32.964774],[130.651891,32.964632],[130.651878,32.964474],[130.651853,32.964349],[130.651928,32.964207],[130.652016,32.964074],[130.652341,32.963607],[130.652441,32.963457],[130.652591,32.963116],[130.652828,32.962691],[130.652928,32.962099],[130.652891,32.962049],[130.652766,32.962016],[130.652591,32.962066],[130.652428,32.962191],[130.652128,32.962466],[130.651716,32.962658],[130.651216,32.962674],[130.650929,32.962649],[130.650729,32.962683],[130.650491,32.962749],[130.649516,32.962941],[130.649091,32.963091],[130.648104,32.963307],[130.647066,32.963807],[130.646916,32.963799],[130.646829,32.963824],[130.646716,32.963882],[130.646654,32.963899],[130.646579,32.963899],[130.646466,32.963824],[130.646329,32.963807],[130.646004,32.963791],[130.645741,32.963824],[130.645504,32.963899],[130.645241,32.963882],[130.644991,32.963791],[130.644591,32.963632],[130.644491,32.963632],[130.644429,32.963707],[130.644379,32.963832],[130.644366,32.964207],[130.644329,32.964396],[130.644179,32.964524],[130.643866,32.964491],[130.643691,32.964549],[130.643254,32.964724],[130.642691,32.964824],[130.641842,32.964832],[130.641567,32.964732],[130.641367,32.964691],[130.640992,32.964641],[130.640654,32.964632],[130.640567,32.964791],[130.640504,32.965015],[130.640379,32.965157],[130.639967,32.965415],[130.639617,32.965607],[130.639342,32.96569],[130.638829,32.965757],[130.638604,32.965707],[130.638454,32.96569],[130.638104,32.965765],[130.637592,32.965974],[130.637529,32.965957],[130.637492,32.96589],[130.637354,32.965757],[130.637244,32.965709],[130.637054,32.96569],[130.636304,32.96604],[130.636042,32.96614],[130.635854,32.966157],[130.635755,32.9661],[130.635707,32.966048],[130.635657,32.965973],[130.635604,32.96589],[130.635479,32.965682],[130.635392,32.965607],[130.635254,32.965449],[130.635117,32.965357],[130.634929,32.965274],[130.634842,32.965224],[130.634754,32.965165],[130.634675,32.965087],[130.634604,32.964957],[130.634467,32.96474],[130.634379,32.964665],[130.634054,32.964532],[130.633704,32.964382],[130.633429,32.96419],[130.633392,32.96409],[130.633379,32.963915],[130.633417,32.963649],[130.633417,32.963457],[130.633404,32.963324],[130.633354,32.963166],[130.633267,32.963074],[130.633217,32.963032],[130.63298,32.963024],[130.63288,32.962957],[130.632805,32.962857],[130.632805,32.962724],[130.63288,32.962574],[130.633005,32.962432],[130.63313,32.962324],[130.633167,32.962249],[130.633267,32.961582],[130.633255,32.961524],[130.633217,32.961457],[130.633092,32.961332],[130.632842,32.961141],[130.632592,32.961016],[130.63233,32.960941],[130.63223,32.960924],[130.631942,32.960949],[130.631905,32.960916],[130.631855,32.960816],[130.63183,32.960707],[130.631867,32.960316],[130.631867,32.960116],[130.631842,32.959941],[130.63183,32.959816],[130.631892,32.959699],[130.63193,32.959624],[130.632017,32.959557],[130.63213,32.959441],[130.632192,32.959332],[130.632155,32.959232],[130.632055,32.959116],[130.631992,32.959032],[130.631942,32.958907],[130.63198,32.958791],[130.632067,32.958458],[130.632055,32.958299],[130.632067,32.958149],[130.632167,32.957916],[130.63218,32.957841],[130.632105,32.957674],[130.631942,32.957424],[130.631892,32.957291],[130.631842,32.957191],[130.631767,32.957083],[130.631605,32.956974],[130.631467,32.956899],[130.631342,32.956783],[130.63123,32.956649],[130.631142,32.956449],[130.631117,32.956249],[130.631142,32.956024],[130.631155,32.955941],[130.631117,32.955866],[130.63058,32.955183],[130.630455,32.955058],[130.630367,32.954958],[130.63033,32.954849],[130.630342,32.954658],[130.630305,32.954574],[130.63023,32.954483],[130.630105,32.954424],[130.63003,32.954316],[130.629967,32.954208],[130.629955,32.954158],[130.630042,32.953916],[130.630005,32.953599],[130.629855,32.953175],[130.629767,32.953058],[130.62973,32.952925],[130.629692,32.952708],[130.629655,32.952291],[130.62963,32.952108],[130.629642,32.951941],[130.62968,32.95185],[130.629755,32.951716],[130.629967,32.951383],[130.63023,32.950833],[130.630342,32.950633],[130.630467,32.950333],[130.630505,32.950166],[130.630505,32.950041],[130.630443,32.949833],[130.630393,32.949683],[130.62993,32.949133],[130.629755,32.948841],[130.629718,32.948608],[130.62978,32.948258],[130.629843,32.948],[130.63003,32.947583],[130.630018,32.947367],[130.630043,32.947117],[130.630105,32.947008],[130.630205,32.946925],[130.630243,32.946875],[130.630268,32.946817],[130.630268,32.9467],[130.630168,32.9465],[130.630043,32.946408],[130.62978,32.946275],[130.629643,32.945983],[130.62958,32.945833],[130.629368,32.945675],[130.629305,32.945625],[130.629255,32.945533],[130.629255,32.945467],[130.629255,32.945358],[130.629405,32.944608],[130.62963,32.944675],[130.62988,32.944658],[130.630055,32.944558],[130.630205,32.944433],[130.63038,32.944358],[130.63068,32.944367],[130.630818,32.944383],[130.630943,32.944383],[130.631018,32.944375],[130.63118,32.944292],[130.631405,32.944133],[130.632055,32.943775],[130.632243,32.943717],[130.632418,32.943667],[130.63268,32.943659],[130.63278,32.943709],[130.633043,32.943867],[130.63323,32.9439],[130.63353,32.943825],[130.633668,32.943784],[130.634005,32.943734],[130.634192,32.943675],[130.634617,32.943617],[130.63518,32.943575],[130.635417,32.9435],[130.635567,32.9433],[130.63573,32.94325],[130.635942,32.9432],[130.636317,32.943067],[130.636592,32.9429],[130.63673,32.942767],[130.637292,32.942592],[130.637467,32.942484],[130.637542,32.942392],[130.637567,32.942184],[130.637742,32.941942],[130.63813,32.9417],[130.638167,32.941617],[130.638167,32.941159],[130.638205,32.940892],[130.638205,32.940751],[130.638167,32.940626],[130.638067,32.940492],[130.63803,32.940442],[130.63803,32.940392],[130.638017,32.940317],[130.63803,32.940142],[130.638055,32.940051],[130.638092,32.940001],[130.638205,32.939859],[130.638242,32.939776],[130.63828,32.939567],[130.638342,32.939417],[130.63858,32.939151],[130.638817,32.938992],[130.63898,32.938917],[130.639405,32.938784],[130.639642,32.938734],[130.639805,32.938701],[130.63998,32.938617],[130.640117,32.938509],[130.640217,32.938476],[130.640442,32.938442],[130.640705,32.938492],[130.641042,32.938551],[130.641442,32.938684],[130.642217,32.938959],[130.642504,32.939084],[130.642817,32.939267],[130.643398,32.93913],[130.643867,32.938493],[130.643929,32.938334],[130.644017,32.938184],[130.644054,32.938134],[130.644104,32.938076],[130.644204,32.937934],[130.644317,32.937868],[130.644704,32.937759],[130.644867,32.937709],[130.644992,32.937618],[130.645204,32.937568],[130.645479,32.937484],[130.645567,32.937393],[130.645604,32.937268],[130.645679,32.937051],[130.645767,32.936926],[130.645967,32.936793],[130.646217,32.936659],[130.646629,32.936484],[130.646854,32.936226],[130.647029,32.936009],[130.647142,32.935951],[130.647517,32.935876],[130.647742,32.935809],[130.647992,32.935659],[130.648292,32.935443],[130.648704,32.935151],[130.649229,32.934868],[130.649492,32.934726],[130.649804,32.934543],[130.650067,32.934401],[130.650192,32.93431],[130.650279,32.934151],[130.650379,32.93386],[130.650492,32.933751],[130.650691,32.933635],[130.650904,32.93351],[130.651029,32.933401],[130.651129,32.933285],[130.651229,32.933076],[130.651291,32.932835],[130.651566,32.932235],[130.651629,32.932027],[130.651642,32.93188],[130.651645,32.931762],[130.651641,32.931643],[130.651654,32.931635],[130.651641,32.931577],[130.651616,32.93156],[130.651541,32.931452],[130.651454,32.931352],[130.651416,32.931302],[130.651379,32.931243],[130.651279,32.931193],[130.651191,32.931143],[130.651029,32.931077],[130.650866,32.931068],[130.650404,32.931052],[130.650066,32.93101],[130.649567,32.930968],[130.649174,32.931004],[130.648667,32.931118],[130.648067,32.931301],[130.646879,32.931493],[130.646467,32.931543],[130.645979,32.931576],[130.645767,32.931501],[130.645654,32.931426],[130.645429,32.931185],[130.645317,32.931085],[130.645179,32.931018],[130.644754,32.930876],[130.644492,32.930826],[130.644167,32.930793],[130.643979,32.930818],[130.643567,32.930793],[130.643267,32.930793],[130.642942,32.930718],[130.642792,32.930668],[130.642517,32.930526],[130.642204,32.930476],[130.641867,32.93051],[130.641717,32.930476],[130.641679,32.930318],[130.641754,32.930076],[130.641892,32.929843],[130.642029,32.929501],[130.642154,32.929135],[130.642142,32.928927],[130.642104,32.928793],[130.641979,32.928627],[130.641917,32.928543],[130.641692,32.928393],[130.641379,32.928318],[130.641179,32.928302],[130.64078,32.928168],[130.640717,32.928135],[130.640567,32.92801],[130.640167,32.927435],[130.63993,32.927202],[130.63973,32.92706],[130.639542,32.92696],[130.639492,32.92691],[130.639455,32.926868],[130.63888,32.925543],[130.638967,32.925493],[130.63923,32.92536],[130.639392,32.925277],[130.639605,32.925152],[130.639817,32.925052],[130.640292,32.924902],[130.640605,32.924768],[130.641104,32.924569],[130.641479,32.924294],[130.641879,32.923927],[130.641879,32.923844],[130.641854,32.92371],[130.641692,32.923544],[130.641592,32.923435],[130.640817,32.922752],[130.640405,32.922235],[130.64023,32.922094],[130.63988,32.921669],[130.639705,32.921469],[130.639555,32.921294],[130.639455,32.921227],[130.639247,32.920919],[130.639055,32.920544],[130.63888,32.920119],[130.638817,32.920027],[130.638505,32.919652],[130.63828,32.919485],[130.637717,32.919277],[130.637542,32.919202],[130.637255,32.919044],[130.636955,32.918819],[130.637067,32.918777],[130.63753,32.918727],[130.637655,32.918644],[130.637755,32.918544],[130.637967,32.918344],[130.638017,32.918286],[130.63778,32.918186],[130.637467,32.917961],[130.637142,32.917752],[130.636767,32.917561],[130.636617,32.917511],[130.636355,32.917511],[130.636067,32.917577],[130.63558,32.917561],[130.635605,32.917461],[130.63598,32.917136],[130.636142,32.917036],[130.636267,32.916952],[130.636405,32.916844],[130.636455,32.916794],[130.636567,32.916702],[130.636667,32.916619],[130.636792,32.916511],[130.636867,32.916444],[130.63693,32.916411],[130.637155,32.916269],[130.637205,32.916236],[130.637267,32.916194],[130.637455,32.916136],[130.63768,32.916086],[130.637967,32.916027],[130.638105,32.915994],[130.638205,32.915944],[130.638405,32.915869],[130.638555,32.915786],[130.638642,32.915744],[130.638767,32.915686],[130.638867,32.915652],[130.639067,32.915561],[130.63913,32.915486],[130.63923,32.915352],[130.63918,32.915211],[130.639167,32.915053],[130.63913,32.914978],[130.63908,32.914894],[130.639067,32.914811],[130.639055,32.914728],[130.639055,32.914686],[130.639042,32.914653],[130.63903,32.914586],[130.639067,32.914478],[130.639105,32.914436],[130.639205,32.914453],[130.639392,32.914494],[130.639505,32.914519],[130.639617,32.914561],[130.639792,32.914578],[130.639905,32.914453],[130.640017,32.914319],[130.640192,32.914136],[130.640255,32.914086],[130.639992,32.913936],[130.63983,32.913836],[130.639967,32.913703],[130.640092,32.913603],[130.640467,32.913311],[130.64063,32.913294],[130.640804,32.913261],[130.640929,32.913144],[130.641029,32.912986],[130.641054,32.912878],[130.641267,32.912703],[130.641367,32.912628],[130.641429,32.912561],[130.641504,32.912511],[130.641567,32.912436],[130.641654,32.912411],[130.641792,32.912369],[130.641879,32.912353],[130.642092,32.912278],[130.642367,32.912019],[130.642504,32.911894],[130.642767,32.911628],[130.642942,32.911444],[130.643029,32.911286],[130.643129,32.911178],[130.643167,32.911078],[130.643067,32.910995],[130.642904,32.910853],[130.642867,32.91082],[130.642954,32.910711],[130.642979,32.910695],[130.643142,32.910545],[130.643279,32.910395],[130.64335,32.91029],[130.643417,32.910228],[130.643529,32.910153],[130.643654,32.91007],[130.643717,32.91002],[130.643779,32.910086],[130.643854,32.910161],[130.643929,32.910203],[130.643992,32.910253],[130.644104,32.91017],[130.644192,32.91007],[130.644292,32.909961],[130.644404,32.909853],[130.644504,32.909736],[130.644642,32.909678],[130.644767,32.909561],[130.644792,32.909545],[130.644879,32.909478],[130.644929,32.909411],[130.645042,32.90917],[130.645229,32.908953],[130.645367,32.908886],[130.645517,32.908828],[130.645642,32.908811],[130.645779,32.908795],[130.645917,32.908811],[130.645967,32.908778],[130.646067,32.908745],[130.646154,32.908661],[130.646217,32.90862],[130.646304,32.908536],[130.646379,32.908445],[130.646392,32.908403],[130.646454,32.908295],[130.646529,32.908128],[130.646567,32.907928],[130.646542,32.907745],[130.646442,32.90727],[130.646354,32.907128],[130.646354,32.90702],[130.646367,32.90692],[130.646392,32.906795],[130.646454,32.906662],[130.646604,32.90647],[130.646754,32.906153],[130.646867,32.905953],[130.646929,32.905828],[130.646954,32.905678],[130.646967,32.905454],[130.647017,32.905245],[130.647117,32.904979],[130.647254,32.904687],[130.647342,32.904629],[130.647479,32.90457],[130.647554,32.904545],[130.647742,32.904212],[130.647954,32.90397],[130.648591,32.903412],[130.648754,32.903262],[130.649541,32.902854],[130.649679,32.902771],[130.649704,32.902671],[130.649629,32.902504],[130.649516,32.902262],[130.649466,32.902071],[130.649466,32.902021],[130.649454,32.901987],[130.649441,32.901896],[130.649116,32.901662],[130.648904,32.901496],[130.648791,32.901337],[130.648754,32.901162],[130.648604,32.900929],[130.648429,32.900737],[130.648279,32.900637],[130.648104,32.900487],[130.648017,32.900396],[130.648029,32.900246],[130.648167,32.900121],[130.648217,32.900046],[130.648217,32.899996],[130.647967,32.899696],[130.647942,32.899571],[130.647917,32.899446],[130.648067,32.899229],[130.649041,32.897946],[130.649129,32.897754],[130.649179,32.897579],[130.649204,32.897396],[130.649191,32.897263],[130.649041,32.89698],[130.648929,32.896696],[130.648879,32.896455],[130.648917,32.896263],[130.649029,32.895605],[130.649154,32.894305],[130.649217,32.893555],[130.649204,32.89328],[130.649267,32.89273],[130.649354,32.892522],[130.649591,32.892263],[130.649929,32.891855],[130.649966,32.89183],[130.650154,32.89168],[130.650491,32.891447],[130.651079,32.891289],[130.651166,32.89123],[130.651204,32.891214],[130.651304,32.891155],[130.651454,32.890822],[130.651729,32.890139],[130.651829,32.889889],[130.651891,32.889547],[130.651879,32.889006],[130.651929,32.887947],[130.651866,32.887814],[130.651729,32.887706],[130.651554,32.887631],[130.651166,32.887481],[130.651079,32.887364],[130.651054,32.887306],[130.650829,32.887181],[130.650641,32.887206],[130.650454,32.887181],[130.650291,32.887131],[130.650216,32.887047],[130.649942,32.886856],[130.649504,32.886722],[130.649431,32.886531],[130.649442,32.886148],[130.649017,32.886023],[130.648492,32.885906],[130.648192,32.885881],[130.647629,32.885923],[130.646842,32.885956],[130.646604,32.885956],[130.646217,32.885914],[130.645792,32.885698],[130.645267,32.885306],[130.64502,32.884941],[130.644842,32.884614],[130.644692,32.884323],[130.64448,32.883756],[130.644355,32.883256],[130.644292,32.882998],[130.644005,32.881981],[130.643917,32.881598],[130.64368,32.880748],[130.643555,32.880465],[130.643355,32.880165],[130.64298,32.879698],[130.64283,32.879482],[130.642742,32.879382],[130.642542,32.879157],[130.642255,32.878848],[130.642142,32.87874],[130.642042,32.87859],[130.641942,32.87839],[130.64193,32.878207],[130.642055,32.878007],[130.64213,32.877932],[130.642767,32.877648],[130.642955,32.877598],[130.642967,32.877523],[130.642955,32.877298],[130.642905,32.876932],[130.642842,32.876374],[130.642842,32.876215],[130.642755,32.875965],[130.642655,32.875715],[130.64248,32.875482],[130.642367,32.875407],[130.642042,32.875182],[130.641405,32.874707],[130.64123,32.874557],[130.640743,32.874299],[130.640418,32.87414],[130.640143,32.87389],[130.639968,32.873674],[130.639855,32.873482],[130.639793,32.873332],[130.63978,32.873032],[130.639755,32.872274],[130.639855,32.871715],[130.639905,32.871191],[130.639968,32.870741],[130.639993,32.870307],[130.63998,32.870007],[130.639855,32.869457],[130.639493,32.868507],[130.639318,32.868132],[130.639143,32.867624],[130.638881,32.866674],[130.638818,32.866266],[130.638506,32.865358],[130.638506,32.865133],[130.638381,32.864966],[130.637931,32.864549],[130.637856,32.864474],[130.637418,32.864008],[130.637181,32.863683],[130.636981,32.863466],[130.636794,32.863283],[130.636369,32.862999],[130.636231,32.862874],[130.63613,32.862752],[130.635981,32.862608],[130.635819,32.862483],[130.635619,32.862324],[130.635444,32.862141],[130.634869,32.861283],[130.634619,32.860791],[130.634231,32.860966],[130.633981,32.861124],[130.633681,32.861308],[130.633531,32.861349],[130.633306,32.861349],[130.633056,32.861483],[130.632869,32.861708],[130.632469,32.862016],[130.632269,32.862208],[130.632119,32.862366],[130.632007,32.862424],[130.631769,32.862466],[130.631469,32.862449],[130.631319,32.862416],[130.631019,32.862266],[130.630707,32.862191],[130.629632,32.862016],[130.628723,32.861876],[130.628141,32.861805],[130.627507,32.861783],[130.627282,32.861816],[130.62662,32.861974],[130.626457,32.861991],[130.626232,32.861991],[130.62632,32.861808],[130.626658,32.861378],[130.626832,32.861099],[130.627032,32.860841],[130.627132,32.860724],[130.627245,32.860549],[130.627369,32.860324],[130.627482,32.860149],[130.627569,32.8599],[130.627644,32.85975],[130.627794,32.85945],[130.627882,32.859308],[130.628469,32.857933],[130.628644,32.857625],[130.628769,32.857358],[130.628869,32.857191],[130.628969,32.857108],[130.629194,32.856983],[130.629544,32.85695],[130.630069,32.856958],[130.630382,32.856866],[130.630532,32.856733],[130.630707,32.856483],[130.631369,32.855791],[130.631519,32.855616],[130.631569,32.855475],[130.631569,32.8552],[130.631532,32.854842],[130.631469,32.854617],[130.631357,32.854367],[130.631244,32.854183],[130.631144,32.854058],[130.630994,32.853942],[130.630607,32.853683],[130.630132,32.853475],[130.629644,32.85335],[130.629507,32.8533],[130.629432,32.853267],[130.629107,32.85315],[130.628732,32.853],[130.628445,32.852867],[130.62802,32.852683],[130.62777,32.852633],[130.627332,32.852583],[130.627007,32.85255],[130.626845,32.852558],[130.626682,32.852558],[130.625882,32.852533],[130.62577,32.852517],[130.62567,32.852483],[130.62552,32.852475],[130.625282,32.852483],[130.625007,32.852267],[130.624857,32.852117],[130.62472,32.851883],[130.62442,32.8511],[130.62442,32.850925],[130.624245,32.850542],[130.624108,32.850308],[130.623895,32.850033],[130.623783,32.849917],[130.623358,32.849533],[130.623145,32.849325],[130.622658,32.848851],[130.622545,32.84865],[130.622508,32.848567],[130.622483,32.848334],[130.622478,32.848199],[130.622495,32.848042],[130.62252,32.84795],[130.622533,32.847909],[130.622595,32.847709],[130.622595,32.847375],[130.62262,32.846992],[130.622608,32.846784],[130.622558,32.846584],[130.622483,32.846359],[130.622408,32.845742],[130.622308,32.845434],[130.62217,32.845042],[130.622158,32.844709],[130.62211,32.844576],[130.621958,32.84445],[130.621583,32.8444],[130.621083,32.844517],[130.620533,32.844509],[130.620133,32.844417],[130.619671,32.844309],[130.619208,32.844259],[130.618908,32.844076],[130.618758,32.844001],[130.618621,32.844009],[130.618408,32.844042],[130.618046,32.844167],[130.617983,32.844159],[130.617658,32.844101],[130.617258,32.844009],[130.616821,32.843967],[130.616608,32.843942],[130.616233,32.843926],[130.616021,32.843959],[130.615746,32.844042],[130.615433,32.844209],[130.615146,32.844051],[130.614983,32.843926],[130.614833,32.843667],[130.614608,32.843451],[130.614321,32.843226],[130.614133,32.843134],[130.613846,32.843059],[130.613584,32.843034],[130.613309,32.843051],[130.612984,32.843126],[130.612834,32.843159],[130.612534,32.843259],[130.612234,32.843359],[130.611671,32.843517],[130.611384,32.843592],[130.610934,32.843734],[130.610421,32.843876],[130.610234,32.843942],[130.609009,32.844242],[130.608784,32.844359],[130.608196,32.844709],[130.607471,32.845042],[130.607296,32.845117],[130.606671,32.845401],[130.605696,32.845767],[130.605471,32.84585],[130.605321,32.845884],[130.605072,32.845925],[130.604447,32.845917],[130.604197,32.846017],[130.604084,32.846125],[130.603934,32.846484],[130.603809,32.84655],[130.603722,32.846559],[130.603472,32.846592],[130.603272,32.846617],[130.603009,32.846625],[130.602759,32.846692],[130.602572,32.846717],[130.602272,32.846734],[130.601709,32.847009],[130.601559,32.847084],[130.601397,32.847134],[130.601184,32.847167],[130.600945,32.847215],[130.600547,32.847342],[130.600397,32.847384],[130.600222,32.847417],[130.599947,32.847342],[130.599822,32.84735],[130.599497,32.847375],[130.599059,32.847275],[130.598797,32.847117],[130.598584,32.847034],[130.598347,32.846984],[130.597759,32.846892],[130.597522,32.846834],[130.597209,32.846684],[130.597022,32.846642],[130.59686,32.84665],[130.596747,32.846642],[130.596447,32.846484],[130.596267,32.846478],[130.595985,32.846517],[130.595762,32.846536],[130.595409,32.846511],[130.59526,32.846559],[130.59506,32.84665],[130.59491,32.84665],[130.59481,32.846709],[130.594585,32.846775],[130.594422,32.84675],[130.594285,32.846784],[130.593997,32.846834],[130.593572,32.846834],[130.59321,32.846942],[130.592985,32.846992],[130.592897,32.847009],[130.59256,32.847075],[130.592422,32.8471],[130.592147,32.84715],[130.591272,32.847567],[130.590885,32.847959],[130.590747,32.848042],[130.590522,32.848134],[130.590372,32.84815],[130.590072,32.848059],[130.589848,32.848075],[130.589673,32.848167],[130.589473,32.8482],[130.589298,32.848184],[130.588923,32.848109],[130.58871,32.848109],[130.588535,32.848184],[130.58836,32.848234],[130.588185,32.848175],[130.58801,32.848184],[130.58786,32.848284],[130.58771,32.848334],[130.587373,32.8483],[130.587048,32.84845],[130.586748,32.848559],[130.586648,32.848625],[130.58641,32.848909],[130.586285,32.849009],[130.58611,32.849084],[130.585763,32.849223],[130.585358,32.849373],[130.579711,32.850892],[130.573149,32.852666],[130.571537,32.848775],[130.571062,32.848908],[130.570762,32.848991],[130.570524,32.849066],[130.568337,32.84365],[130.564875,32.842092],[130.529642,32.850772],[130.528742,32.851014],[130.527967,32.851172],[130.527742,32.850564],[130.527542,32.850564],[130.527667,32.850972],[130.523742,32.851922],[130.52393,32.852255],[130.522743,32.85338],[130.522668,32.855222],[130.52263,32.855813],[130.522618,32.856155],[130.52258,32.85683],[130.522505,32.858488],[130.522505,32.858588],[130.522418,32.860621],[130.522218,32.864521],[130.52223,32.864879],[130.522305,32.865662],[130.52248,32.86712],[130.522493,32.867379],[130.522518,32.867454],[130.522568,32.867929],[130.522805,32.869937],[130.52323,32.870803],[130.524855,32.873953],[130.52523,32.874486],[130.525293,32.874553],[130.525493,32.874844],[130.525555,32.874936],[130.525743,32.875194],[130.526118,32.875694],[130.526305,32.875878],[130.526418,32.875978],[130.526443,32.876103],[130.526468,32.876236],[130.526531,32.876328],[130.526956,32.876819],[130.526618,32.877227],[130.527718,32.878344],[130.523781,32.881402],[130.522931,32.880911],[130.522459,32.881075],[130.521218,32.881586],[130.521405,32.882102],[130.512592,32.885011],[130.512317,32.885794],[130.512892,32.886702],[130.512592,32.886861],[130.509204,32.888886],[130.508942,32.888686],[130.508104,32.889611],[130.507867,32.889586],[130.507817,32.889744],[130.507567,32.889719],[130.507592,32.889544],[130.506629,32.889403],[130.506317,32.889561],[130.506154,32.889653],[130.504704,32.890419],[130.503354,32.891136],[130.501916,32.891844],[130.501104,32.892261],[130.500179,32.892569],[130.499491,32.892761],[130.499191,32.892919],[130.498954,32.893086],[130.498741,32.893194],[130.498541,32.893278],[130.498229,32.893378],[130.497954,32.893469],[130.497801,32.893471],[130.497668,32.893436],[130.496029,32.893178],[130.495654,32.893128],[130.495504,32.893144],[130.494591,32.893686],[130.493304,32.894603],[130.492404,32.895203],[130.492079,32.895494],[130.491766,32.895694],[130.491391,32.895736],[130.491216,32.895844],[130.491066,32.896119],[130.490641,32.896411],[130.490179,32.896628],[130.489479,32.897144],[130.489229,32.897369],[130.488591,32.897678],[130.488191,32.897853],[130.488033,32.897918],[130.487818,32.898033],[130.487641,32.898303],[130.487453,32.898433],[130.486854,32.898753],[130.486428,32.899082],[130.486023,32.899426],[130.485866,32.899578],[130.485691,32.899869],[130.485491,32.900044],[130.484254,32.900828],[130.482741,32.901969],[130.481816,32.902527],[130.481538,32.902698],[130.481298,32.902802],[130.480954,32.902902],[130.480004,32.903394],[130.479416,32.903769],[130.479016,32.903952],[130.478666,32.904061],[130.477529,32.904502],[130.477129,32.904611],[130.476844,32.904753],[130.476435,32.904916],[130.476354,32.904994],[130.476179,32.905036],[130.475954,32.905036],[130.475679,32.904919],[130.475429,32.904961],[130.475296,32.904959],[130.47088,32.900578],[130.46548,32.904261],[130.46263,32.901419],[130.45708,32.905152],[130.45718,32.905285],[130.457005,32.905402],[130.463354,32.911919],[130.46068,32.913835],[130.461254,32.914493],[130.461229,32.914677],[130.461454,32.915127],[130.461517,32.915218],[130.462017,32.915518],[130.462042,32.915652],[130.461942,32.916143],[130.461879,32.916752],[130.462167,32.916443],[130.462292,32.916168],[130.462342,32.915835],[130.462417,32.91556],[130.462942,32.916085],[130.462892,32.916152],[130.462717,32.916193],[130.462542,32.91626],[130.462242,32.91676],[130.462154,32.916985],[130.462254,32.917143],[130.462292,32.918877],[130.461379,32.919485],[130.460929,32.919435],[130.460829,32.919385],[130.460779,32.919276],[130.459529,32.919085],[130.459429,32.916502],[130.45793,32.914827],[130.457117,32.913993],[130.456692,32.914285],[130.45433,32.91181],[130.454643,32.911543],[130.454218,32.91111],[130.453893,32.911352],[130.451631,32.90906],[130.451281,32.909327],[130.451518,32.909693],[130.450693,32.910202],[130.450418,32.909885],[130.449893,32.910243],[130.450043,32.910402],[130.449281,32.910935],[130.449056,32.910777],[130.448781,32.911027],[130.448981,32.911227],[130.444131,32.914651],[130.445431,32.915968],[130.445169,32.91621],[130.445394,32.916435],[130.445494,32.916368],[130.445868,32.916801],[130.444231,32.917893],[130.444156,32.917784],[130.440906,32.920018],[130.439706,32.920842],[130.441494,32.922692],[130.440806,32.923201],[130.441056,32.923667],[130.442768,32.926367],[130.442618,32.926484],[130.443043,32.927109],[130.442868,32.927267],[130.443218,32.9278],[130.443043,32.927909],[130.443143,32.9281],[130.442906,32.928417],[130.442631,32.9283],[130.441618,32.929858],[130.441918,32.930008],[130.441919,32.930485],[130.441943,32.930858],[130.441956,32.931517],[130.441843,32.93155],[130.440544,32.931125],[130.440206,32.93075],[130.440244,32.930225],[130.440856,32.929717],[130.440756,32.929408],[130.440481,32.92955],[130.439894,32.93],[130.439769,32.931008],[130.440231,32.931058],[130.440319,32.931133],[130.440281,32.931742],[130.440206,32.931742],[130.440194,32.932067],[130.440269,32.932075],[130.440181,32.933041],[130.440156,32.933241],[130.440069,32.933258],[130.440019,32.9336],[130.440094,32.933633],[130.439969,32.934766],[130.439856,32.934783],[130.439794,32.935125],[130.439881,32.935158],[130.439794,32.935683],[130.439706,32.935691],[130.439656,32.936041],[130.439756,32.936066],[130.439294,32.937941],[130.438594,32.940599],[130.438031,32.942224],[130.437819,32.942849],[130.436681,32.946207],[130.436156,32.947607],[130.435194,32.95049],[130.434469,32.952606],[130.434131,32.953622],[130.434031,32.953997],[130.433881,32.954614],[130.433519,32.956372],[130.433369,32.956922],[130.433131,32.95768],[130.432881,32.958572],[130.432731,32.959155],[130.432669,32.959513],[130.432519,32.96023],[130.432369,32.961055],[130.432281,32.961855],[130.432219,32.962363],[130.432131,32.962946],[130.432006,32.963746],[130.431956,32.963938],[130.431831,32.964029],[130.431644,32.964496],[130.431569,32.964663],[130.431506,32.965029],[130.431556,32.965612],[130.431581,32.965787],[130.431444,32.966804],[130.431406,32.967171],[130.431256,32.96837],[130.431169,32.969879],[130.431094,32.971412],[130.431081,32.97207],[130.431031,32.97362],[130.430981,32.975353],[130.431006,32.975461],[130.430919,32.975578],[130.430744,32.975828],[130.430719,32.97592],[130.430794,32.975936],[130.430906,32.975753],[130.430969,32.975653],[130.431031,32.97557],[130.431106,32.975653],[130.431181,32.975778],[130.431206,32.975886],[130.431194,32.975945],[130.430744,32.976153],[130.430644,32.976253],[130.430631,32.976361],[130.430631,32.977019],[130.430644,32.977086],[130.430706,32.977094],[130.430731,32.977094],[130.430731,32.977244],[130.430644,32.977253],[130.430619,32.977294],[130.430569,32.978978],[130.430706,32.979069],[130.430731,32.979094],[130.430744,32.979286],[130.430594,32.979353],[130.430556,32.979453],[130.430531,32.981061],[130.430481,32.982044],[130.430469,32.982502],[130.430431,32.982735],[130.430394,32.983802],[130.430406,32.984052],[130.430406,32.984277],[130.430369,32.98521],[130.430356,32.985394],[130.430331,32.985602],[130.430081,32.986168],[130.429906,32.986602],[130.429881,32.986718],[130.429906,32.98686],[130.429919,32.987402],[130.430668,32.988052],[130.430693,32.988077],[130.430381,32.988127],[130.430056,32.987743],[130.429994,32.987727],[130.428144,32.987685],[130.427519,32.987677],[130.427394,32.987727],[130.427244,32.987802],[130.427144,32.987935],[130.427006,32.988526],[130.426919,32.988993],[130.426731,32.989901],[130.426494,32.990926],[130.425894,32.993909],[130.425719,32.994609],[130.425681,32.994801],[130.425694,32.994901],[130.425744,32.995009],[130.425869,32.995092],[130.427681,32.995651],[130.428681,32.995967],[130.429831,32.996376],[130.429781,32.996576],[130.428119,32.996201],[130.427469,32.996067],[130.427144,32.996034],[130.426981,32.996067],[130.426919,32.996142],[130.426781,32.996592],[130.424556,32.995801],[130.423619,32.995476],[130.419457,32.994026],[130.419007,32.993901],[130.418732,32.993901],[130.417869,32.993692],[130.417332,32.993551],[130.417045,32.993476],[130.416882,32.993476],[130.416707,32.993634],[130.416657,32.993759],[130.416695,32.993884],[130.416807,32.993942],[130.416907,32.993926],[130.417045,32.993884],[130.417257,32.993901],[130.417657,32.993984],[130.418007,32.994084],[130.418307,32.994226],[130.418144,32.994476],[130.417882,32.994959],[130.417832,32.995067],[130.417594,32.995567],[130.417169,32.9965],[130.417044,32.996792],[130.416957,32.997017],[130.416857,32.997167],[130.416644,32.99755],[130.416245,32.997467],[130.41592,32.997359],[130.415695,32.997284],[130.415595,32.9972],[130.415545,32.997175],[130.415545,32.997109],[130.415595,32.99695],[130.416045,32.996025],[130.416607,32.994876],[130.41672,32.994592],[130.416732,32.994501],[130.416682,32.994467],[130.416532,32.994409],[130.41642,32.994417],[130.41632,32.994459],[130.416232,32.994592],[130.41597,32.995126],[130.415695,32.995734],[130.41567,32.995859],[130.41557,32.996025],[130.415307,32.996567],[130.415107,32.99705],[130.415082,32.9972],[130.415157,32.997367],[130.415257,32.997459],[130.415957,32.9977],[130.416495,32.997867],[130.41617,32.998583],[130.415807,32.9992],[130.415682,32.99945],[130.415607,32.99965],[130.415445,32.999975],[130.41522,33.000533],[130.414945,33.001033],[130.414807,33.001316],[130.414695,33.001633],[130.414532,33.001991],[130.414395,33.002275],[130.414232,33.002566],[130.414157,33.002775],[130.414105,33.0029],[130.414045,33.003033],[130.417869,33.00335],[130.418269,33.0034],[130.418544,33.003466],[130.418682,33.003541],[130.418819,33.003558],[130.418907,33.003608],[130.419869,33.003883],[130.420069,33.00395],[130.420494,33.004058],[130.420744,33.00415],[130.421369,33.004283],[130.421506,33.004333],[130.421681,33.004366],[130.422019,33.004483],[130.422194,33.004508],[130.422769,33.004675],[130.422981,33.004733],[130.423144,33.004766],[130.423744,33.004916],[130.423944,33.004958],[130.424669,33.004983],[130.425419,33.005183],[130.426231,33.005341],[130.427868,33.005366],[130.430118,33.005216],[130.431168,33.005216],[130.432681,33.005125],[130.433568,33.005125],[130.434793,33.005175],[130.435743,33.005175],[130.436593,33.005042],[130.437455,33.004792],[130.43878,33.004567],[130.441142,33.004033],[130.44168,33.003784],[130.441867,33.003559],[130.44193,33.00335],[130.44413,33.003242],[130.444917,33.003059],[130.445242,33.003017],[130.445317,33.003034],[130.445505,33.003134],[130.445842,33.003125],[130.448379,33.0031],[130.448417,33.003059],[130.448592,33.003025],[130.448779,33.003075],[130.449929,33.00335],[130.450654,33.003925],[130.451192,33.003725],[130.452967,33.00355],[130.453554,33.003592],[130.454092,33.00375],[130.454517,33.003659],[130.455542,33.004001],[130.456029,33.004051],[130.456966,33.003759],[130.457341,33.003667],[130.458179,33.003626],[130.458791,33.003734],[130.459491,33.003717],[130.460116,33.003492],[130.460241,33.003351],[130.462454,33.003167],[130.463229,33.003134],[130.464866,33.003184],[130.467878,33.003276],[130.469591,33.003318],[130.470203,33.003226],[130.470766,33.003118],[130.471528,33.002926],[130.471841,33.002784],[130.472203,33.002568],[130.472478,33.002418],[130.472853,33.002334],[130.473128,33.002343],[130.473378,33.002384],[130.473828,33.002643],[130.473966,33.002743],[130.474053,33.002726],[130.474315,33.002493],[130.474515,33.002243],[130.474603,33.002209],[130.47469,33.002193],[130.475128,33.002259],[130.475515,33.002351],[130.47584,33.002443],[130.476165,33.002609],[130.476315,33.002659],[130.476515,33.002634],[130.47679,33.002535],[130.477015,33.002485],[130.477178,33.002468],[130.477278,33.002493],[130.477328,33.002568],[130.47734,33.002676],[130.477378,33.002851],[130.477478,33.003084],[130.477528,33.003226],[130.477553,33.003293],[130.47764,33.003351],[130.479365,33.003743],[130.479765,33.003834],[130.480165,33.003809],[130.480565,33.003651],[130.482615,33.003351],[130.482802,33.003285],[130.483202,33.003085],[130.483427,33.002926],[130.483577,33.002768],[130.483752,33.002551],[130.483952,33.002368],[130.484015,33.002343],[130.484252,33.002351],[130.484327,33.002393],[130.484377,33.002501],[130.484427,33.002601],[130.48449,33.002626],[130.484702,33.002618],[130.484865,33.002626],[130.485177,33.002685],[130.485427,33.002826],[130.485627,33.003001],[130.48584,33.00311],[130.486102,33.003168],[130.486465,33.003126],[130.486652,33.003135],[130.48689,33.00316],[130.486952,33.003176],[130.487215,33.003218],[130.487677,33.003285],[130.487977,33.003351],[130.492277,33.003818],[130.492652,33.003976],[130.493289,33.00411],[130.493964,33.00436],[130.494176,33.004318],[130.494389,33.004001],[130.494426,33.003843],[130.494526,33.003776],[130.494639,33.003776],[130.494664,33.004268],[130.494739,33.004318],[130.495201,33.004251],[130.495314,33.00411],[130.495689,33.004001],[130.496189,33.004043],[130.496189,33.00416],[130.495926,33.004543],[130.495689,33.004793],[130.495739,33.005151],[130.496251,33.005309],[130.497214,33.005809],[130.497614,33.005943],[130.498426,33.005976],[130.498551,33.006084],[130.498613,33.006084],[130.499038,33.006359],[130.499326,33.006426],[130.499601,33.006384],[130.499951,33.006276],[130.500163,33.006159],[130.501288,33.005743],[130.501776,33.005609],[130.5028,33.005118],[130.503275,33.004959],[130.503713,33.004876],[130.504225,33.004676],[130.504513,33.004634],[130.5047,33.004568],[130.504763,33.004293],[130.50495,33.003501],[130.505088,33.003351],[130.50555,33.002876],[130.50575,33.002743],[130.505988,33.002768],[130.5061,33.002968],[130.506375,33.003285],[130.506531,33.003521],[130.50685,33.003993],[130.506925,33.004101],[130.506875,33.004801],[130.506725,33.005368],[130.5064,33.005768],[130.50635,33.005976],[130.506463,33.006159],[130.506637,33.006359],[130.506912,33.006451],[130.507412,33.006501],[130.507875,33.006501],[130.508162,33.006576],[130.50825,33.006643],[130.508487,33.007184],[130.508775,33.007409],[130.508887,33.007459],[130.50915,33.007459],[130.509387,33.007301],[130.509762,33.007167],[130.510175,33.007126],[130.510837,33.006992],[130.511324,33.006951],[130.511749,33.006976],[130.512124,33.007067],[130.512474,33.007209],[130.512874,33.007501],[130.512899,33.007709],[130.512599,33.008492],[130.512649,33.008884],[130.512937,33.009334],[130.513437,33.009717],[130.513574,33.010017],[130.513649,33.010467],[130.513674,33.0111],[130.513749,33.011284],[130.513912,33.011509],[130.514062,33.01185],[130.514224,33.011984],[130.514624,33.012034],[130.515249,33.011992],[130.515478,33.012019],[130.515756,33.012116],[130.515961,33.0122],[130.515849,33.012942],[130.515824,33.013283],[130.515849,33.013758],[130.515761,33.014075],[130.515549,33.014458],[130.515486,33.01445],[130.515161,33.014608],[130.514599,33.014808],[130.514174,33.01535],[130.514174,33.015391],[130.513624,33.01605],[130.512949,33.016675],[130.512812,33.016875],[130.512862,33.017258],[130.513024,33.017983],[130.513124,33.018641],[130.512874,33.019566],[130.512599,33.020057],[130.512361,33.020424],[130.512224,33.020691],[130.512186,33.020966],[130.512299,33.021524],[130.512261,33.021749],[130.511674,33.022474],[130.511211,33.022924],[130.511149,33.023015],[130.510861,33.023149],[130.509924,33.023207],[130.509324,33.023315],[130.509037,33.023424],[130.508612,33.023424],[130.507987,33.023307],[130.507662,33.02349],[130.507637,33.023665],[130.507474,33.024049],[130.507474,33.024365],[130.507362,33.02504],[130.507137,33.025315],[130.505712,33.02589],[130.505312,33.026457],[130.50475,33.02679],[130.5045,33.02699],[130.5044,33.027173],[130.504412,33.027665],[130.504787,33.028532],[130.50465,33.028773],[130.504425,33.029023],[130.504075,33.029906],[130.50405,33.030173],[130.504124,33.030873],[130.504199,33.031123],[130.504299,33.031306],[130.504324,33.031648],[130.504249,33.031823],[130.503999,33.032073],[130.503787,33.03239],[130.503699,33.033173],[130.503737,33.034189],[130.503999,33.035373],[130.504162,33.035798],[130.504287,33.036431],[130.504387,33.036747],[130.504387,33.036864],[130.504274,33.036997],[130.504174,33.037106],[130.503962,33.037172],[130.503762,33.037356],[130.503662,33.037622],[130.503574,33.037714],[130.503412,33.038322],[130.503412,33.038597],[130.503299,33.038756],[130.502762,33.039131],[130.502112,33.039489],[130.501849,33.039689],[130.501512,33.04023],[130.501187,33.041022],[130.500912,33.041514],[130.500274,33.041989],[130.499974,33.042347],[130.499349,33.04273],[130.498274,33.043622],[130.497974,33.04428],[130.497774,33.044888],[130.497664,33.04496],[130.497587,33.045113],[130.497112,33.046513],[130.496624,33.047188],[130.496562,33.047205],[130.495512,33.048246],[130.495112,33.048563],[130.494949,33.048788],[130.494924,33.049055],[130.494949,33.049188],[130.495112,33.04953],[130.495924,33.050504],[130.496049,33.050771],[130.496212,33.050971],[130.496649,33.051671],[130.496912,33.052013],[130.497474,33.052354],[130.497949,33.052571],[130.499249,33.053612],[130.499549,33.053771],[130.500424,33.054346],[130.500774,33.054621],[130.502286,33.055329],[130.503199,33.055645],[130.503761,33.055879],[130.503923,33.056262],[130.503936,33.05667],[130.503836,33.057029],[130.503886,33.05732],[130.503936,33.057979],[130.503873,33.058045],[130.503986,33.058112],[130.504436,33.058212],[130.504761,33.05837],[130.504911,33.058662],[130.505373,33.058845],[130.505936,33.058853],[130.506311,33.058895],[130.509673,33.06007],[130.511248,33.060737],[130.511785,33.060895],[130.51226,33.061103],[130.512935,33.061328],[130.513573,33.061761],[130.513835,33.062103],[130.514023,33.062945],[130.514148,33.063486],[130.515022,33.064261],[130.515447,33.064328],[130.515585,33.064303],[130.51601,33.064378],[130.516497,33.06452],[130.516572,33.064761],[130.516547,33.065261],[130.516722,33.065536],[130.517185,33.065603],[130.517697,33.065628],[130.518335,33.065545],[130.51946,33.065794],[130.520022,33.065844],[130.52051,33.065828],[130.521284,33.065919],[130.522134,33.065928],[130.522884,33.066136],[130.523534,33.065961],[130.523822,33.066003],[130.524972,33.066603],[130.525134,33.066644],[130.525459,33.066669],[130.525934,33.066603],[130.526259,33.066494],[130.526722,33.066095],[130.527634,33.06562],[130.527934,33.065553],[130.528309,33.065561],[130.528821,33.065428],[130.529271,33.065428],[130.529521,33.06507],[130.530009,33.064486],[130.530384,33.064303],[130.530759,33.064286],[130.530896,33.064178],[130.531059,33.063795],[130.531384,33.06377],[130.531509,33.063795],[130.531646,33.063995],[130.531609,33.064311],[130.531559,33.064378],[130.531584,33.064561],[130.531696,33.06472],[130.532121,33.065086],[130.532196,33.06527],[130.532221,33.065445],[130.532109,33.066486],[130.532234,33.067053],[130.532184,33.067161],[130.531971,33.06712],[130.531646,33.06687],[130.531434,33.06682],[130.531484,33.067003],[130.531671,33.067203],[130.532096,33.067794],[130.532284,33.068003],[130.532784,33.067978],[130.532921,33.068161],[130.533059,33.068278],[130.533346,33.068661],[130.533396,33.068844],[130.533233,33.069253],[130.533146,33.069561],[130.532959,33.069628],[130.532509,33.069586],[130.532559,33.069986],[130.532659,33.070061],[130.533196,33.070086],[130.533283,33.070269],[130.533246,33.070378],[130.533321,33.071011],[130.533246,33.071211],[130.533296,33.071486],[130.533533,33.071986],[130.533496,33.073019],[130.533571,33.073252],[130.533783,33.073452],[130.534671,33.073869],[130.534808,33.073886],[130.535371,33.073736],[130.535521,33.073961],[130.535658,33.074819],[130.535596,33.075002],[130.535783,33.075294],[130.535908,33.075636],[130.535958,33.076177],[130.535721,33.076244],[130.535458,33.076219],[130.535296,33.076352],[130.535258,33.07656],[130.535346,33.076877],[130.535421,33.077527],[130.535358,33.077577],[130.535333,33.077894],[130.535521,33.078227],[130.536233,33.07866],[130.536608,33.079094],[130.537083,33.07946],[130.537458,33.079552],[130.537833,33.079577],[130.539558,33.079585],[130.539933,33.079702],[130.54017,33.07991],[130.540295,33.080719],[130.541245,33.081902],[130.54167,33.082152],[130.54192,33.082202],[130.541995,33.08211],[130.542108,33.081502],[130.542195,33.08146],[130.542383,33.08146],[130.542483,33.081552],[130.542508,33.081777],[130.54297,33.08171],[130.543308,33.081802],[130.543558,33.081944],[130.544033,33.082352],[130.544245,33.082302],[130.544383,33.082235],[130.544595,33.081994],[130.545133,33.081569],[130.545545,33.081052],[130.546432,33.080602],[130.546782,33.08056],[130.546995,33.080677],[130.547182,33.080719],[130.547457,33.080719],[130.548195,33.080835],[130.548357,33.080952],[130.548495,33.081002],[130.54852,33.081519],[130.548245,33.082152],[130.54797,33.082552],[130.54797,33.082827],[130.548107,33.083119],[130.54847,33.083435],[130.548795,33.083827],[130.549382,33.084277],[130.549945,33.084552],[130.550282,33.08451],[130.550482,33.084019],[130.550645,33.08381],[130.55097,33.083677],[130.551257,33.08366],[130.551444,33.083594],[130.551694,33.083302],[130.551957,33.083144],[130.552394,33.082969],[130.552657,33.082994],[130.552819,33.083169],[130.552982,33.083469],[130.553219,33.083652],[130.553807,33.08381],[130.554044,33.083969],[130.554369,33.084377],[130.555082,33.08506],[130.555369,33.085444],[130.555582,33.085652],[130.555769,33.085994],[130.555982,33.086102],[130.556582,33.085927],[130.557144,33.085977],[130.557569,33.08591],[130.558319,33.085644],[130.558669,33.085602],[130.559094,33.085627],[130.559469,33.085744],[130.559819,33.086035],[130.560119,33.086152],[130.561269,33.086202],[130.562494,33.086394],[130.563031,33.086419],[130.563523,33.086433],[130.564131,33.086627],[130.56473,33.086808],[130.56515,33.086935],[130.565443,33.087052],[130.565646,33.087175],[130.565818,33.087327],[130.565856,33.088119],[130.565781,33.088452],[130.565206,33.08886],[130.565043,33.089243],[130.564993,33.089285],[130.564856,33.089577],[130.564831,33.089802],[130.564743,33.090027],[130.564743,33.090277],[130.564931,33.090685],[130.565056,33.090777],[130.565356,33.091252],[130.565406,33.091585],[130.565293,33.091727],[130.565218,33.091743],[130.564893,33.092018],[130.564568,33.092193],[130.564319,33.092443],[130.564181,33.092826],[130.564106,33.093251],[130.563994,33.093385],[130.563781,33.093518],[130.563381,33.093451],[130.563006,33.093651],[130.562681,33.093943],[130.562431,33.09441],[130.562319,33.095068],[130.562131,33.09536],[130.561781,33.09556],[130.561481,33.095668],[130.561244,33.095876],[130.561181,33.096234],[130.561156,33.096934],[130.561181,33.097093],[130.561194,33.098268],[130.561557,33.099842],[130.561607,33.099917],[130.562031,33.100092],[130.562469,33.100209],[130.562619,33.100301],[130.562594,33.100484],[130.562107,33.100817],[130.562057,33.100909],[130.562082,33.101476],[130.562132,33.101542],[130.562257,33.102084],[130.562307,33.103034],[130.561744,33.103551],[130.561757,33.104159]]],"type":"Polygon"},"properties":{"name":"玉名","yomi":"たまな","kuni_id":"K68","pref":"熊本県","kuni_url":"/kg/resource/K68.html","id_url":"G68001.html","kuni":"肥後","id":"G68001"}}]}