{"type":"FeatureCollection","features":[{"type":"Feature","properties":{"pref":"熊本県","kuni_id":"K68","yomi":"かみましき","name":"上益城","kuni":"肥後","id":"G68009","id_url":"G68009.html","kuni_url":"/kg/resource/K68.html"},"geometry":{"coordinates":[[[130.827642,32.825596],[130.828217,32.825663],[130.829205,32.825821],[130.829455,32.825821],[130.830479,32.824938],[130.830667,32.824688],[130.831267,32.82343],[130.831492,32.823205],[130.831879,32.823047],[130.832342,32.822797],[130.832779,32.82248],[130.833279,32.822188],[130.833529,32.822097],[130.833829,32.822188],[130.834179,32.822455],[130.834429,32.822822],[130.834492,32.822955],[130.834654,32.82313],[130.834729,32.82318],[130.835342,32.823738],[130.835979,32.824371],[130.836279,32.825021],[130.836492,32.825721],[130.836692,32.826038],[130.837192,32.826488],[130.837629,32.826688],[130.838454,32.827163],[130.839141,32.827521],[130.840454,32.828105],[130.841041,32.828446],[130.842416,32.829571],[130.843429,32.830671],[130.843841,32.830921],[130.844454,32.831146],[130.844641,32.831254],[130.846016,32.831821],[130.846291,32.831971],[130.850141,32.831996],[130.851328,32.831971],[130.851441,32.833888],[130.85254,32.834088],[130.852728,32.834154],[130.853528,32.834329],[130.854653,32.834671],[130.855753,32.834804],[130.858865,32.835204],[130.860165,32.835521],[130.86079,32.835563],[130.861752,32.83538],[130.862115,32.835363],[130.862602,32.83543],[130.864065,32.835405],[130.864564,32.835446],[130.865189,32.83563],[130.865139,32.835861],[130.865114,32.83603],[130.866427,32.83628],[130.866452,32.836571],[130.867452,32.836688],[130.868014,32.836788],[130.867714,32.837355],[130.869439,32.837805],[130.869401,32.83793],[130.870714,32.838413],[130.870714,32.838688],[130.872064,32.838979],[130.872001,32.839221],[130.872464,32.839346],[130.87253,32.839357],[130.872576,32.839363],[130.872662,32.839377],[130.872864,32.839488],[130.873006,32.839547],[130.873013,32.839642],[130.872976,32.839763],[130.872989,32.839804],[130.873626,32.839938],[130.874376,32.840004],[130.874351,32.839413],[130.874376,32.83788],[130.874451,32.837446],[130.874614,32.837113],[130.874829,32.837],[130.874976,32.836796],[130.874976,32.836646],[130.875139,32.83633],[130.875189,32.83588],[130.875439,32.834988],[130.875489,32.83448],[130.875676,32.83403],[130.875764,32.833505],[130.875876,32.832988],[130.876651,32.831097],[130.876851,32.83083],[130.876976,32.830514],[130.877251,32.83013],[130.877301,32.829855],[130.877689,32.82873],[130.877951,32.82783],[130.878376,32.826497],[130.878689,32.825464],[130.879226,32.823931],[130.879476,32.823106],[130.879714,32.822531],[130.879826,32.822114],[130.880126,32.820931],[130.880314,32.820431],[130.880314,32.820164],[130.880151,32.819406],[130.880214,32.818456],[130.880189,32.818123],[130.880051,32.817873],[130.879814,32.817756],[130.879439,32.817773],[130.878764,32.818031],[130.878514,32.818031],[130.878439,32.817965],[130.878239,32.817598],[130.878014,32.81744],[130.877527,32.81744],[130.877252,32.81724],[130.877064,32.817165],[130.876989,32.817165],[130.876214,32.816923],[130.876177,32.816831],[130.876214,32.81674],[130.876427,32.816606],[130.877077,32.816115],[130.877177,32.81584],[130.877139,32.815681],[130.876614,32.815431],[130.876264,32.814798],[130.876164,32.814331],[130.876027,32.81309],[130.876002,32.811715],[130.875952,32.811398],[130.875852,32.811173],[130.875627,32.810948],[130.87534,32.81049],[130.874827,32.809265],[130.87469,32.809098],[130.874351,32.808723],[130.874077,32.808323],[130.873752,32.807798],[130.87344,32.80749],[130.87279,32.806948],[130.872661,32.806888],[130.872377,32.806965],[130.872103,32.80699],[130.871951,32.807018],[130.871853,32.806965],[130.871778,32.806765],[130.87169,32.806157],[130.871465,32.805415],[130.871328,32.804982],[130.871353,32.804782],[130.871553,32.804424],[130.871965,32.803924],[130.872065,32.803832],[130.872203,32.803607],[130.872265,32.803432],[130.872015,32.801174],[130.87209,32.800816],[130.872065,32.800049],[130.872201,32.799851],[130.87264,32.799757],[130.873428,32.799941],[130.874078,32.800457],[130.874453,32.800616],[130.874578,32.800641],[130.874965,32.800591],[130.875015,32.800549],[130.875152,32.800074],[130.87544,32.799874],[130.875827,32.799716],[130.876602,32.799649],[130.876952,32.799649],[130.877302,32.799557],[130.877652,32.799424],[130.878027,32.799399],[130.878515,32.799291],[130.878865,32.799133],[130.879615,32.798908],[130.879852,32.798724],[130.880315,32.797641],[130.88064,32.797083],[130.880615,32.796833],[130.880427,32.796574],[130.88024,32.795974],[130.880215,32.795008],[130.880327,32.794491],[130.88054,32.794241],[130.881327,32.793633],[130.881752,32.79305],[130.882002,32.792416],[130.882165,32.792366],[130.882465,32.792416],[130.88289,32.792391],[130.883389,32.792441],[130.883877,32.792391],[130.884664,32.792216],[130.884827,32.7921],[130.884802,32.791775],[130.884827,32.791325],[130.884939,32.791008],[130.885214,32.790283],[130.885364,32.789839],[130.885627,32.789467],[130.885764,32.789408],[130.885952,32.78925],[130.886474,32.788785],[130.886932,32.78847],[130.887377,32.788058],[130.887602,32.787692],[130.887939,32.787225],[130.888489,32.786742],[130.888839,32.786509],[130.889239,32.786259],[130.889714,32.785934],[130.889902,32.78575],[130.890027,32.785634],[130.890139,32.785492],[130.891102,32.784701],[130.891314,32.784467],[130.891451,32.784192],[130.891614,32.783492],[130.891739,32.783226],[130.891939,32.783084],[130.892114,32.783068],[130.893689,32.783043],[130.894626,32.783109],[130.894789,32.783084],[130.895839,32.782759],[130.896326,32.782684],[130.896676,32.782759],[130.897051,32.782984],[130.897351,32.783109],[130.898338,32.783368],[130.899213,32.783684],[130.899538,32.783868],[130.899838,32.783968],[130.900601,32.783868],[130.900938,32.783909],[130.901913,32.784468],[130.902288,32.784593],[130.903038,32.784659],[130.903438,32.784659],[130.904013,32.784726],[130.904463,32.784884],[130.9051,32.785001],[130.9054,32.784951],[130.90575,32.784843],[130.906262,32.784726],[130.906525,32.784818],[130.907362,32.78506],[130.907925,32.785135],[130.908887,32.78536],[130.9097,32.785385],[130.910024,32.785476],[130.910487,32.785685],[130.911424,32.786001],[130.911899,32.786085],[130.912499,32.78611],[130.913599,32.786093],[130.914024,32.785976],[130.914649,32.78571],[130.915449,32.785168],[130.916424,32.784743],[130.916574,32.784718],[130.917636,32.784693],[130.918561,32.784551],[130.921011,32.784085],[130.921836,32.78396],[130.922998,32.783702],[130.923436,32.783735],[130.924011,32.783802],[130.925886,32.783935],[130.926136,32.783818],[130.926473,32.783593],[130.927873,32.782385],[130.93051,32.780244],[130.931135,32.779785],[130.933035,32.77956],[130.936822,32.782835],[130.936997,32.782777],[130.937972,32.78266],[130.938797,32.782693],[130.93971,32.782852],[130.939959,32.78301],[130.940209,32.783268],[130.940547,32.783685],[130.940697,32.784002],[130.940947,32.784268],[130.942159,32.784702],[130.942434,32.78556],[130.942472,32.785943],[130.942997,32.787201],[130.943234,32.787518],[130.943547,32.787768],[130.943684,32.787835],[130.943984,32.78806],[130.944134,32.788335],[130.944222,32.788601],[130.944409,32.788876],[130.944934,32.789235],[130.946371,32.790026],[130.946696,32.790384],[130.946896,32.790501],[130.947959,32.790951],[130.948671,32.791201],[130.948971,32.791184],[130.949271,32.791001],[130.949521,32.790801],[130.949921,32.790618],[130.950596,32.790434],[130.951484,32.790035],[130.952883,32.789901],[130.953333,32.789926],[130.953708,32.789993],[130.954196,32.789926],[130.954596,32.78981],[130.954921,32.789476],[130.955008,32.789201],[130.955033,32.788885],[130.955171,32.788185],[130.955358,32.787718],[130.955496,32.78756],[130.955846,32.787535],[130.956383,32.78756],[130.956783,32.787468],[130.957083,32.78711],[130.957233,32.786768],[130.957508,32.785168],[130.957671,32.785052],[130.958183,32.785193],[130.958633,32.785343],[130.958908,32.785377],[130.959608,32.78501],[130.960196,32.784468],[130.960491,32.784712],[130.960946,32.785018],[130.961858,32.785468],[130.962745,32.785985],[130.964045,32.78666],[130.965083,32.787277],[130.96692,32.788293],[130.968045,32.78881],[130.968532,32.788993],[130.968907,32.789193],[130.969445,32.78956],[130.970895,32.790393],[130.973045,32.791526],[130.973982,32.79211],[130.974244,32.792226],[130.974757,32.792543],[130.976207,32.793351],[130.976312,32.793418],[130.976394,32.793468],[130.977557,32.794168],[130.979144,32.794976],[130.979656,32.795318],[130.980194,32.795634],[130.980694,32.795897],[130.981369,32.796201],[130.982606,32.796876],[130.983069,32.797126],[130.983381,32.797401],[130.983706,32.797734],[130.984218,32.798118],[130.985368,32.799109],[130.985593,32.799359],[130.985668,32.799543],[130.986206,32.800151],[130.986576,32.800632],[130.986743,32.800918],[130.986981,32.801168],[130.987518,32.801418],[130.98868,32.802159],[130.989543,32.803067],[130.989968,32.803359],[130.990318,32.803676],[130.990968,32.803992],[130.991905,32.804084],[130.993217,32.804034],[130.993529,32.804022],[130.99378,32.803968],[130.994167,32.803968],[130.994405,32.804018],[130.994755,32.804126],[130.995249,32.804394],[130.996092,32.804759],[130.996479,32.804534],[130.996704,32.804376],[130.996917,32.804151],[130.99668,32.803726],[130.996467,32.803451],[130.996367,32.803309],[130.996105,32.802959],[130.995992,32.802768],[130.995817,32.802509],[130.99573,32.802318],[130.995667,32.801959],[130.995717,32.801809],[130.99588,32.801534],[130.995967,32.801268],[130.995942,32.800793],[130.99578,32.800526],[130.99538,32.800051],[130.995267,32.799826],[130.995155,32.799301],[130.995098,32.799131],[130.994967,32.79881],[130.99478,32.797676],[130.994758,32.797505],[130.99478,32.797176],[130.994917,32.79676],[130.995192,32.796551],[130.995455,32.796485],[130.995567,32.79651],[130.99613,32.79676],[130.996342,32.796777],[130.996455,32.79676],[130.996742,32.796627],[130.99713,32.796352],[130.997592,32.795902],[130.997867,32.795293],[130.99818,32.79466],[130.998392,32.794368],[130.998857,32.794122],[130.999015,32.793668],[130.998892,32.793444],[130.998555,32.792835],[130.998505,32.79236],[130.998555,32.791869],[130.99883,32.791727],[130.999267,32.791644],[130.999792,32.791344],[131.000429,32.791119],[131.001504,32.790486],[131.002079,32.790119],[131.002492,32.789561],[131.002954,32.788819],[131.003092,32.788744],[131.003617,32.788619],[131.004304,32.788569],[131.004894,32.78838],[131.005341,32.788094],[131.005841,32.787694],[131.006354,32.787461],[131.006716,32.787445],[131.007454,32.78717],[131.008041,32.787053],[131.008828,32.78697],[131.009416,32.786745],[131.009991,32.786561],[131.011003,32.786445],[131.011528,32.786353],[131.012028,32.786353],[131.01219,32.786378],[131.01244,32.786528],[131.012765,32.786578],[131.013178,32.786378],[131.013603,32.786087],[131.013953,32.78587],[131.014115,32.785837],[131.01474,32.785904],[131.016178,32.786579],[131.01659,32.786895],[131.01689,32.786979],[131.017902,32.786712],[131.018327,32.786487],[131.018927,32.786354],[131.01934,32.786504],[131.020377,32.786396],[131.021114,32.786621],[131.022714,32.786637],[131.023702,32.786679],[131.023927,32.786729],[131.024477,32.787021],[131.025076,32.787471],[131.025789,32.787671],[131.026701,32.787654],[131.027339,32.787754],[131.027876,32.787979],[131.028226,32.788187],[131.028339,32.788304],[131.028739,32.788487],[131.029214,32.788746],[131.029364,32.788887],[131.029639,32.789337],[131.029751,32.789362],[131.030201,32.789337],[131.030526,32.789179],[131.030776,32.788862],[131.031088,32.788346],[131.031488,32.787921],[131.031726,32.787537],[131.032176,32.787196],[131.032776,32.786979],[131.033063,32.786679],[131.033376,32.785996],[131.033676,32.785454],[131.034251,32.785054],[131.034751,32.784829],[131.035401,32.784704],[131.035938,32.784738],[131.036238,32.784846],[131.036413,32.784779],[131.036651,32.784404],[131.036988,32.784063],[131.037376,32.783896],[131.038713,32.783763],[131.039188,32.783871],[131.03965,32.784204],[131.040275,32.784554],[131.04075,32.784863],[131.041475,32.785854],[131.041675,32.785996],[131.041975,32.785796],[131.0422,32.785471],[131.0426,32.785229],[131.043188,32.785104],[131.043725,32.785088],[131.044738,32.785138],[131.045387,32.785054],[131.046025,32.785471],[131.047362,32.786679],[131.047575,32.786813],[131.0479,32.787246],[131.048112,32.787787],[131.0486,32.788287],[131.049187,32.788646],[131.050087,32.789362],[131.050437,32.789521],[131.050774,32.789571],[131.051837,32.789454],[131.052624,32.789612],[131.053587,32.790171],[131.054062,32.790312],[131.054387,32.790262],[131.054662,32.790062],[131.054912,32.789721],[131.055162,32.789471],[131.055549,32.789337],[131.055849,32.789337],[131.055962,32.789879],[131.056037,32.790121],[131.056149,32.790262],[131.056474,32.790279],[131.057136,32.790295],[131.057411,32.790529],[131.057411,32.790937],[131.057574,32.79112],[131.057936,32.791045],[131.059111,32.790595],[131.059461,32.790595],[131.060461,32.79082],[131.060599,32.790887],[131.061251,32.791525],[131.061611,32.791912],[131.061999,32.791854],[131.062773,32.79147],[131.063098,32.791454],[131.063561,32.791604],[131.064198,32.791654],[131.064773,32.791604],[131.064911,32.791629],[131.065273,32.791812],[131.066236,32.792712],[131.066436,32.792778],[131.066898,32.79282],[131.067498,32.792712],[131.067911,32.79257],[131.06866,32.792187],[131.069173,32.792078],[131.070548,32.792345],[131.07146,32.79232],[131.072223,32.792187],[131.072673,32.791978],[131.073298,32.791895],[131.073735,32.792187],[131.07451,32.79252],[131.074598,32.792795],[131.074423,32.793178],[131.074398,32.793536],[131.07476,32.794703],[131.07501,32.795178],[131.075322,32.795295],[131.075722,32.795086],[131.076047,32.79482],[131.076435,32.794611],[131.076435,32.794595],[131.077097,32.79482],[131.077585,32.794903],[131.07806,32.795053],[131.07841,32.795245],[131.07886,32.795261],[131.079297,32.795086],[131.079684,32.79497],[131.080422,32.795103],[131.080997,32.795128],[131.081497,32.794903],[131.081772,32.794495],[131.081959,32.79387],[131.082347,32.793528],[131.083384,32.792853],[131.083634,32.792378],[131.083884,32.792037],[131.084272,32.791679],[131.084984,32.791295],[131.085472,32.791162],[131.085722,32.791229],[131.086659,32.791295],[131.087646,32.791787],[131.088434,32.791879],[131.088634,32.791945],[131.088746,32.79192],[131.089346,32.792212],[131.089896,32.792712],[131.090808,32.793112],[131.091171,32.793337],[131.091996,32.793562],[131.092458,32.794153],[131.092608,32.794778],[131.092958,32.794987],[131.093896,32.795228],[131.094158,32.79487],[131.094546,32.794753],[131.094683,32.79467],[131.095233,32.79397],[131.095533,32.793762],[131.095696,32.79302],[131.095796,32.792837],[131.096195,32.792595],[131.09677,32.79252],[131.097269,32.792415],[131.097983,32.792162],[131.09902,32.79207],[131.099158,32.792029],[131.09947,32.791804],[131.099495,32.79137],[131.09957,32.79092],[131.09976,32.790838],[131.100645,32.790987],[131.100756,32.790811],[131.10087,32.790671],[131.100945,32.790471],[131.100695,32.789996],[131.10042,32.789596],[131.10037,32.789321],[131.100583,32.788987],[131.100695,32.788671],[131.100508,32.787879],[131.100333,32.787471],[131.100058,32.787179],[131.09992,32.786888],[131.09997,32.786504],[131.100145,32.786121],[131.100358,32.785471],[131.101183,32.784813],[131.101795,32.784188],[131.101895,32.783805],[131.101733,32.783671],[131.101458,32.783613],[131.101345,32.783438],[131.101295,32.782788],[131.101095,32.782371],[131.100683,32.782021],[131.100608,32.781763],[131.10082,32.781213],[131.10087,32.780888],[131.100895,32.780755],[131.10087,32.780372],[131.100683,32.780147],[131.100383,32.779705],[131.100183,32.779422],[131.100271,32.778389],[131.100308,32.778239],[131.100371,32.77798],[131.100383,32.77783],[131.100396,32.777514],[131.100271,32.777064],[131.100208,32.77683],[131.100158,32.776655],[131.099858,32.776314],[131.099596,32.776106],[131.099433,32.776039],[131.099158,32.776006],[131.098983,32.775964],[131.098871,32.775856],[131.098883,32.775672],[131.098933,32.775381],[131.099083,32.775072],[131.099258,32.774797],[131.099546,32.774781],[131.099721,32.774722],[131.099958,32.774531],[131.100058,32.774397],[131.100061,32.774234],[131.100081,32.77406],[131.100121,32.773931],[131.100183,32.773839],[131.100233,32.773756],[131.100308,32.773564],[131.100283,32.773314],[131.100471,32.773231],[131.100671,32.773348],[131.100808,32.773364],[131.101058,32.773106],[131.100933,32.772848],[131.100821,32.772556],[131.100858,32.772398],[131.101021,32.772364],[131.101083,32.772298],[131.101071,32.772148],[131.101158,32.771948],[131.101271,32.771823],[131.101346,32.771739],[131.101358,32.771648],[131.101196,32.771556],[131.100983,32.771423],[131.100833,32.771206],[131.100808,32.771023],[131.100896,32.770931],[131.101208,32.770839],[131.101346,32.77079],[131.101471,32.770731],[131.101508,32.770581],[131.101483,32.770415],[131.101483,32.770215],[131.101508,32.770065],[131.101508,32.76994],[131.101708,32.769773],[131.102046,32.76964],[131.102296,32.769523],[131.102433,32.769381],[131.102421,32.769223],[131.102358,32.769098],[131.102158,32.768756],[131.102121,32.768665],[131.102271,32.76849],[131.102483,32.768431],[131.102758,32.768423],[131.102821,32.768156],[131.102658,32.767973],[131.102671,32.767782],[131.102808,32.767498],[131.102796,32.767273],[131.102746,32.767048],[131.102858,32.766798],[131.103058,32.766557],[131.102983,32.766365],[131.102896,32.766323],[131.102821,32.766248],[131.102758,32.76614],[131.102746,32.766057],[131.102858,32.765957],[131.102983,32.765973],[131.103183,32.766032],[131.103283,32.766107],[131.103371,32.766107],[131.103446,32.765898],[131.103483,32.765665],[131.103558,32.765515],[131.103833,32.76534],[131.104133,32.765282],[131.104433,32.765332],[131.104621,32.765332],[131.104671,32.765257],[131.104583,32.765115],[131.104671,32.764849],[131.104871,32.764599],[131.105108,32.764415],[131.105133,32.76419],[131.105246,32.764007],[131.105296,32.763924],[131.105421,32.763799],[131.105533,32.763707],[131.105771,32.76364],[131.105988,32.763637],[131.106171,32.763682],[131.106346,32.763624],[131.106396,32.76344],[131.106396,32.763232],[131.106271,32.763115],[131.105958,32.762932],[131.105883,32.762799],[131.105833,32.762582],[131.105996,32.762482],[131.106221,32.762449],[131.106396,32.762291],[131.106483,32.762066],[131.106496,32.761857],[131.106896,32.761616],[131.107221,32.761524],[131.107308,32.761491],[131.107558,32.761407],[131.107883,32.761299],[131.107983,32.761149],[131.108008,32.760949],[131.10812,32.760757],[131.108345,32.760707],[131.108533,32.760841],[131.108683,32.760891],[131.108858,32.760749],[131.10902,32.760466],[131.10937,32.760324],[131.109625,32.760267],[131.109903,32.76011],[131.11007,32.759908],[131.11022,32.759666],[131.110408,32.759449],[131.110558,32.759283],[131.110658,32.759091],[131.110845,32.758774],[131.111158,32.758541],[131.111445,32.758391],[131.11167,32.758249],[131.11177,32.758183],[131.11197,32.757991],[131.11227,32.7578],[131.112358,32.757641],[131.112395,32.757441],[131.112345,32.757275],[131.112295,32.757066],[131.112445,32.756966],[131.11267,32.756941],[131.11287,32.756991],[131.112995,32.757133],[131.113133,32.757183],[131.113283,32.756983],[131.113308,32.756741],[131.113295,32.75665],[131.113258,32.756441],[131.113258,32.756216],[131.11337,32.756033],[131.113558,32.755975],[131.113958,32.755791],[131.114295,32.7557],[131.11462,32.755391],[131.11502,32.755325],[131.115432,32.755142],[131.115707,32.754783],[131.115957,32.754592],[131.116357,32.7543],[131.116482,32.754125],[131.116707,32.753775],[131.11687,32.753608],[131.116957,32.75325],[131.11687,32.752983],[131.11692,32.75275],[131.11727,32.752575],[131.11767,32.752442],[131.11792,32.752267],[131.117995,32.752084],[131.117557,32.751542],[131.117407,32.7512],[131.117432,32.751092],[131.117682,32.750959],[131.118332,32.750867],[131.11867,32.750784],[131.118745,32.750575],[131.118895,32.750084],[131.119145,32.749975],[131.11952,32.749884],[131.11977,32.749776],[131.120007,32.749617],[131.120182,32.749234],[131.120357,32.749101],[131.120432,32.748876],[131.120295,32.748451],[131.120345,32.747951],[131.12032,32.747817],[131.12017,32.747701],[131.119645,32.747426],[131.11962,32.747267],[131.11977,32.747134],[131.120232,32.746918],[131.120382,32.746826],[131.120456,32.746634],[131.120457,32.746418],[131.120457,32.746168],[131.120482,32.746018],[131.120632,32.745926],[131.120957,32.745951],[131.121132,32.745859],[131.121495,32.745301],[131.121545,32.745051],[131.121495,32.744851],[131.121395,32.744734],[131.121045,32.744751],[131.120895,32.744643],[131.12082,32.744551],[131.120545,32.744343],[131.12047,32.744301],[131.120295,32.744159],[131.120207,32.743959],[131.120257,32.743893],[131.120457,32.743735],[131.120682,32.743493],[131.121032,32.743243],[131.121107,32.743043],[131.120995,32.742543],[131.12102,32.742293],[131.121145,32.74221],[131.121245,32.742026],[131.12157,32.74176],[131.121757,32.741693],[131.121882,32.741401],[131.121907,32.741176],[131.121807,32.740452],[131.121845,32.740277],[131.12212,32.739685],[131.122208,32.738852],[131.122108,32.738402],[131.122183,32.73836],[131.122258,32.73836],[131.122558,32.738543],[131.122643,32.738556],[131.12282,32.73846],[131.122907,32.738327],[131.122643,32.737882],[131.122558,32.737727],[131.122558,32.737685],[131.122643,32.737615],[131.122795,32.73751],[131.123282,32.737352],[131.12342,32.737244],[131.123695,32.736877],[131.12397,32.73661],[131.12442,32.736319],[131.124695,32.736044],[131.12477,32.735869],[131.124932,32.73526],[131.12497,32.735052],[131.125207,32.734419],[131.125295,32.733269],[131.125383,32.732844],[131.125458,32.732736],[131.125595,32.732369],[131.125683,32.731944],[131.125545,32.731444],[131.12562,32.731111],[131.126258,32.730294],[131.12617,32.729894],[131.12612,32.729169],[131.125845,32.728136],[131.125708,32.72782],[131.125158,32.727928],[131.12507,32.727886],[131.124795,32.72782],[131.124495,32.727845],[131.12422,32.72802],[131.124058,32.72802],[131.124008,32.727728],[131.124108,32.727411],[131.123833,32.726945],[131.123458,32.72642],[131.123508,32.726261],[131.123833,32.725795],[131.124246,32.725412],[131.125046,32.724753],[131.125371,32.72462],[131.125508,32.72462],[131.12697,32.724212],[131.127158,32.724095],[131.127195,32.724053],[131.12702,32.723737],[131.126783,32.723487],[131.126096,32.723128],[131.125758,32.722812],[131.125708,32.722704],[131.125708,32.722412],[131.126308,32.721462],[131.126921,32.720787],[131.127521,32.719929],[131.127883,32.719229],[131.128096,32.718912],[131.128258,32.718504],[131.128208,32.717896],[131.128158,32.717721],[131.128183,32.717312],[131.128296,32.716996],[131.128183,32.716746],[131.127796,32.716571],[131.127633,32.716546],[131.127246,32.716413],[131.126921,32.716071],[131.126646,32.715538],[131.126608,32.715038],[131.126783,32.714454],[131.127021,32.714004],[131.127496,32.713438],[131.127546,32.713163],[131.127496,32.713096],[131.127384,32.712696],[131.126834,32.71188],[131.126446,32.710663],[131.126396,32.710213],[131.126471,32.70983],[131.127059,32.708955],[131.127159,32.708838],[131.127496,32.708638],[131.127659,32.708613],[131.128459,32.708638],[131.128946,32.708572],[131.129496,32.708363],[131.130434,32.70818],[131.130521,32.708113],[131.130484,32.707822],[131.129796,32.706114],[131.129746,32.705547],[131.129796,32.70523],[131.129746,32.705005],[131.129696,32.704964],[131.129359,32.704939],[131.128971,32.70498],[131.128596,32.704989],[131.128396,32.704872],[131.128321,32.704622],[131.128422,32.704039],[131.128647,32.703272],[131.128647,32.702889],[131.128422,32.702706],[131.127572,32.702481],[131.127084,32.702281],[131.126784,32.701697],[131.126672,32.701222],[131.126509,32.700931],[131.126147,32.700839],[131.125784,32.700956],[131.125234,32.701064],[131.124822,32.701089],[131.124547,32.701022],[131.124247,32.700864],[131.123922,32.700639],[131.123785,32.700481],[131.123597,32.699739],[131.123485,32.699514],[131.123235,32.699156],[131.123097,32.699081],[131.12296,32.699064],[131.122797,32.699131],[131.122622,32.699214],[131.122472,32.699389],[131.122322,32.699506],[131.121722,32.699548],[131.121347,32.699656],[131.121122,32.699898],[131.12106,32.700014],[131.12056,32.700306],[131.12011,32.700573],[131.119735,32.700523],[131.119371,32.700279],[131.119135,32.700139],[131.118885,32.699998],[131.118385,32.699814],[131.11801,32.699523],[131.117785,32.699289],[131.117423,32.698564],[131.117348,32.698273],[131.117223,32.698206],[131.116723,32.698273],[131.116473,32.698264],[131.116148,32.698223],[131.115948,32.698289],[131.115898,32.698331],[131.115923,32.698489],[131.11621,32.699123],[131.116285,32.699548],[131.116285,32.699781],[131.116185,32.700048],[131.116048,32.700181],[131.115823,32.700289],[131.115598,32.700273],[131.115048,32.700039],[131.11466,32.699606],[131.113835,32.698589],[131.113436,32.698023],[131.112973,32.697498],[131.112873,32.697473],[131.112498,32.697273],[131.111623,32.696973],[131.110973,32.696673],[131.110298,32.696215],[131.110298,32.695948],[131.110411,32.695656],[131.110561,32.695448],[131.110861,32.695248],[131.111286,32.695098],[131.111411,32.694898],[131.111411,32.694823],[131.111161,32.694573],[131.110448,32.694281],[131.109823,32.694023],[131.109623,32.693931],[131.109224,32.693815],[131.108699,32.693748],[131.108474,32.693765],[131.107711,32.693898],[131.107511,32.693965],[131.107236,32.693898],[131.106836,32.693506],[131.106574,32.693082],[131.106649,32.69254],[131.106624,32.692423],[131.106474,32.692198],[131.106174,32.692015],[131.105949,32.691948],[131.105599,32.692098],[131.105399,32.692257],[131.105199,32.692707],[131.104936,32.693631],[131.104736,32.693965],[131.104436,32.694231],[131.104174,32.694365],[131.103324,32.694656],[131.102974,32.694723],[131.102599,32.694856],[131.102174,32.694915],[131.101899,32.69494],[131.101674,32.694981],[131.101474,32.694956],[131.100674,32.694456],[131.100199,32.694115],[131.099824,32.693748],[131.099149,32.693315],[131.098599,32.69309],[131.098374,32.692881],[131.095277,32.692492],[131.09187,32.69234],[131.087932,32.692113],[131.083767,32.692038],[131.079602,32.691886],[131.076572,32.691962],[131.072483,32.692038],[131.069303,32.692113],[131.066652,32.692038],[131.064532,32.691962],[131.062639,32.691735],[131.061676,32.691632],[131.061115,32.69154],[131.06094,32.69129],[131.060815,32.691056],[131.060677,32.690381],[131.060427,32.689657],[131.060215,32.689232],[131.060165,32.688823],[131.05994,32.687898],[131.060003,32.687623],[131.060153,32.68749],[131.060403,32.687473],[131.060428,32.687173],[131.060353,32.686932],[131.060265,32.686232],[131.059965,32.685282],[131.059828,32.684965],[131.059203,32.684532],[131.058828,32.684349],[131.058028,32.684074],[131.057278,32.68404],[131.056978,32.684065],[131.056703,32.684174],[131.056228,32.684215],[131.056003,32.683807],[131.055628,32.683582],[131.055528,32.68344],[131.055278,32.682874],[131.055066,32.682515],[131.054416,32.681857],[131.053966,32.681449],[131.053541,32.681124],[131.053241,32.680949],[131.053053,32.680716],[131.052703,32.680174],[131.052578,32.679832],[131.052178,32.679449],[131.052153,32.679357],[131.051841,32.679174],[131.051778,32.679199],[131.051453,32.679107],[131.051141,32.678899],[131.051016,32.678766],[131.050991,32.678624],[131.051066,32.678249],[131.051141,32.678024],[131.051116,32.677949],[131.050941,32.677999],[131.050616,32.678082],[131.050466,32.678107],[131.049866,32.678057],[131.049341,32.678049],[131.048816,32.678157],[131.048566,32.678141],[131.048466,32.678049],[131.048466,32.677957],[131.049179,32.676858],[131.049629,32.676383],[131.049929,32.676366],[131.050129,32.676274],[131.050241,32.676033],[131.050141,32.675783],[131.050091,32.675599],[131.050141,32.675466],[131.050216,32.675441],[131.050641,32.675441],[131.050816,32.675358],[131.050916,32.675224],[131.050991,32.674974],[131.051029,32.674658],[131.051129,32.674474],[131.051654,32.673983],[131.051554,32.673874],[131.051316,32.673624],[131.051066,32.673216],[131.050866,32.67265],[131.050704,32.671591],[131.050629,32.671358],[131.050429,32.671066],[131.050379,32.670908],[131.050416,32.670366],[131.050441,32.6701],[131.050598,32.66951],[131.050779,32.668975],[131.050866,32.668775],[131.050266,32.6685],[131.049391,32.668242],[131.048616,32.667833],[131.047992,32.667083],[131.047567,32.666717],[131.046967,32.666667],[131.046592,32.666692],[131.045592,32.666683],[131.044817,32.666817],[131.044517,32.666883],[131.043804,32.666983],[131.043354,32.66685],[131.042867,32.666508],[131.042342,32.666033],[131.041942,32.665483],[131.041942,32.665325],[131.042017,32.6651],[131.042354,32.66495],[131.042504,32.664659],[131.042254,32.664067],[131.041417,32.663],[131.041042,32.662409],[131.040605,32.661459],[131.040305,32.660717],[131.040092,32.659834],[131.039692,32.659517],[131.038817,32.659692],[131.038005,32.660109],[131.037605,32.660176],[131.03703,32.660309],[131.036355,32.660351],[131.03628,32.660301],[131.03608,32.660009],[131.036042,32.659192],[131.036392,32.658251],[131.03688,32.657534],[131.03718,32.657018],[131.037167,32.656426],[131.036943,32.655976],[131.036105,32.655001],[131.036055,32.654776],[131.036255,32.654576],[131.036743,32.653918],[131.037393,32.65361],[131.037792,32.653526],[131.039055,32.652335],[131.039417,32.65216],[131.039642,32.651735],[131.039942,32.651601],[131.040592,32.651335],[131.04098,32.651176],[131.041205,32.650977],[131.04143,32.650368],[131.042242,32.64981],[131.042292,32.64936],[131.04223,32.648835],[131.04238,32.648277],[131.042805,32.647893],[131.043292,32.647135],[131.04325,32.647009],[131.04316,32.646849],[131.043092,32.646677],[131.04333,32.646294],[131.04383,32.645894],[131.04413,32.645469],[131.044242,32.645269],[131.044742,32.644935],[131.045442,32.644777],[131.046055,32.644102],[131.046255,32.643519],[131.046692,32.643069],[131.046817,32.642669],[131.047155,32.642086],[131.04713,32.641744],[131.047155,32.641428],[131.047505,32.641044],[131.047567,32.640461],[131.047942,32.639994],[131.04783,32.639561],[131.047705,32.639469],[131.04758,32.639244],[131.047455,32.638811],[131.047255,32.638478],[131.04658,32.637978],[131.045592,32.636978],[131.04618,32.636328],[131.046505,32.635736],[131.046717,32.634978],[131.046955,32.633237],[131.047617,32.632453],[131.047992,32.631912],[131.048105,32.631329],[131.048255,32.630812],[131.048117,32.630112],[131.047892,32.629595],[131.047992,32.62887],[131.048255,32.628154],[131.048667,32.627612],[131.049017,32.626937],[131.049242,32.626671],[131.050055,32.626471],[131.05158,32.626279],[131.05313,32.626354],[131.05333,32.626404],[131.053605,32.626337],[131.053917,32.625871],[131.054692,32.625288],[131.055105,32.625063],[131.05568,32.624613],[131.056155,32.624121],[131.056467,32.623471],[131.056605,32.622505],[131.05663,32.621871],[131.05658,32.621555],[131.05656,32.621156],[131.056542,32.620513],[131.056855,32.61928],[131.056942,32.618397],[131.056917,32.617763],[131.056755,32.616638],[131.056692,32.615238],[131.056717,32.61513],[131.05728,32.614589],[131.05738,32.614455],[131.057555,32.613964],[131.057805,32.613622],[131.058067,32.61313],[131.058717,32.61268],[131.059405,32.612397],[131.059905,32.611989],[131.060105,32.61163],[131.060192,32.611364],[131.060092,32.610706],[131.06003,32.609647],[131.060155,32.608697],[131.060042,32.608206],[131.059318,32.607631],[131.059268,32.607523],[131.060155,32.606873],[131.060455,32.606264],[131.060493,32.605498],[131.060343,32.604689],[131.06013,32.60414],[131.05973,32.603715],[131.05923,32.603298],[131.058818,32.602873],[131.058418,32.602006],[131.05828,32.601265],[131.058255,32.600631],[131.05822,32.600101],[131.058018,32.599573],[131.057368,32.598932],[131.057068,32.598707],[131.056355,32.598232],[131.054405,32.597065],[131.054455,32.596815],[131.054393,32.59614],[131.054143,32.595482],[131.05338,32.59444],[131.053305,32.594057],[131.053518,32.592949],[131.053368,32.592365],[131.053305,32.591774],[131.05343,32.591149],[131.053618,32.590674],[131.053743,32.590024],[131.05373,32.588916],[131.05393,32.588466],[131.054368,32.587999],[131.054518,32.587858],[131.053693,32.587991],[131.052455,32.587866],[131.051893,32.587707],[131.051643,32.587482],[131.050993,32.586716],[131.05033,32.585974],[131.049206,32.585141],[131.048956,32.584983],[131.046843,32.584599],[131.046181,32.584599],[131.046018,32.584449],[131.045933,32.58424],[131.045843,32.583908],[131.045631,32.583724],[131.044743,32.583549],[131.044193,32.583233],[131.044056,32.583099],[131.043594,32.582758],[131.043506,32.582733],[131.043094,32.582441],[131.042881,32.581858],[131.042844,32.581608],[131.042906,32.580908],[131.042963,32.58055],[131.042931,32.580441],[131.042406,32.580458],[131.041831,32.580391],[131.041556,32.579716],[131.041556,32.579067],[131.041831,32.578458],[131.042044,32.57805],[131.042269,32.576808],[131.042081,32.576384],[131.041969,32.576225],[131.041806,32.575684],[131.042156,32.574509],[131.042106,32.57435],[131.041357,32.573567],[131.041282,32.573384],[131.040944,32.572917],[131.040507,32.572467],[131.039932,32.571967],[131.039407,32.571634],[131.039182,32.571201],[131.039594,32.570709],[131.039632,32.570567],[131.039594,32.570434],[131.038882,32.569176],[131.038444,32.568001],[131.038282,32.567326],[131.03762,32.56541],[131.037507,32.564626],[131.037557,32.564035],[131.037532,32.563635],[131.037582,32.563343],[131.037945,32.563093],[131.038357,32.562868],[131.038795,32.562552],[131.039157,32.562143],[131.039507,32.561785],[131.039982,32.561244],[131.04017,32.56111],[131.040395,32.560677],[131.040557,32.559819],[131.04042,32.55946],[131.04012,32.558969],[131.039895,32.55811],[131.039807,32.557369],[131.03987,32.556711],[131.039532,32.555719],[131.039207,32.555136],[131.038982,32.554569],[131.038732,32.554436],[131.037695,32.554461],[131.03742,32.554436],[131.036708,32.554277],[131.03657,32.554144],[131.035745,32.553044],[131.035608,32.553019],[131.03417,32.553427],[131.03352,32.553361],[131.03272,32.553386],[131.030658,32.554127],[131.029908,32.554177],[131.029558,32.55411],[131.028646,32.553819],[131.026146,32.553394],[131.025108,32.553302],[131.024283,32.553327],[131.023946,32.553277],[131.023371,32.55301],[131.022908,32.552535],[131.022021,32.551144],[131.019434,32.549269],[131.019334,32.549561],[131.019196,32.549719],[131.018834,32.549969],[131.018486,32.550164],[131.018284,32.550336],[131.017934,32.550669],[131.017272,32.550961],[131.016797,32.551302],[131.016772,32.551436],[131.016859,32.551911],[131.017072,32.552677],[131.016934,32.553919],[131.016284,32.554569],[131.015672,32.554794],[131.014959,32.554885],[131.014222,32.55511],[131.013584,32.55541],[131.013097,32.555702],[131.012647,32.556152],[131.012484,32.556735],[131.012097,32.557235],[131.011935,32.557801],[131.01186,32.558293],[131.011959,32.558793],[131.012234,32.559218],[131.012022,32.559485],[131.010897,32.559735],[131.01051,32.560026],[131.009999,32.560547],[131.009735,32.560951],[131.009876,32.561412],[131.010372,32.561784],[131.010872,32.562984],[131.011334,32.563684],[131.011197,32.564451],[131.010672,32.564784],[131.010147,32.565034],[131.008722,32.565284],[131.007572,32.565401],[131.005835,32.565667],[131.00441,32.566034],[131.003335,32.566959],[131.002673,32.567292],[131.00231,32.567925],[131.002173,32.568425],[131.001936,32.568875],[131.001421,32.569208],[131.000791,32.569634],[131.000459,32.569854],[131.000215,32.569909],[130.999873,32.569908],[130.999261,32.569642],[130.998248,32.569125],[130.997449,32.568858],[130.996586,32.568792],[130.995861,32.568817],[130.995261,32.56895],[130.994174,32.569325],[130.993387,32.569675],[130.992762,32.570075],[130.992074,32.570425],[130.991362,32.57095],[130.990899,32.57135],[130.990524,32.571475],[130.989887,32.571449],[130.989125,32.571341],[130.988412,32.571324],[130.988112,32.571349],[130.987425,32.571516],[130.986775,32.571824],[130.98625,32.572416],[130.984675,32.573699],[130.984388,32.573816],[130.9838,32.573841],[130.983263,32.573641],[130.982913,32.573624],[130.982538,32.574032],[130.982163,32.574549],[130.981888,32.575207],[130.981388,32.575457],[130.980788,32.575565],[130.980151,32.575749],[130.978726,32.57699],[130.978076,32.577407],[130.976939,32.577757],[130.975527,32.578565],[130.975239,32.578707],[130.973139,32.579423],[130.972439,32.579765],[130.971802,32.58004],[130.97094,32.580173],[130.97039,32.580298],[130.969515,32.580398],[130.969377,32.58039],[130.969102,32.580231],[130.969002,32.58009],[130.96869,32.579965],[130.968277,32.579748],[130.96819,32.579631],[130.967815,32.579331],[130.96719,32.579031],[130.96689,32.578948],[130.965878,32.578498],[130.965578,32.578473],[130.964915,32.578181],[130.964653,32.577873],[130.963453,32.577823],[130.960466,32.578689],[130.960329,32.578689],[130.960129,32.578564],[130.960079,32.578164],[130.959941,32.57774],[130.959591,32.577356],[130.959141,32.577023],[130.958841,32.576965],[130.957916,32.576923],[130.955417,32.577123],[130.954667,32.577131],[130.954404,32.577206],[130.953654,32.577706],[130.952992,32.578114],[130.952067,32.578323],[130.95138,32.578872],[130.950703,32.579425],[130.95053,32.579539],[130.950579,32.579761],[130.950642,32.579989],[130.950492,32.580464],[130.950005,32.581172],[130.94983,32.581639],[130.949792,32.581831],[130.949829,32.582822],[130.949629,32.583155],[130.948792,32.583939],[130.948405,32.58433],[130.948342,32.58453],[130.948442,32.584955],[130.948579,32.585155],[130.948929,32.585439],[130.949942,32.58603],[130.950717,32.586405],[130.951142,32.586555],[130.951417,32.58673],[130.951579,32.587022],[130.951904,32.587547],[130.951979,32.58773],[130.951467,32.588088],[130.951492,32.58833],[130.952066,32.58908],[130.952829,32.589605],[130.953579,32.58993],[130.954504,32.590588],[130.954866,32.591196],[130.955266,32.59213],[130.955604,32.592805],[130.957278,32.594446],[130.957766,32.594788],[130.957991,32.594896],[130.958716,32.594971],[130.959391,32.595113],[130.961615,32.596796],[130.962428,32.597138],[130.962728,32.597229],[130.963378,32.597554],[130.963953,32.597988],[130.964728,32.598371],[130.964828,32.598463],[130.966077,32.599063],[130.966302,32.599263],[130.966615,32.600737],[130.966227,32.601587],[130.966177,32.601812],[130.966215,32.602537],[130.966565,32.603529],[130.966552,32.603845],[130.966077,32.60452],[130.965615,32.605529],[130.965452,32.606345],[130.965065,32.607603],[130.964665,32.608412],[130.964452,32.609045],[130.964677,32.609986],[130.964565,32.61067],[130.964315,32.611478],[130.964327,32.612561],[130.96429,32.613303],[130.964115,32.613869],[130.963527,32.614153],[130.963352,32.614269],[130.963002,32.614894],[130.962915,32.615436],[130.962915,32.615686],[130.962765,32.616403],[130.962727,32.616694],[130.962339,32.618253],[130.962189,32.619261],[130.961752,32.619644],[130.960902,32.620161],[130.960752,32.620311],[130.960414,32.621036],[130.960464,32.621686],[130.960577,32.622344],[130.960314,32.623469],[130.960302,32.624669],[130.960052,32.62536],[130.958627,32.626844],[130.958002,32.62711],[130.957527,32.627444],[130.957264,32.628118],[130.956989,32.628702],[130.956802,32.629218],[130.956452,32.629618],[130.955777,32.629977],[130.954864,32.630535],[130.954164,32.630918],[130.953939,32.631093],[130.953352,32.63186],[130.952664,32.632485],[130.952339,32.63266],[130.951764,32.632793],[130.950652,32.63351],[130.950027,32.633843],[130.949139,32.634643],[130.949189,32.634918],[130.949264,32.634943],[130.950539,32.63481],[130.951214,32.635176],[130.951977,32.636426],[130.952914,32.638126],[130.953339,32.638551],[130.953489,32.638668],[130.953989,32.638876],[130.954564,32.638968],[130.955289,32.638884],[130.956151,32.638643],[130.958264,32.637843],[130.959013,32.637784],[130.960338,32.637926],[130.961113,32.638093],[130.961713,32.638568],[130.963388,32.640676],[130.963613,32.640859],[130.964188,32.640909],[130.965,32.640376],[130.965438,32.639609],[130.965838,32.638618],[130.966575,32.638193],[130.96715,32.638359],[130.967825,32.638859],[130.969163,32.640018],[130.969538,32.640251],[130.970637,32.640843],[130.971637,32.641118],[130.972012,32.641143],[130.972787,32.640901],[130.974,32.639918],[130.9745,32.639451],[130.974987,32.639093],[130.975387,32.639251],[130.97575,32.639776],[130.976249,32.640568],[130.976674,32.641359],[130.977062,32.642351],[130.976949,32.643117],[130.976674,32.643726],[130.976662,32.644376],[130.976787,32.645076],[130.976749,32.645776],[130.976899,32.646925],[130.976787,32.647584],[130.976662,32.647784],[130.976137,32.6481],[130.975474,32.648159],[130.975324,32.648134],[130.975174,32.648067],[130.974937,32.647659],[130.974362,32.647134],[130.973537,32.646817],[130.972762,32.646609],[130.971987,32.646534],[130.971262,32.646509],[130.970887,32.646484],[130.968425,32.64635],[130.966725,32.646517],[130.96595,32.646309],[130.965775,32.6462],[130.965444,32.646115],[130.9652,32.646167],[130.9647,32.646442],[130.963938,32.646684],[130.963563,32.647133],[130.963138,32.647217],[130.961788,32.6466],[130.961263,32.646817],[130.9607,32.647242],[130.96035,32.6479],[130.959838,32.648392],[130.959538,32.64875],[130.958813,32.648875],[130.958438,32.648833],[130.957663,32.648625],[130.957205,32.648503],[130.956607,32.648646],[130.956126,32.648633],[130.955276,32.64865],[130.955076,32.648625],[130.954776,32.648175],[130.954326,32.647765],[130.953738,32.647625],[130.952901,32.647825],[130.952276,32.647708],[130.951701,32.647925],[130.951201,32.647925],[130.950501,32.6476],[130.949301,32.647575],[130.948564,32.647792],[130.947759,32.648052],[130.947464,32.648575],[130.947226,32.649041],[130.946726,32.649316],[130.945089,32.649666],[130.944014,32.650041],[130.943664,32.650191],[130.942901,32.650433],[130.942651,32.650841],[130.942583,32.65148],[130.942614,32.651899],[130.942689,32.652691],[130.942746,32.653314],[130.942676,32.653816],[130.942314,32.654449],[130.941864,32.655007],[130.941164,32.655341],[130.940376,32.655607],[130.939951,32.656124],[130.939639,32.656799],[130.939539,32.657065],[130.939089,32.657449],[130.937876,32.657624],[130.935939,32.658257],[130.935564,32.658257],[130.934139,32.657773],[130.933689,32.657723],[130.932939,32.657515],[130.932039,32.657582],[130.93114,32.657682],[130.930715,32.657657],[130.929765,32.657448],[130.929015,32.657357],[130.927977,32.65744],[130.927127,32.65734],[130.926302,32.657198],[130.925553,32.657265],[130.923993,32.657734],[130.92289,32.657648],[130.92234,32.657515],[130.921365,32.657056],[130.92089,32.656823],[130.920315,32.656931],[130.919091,32.657515],[130.918403,32.657531],[130.916816,32.658281],[130.915941,32.659089],[130.915253,32.659539],[130.914328,32.659806],[130.913379,32.659931],[130.912741,32.660289],[130.912116,32.660806],[130.911629,32.661047],[130.911354,32.661064],[130.910104,32.661014],[130.909754,32.66108],[130.908941,32.661505],[130.907879,32.66258],[130.907154,32.662864],[130.906854,32.66343],[130.906717,32.66428],[130.906392,32.664572],[130.906217,32.664638],[130.905479,32.66473],[130.904654,32.664563],[130.903754,32.664513],[130.903229,32.664847],[130.903029,32.664888],[130.902829,32.664863],[130.902205,32.664638],[130.901805,32.664205],[130.90143,32.66368],[130.900905,32.66343],[130.900005,32.663405],[130.899055,32.663305],[130.89783,32.663072],[130.897405,32.663072],[130.89588,32.66283],[130.89478,32.662738],[130.893406,32.66248],[130.892456,32.662155],[130.891431,32.66188],[130.891131,32.661855],[130.889931,32.661663],[130.889369,32.661838],[130.888719,32.662013],[130.887494,32.662188],[130.886481,32.662271],[130.885432,32.662104],[130.884657,32.662079],[130.883507,32.662321],[130.882619,32.662513],[130.881769,32.662804],[130.880819,32.663063],[130.880482,32.663154],[130.879607,32.663263],[130.878782,32.663412],[130.877313,32.663778],[130.876095,32.664204],[130.87577,32.664071],[130.87477,32.663862],[130.874545,32.663837],[130.873945,32.663721],[130.873545,32.663354],[130.87267,32.662512],[130.87237,32.662121],[130.872195,32.661579],[130.87217,32.660496],[130.872333,32.659279],[130.87227,32.658563],[130.872333,32.657888],[130.872433,32.65748],[130.872908,32.656471],[130.87317,32.655863],[130.873402,32.655513],[130.873533,32.655015],[130.873358,32.653963],[130.873296,32.653314],[130.873396,32.652814],[130.873596,32.652389],[130.873883,32.651989],[130.874058,32.651672],[130.873958,32.651672],[130.873008,32.651914],[130.872406,32.652136],[130.871883,32.652297],[130.871546,32.652347],[130.871308,32.65228],[130.870971,32.651897],[130.870608,32.65093],[130.870058,32.649781],[130.869946,32.649597],[130.869596,32.649214],[130.868934,32.648672],[130.868571,32.648089],[130.868384,32.647547],[130.868021,32.647031],[130.867534,32.646714],[130.866946,32.646648],[130.866297,32.646648],[130.865572,32.646606],[130.864922,32.646631],[130.864584,32.646606],[130.862772,32.646314],[130.862538,32.646362],[130.862134,32.646589],[130.861973,32.646664],[130.861697,32.646747],[130.86131,32.646722],[130.860847,32.646522],[130.859472,32.646139],[130.85931,32.646072],[130.858597,32.645939],[130.856973,32.645081],[130.85661,32.645131],[130.856173,32.645306],[130.855848,32.645264],[130.855373,32.644839],[130.854498,32.644256],[130.853973,32.644006],[130.853011,32.643939],[130.852623,32.643739],[130.852461,32.643531],[130.852098,32.642831],[130.851498,32.642314],[130.851111,32.642247],[130.850261,32.642022],[130.847149,32.640947],[130.846624,32.640631],[130.846074,32.640248],[130.845474,32.640114],[130.845086,32.640114],[130.844212,32.640247],[130.843387,32.640297],[130.842862,32.640256],[130.842749,32.640164],[130.842449,32.639781],[130.842249,32.639306],[130.842115,32.638946],[130.841812,32.638048],[130.842112,32.637439],[130.842337,32.636106],[130.842474,32.635615],[130.842412,32.635181],[130.841924,32.634531],[130.841337,32.634081],[130.841175,32.63374],[130.841012,32.633207],[130.840512,32.632757],[130.839525,32.631715],[130.839162,32.631265],[130.838975,32.630565],[130.83905,32.630048],[130.839112,32.629915],[130.839112,32.629573],[130.838475,32.628815],[130.837975,32.628365],[130.837838,32.62829],[130.837438,32.628249],[130.836888,32.628382],[130.8362,32.628407],[130.834375,32.628323],[130.833638,32.628165],[130.832951,32.628098],[130.832051,32.628257],[130.831738,32.628273],[130.831551,32.628007],[130.831301,32.62744],[130.831026,32.626949],[130.830501,32.626565],[130.829763,32.626315],[130.829715,32.626284],[130.829651,32.626232],[130.829488,32.626315],[130.829238,32.62639],[130.828938,32.62639],[130.828138,32.626249],[130.827863,32.626232],[130.827151,32.626324],[130.826576,32.626707],[130.825688,32.627699],[130.825176,32.627923],[130.824101,32.627882],[130.823663,32.627565],[130.823276,32.627115],[130.823276,32.62684],[130.822676,32.62664],[130.821763,32.62639],[130.821076,32.626415],[130.820476,32.626349],[130.820201,32.626349],[130.819951,32.626465],[130.819926,32.626624],[130.819651,32.627207],[130.819351,32.627632],[130.818964,32.627723],[130.818026,32.628132],[130.817726,32.628398],[130.816901,32.629032],[130.815964,32.629398],[130.815501,32.629348],[130.814864,32.628923],[130.814314,32.628857],[130.813689,32.629173],[130.813101,32.629648],[130.812451,32.630298],[130.812014,32.630906],[130.811951,32.631315],[130.812364,32.631698],[130.812776,32.632215],[130.812701,32.632664],[130.812364,32.633164],[130.811926,32.633614],[130.811376,32.634106],[130.810526,32.635481],[130.809764,32.636231],[130.808851,32.636497],[130.808251,32.637039],[130.807539,32.638414],[130.807401,32.638981],[130.807376,32.639522],[130.807614,32.641164],[130.807814,32.641839],[130.808114,32.642472],[130.808139,32.642989],[130.807701,32.643689],[130.806351,32.645247],[130.805976,32.645805],[130.805451,32.647205],[130.804989,32.64793],[130.804351,32.648671],[130.803664,32.64928],[130.802901,32.650046],[130.802126,32.650905],[130.800864,32.652079],[130.800501,32.652529],[130.800151,32.653163],[130.799926,32.653854],[130.799851,32.654513],[130.799988,32.655187],[130.800338,32.655837],[130.800976,32.656671],[130.801751,32.657821],[130.801663,32.657979],[130.800976,32.658454],[130.800488,32.658862],[130.799988,32.659062],[130.798801,32.659429],[130.798588,32.659345],[130.798476,32.65922],[130.798401,32.659195],[130.798326,32.659137],[130.798188,32.659104],[130.798101,32.659137],[130.798026,32.659237],[130.797963,32.659362],[130.797513,32.65927],[130.797601,32.658545],[130.795563,32.65817],[130.794601,32.65812],[130.793888,32.657895],[130.793138,32.657829],[130.792339,32.657904],[130.791689,32.658062],[130.791139,32.658687],[130.790589,32.659229],[130.789264,32.659837],[130.789101,32.659887],[130.788076,32.66002],[130.787501,32.660137],[130.786814,32.660137],[130.786101,32.660362],[130.785526,32.66077],[130.785226,32.661262],[130.785114,32.661936],[130.784783,32.662258],[130.783689,32.662278],[130.783001,32.662278],[130.782114,32.66242],[130.781314,32.66262],[130.780664,32.66287],[130.779089,32.66312],[130.778401,32.66337],[130.777577,32.663395],[130.776727,32.663303],[130.776202,32.663328],[130.776289,32.663728],[130.776639,32.664703],[130.776676,32.664944],[130.776639,32.665461],[130.776726,32.665919],[130.776839,32.666119],[130.777414,32.666703],[130.777889,32.667427],[130.777851,32.667719],[130.777614,32.668011],[130.776814,32.668461],[130.776564,32.669202],[130.776239,32.669502],[130.775901,32.669702],[130.775551,32.670052],[130.775439,32.670277],[130.775251,32.670444],[130.775164,32.670602],[130.775089,32.67081],[130.775014,32.671044],[130.774989,32.671327],[130.774914,32.671477],[130.774739,32.671685],[130.774326,32.672327],[130.774226,32.672435],[130.774189,32.67246],[130.774064,32.67261],[130.774051,32.672752],[130.774164,32.673127],[130.774351,32.673385],[130.774589,32.673618],[130.774701,32.673668],[130.774839,32.673827],[130.774889,32.673968],[130.774889,32.674385],[130.774939,32.674735],[130.775139,32.67531],[130.775289,32.675518],[130.775289,32.675568],[130.775301,32.675668],[130.775289,32.675702],[130.775289,32.675777],[130.775264,32.675893],[130.775239,32.67596],[130.775201,32.67601],[130.775189,32.676027],[130.775201,32.676052],[130.775139,32.67611],[130.775064,32.676202],[130.774989,32.67631],[130.774926,32.676418],[130.774901,32.67651],[130.774889,32.676568],[130.774889,32.676643],[130.774889,32.676818],[130.774476,32.677026],[130.773751,32.677268],[130.773501,32.677551],[130.773101,32.677935],[130.772989,32.67796],[130.772889,32.67791],[130.772801,32.677885],[130.772426,32.678043],[130.772401,32.678218],[130.772376,32.67846],[130.772464,32.679301],[130.772414,32.67946],[130.772351,32.679568],[130.772351,32.679909],[130.772251,32.680234],[130.772164,32.680693],[130.772189,32.680751],[130.772514,32.680868],[130.772639,32.680901],[130.772801,32.681001],[130.772889,32.681109],[130.773026,32.681251],[130.773039,32.681301],[130.773076,32.681501],[130.772776,32.681701],[130.772526,32.681843],[130.772126,32.681951],[130.771414,32.682343],[130.771239,32.682459],[130.770726,32.682976],[130.770439,32.683201],[130.770126,32.683359],[130.769626,32.683592],[130.768839,32.684076],[130.768676,32.684159],[130.767626,32.684767],[130.766639,32.685342],[130.766551,32.685384],[130.766426,32.68545],[130.766026,32.685675],[130.765564,32.686017],[130.765264,32.686234],[130.764776,32.68615],[130.764526,32.686175],[130.764326,32.686259],[130.764214,32.686459],[130.763989,32.687175],[130.763951,32.687617],[130.764026,32.688],[130.763989,32.688133],[130.763664,32.6885],[130.763551,32.688617],[130.763089,32.689075],[130.762726,32.689442],[130.763551,32.689958],[130.763901,32.690175],[130.764226,32.690417],[130.764426,32.690591],[130.764576,32.690816],[130.764626,32.6912],[130.764551,32.691633],[130.764589,32.691808],[130.764751,32.692141],[130.764963,32.692591],[130.764688,32.692833],[130.764413,32.693083],[130.762901,32.694091],[130.762226,32.694516],[130.760476,32.695541],[130.760313,32.695624],[130.759213,32.696282],[130.758614,32.696707],[130.758189,32.696999],[130.757489,32.697416],[130.756226,32.698166],[130.754576,32.699315],[130.753976,32.69974],[130.753626,32.700065],[130.753576,32.700199],[130.753589,32.701474],[130.753539,32.702107],[130.753451,32.70264],[130.753326,32.703298],[130.752714,32.70479],[130.753326,32.708815],[130.755588,32.708598],[130.755738,32.708556],[130.756013,32.709056],[130.756138,32.709015],[130.756126,32.708715],[130.756088,32.708498],[130.756638,32.708531],[130.756688,32.708598],[130.757076,32.709531],[130.757101,32.709556],[130.758188,32.709498],[130.758338,32.709548],[130.758613,32.709715],[130.758738,32.709731],[130.758851,32.709715],[130.759013,32.70984],[130.759051,32.709873],[130.759201,32.709973],[130.759351,32.709765],[130.759563,32.709915],[130.759701,32.710015],[130.759838,32.710081],[130.760113,32.710265],[130.760263,32.710373],[130.760413,32.71049],[130.760563,32.710565],[130.760701,32.710673],[130.760851,32.710789],[130.760975,32.710906],[130.761113,32.710998],[130.761238,32.711098],[130.7614,32.711189],[130.761513,32.711273],[130.761625,32.711389],[130.761763,32.711506],[130.761825,32.711564],[130.761838,32.711623],[130.761813,32.711706],[130.761738,32.711864],[130.761638,32.712106],[130.760925,32.713806],[130.760625,32.715206],[130.760613,32.715906],[130.760538,32.716122],[130.760213,32.717181],[130.760113,32.717472],[130.759975,32.718189],[130.759963,32.718472],[130.759888,32.71973],[130.759775,32.719997],[130.759713,32.720347],[130.759713,32.72043],[130.759725,32.720589],[130.759788,32.720764],[130.759888,32.721014],[130.759963,32.721239],[130.760038,32.721688],[130.760013,32.722022],[130.759875,32.722572],[130.759675,32.723172],[130.759613,32.723372],[130.75955,32.723488],[130.759088,32.72438],[130.758938,32.724688],[130.7586,32.725396],[130.757925,32.726738],[130.7577,32.72718],[130.757613,32.727388],[130.757213,32.728105],[130.75705,32.728296],[130.757013,32.728363],[130.756675,32.728763],[130.756275,32.729179],[130.755775,32.729704],[130.755663,32.729813],[130.755138,32.730371],[130.755038,32.730463],[130.75425,32.731338],[130.753825,32.731687],[130.753163,32.732271],[130.7528,32.732562],[130.752038,32.733154],[130.750963,32.733729],[130.7506,32.733946],[130.7501,32.734237],[130.749738,32.734387],[130.749088,32.73462],[130.748738,32.734704],[130.748563,32.734729],[130.748388,32.734745],[130.748138,32.734804],[130.7476,32.734929],[130.747238,32.735012],[130.745788,32.735095],[130.742351,32.73512],[130.742126,32.735095],[130.740626,32.735104],[130.739876,32.735145],[130.739426,32.73512],[130.739401,32.735095],[130.738551,32.735162],[130.736913,32.735262],[130.736613,32.735304],[130.735964,32.735454],[130.734326,32.735737],[130.732776,32.736062],[130.732126,32.73617],[130.731539,32.736303],[130.730389,32.736345],[130.729814,32.736428],[130.728664,32.736537],[130.727177,32.73677],[130.726352,32.736945],[130.724952,32.737137],[130.724314,32.737112],[130.723789,32.736995],[130.72169,32.736395],[130.720865,32.736228],[130.719315,32.735995],[130.71809,32.735787],[130.71644,32.735662],[130.71484,32.735445],[130.713303,32.735453],[130.712628,32.735562],[130.70994,32.736061],[130.70924,32.73622],[130.708566,32.736328],[130.707666,32.736345],[130.707616,32.73632],[130.706478,32.73627],[130.705753,32.736286],[130.705003,32.736236],[130.704228,32.736136],[130.702429,32.736128],[130.699866,32.735953],[130.699541,32.735945],[130.698591,32.735786],[130.697491,32.735503],[130.696217,32.735245],[130.696017,32.735178],[130.695229,32.737203],[130.695454,32.737319],[130.695766,32.737569],[130.696091,32.737928],[130.696691,32.739061],[130.697104,32.739627],[130.697404,32.740152],[130.697529,32.740536],[130.697641,32.741369],[130.697679,32.742569],[130.697754,32.742727],[130.697979,32.743111],[130.698528,32.743427],[130.699153,32.743477],[130.699703,32.743277],[130.699828,32.743144],[130.700003,32.742786],[130.699916,32.742336],[130.700016,32.741611],[130.700678,32.740602],[130.700753,32.740311],[130.700966,32.739861],[130.701316,32.739661],[130.701516,32.739611],[130.702066,32.739686],[130.702716,32.739894],[130.704391,32.740244],[130.705341,32.740319],[130.705766,32.740436],[130.70629,32.740661],[130.706915,32.740844],[130.707115,32.740869],[130.707553,32.740719],[130.708028,32.740361],[130.708277,32.740043],[130.70874,32.739528],[130.709165,32.73922],[130.70969,32.739036],[130.710215,32.73877],[130.710453,32.738686],[130.711053,32.738595],[130.711653,32.738445],[130.711728,32.738403],[130.712278,32.738311],[130.712728,32.738428],[130.713128,32.738728],[130.713603,32.739228],[130.71444,32.740403],[130.714815,32.740769],[130.714865,32.741103],[130.714777,32.741869],[130.714927,32.742486],[130.715165,32.742936],[130.715815,32.743528],[130.716265,32.743869],[130.716665,32.744228],[130.71719,32.744553],[130.717964,32.744644],[130.718364,32.744736],[130.719464,32.745336],[130.719939,32.745402],[130.720539,32.745319],[130.721714,32.744944],[130.722352,32.744678],[130.722977,32.744161],[130.723264,32.743686],[130.723364,32.743194],[130.723589,32.742611],[130.723777,32.742453],[130.724202,32.742369],[130.724377,32.742386],[130.724752,32.742619],[130.725589,32.743411],[130.725714,32.743636],[130.725576,32.744586],[130.725651,32.745103],[130.726464,32.746527],[130.726801,32.748652],[130.727001,32.749036],[130.727389,32.749361],[130.728439,32.750061],[130.729264,32.750494],[130.729663,32.750835],[130.730506,32.751082],[130.731088,32.751027],[130.731913,32.750761],[130.732338,32.750744],[130.732863,32.750977],[130.733463,32.751385],[130.734063,32.75161],[130.734963,32.751844],[130.735538,32.751935],[130.736138,32.751969],[130.736713,32.751944],[130.737213,32.752085],[130.738213,32.752585],[130.739238,32.753377],[130.739588,32.753944],[130.739863,32.75426],[130.74005,32.754369],[130.74035,32.754419],[130.740513,32.754327],[130.74085,32.753969],[130.741088,32.753535],[130.741288,32.75331],[130.741575,32.752927],[130.742325,32.752302],[130.743612,32.751811],[130.744137,32.751527],[130.745125,32.750944],[130.74555,32.750769],[130.7463,32.750794],[130.746925,32.751119],[130.747125,32.751361],[130.747225,32.751702],[130.74725,32.751952],[130.746987,32.752719],[130.746612,32.753369],[130.746475,32.75371],[130.746512,32.753869],[130.74675,32.753985],[130.746925,32.754094],[130.747437,32.754319],[130.747737,32.75441],[130.747937,32.754502],[130.748212,32.754727],[130.748374,32.754794],[130.748537,32.754769],[130.74879,32.754723],[130.749062,32.754702],[130.749637,32.754385],[130.749799,32.754385],[130.750212,32.754452],[130.750374,32.754702],[130.750437,32.754927],[130.750262,32.755194],[130.749849,32.755577],[130.749274,32.755919],[130.749224,32.756035],[130.750237,32.757094],[130.751199,32.757993],[130.751749,32.758352],[130.752412,32.758935],[130.752799,32.75916],[130.753011,32.759502],[130.753174,32.759885],[130.753486,32.761168],[130.753699,32.761593],[130.754136,32.762027],[130.754886,32.762518],[130.755649,32.762901],[130.756036,32.762901],[130.756674,32.762585],[130.757299,32.76261],[130.757624,32.762585],[130.758623,32.762402],[130.759173,32.762377],[130.759086,32.762677],[130.758861,32.763076],[130.758561,32.76346],[130.758348,32.763868],[130.761148,32.764426],[130.761773,32.762535],[130.761753,32.762375],[130.761744,32.762148],[130.761723,32.761993],[130.761261,32.761518],[130.760536,32.76096],[130.760598,32.760802],[130.760761,32.760643],[130.762298,32.760618],[130.764686,32.760352],[130.764936,32.760393],[130.766398,32.760885],[130.766748,32.761018],[130.767323,32.761043],[130.767573,32.761093],[130.767873,32.760502],[130.76796,32.760052],[130.767848,32.759869],[130.767873,32.759719],[130.767935,32.759694],[130.769198,32.759919],[130.76936,32.75996],[130.769273,32.760318],[130.769273,32.760393],[130.77046,32.760593],[130.770785,32.76066],[130.770948,32.761652],[130.770685,32.761918],[130.770648,32.762127],[130.770883,32.762638],[130.771198,32.762868],[130.771743,32.762858],[130.77211,32.763043],[130.77326,32.763568],[130.773597,32.763427],[130.773872,32.763227],[130.774197,32.76311],[130.77461,32.763177],[130.774772,32.763252],[130.77516,32.763318],[130.77576,32.763318],[130.776172,32.763402],[130.77711,32.763427],[130.777576,32.763484],[130.778233,32.763561],[130.778835,32.76376],[130.779285,32.763852],[130.779447,32.763852],[130.780272,32.763718],[130.780872,32.763585],[130.781009,32.763602],[130.781009,32.763827],[130.780759,32.764485],[130.780784,32.764801],[130.781034,32.764751],[130.781147,32.764976],[130.781234,32.76541],[130.783209,32.764935],[130.783672,32.76491],[130.783459,32.76646],[130.783721,32.766513],[130.784084,32.766576],[130.786534,32.76696],[130.786809,32.76696],[130.787409,32.767043],[130.787934,32.767093],[130.788334,32.767231],[130.789715,32.767949],[130.790134,32.767609],[130.790246,32.767584],[130.791509,32.767943],[130.791621,32.767768],[130.795059,32.768843],[130.795321,32.768259],[130.796146,32.768643],[130.795815,32.769353],[130.795358,32.770309],[130.795158,32.770892],[130.794396,32.772226],[130.793683,32.773692],[130.792946,32.774909],[130.792721,32.775675],[130.792533,32.776142],[130.792333,32.776484],[130.791983,32.776484],[130.791871,32.776667],[130.791733,32.777092],[130.791371,32.777909],[130.790858,32.777792],[130.789234,32.777317],[130.788659,32.777117],[130.788221,32.776717],[130.787946,32.776309],[130.787721,32.776192],[130.787584,32.776375],[130.787396,32.777025],[130.787584,32.777617],[130.787559,32.778584],[130.787421,32.7789],[130.786896,32.779442],[130.786071,32.780925],[130.786071,32.7812],[130.786184,32.781533],[130.786096,32.781692],[130.785771,32.781967],[130.785684,32.782508],[130.785246,32.782708],[130.785109,32.782892],[130.785084,32.783158],[130.784509,32.78325],[130.784459,32.783458],[130.784509,32.784175],[130.784366,32.784715],[130.781184,32.784925],[130.780884,32.786591],[130.781734,32.786658],[130.782971,32.787875],[130.783134,32.787941],[130.783109,32.78805],[130.782671,32.78875],[130.783134,32.789091],[130.783609,32.789516],[130.783934,32.7897],[130.783959,32.789875],[130.783709,32.790258],[130.783409,32.790916],[130.783221,32.791166],[130.783034,32.791183],[130.782834,32.791299],[130.782809,32.791408],[130.782946,32.792016],[130.782859,32.792291],[130.782696,32.792541],[130.782446,32.793574],[130.782171,32.794024],[130.782309,32.794408],[130.783171,32.795941],[130.783384,32.796524],[130.783284,32.796641],[130.782834,32.796799],[130.782346,32.796907],[130.782146,32.797116],[130.782096,32.797516],[130.781923,32.797932],[130.781709,32.798424],[130.781159,32.799049],[130.780309,32.799865],[130.780121,32.800157],[130.779984,32.800965],[130.779509,32.801874],[130.779071,32.802498],[130.778796,32.803065],[130.778309,32.803857],[130.778034,32.804373],[130.777834,32.80464],[130.778934,32.804848],[130.779434,32.804823],[130.779671,32.804883],[130.779893,32.805004],[130.779984,32.804915],[130.780309,32.804573],[130.782071,32.805606],[130.782459,32.805065],[130.782509,32.805115],[130.782896,32.805248],[130.782984,32.805065],[130.783559,32.804282],[130.784959,32.802723],[130.785284,32.802315],[130.785946,32.801232],[130.785509,32.80094],[130.785671,32.800649],[130.785996,32.800357],[130.786658,32.79999],[130.787133,32.79959],[130.787208,32.79959],[130.788171,32.80004],[130.788946,32.800282],[130.790833,32.800915],[130.792046,32.801232],[130.792351,32.801297],[130.792855,32.801476],[130.793508,32.801724],[130.79592,32.802665],[130.796645,32.80294],[130.797333,32.803273],[130.797795,32.80354],[130.79837,32.803948],[130.798806,32.804014],[130.799195,32.803882],[130.799485,32.803666],[130.799858,32.803632],[130.800295,32.803832],[130.800682,32.803882],[130.800932,32.80399],[130.801095,32.804215],[130.801257,32.804373],[130.802057,32.804623],[130.802795,32.804798],[130.80297,32.80509],[130.803045,32.805165],[130.803482,32.805315],[130.806094,32.805923],[130.806295,32.806047],[130.806513,32.806314],[130.806682,32.806556],[130.806857,32.806647],[130.807038,32.807028],[130.807094,32.807973],[130.807144,32.808398],[130.807857,32.809281],[130.807919,32.809306],[130.808107,32.809598],[130.808194,32.809998],[130.808219,32.810523],[130.808194,32.810764],[130.808382,32.811356],[130.808607,32.811647],[130.808767,32.812193],[130.809069,32.812681],[130.809844,32.813197],[130.810556,32.813539],[130.810994,32.813672],[130.811244,32.813897],[130.811444,32.814164],[130.811744,32.814414],[130.813169,32.814955],[130.813918,32.815114],[130.814381,32.815247],[130.815093,32.81538],[130.815806,32.815447],[130.816531,32.815355],[130.818618,32.814922],[130.820068,32.814564],[130.820568,32.814514],[130.821968,32.814647],[130.822843,32.814647],[130.823705,32.814581],[130.824305,32.814697],[130.825268,32.815006],[130.825318,32.815072],[130.82538,32.815322],[130.825455,32.815414],[130.82598,32.815456],[130.826337,32.815433],[130.826728,32.815425],[130.827055,32.815439],[130.827517,32.815322],[130.82793,32.815139],[130.828285,32.81503],[130.828616,32.815113],[130.828892,32.815414],[130.828867,32.817255],[130.828817,32.817622],[130.82863,32.818205],[130.828542,32.818614],[130.828567,32.819738],[130.828517,32.820255],[130.828467,32.820372],[130.828405,32.821063],[130.828405,32.821697],[130.828267,32.822463],[130.82808,32.823413],[130.82783,32.824246],[130.827691,32.825185],[130.827642,32.825596]]],"type":"Polygon"}}]}