{"type":"FeatureCollection","features":[{"type":"Feature","properties":{"yomi":"きたなか","name":"北那珂","pref":"宮崎県","kuni_id":"K69","id_url":"G69010.html","kuni_url":"/kg/resource/K69.html","kuni":"日向","id":"G69010"},"geometry":{"type":"Polygon","coordinates":[[[131.452031,31.830768],[131.452291,31.830516],[131.452479,31.830307],[131.452716,31.829899],[131.453103,31.828649],[131.453428,31.826941],[131.453766,31.825383],[131.453853,31.82445],[131.454066,31.82295],[131.454441,31.820375],[131.454691,31.819809],[131.454716,31.81925],[131.454503,31.818434],[131.455199,31.817155],[131.456416,31.814918],[131.457378,31.813201],[131.457865,31.812435],[131.458065,31.812235],[131.458515,31.811577],[131.45924,31.81031],[131.460628,31.808727],[131.461665,31.807685],[131.462327,31.807094],[131.46279,31.806752],[131.463365,31.806219],[131.463752,31.805802],[131.464565,31.805053],[131.465265,31.804719],[131.467589,31.803878],[131.468377,31.803653],[131.469089,31.803519],[131.469852,31.803444],[131.470439,31.803436],[131.471189,31.80337],[131.471876,31.803253],[131.472089,31.803103],[131.471826,31.802995],[131.471514,31.802711],[131.471189,31.802245],[131.470414,31.800803],[131.470089,31.80007],[131.470014,31.799578],[131.469939,31.797829],[131.470207,31.797205],[131.470385,31.796857],[131.470527,31.796679],[131.471464,31.79672],[131.471476,31.796637],[131.471252,31.795321],[131.472539,31.794446],[131.472726,31.794287],[131.473526,31.794254],[131.474351,31.794137],[131.474714,31.794062],[131.475232,31.794127],[131.475714,31.794029],[131.476189,31.793921],[131.476876,31.793646],[131.477351,31.793271],[131.477538,31.792929],[131.477688,31.792531],[131.477826,31.791913],[131.478251,31.790879],[131.478638,31.790546],[131.478888,31.790155],[131.479176,31.789813],[131.479488,31.789638],[131.479838,31.788705],[131.480176,31.788005],[131.480476,31.787647],[131.481413,31.786913],[131.481426,31.786798],[131.481401,31.786588],[131.481026,31.78663],[131.480913,31.78653],[131.481134,31.78645],[131.481526,31.786297],[131.481951,31.786263],[131.482513,31.785938],[131.48315,31.78573],[131.483663,31.785638],[131.483925,31.785705],[131.484175,31.78573],[131.484625,31.785588],[131.485313,31.785489],[131.485825,31.785455],[131.4864,31.785605],[131.486962,31.786122],[131.487212,31.786488],[131.487425,31.786563],[131.487912,31.786264],[131.488225,31.785814],[131.488387,31.785314],[131.488437,31.78488],[131.48835,31.78413],[131.488088,31.783239],[131.487675,31.782372],[131.487125,31.781956],[131.4864,31.781181],[131.48625,31.781081],[131.485763,31.780881],[131.485638,31.780764],[131.485338,31.780247],[131.484663,31.778748],[131.484026,31.777864],[131.483664,31.776648],[131.483051,31.775181],[131.483089,31.774906],[131.483076,31.774398],[131.482826,31.773898],[131.482476,31.773548],[131.482326,31.773473],[131.481827,31.772998],[131.481402,31.772457],[131.481164,31.771865],[131.480852,31.770232],[131.480689,31.769674],[131.480415,31.76929],[131.479115,31.768307],[131.47864,31.767815],[131.47849,31.767607],[131.47819,31.767049],[131.478115,31.766332],[131.477853,31.765566],[131.477103,31.763932],[131.47674,31.763274],[131.476303,31.762316],[131.476253,31.761966],[131.476328,31.761149],[131.476503,31.760391],[131.476528,31.759933],[131.476078,31.759283],[131.477166,31.758225],[131.476378,31.757625],[131.475041,31.758608],[131.474779,31.758475],[131.473504,31.7593],[131.472354,31.758691],[131.472866,31.757975],[131.472841,31.7579],[131.472766,31.757883],[131.471341,31.758433],[131.470742,31.758075],[131.470835,31.75785],[131.470971,31.757613],[131.471067,31.757491],[131.471454,31.757],[131.471529,31.756908],[131.47168,31.756778],[131.471829,31.75665],[131.471904,31.756542],[131.472179,31.756317],[131.472567,31.7559],[131.472438,31.755577],[131.471717,31.755625],[131.470667,31.755833],[131.470292,31.755792],[131.470004,31.755583],[131.469529,31.754875],[131.469292,31.75465],[131.469067,31.754333],[131.468805,31.753575],[131.468417,31.752858],[131.468242,31.752117],[131.468092,31.750284],[131.467968,31.749992],[131.467918,31.74995],[131.467893,31.749475],[131.46798,31.749042],[131.468305,31.748392],[131.46938,31.746668],[131.470343,31.744801],[131.470743,31.744301],[131.47118,31.743876],[131.47143,31.74341],[131.471468,31.742685],[131.471593,31.742193],[131.470943,31.741643],[131.470555,31.741418],[131.47003,31.740893],[131.469381,31.74001],[131.468818,31.738993],[131.468468,31.738518],[131.468293,31.738043],[131.468156,31.737902],[131.468056,31.737902],[131.467418,31.737852],[131.466968,31.737693],[131.466356,31.737285],[131.465831,31.737168],[131.465356,31.73716],[131.465106,31.737068],[131.465019,31.735652],[131.464994,31.735494],[131.464794,31.735152],[131.464394,31.734852],[131.463819,31.734602],[131.463394,31.734285],[131.463294,31.734152],[131.463181,31.733535],[131.463306,31.733177],[131.463556,31.733094],[131.463931,31.732894],[131.463969,31.732194],[131.464006,31.731044],[131.464081,31.730911],[131.464456,31.730702],[131.465819,31.730286],[131.466594,31.729753],[131.466969,31.729419],[131.467631,31.728336],[131.467769,31.727953],[131.467794,31.727528],[131.467706,31.726328],[131.467606,31.726236],[131.467031,31.72592],[131.466381,31.72562],[131.466794,31.724637],[131.468118,31.72162],[131.468256,31.721129],[131.467718,31.721187],[131.467294,31.721279],[131.466169,31.721245],[131.464394,31.721345],[131.463706,31.721479],[131.463606,31.721862],[131.463531,31.722403],[131.463344,31.72287],[131.462944,31.723437],[131.462944,31.72352],[131.463306,31.72427],[131.463356,31.72452],[131.463094,31.725536],[131.463069,31.72587],[131.463219,31.726053],[131.463569,31.726345],[131.463519,31.726686],[131.463057,31.727019],[131.462482,31.727286],[131.461782,31.727578],[131.460219,31.728536],[131.459765,31.728625],[131.459307,31.728619],[131.458557,31.728544],[131.458132,31.728411],[131.457982,31.728294],[131.457607,31.728111],[131.457045,31.727902],[131.456082,31.727877],[131.455657,31.72796],[131.455057,31.728044],[131.454383,31.728152],[131.453408,31.728169],[131.452683,31.728052],[131.452133,31.727869],[131.451495,31.72786],[131.45107,31.728043],[131.450595,31.72826],[131.449396,31.728368],[131.448471,31.728293],[131.447883,31.728335],[131.447283,31.728535],[131.446533,31.728843],[131.445996,31.729176],[131.445521,31.72936],[131.444621,31.729551],[131.443546,31.729609],[131.439859,31.729651],[131.439284,31.729717],[131.438646,31.729818],[131.437922,31.730042],[131.437472,31.7302],[131.437089,31.730328],[131.436522,31.730467],[131.435435,31.730725],[131.435035,31.730767],[131.434335,31.730559],[131.433585,31.730584],[131.432735,31.730442],[131.432185,31.730234],[131.432035,31.730167],[131.43131,31.730117],[131.43081,31.73045],[131.430298,31.730825],[131.430123,31.731075],[131.429573,31.731158],[131.428485,31.731467],[131.42756,31.731692],[131.427485,31.731692],[131.426673,31.732225],[131.426248,31.732625],[131.426073,31.73285],[131.425485,31.733367],[131.42476,31.733808],[131.424123,31.73455],[131.423448,31.73495],[131.422461,31.735258],[131.420861,31.735991],[131.419915,31.736275],[131.419423,31.736574],[131.419023,31.736883],[131.418311,31.737358],[131.417673,31.737891],[131.417023,31.738183],[131.415973,31.738441],[131.415923,31.738574],[131.415986,31.739299],[131.415936,31.739999],[131.415573,31.740649],[131.415136,31.741282],[131.415111,31.742274],[131.414998,31.743057],[131.414973,31.743624],[131.415036,31.744215],[131.414711,31.744882],[131.414098,31.745448],[131.413698,31.745807],[131.413623,31.745965],[131.413189,31.746213],[131.412589,31.746423],[131.411836,31.74669],[131.411123,31.74779],[131.410661,31.748331],[131.410436,31.74874],[131.410198,31.74939],[131.409798,31.749565],[131.409098,31.749631],[131.408223,31.749465],[131.407448,31.749414],[131.406998,31.749431],[131.406061,31.750039],[131.405786,31.750173],[131.404986,31.750439],[131.404374,31.750498],[131.403874,31.750698],[131.402324,31.750556],[131.401349,31.750639],[131.400749,31.750522],[131.400224,31.750539],[131.399686,31.750622],[131.399036,31.750714],[131.398386,31.750731],[131.397762,31.750789],[131.397587,31.750881],[131.397063,31.75103],[131.396899,31.751056],[131.396749,31.751464],[131.396374,31.751981],[131.395962,31.752272],[131.395818,31.75244],[131.395787,31.75263],[131.396287,31.753222],[131.396361,31.753489],[131.396399,31.753722],[131.396324,31.754072],[131.396436,31.754497],[131.396541,31.754754],[131.396624,31.75493],[131.396761,31.75523],[131.397099,31.755605],[131.397324,31.75603],[131.397924,31.757013],[131.398061,31.757455],[131.398024,31.757997],[131.397774,31.75863],[131.397094,31.759432],[131.397048,31.759847],[131.397211,31.760096],[131.397624,31.760388],[131.397778,31.760568],[131.397861,31.760738],[131.398474,31.762138],[131.398374,31.762505],[131.398149,31.762963],[131.398086,31.763346],[131.397799,31.764088],[131.397649,31.765004],[131.397049,31.765788],[131.396699,31.766504],[131.396324,31.767529],[131.395999,31.767921],[131.394724,31.768171],[131.393986,31.768404],[131.392974,31.76837],[131.392349,31.768229],[131.391824,31.768212],[131.391099,31.768329],[131.390024,31.768295],[131.389781,31.768398],[131.389699,31.768512],[131.389199,31.769029],[131.388859,31.769187],[131.388112,31.76952],[131.386399,31.770029],[131.385812,31.770145],[131.385149,31.770495],[131.384937,31.770912],[131.384649,31.771145],[131.384549,31.771153],[131.384037,31.771445],[131.383512,31.771845],[131.383074,31.772453],[131.382887,31.773378],[131.382587,31.774186],[131.382349,31.774686],[131.382462,31.775136],[131.382499,31.775545],[131.382224,31.775711],[131.381799,31.775878],[131.381537,31.776453],[131.381399,31.776611],[131.381337,31.777061],[131.381399,31.777636],[131.381049,31.778153],[131.380024,31.778853],[131.379849,31.779211],[131.379599,31.779169],[131.378837,31.778928],[131.377987,31.778744],[131.377262,31.778519],[131.376675,31.778403],[131.374662,31.777661],[131.37455,31.777511],[131.374612,31.777178],[131.374912,31.776236],[131.375025,31.775636],[131.37495,31.775153],[131.3746,31.77452],[131.37415,31.774095],[131.373888,31.773678],[131.373238,31.772345],[131.373075,31.771911],[131.3729,31.771228],[131.372801,31.771119],[131.372713,31.771061],[131.372659,31.771008],[131.372613,31.770945],[131.37245,31.770945],[131.372263,31.771036],[131.372288,31.771778],[131.372175,31.772028],[131.371763,31.772161],[131.371138,31.77232],[131.370888,31.772411],[131.370563,31.772361],[131.37045,31.772295],[131.370263,31.772095],[131.370125,31.77187],[131.370363,31.771511],[131.370388,31.771395],[131.370288,31.771328],[131.369788,31.771353],[131.368751,31.771286],[131.368388,31.771286],[131.368063,31.771461],[131.367588,31.77187],[131.367401,31.772186],[131.367288,31.772519],[131.367151,31.772594],[131.366901,31.772436],[131.366601,31.772369],[131.366113,31.772369],[131.365726,31.772228],[131.364951,31.771894],[131.364463,31.771536],[131.364288,31.771536],[131.364263,31.771578],[131.364538,31.772344],[131.364463,31.772411],[131.364101,31.772344],[131.363163,31.771944],[131.363001,31.771986],[131.362476,31.772411],[131.362726,31.772844],[131.362726,31.773003],[131.362313,31.773203],[131.361876,31.773519],[131.361576,31.773494],[131.361551,31.772953],[131.361488,31.772869],[131.360589,31.772886],[131.360426,31.772844],[131.359626,31.772753],[131.358776,31.772819],[131.358576,31.772553],[131.358939,31.772036],[131.359014,31.771878],[131.359014,31.771494],[131.358876,31.771219],[131.358601,31.771136],[131.357889,31.771203],[131.356551,31.771719],[131.355451,31.771678],[131.354764,31.771811],[131.353914,31.772036],[131.353664,31.772061],[131.352914,31.772577],[131.352558,31.772767],[131.352102,31.772852],[131.351812,31.772953],[131.351302,31.773169],[131.350784,31.773349],[131.350382,31.773376],[131.349952,31.773419],[131.349474,31.773457],[131.349052,31.773502],[131.348502,31.773577],[131.347889,31.773844],[131.347514,31.774344],[131.347102,31.774585],[131.346389,31.775269],[131.345839,31.775669],[131.345427,31.776277],[131.345202,31.77691],[131.344902,31.777427],[131.344439,31.777568],[131.344264,31.777543],[131.343502,31.777585],[131.343227,31.777677],[131.342589,31.778018],[131.34204,31.778218],[131.340452,31.778668],[131.339652,31.77876],[131.339402,31.778743],[131.33864,31.77856],[131.337565,31.778085],[131.337127,31.77786],[131.33694,31.778093],[131.33699,31.778477],[131.337265,31.778943],[131.33754,31.779668],[131.337627,31.780318],[131.337447,31.780864],[131.337102,31.781376],[131.336932,31.781725],[131.336852,31.781968],[131.336915,31.782751],[131.33689,31.782934],[131.33664,31.783568],[131.33664,31.783968],[131.33639,31.784284],[131.336277,31.784693],[131.336365,31.785184],[131.336802,31.786267],[131.33694,31.786809],[131.33719,31.787217],[131.338452,31.788834],[131.338727,31.788992],[131.339802,31.788742],[131.340239,31.788901],[131.340489,31.789259],[131.340514,31.789351],[131.340489,31.789934],[131.340689,31.790751],[131.340964,31.792259],[131.341101,31.794242],[131.341239,31.794958],[131.341514,31.795592],[131.342151,31.796583],[131.342426,31.797442],[131.343364,31.798608],[131.343576,31.79865],[131.344238,31.79865],[131.345013,31.798767],[131.345751,31.79915],[131.347051,31.800341],[131.348176,31.801216],[131.348563,31.801758],[131.349163,31.80225],[131.351175,31.803425],[131.352638,31.804591],[131.352713,31.804724],[131.352875,31.805358],[131.353238,31.806083],[131.354037,31.806599],[131.354862,31.807024],[131.355437,31.807474],[131.355962,31.808174],[131.35635,31.808466],[131.357012,31.808782],[131.357225,31.809182],[131.357547,31.809308],[131.358275,31.809457],[131.35855,31.809682],[131.358662,31.809974],[131.358799,31.810757],[131.359074,31.811366],[131.359162,31.811657],[131.358962,31.811999],[131.358912,31.812424],[131.358937,31.812965],[131.358862,31.813149],[131.358774,31.813599],[131.358974,31.814407],[131.359387,31.81499],[131.360049,31.81549],[131.360462,31.815965],[131.360487,31.816482],[131.360099,31.817498],[131.360236,31.818531],[131.360374,31.819165],[131.360649,31.819498],[131.361124,31.819815],[131.361611,31.820065],[131.362024,31.82049],[131.362449,31.821073],[131.362661,31.821573],[131.362749,31.822448],[131.362973,31.822989],[131.363348,31.823464],[131.363636,31.823981],[131.363986,31.824448],[131.364598,31.825506],[131.365586,31.826656],[131.365773,31.826814],[131.366298,31.827081],[131.36751,31.827239],[131.36776,31.827306],[131.368423,31.827756],[131.368723,31.828097],[131.368885,31.828522],[131.368923,31.829022],[131.36906,31.82958],[131.36941,31.830122],[131.370023,31.830639],[131.370785,31.831022],[131.371335,31.83118],[131.371785,31.831222],[131.372547,31.831197],[131.373135,31.831322],[131.373385,31.83148],[131.373847,31.831647],[131.374385,31.832072],[131.374597,31.832539],[131.374847,31.832905],[131.375174,31.833208],[131.37546,31.833472],[131.375735,31.833513],[131.376259,31.833405],[131.376709,31.83343],[131.377247,31.833655],[131.377334,31.833622],[131.377647,31.833347],[131.378072,31.833064],[131.378159,31.832964],[131.378409,31.832264],[131.378772,31.832147],[131.379422,31.832214],[131.380159,31.832364],[131.380772,31.832572],[131.381104,31.832653],[131.381309,31.832705],[131.381547,31.83283],[131.382247,31.832789],[131.382522,31.832589],[131.382672,31.83223],[131.382509,31.831039],[131.382697,31.830947],[131.383172,31.830956],[131.383297,31.830856],[131.383684,31.830839],[131.384222,31.831131],[131.384472,31.831406],[131.385084,31.831522],[131.386209,31.831881],[131.386796,31.831964],[131.387309,31.831864],[131.387834,31.831331],[131.388221,31.831331],[131.388796,31.831264],[131.389371,31.831072],[131.389809,31.829547],[131.390159,31.829223],[131.390734,31.828981],[131.390884,31.828998],[131.391271,31.829181],[131.391621,31.829914],[131.391946,31.830039],[131.393646,31.830314],[131.393946,31.830481],[131.395133,31.831322],[131.395358,31.831397],[131.395846,31.831406],[131.397146,31.831639],[131.397746,31.831881],[131.398321,31.832073],[131.398683,31.831998],[131.398846,31.832106],[131.399121,31.832523],[131.399583,31.832581],[131.399921,31.832406],[131.400271,31.832414],[131.400346,31.832464],[131.400358,31.832531],[131.400708,31.832848],[131.401246,31.833073],[131.402208,31.832956],[131.402696,31.832831],[131.403208,31.832873],[131.403658,31.832823],[131.403821,31.83274],[131.404521,31.832548],[131.405083,31.832631],[131.40567,31.832631],[131.406283,31.832306],[131.406595,31.832048],[131.406833,31.832157],[131.407683,31.832923],[131.407833,31.833082],[131.408445,31.83344],[131.409195,31.833957],[131.409633,31.834148],[131.410233,31.834523],[131.410595,31.834657],[131.410783,31.834665],[131.41082,31.834615],[131.41062,31.834148],[131.410695,31.834173],[131.41087,31.834357],[131.411033,31.834448],[131.41112,31.834423],[131.411433,31.834198],[131.411633,31.833765],[131.411908,31.83329],[131.412408,31.833373],[131.412945,31.833382],[131.413095,31.833415],[131.413508,31.833598],[131.41357,31.83379],[131.413769,31.834028],[131.414095,31.834223],[131.414732,31.834532],[131.414657,31.835173],[131.414695,31.83544],[131.414757,31.835515],[131.41507,31.835657],[131.415195,31.835757],[131.415482,31.836257],[131.41567,31.836782],[131.415845,31.837165],[131.416182,31.837615],[131.416732,31.837932],[131.416757,31.837932],[131.416807,31.838157],[131.416457,31.838765],[131.416245,31.83899],[131.415932,31.839073],[131.415795,31.839257],[131.416107,31.839757],[131.416013,31.839887],[131.415757,31.839932],[131.415357,31.839998],[131.414532,31.840215],[131.41437,31.840998],[131.41437,31.84289],[131.414395,31.84354],[131.414307,31.844131],[131.414007,31.844714],[131.413607,31.845156],[131.413495,31.845223],[131.413445,31.845564],[131.413432,31.846398],[131.413382,31.846531],[131.412882,31.846364],[131.412682,31.846906],[131.412782,31.847423],[131.412944,31.847947],[131.413457,31.849206],[131.413207,31.849389],[131.412569,31.850031],[131.411557,31.850972],[131.411044,31.851555],[131.410619,31.851905],[131.409657,31.852914],[131.409307,31.853297],[131.408957,31.853605],[131.408882,31.853722],[131.409082,31.853988],[131.408932,31.854122],[131.408607,31.854305],[131.408257,31.854588],[131.408094,31.854772],[131.408077,31.854824],[131.408119,31.854947],[131.408257,31.855057],[131.408519,31.855272],[131.408732,31.855272],[131.409207,31.855138],[131.409469,31.855297],[131.409544,31.855547],[131.409525,31.855731],[131.409482,31.856038],[131.409557,31.856605],[131.409744,31.856947],[131.410119,31.857872],[131.410581,31.858888],[131.410763,31.85954],[131.410894,31.859838],[131.410994,31.860238],[131.411231,31.860538],[131.412119,31.861446],[131.412531,31.862105],[131.412681,31.86253],[131.412756,31.86298],[131.412781,31.86343],[131.412219,31.863813],[131.412119,31.863854],[131.411669,31.863896],[131.411369,31.863979],[131.411044,31.864613],[131.410906,31.864971],[131.411031,31.865621],[131.410894,31.866388],[131.411081,31.866663],[131.411175,31.866956],[131.411119,31.867379],[131.410881,31.867871],[131.410768,31.868412],[131.410518,31.868796],[131.409931,31.869237],[131.409506,31.869504],[131.409156,31.869771],[131.408819,31.869771],[131.408494,31.869812],[131.408419,31.870395],[131.408004,31.871116],[131.407769,31.871295],[131.407577,31.87148],[131.407531,31.871737],[131.407519,31.872304],[131.407356,31.872729],[131.407431,31.873153],[131.407481,31.87327],[131.407631,31.873387],[131.407743,31.873403],[131.408006,31.87357],[131.408181,31.87397],[131.408606,31.874495],[131.409206,31.875153],[131.409493,31.875495],[131.409668,31.875903],[131.409875,31.876246],[131.410081,31.876514],[131.410584,31.876907],[131.411556,31.877403],[131.411581,31.877562],[131.411493,31.87787],[131.411493,31.878253],[131.41143,31.878545],[131.411243,31.878887],[131.411168,31.879245],[131.411393,31.879603],[131.411343,31.87997],[131.41083,31.880861],[131.41058,31.881178],[131.410268,31.88142],[131.409868,31.881486],[131.409681,31.88162],[131.409431,31.882453],[131.409218,31.882811],[131.409106,31.882853],[131.408268,31.882753],[131.408218,31.882578],[131.407893,31.882619],[131.407518,31.882903],[131.407156,31.883011],[131.406831,31.882853],[131.406381,31.882803],[131.406018,31.882869],[131.405943,31.882828],[131.405943,31.882536],[131.405781,31.882328],[131.405493,31.882211],[131.405106,31.882119],[131.404656,31.881753],[131.404418,31.881619],[131.404338,31.884417],[131.405144,31.888279],[131.406915,31.888922],[131.409974,31.889083],[131.412711,31.889727],[131.415127,31.890531],[131.418025,31.892301],[131.421567,31.894714],[131.424466,31.89938],[131.426076,31.906459],[131.431068,31.909034],[131.435254,31.916595],[131.434143,31.918497],[131.434143,31.922827],[131.441654,31.931775],[131.443965,31.939857],[131.450803,31.960262],[131.451411,31.96593],[131.448372,31.96917],[131.444117,31.969372],[131.438444,31.96836],[131.434189,31.965728],[131.428313,31.964716],[131.423451,31.966133],[131.416967,31.969979],[131.408052,31.980507],[131.389412,32.000549],[131.386445,32.004734],[131.386016,32.006526],[131.385939,32.008265],[131.386089,32.009173],[131.386251,32.009573],[131.386489,32.00994],[131.386564,32.01034],[131.386589,32.01109],[131.386664,32.011357],[131.386801,32.011423],[131.387064,32.011657],[131.387064,32.011923],[131.387189,32.012423],[131.387526,32.012715],[131.387851,32.012898],[131.388326,32.013098],[131.388426,32.013306],[131.388613,32.014145],[131.388639,32.014406],[131.388689,32.014656],[131.388901,32.015173],[131.388876,32.015398],[131.388738,32.015698],[131.388738,32.015873],[131.388221,32.016245],[131.387626,32.016256],[131.387226,32.016273],[131.386851,32.016389],[131.386614,32.016631],[131.386639,32.017198],[131.386576,32.017939],[131.386688,32.018073],[131.386926,32.018189],[131.386926,32.018348],[131.386763,32.018481],[131.386813,32.018531],[131.386838,32.018731],[131.386596,32.019446],[131.386676,32.019672],[131.386726,32.020014],[131.386726,32.020356],[131.386826,32.020664],[131.387201,32.021214],[131.387888,32.021864],[131.388201,32.021981],[131.388651,32.021939],[131.388913,32.022006],[131.389026,32.022189],[131.388938,32.022814],[131.388963,32.023289],[131.388938,32.023381],[131.388776,32.023497],[131.388588,32.023331],[131.388351,32.023289],[131.388251,32.023314],[131.387988,32.023647],[131.387113,32.023689],[131.387113,32.023872],[131.387338,32.025355],[131.387338,32.025739],[131.387838,32.026464],[131.387675,32.026489],[131.387175,32.026305],[131.387038,32.026214],[131.386776,32.026097],[131.386538,32.026055],[131.386513,32.02628],[131.386875,32.026863],[131.386963,32.027072],[131.386825,32.027163],[131.3864,32.027313],[131.3864,32.027522],[131.386613,32.027763],[131.386713,32.027947],[131.386613,32.02808],[131.386375,32.028263],[131.386075,32.028422],[131.38595,32.028438],[131.385338,32.028255],[131.385126,32.02828],[131.385051,32.028438],[131.385126,32.028663],[131.385388,32.028797],[131.385763,32.028872],[131.385938,32.029205],[131.385625,32.029297],[131.38565,32.029497],[131.385938,32.02948],[131.386025,32.02943],[131.385988,32.029863],[131.3862,32.030496],[131.38615,32.031463],[131.3862,32.031796],[131.386275,32.031938],[131.385975,32.032813],[131.385975,32.033063],[131.3864,32.034121],[131.38645,32.034396],[131.386738,32.035029],[131.38695,32.035204],[131.387213,32.035346],[131.38755,32.035929],[131.387712,32.036063],[131.388212,32.036113],[131.388512,32.036071],[131.388612,32.035846],[131.388612,32.035638],[131.38875,32.035529],[131.388962,32.035421],[131.389062,32.035213],[131.389175,32.035146],[131.389225,32.035171],[131.389537,32.035554],[131.389675,32.035604],[131.390575,32.035329],[131.3915,32.036513],[131.391575,32.036671],[131.39155,32.036938],[131.391575,32.037204],[131.391837,32.037746],[131.391975,32.037929],[131.391962,32.038046],[131.391812,32.038088],[131.391675,32.038154],[131.391812,32.038696],[131.391987,32.039054],[131.3922,32.039621],[131.391912,32.039871],[131.3918,32.039912],[131.391725,32.040112],[131.39185,32.040612],[131.391737,32.040837],[131.391212,32.041196],[131.391,32.041445],[131.390925,32.041487],[131.390837,32.041712],[131.390862,32.042187],[131.390962,32.042504],[131.391174,32.04282],[131.391674,32.043337],[131.392149,32.043954],[131.392499,32.044512],[131.392737,32.044787],[131.393149,32.045129],[131.394024,32.045737],[131.394712,32.046345],[131.395524,32.046962],[131.395999,32.047253],[131.396936,32.047487],[131.397349,32.047645],[131.397724,32.047828],[131.397936,32.047845],[131.398499,32.047737],[131.398624,32.048012],[131.399149,32.049587],[131.398911,32.049612],[131.398824,32.049587],[131.398649,32.049428],[131.398511,32.049228],[131.398324,32.04862],[131.398149,32.048345],[131.397724,32.048003],[131.397374,32.048003],[131.397199,32.048045],[131.396799,32.04807],[131.395736,32.048245],[131.395449,32.048362],[131.395286,32.048578],[131.395249,32.048895],[131.395149,32.049278],[131.394636,32.050245],[131.394661,32.050453],[131.394799,32.050653],[131.395274,32.050928],[131.395136,32.051261],[131.394899,32.051445],[131.394399,32.051378],[131.394049,32.051236],[131.393836,32.051436],[131.393836,32.051528],[131.393974,32.051661],[131.394361,32.052295],[131.394449,32.05237],[131.394686,32.052728],[131.394924,32.052911],[131.395786,32.053094],[131.396161,32.053119],[131.396589,32.053245],[131.396961,32.053528],[131.397161,32.053753],[131.397511,32.053978],[131.397936,32.054428],[131.398111,32.054769],[131.398536,32.055244],[131.399198,32.055536],[131.399436,32.055944],[131.399536,32.056286],[131.399673,32.056553],[131.399561,32.056961],[131.399723,32.057236],[131.400223,32.057661],[131.400586,32.057778],[131.400798,32.058094],[131.400911,32.058452],[131.401086,32.058861],[131.400986,32.059152],[131.401185,32.060211],[131.401273,32.060286],[131.40161,32.060369],[131.402035,32.060777],[131.402273,32.061119],[131.402485,32.061527],[131.402423,32.062244],[131.40221,32.062944],[131.402285,32.063169],[131.402498,32.063485],[131.402973,32.064027],[131.403023,32.064185],[131.403048,32.064619],[131.402973,32.064935],[131.402835,32.065177],[131.402623,32.06536],[131.402544,32.065508],[131.402596,32.065658],[131.402748,32.065694],[131.40386,32.065794],[131.404685,32.065819],[131.405935,32.065935],[131.406597,32.065919],[131.407097,32.065852],[131.40766,32.065694],[131.408447,32.065335],[131.409247,32.064844],[131.409997,32.064127],[131.410522,32.063269],[131.41151,32.062777],[131.411985,32.062602],[131.41316,32.062269],[131.41451,32.061977],[131.416122,32.061669],[131.416684,32.061511],[131.417272,32.061294],[131.418247,32.060886],[131.418909,32.060511],[131.419372,32.060153],[131.419822,32.059861],[131.420672,32.059095],[131.421197,32.058511],[131.421072,32.058011],[131.420997,32.057903],[131.420859,32.05747],[131.42081,32.057045],[131.420897,32.056795],[131.421372,32.055803],[131.421585,32.055603],[131.421697,32.055603],[131.421772,32.05552],[131.42191,32.054995],[131.422097,32.054912],[131.422572,32.054778],[131.422885,32.054553],[131.422997,32.054437],[131.423372,32.05372],[131.423722,32.053428],[131.42405,32.053174],[131.424397,32.052964],[131.424724,32.052798],[131.425022,32.052632],[131.42526,32.052487],[131.425759,32.052312],[131.426059,32.052287],[131.427322,32.05252],[131.427647,32.052745],[131.427984,32.052879],[131.428647,32.05302],[131.430534,32.052962],[131.431109,32.053004],[131.431722,32.05312],[131.432172,32.053212],[131.432489,32.053303],[131.432809,32.053462],[131.432909,32.053529],[131.433071,32.053895],[131.433096,32.054187],[131.432821,32.05477],[131.432721,32.055128],[131.432721,32.055403],[131.432796,32.055578],[131.433346,32.055903],[131.433584,32.056262],[131.433684,32.056778],[131.434534,32.057078],[131.435009,32.057278],[131.435546,32.057437],[131.437108,32.057962],[131.437583,32.05817],[131.438108,32.058353],[131.438633,32.058628],[131.438896,32.05887],[131.439558,32.059662],[131.440321,32.060411],[131.440745,32.060728],[131.44217,32.061478],[131.44257,32.061795],[131.442945,32.061911],[131.443445,32.061886],[131.443608,32.061753],[131.443895,32.060945],[131.444108,32.060628],[131.44426,32.06013],[131.444195,32.059545],[131.44357,32.058645],[131.44307,32.057812],[131.443095,32.057762],[131.443246,32.057673],[131.443495,32.057603],[131.444095,32.057403],[131.444633,32.057162],[131.445933,32.056604],[131.447795,32.055779],[131.44952,32.055104],[131.450182,32.054796],[131.45092,32.054529],[131.451482,32.054254],[131.453607,32.053521],[131.455856,32.052879],[131.456094,32.052829],[131.456706,32.052654],[131.456806,32.052654],[131.457394,32.052429],[131.458219,32.052188],[131.458994,32.052054],[131.459969,32.051813],[131.461081,32.051588],[131.463306,32.05108],[131.465481,32.05068],[131.467368,32.050213],[131.468455,32.050038],[131.47063,32.049597],[131.47158,32.049447],[131.47233,32.049289],[131.474242,32.048781],[131.476655,32.047864],[131.477317,32.047664],[131.478192,32.047348],[131.478992,32.047173],[131.479892,32.046931],[131.480842,32.046731],[131.483204,32.046173],[131.484104,32.045998],[131.486169,32.045508],[131.487817,32.044965],[131.489366,32.044107],[131.489966,32.043724],[131.490616,32.04314],[131.491616,32.041974],[131.491729,32.041791],[131.491566,32.041382],[131.491541,32.041157],[131.491679,32.040982],[131.491754,32.040932],[131.492054,32.040866],[131.492604,32.040824],[131.492791,32.040691],[131.492791,32.040266],[131.492716,32.039699],[131.492954,32.039408],[131.493304,32.039249],[131.493516,32.039024],[131.493891,32.038983],[131.494079,32.038891],[131.494179,32.038625],[131.494316,32.0386],[131.494866,32.038283],[131.495091,32.037908],[131.494954,32.037383],[131.495329,32.0373],[131.495454,32.037725],[131.495754,32.03775],[131.496866,32.037958],[131.497204,32.037983],[131.497791,32.037991],[131.498029,32.037966],[131.498454,32.037991],[131.498579,32.0379],[131.498666,32.037741],[131.498529,32.037333],[131.498104,32.0365],[131.497979,32.036142],[131.497791,32.035808],[131.497704,32.035558],[131.497766,32.035492],[131.498666,32.03515],[131.499116,32.035042],[131.501491,32.034209],[131.501366,32.033984],[131.501254,32.033442],[131.501229,32.033059],[131.501104,32.032767],[131.500941,32.032584],[131.500841,32.032334],[131.500704,32.031734],[131.500279,32.030534],[131.500091,32.029951],[131.499917,32.029634],[131.499617,32.028626],[131.499429,32.028243],[131.499379,32.027968],[131.499017,32.026801],[131.498879,32.026526],[131.498754,32.025943],[131.498354,32.024951],[131.498242,32.024435],[131.49798,32.023826],[131.497905,32.023485],[131.497567,32.022718],[131.497405,32.022401],[131.497355,32.02191],[131.49733,32.02141],[131.497255,32.021093],[131.497017,32.020485],[131.49668,32.019177],[131.496418,32.018585],[131.496105,32.017735],[131.495818,32.01696],[131.49558,32.01606],[131.495168,32.014794],[131.494843,32.01396],[131.494556,32.013619],[131.494481,32.013102],[131.494193,32.012336],[131.493881,32.011594],[131.493643,32.010819],[131.493456,32.010394],[131.493144,32.009469],[131.492781,32.008544],[131.492569,32.007936],[131.492356,32.007503],[131.492231,32.007344],[131.491469,32.006986],[131.491232,32.006778],[131.491094,32.006461],[131.491094,32.005919],[131.491369,32.004953],[131.491444,32.004611],[131.491444,32.004453],[131.491032,32.003086],[131.490769,32.001961],[131.490395,32.000587],[131.490007,31.999253],[131.489607,31.998328],[131.488533,31.995304],[131.488395,31.994787],[131.488133,31.994129],[131.488008,31.993562],[131.48782,31.993045],[131.48747,31.991937],[131.48742,31.991462],[131.487008,31.989796],[131.486846,31.989254],[131.486471,31.988487],[131.485758,31.986637],[131.485683,31.986254],[131.485158,31.984738],[131.484808,31.983813],[131.484209,31.981788],[131.483871,31.980429],[131.483284,31.97838],[131.482996,31.977746],[131.482734,31.976863],[131.482571,31.976505],[131.482096,31.974813],[131.481997,31.974221],[131.481784,31.973413],[131.481597,31.972713],[131.481122,31.971538],[131.480784,31.97068],[131.480659,31.970338],[131.480522,31.969597],[131.480209,31.968488],[131.479684,31.966955],[131.479597,31.966622],[131.47921,31.965697],[131.478947,31.964747],[131.478685,31.96398],[131.478385,31.963305],[131.477885,31.961697],[131.477385,31.960322],[131.47646,31.957364],[131.476123,31.956014],[131.475673,31.954614],[131.475548,31.954097],[131.47486,31.952356],[131.47481,31.951998],[131.474723,31.951906],[131.474548,31.951498],[131.474198,31.950464],[131.473648,31.948881],[131.473361,31.947573],[131.473048,31.94694],[131.472548,31.94534],[131.472461,31.944998],[131.472386,31.94489],[131.471836,31.942673],[131.471648,31.942248],[131.471624,31.941798],[131.471411,31.941098],[131.471361,31.940757],[131.471361,31.940423],[131.471474,31.939948],[131.471149,31.939565],[131.470961,31.939265],[131.470649,31.938048],[131.470249,31.937465],[131.469961,31.936424],[131.469599,31.93539],[131.469511,31.934865],[131.469461,31.934099],[131.469261,31.933157],[131.469286,31.932591],[131.469574,31.932207],[131.469524,31.932024],[131.469311,31.932049],[131.469174,31.931982],[131.468911,31.931757],[131.468762,31.931466],[131.468387,31.930466],[131.468262,31.930132],[131.468074,31.928866],[131.468149,31.928508],[131.468449,31.928349],[131.468474,31.928216],[131.468387,31.928083],[131.468074,31.928033],[131.467887,31.927941],[131.467699,31.927716],[131.467499,31.926908],[131.467387,31.926158],[131.467387,31.925799],[131.46736,31.925431],[131.467369,31.924477],[131.467424,31.923816],[131.467687,31.923408],[131.467874,31.923208],[131.467899,31.923025],[131.467712,31.923025],[131.467198,31.923055],[131.466837,31.922933],[131.466737,31.922891],[131.466499,31.9226],[131.466337,31.92235],[131.466024,31.921625],[131.465762,31.921308],[131.465674,31.920633],[131.465574,31.920383],[131.465449,31.920042],[131.465325,31.919392],[131.465187,31.918983],[131.46515,31.9184],[131.465037,31.918108],[131.467087,31.917834],[131.467162,31.918125],[131.467312,31.9181],[131.467137,31.917292],[131.466987,31.917309],[131.467087,31.917692],[131.464962,31.91795],[131.464887,31.917609],[131.464737,31.917184],[131.464687,31.91655],[131.464487,31.915575],[131.464062,31.914042],[131.463962,31.913567],[131.469437,31.912626],[131.469499,31.912651],[131.472574,31.912159],[131.473411,31.912843],[131.473324,31.912909],[131.475136,31.914409],[131.475236,31.914367],[131.482061,31.920142],[131.482573,31.920492],[131.482748,31.920375],[131.482436,31.920142],[131.472649,31.911959],[131.469474,31.912467],[131.469449,31.912517],[131.46565,31.913159],[131.465212,31.912834],[131.464612,31.912109],[131.46445,31.911867],[131.4643,31.911501],[131.464087,31.911251],[131.463887,31.910867],[131.463837,31.910684],[131.463837,31.910459],[131.463737,31.910168],[131.463362,31.909651],[131.463287,31.909468],[131.4633,31.909059],[131.462937,31.907843],[131.462625,31.907026],[131.46245,31.906401],[131.46245,31.906176],[131.465212,31.905793],[131.465187,31.905635],[131.462425,31.90606],[131.462387,31.90561],[131.462462,31.905543],[131.462812,31.905385],[131.462812,31.905343],[131.462525,31.90516],[131.462412,31.904843],[131.462775,31.903768],[131.462887,31.903543],[131.463,31.903043],[131.4635,31.902643],[131.463587,31.902535],[131.463612,31.901969],[131.463462,31.901427],[131.463512,31.901202],[131.463488,31.901094],[131.463175,31.900686],[131.46305,31.900369],[131.462813,31.900344],[131.462738,31.900052],[131.4629,31.899802],[131.463675,31.899161],[131.465025,31.898853],[131.4664,31.905443],[131.46625,31.90546],[131.4663,31.905618],[131.466587,31.905576],[131.465112,31.898153],[131.4649,31.898203],[131.465,31.898719],[131.46325,31.899044],[131.462913,31.898878],[131.462513,31.898586],[131.462175,31.898203],[131.461913,31.897836],[131.461763,31.897453],[131.461738,31.897111],[131.461775,31.89687],[131.46185,31.896645],[131.4636,31.896453],[131.4636,31.896345],[131.461938,31.896486],[131.461538,31.895812],[131.46165,31.895337],[131.46165,31.895178],[131.460625,31.893387],[131.460288,31.892379],[131.459613,31.890704],[131.459438,31.890113],[131.459388,31.889821],[131.458688,31.88838],[131.458463,31.887563],[131.458101,31.886705],[131.457988,31.885847],[131.457851,31.885489],[131.457626,31.884564],[131.457501,31.884155],[131.457389,31.882897],[131.457501,31.881497],[131.457664,31.88098],[131.458214,31.880064],[131.458664,31.879547],[131.461013,31.880197],[131.461163,31.880114],[131.461088,31.879997],[131.460988,31.880064],[131.457501,31.879089],[131.457451,31.878839],[131.457464,31.87848],[131.457789,31.877789],[131.458376,31.876889],[131.458801,31.876422],[131.459101,31.875864],[131.459214,31.875814],[131.462463,31.875997],[131.463351,31.879114],[131.463001,31.879247],[131.463051,31.87938],[131.463401,31.879255],[131.463813,31.880497],[131.463988,31.88043],[131.461876,31.873314],[131.461701,31.87338],[131.462401,31.875889],[131.459001,31.87568],[131.458576,31.875589],[131.458101,31.875222],[131.457839,31.87513],[131.457576,31.874972],[131.457314,31.874855],[131.456239,31.87383],[131.456089,31.873605],[131.455777,31.872905],[131.455389,31.872314],[131.455314,31.871955],[131.455102,31.87168],[131.454852,31.871164],[131.454877,31.870689],[131.454864,31.870239],[131.454764,31.869747],[131.454652,31.869497],[131.454552,31.86898],[131.454177,31.867555],[131.454077,31.867013],[131.454039,31.865705],[131.45384,31.864238],[131.453652,31.863138],[131.453577,31.862171],[131.453415,31.860721],[131.453465,31.860138],[131.45329,31.859555],[131.45324,31.859172],[131.453277,31.858155],[131.453165,31.856647],[131.45304,31.855972],[131.453015,31.855547],[131.453102,31.855047],[131.453003,31.854847],[131.452959,31.854469],[131.452853,31.853964],[131.453003,31.85268],[131.452878,31.851897],[131.452865,31.850614],[131.45294,31.848989],[131.452865,31.848089],[131.45299,31.846897],[131.45294,31.846556],[131.45294,31.846064],[131.453065,31.845206],[131.452941,31.842323],[131.453053,31.84104],[131.452803,31.839756],[131.452928,31.838365],[131.453178,31.837265],[131.453178,31.836707],[131.453141,31.83654],[131.453078,31.836332],[131.452978,31.836065],[131.452891,31.835773],[131.452816,31.835473],[131.452728,31.83519],[131.452666,31.835007],[131.452541,31.83474],[131.452491,31.83459],[131.452403,31.83434],[131.452316,31.834149],[131.452228,31.833815],[131.452178,31.833615],[131.452116,31.833357],[131.452041,31.833099],[131.451979,31.832865],[131.451929,31.832565],[131.451891,31.832299],[131.451891,31.831957],[131.451841,31.831674],[131.451841,31.831574],[131.451866,31.831265],[131.451929,31.831074],[131.451979,31.83094],[131.452004,31.83084],[131.452031,31.830768]],[[131.452031,31.830768],[131.452016,31.830782],[131.452041,31.83074],[131.452031,31.830768]]]}}]}