{"type":"FeatureCollection","features":[{"properties":{"kuni_id":"K69","pref":"宮崎県","name":"南那珂","yomi":"みなみなか","id":"G69009","kuni":"日向","kuni_url":"/kg/resource/K69.html","id_url":"G69009.html"},"geometry":{"type":"Polygon","coordinates":[[[131.269746,31.768518],[131.270871,31.768584],[131.271558,31.768543],[131.272221,31.768268],[131.273046,31.768068],[131.273621,31.767976],[131.273833,31.76791],[131.275021,31.767143],[131.275683,31.76701],[131.277158,31.767076],[131.278508,31.76646],[131.28062,31.766035],[131.281445,31.765785],[131.281695,31.76576],[131.282382,31.765535],[131.283095,31.76511],[131.28392,31.764993],[131.284607,31.76486],[131.285214,31.764671],[131.28582,31.764385],[131.286395,31.764002],[131.287157,31.763794],[131.287944,31.763747],[131.288482,31.763819],[131.289469,31.763977],[131.290544,31.764085],[131.291032,31.764402],[131.291782,31.764494],[131.292381,31.764627],[131.292956,31.765077],[131.293594,31.765935],[131.294144,31.766452],[131.294419,31.766477],[131.295768,31.766269],[131.295981,31.766269],[131.296368,31.766469],[131.296888,31.766633],[131.297581,31.76676],[131.298368,31.766969],[131.299556,31.767194],[131.300818,31.767502],[131.301918,31.767527],[131.302193,31.767569],[131.303068,31.767527],[131.304118,31.767319],[131.30478,31.767094],[131.305193,31.766627],[131.30563,31.766194],[131.305905,31.766061],[131.30683,31.765769],[131.307767,31.765994],[131.307967,31.766327],[131.308105,31.767002],[131.308342,31.767885],[131.308617,31.768669],[131.308655,31.769169],[131.308492,31.769552],[131.308567,31.769952],[131.310057,31.771196],[131.310104,31.77171],[131.309892,31.772276],[131.309867,31.773018],[131.309917,31.773743],[131.309704,31.776018],[131.309891,31.777009],[131.309504,31.777434],[131.309266,31.777642],[131.308904,31.778134],[131.308654,31.778634],[131.308629,31.779034],[131.308829,31.779626],[131.308791,31.78025],[131.308629,31.780684],[131.308791,31.780842],[131.309479,31.781134],[131.310066,31.781334],[131.311299,31.7814],[131.311604,31.7814],[131.312916,31.780451],[131.313216,31.780026],[131.313716,31.779434],[131.314153,31.779576],[131.315278,31.780109],[131.316191,31.780476],[131.316853,31.780809],[131.318503,31.781842],[131.319241,31.782067],[131.319653,31.782092],[131.320482,31.782242],[131.321133,31.782252],[131.321765,31.781868],[131.322515,31.781776],[131.323303,31.781634],[131.324978,31.781526],[131.325253,31.781434],[131.325978,31.781301],[131.326903,31.781318],[131.32844,31.781251],[131.329028,31.781201],[131.329465,31.781134],[131.329678,31.781134],[131.330728,31.781318],[131.331003,31.781426],[131.331802,31.781634],[131.332377,31.781743],[131.333315,31.781335],[131.333552,31.781268],[131.334302,31.781226],[131.335615,31.781601],[131.33644,31.78181],[131.336852,31.781968],[131.336932,31.781725],[131.337102,31.781376],[131.337447,31.780864],[131.337627,31.780318],[131.33754,31.779668],[131.337265,31.778943],[131.33699,31.778477],[131.33694,31.778093],[131.337127,31.77786],[131.337565,31.778085],[131.33864,31.77856],[131.339402,31.778743],[131.339652,31.77876],[131.340452,31.778668],[131.34204,31.778218],[131.342589,31.778018],[131.343227,31.777677],[131.343502,31.777585],[131.344264,31.777543],[131.344439,31.777568],[131.344902,31.777427],[131.345202,31.77691],[131.345427,31.776277],[131.345839,31.775669],[131.346389,31.775269],[131.347102,31.774585],[131.347514,31.774344],[131.347889,31.773844],[131.348502,31.773577],[131.349052,31.773502],[131.349474,31.773457],[131.349952,31.773419],[131.350382,31.773376],[131.350784,31.773349],[131.351302,31.773169],[131.351812,31.772953],[131.352102,31.772852],[131.352558,31.772767],[131.352914,31.772577],[131.353664,31.772061],[131.353914,31.772036],[131.354764,31.771811],[131.355451,31.771678],[131.356551,31.771719],[131.357889,31.771203],[131.358601,31.771136],[131.358876,31.771219],[131.359014,31.771494],[131.359014,31.771878],[131.358939,31.772036],[131.358576,31.772553],[131.358776,31.772819],[131.359626,31.772753],[131.360426,31.772844],[131.360589,31.772886],[131.361488,31.772869],[131.361551,31.772953],[131.361576,31.773494],[131.361876,31.773519],[131.362313,31.773203],[131.362726,31.773003],[131.362726,31.772844],[131.362476,31.772411],[131.363001,31.771986],[131.363163,31.771944],[131.364101,31.772344],[131.364463,31.772411],[131.364538,31.772344],[131.364263,31.771578],[131.364288,31.771536],[131.364463,31.771536],[131.364951,31.771894],[131.365726,31.772228],[131.366113,31.772369],[131.366601,31.772369],[131.366901,31.772436],[131.367151,31.772594],[131.367288,31.772519],[131.367401,31.772186],[131.367588,31.77187],[131.368063,31.771461],[131.368388,31.771286],[131.368751,31.771286],[131.369788,31.771353],[131.370288,31.771328],[131.370388,31.771395],[131.370363,31.771511],[131.370125,31.77187],[131.370263,31.772095],[131.37045,31.772295],[131.370563,31.772361],[131.370888,31.772411],[131.371138,31.77232],[131.371763,31.772161],[131.372175,31.772028],[131.372288,31.771778],[131.372263,31.771036],[131.37245,31.770945],[131.372613,31.770945],[131.372659,31.771008],[131.372713,31.771061],[131.372801,31.771119],[131.3729,31.771228],[131.373075,31.771911],[131.373238,31.772345],[131.373888,31.773678],[131.37415,31.774095],[131.3746,31.77452],[131.37495,31.775153],[131.375025,31.775636],[131.374912,31.776236],[131.374612,31.777178],[131.37455,31.777511],[131.374662,31.777661],[131.376675,31.778403],[131.377262,31.778519],[131.377987,31.778744],[131.378837,31.778928],[131.379599,31.779169],[131.379849,31.779211],[131.380024,31.778853],[131.381049,31.778153],[131.381399,31.777636],[131.381337,31.777061],[131.381399,31.776611],[131.381537,31.776453],[131.381799,31.775878],[131.382224,31.775711],[131.382499,31.775545],[131.382462,31.775136],[131.382349,31.774686],[131.382587,31.774186],[131.382887,31.773378],[131.383074,31.772453],[131.383512,31.771845],[131.384037,31.771445],[131.384549,31.771153],[131.384649,31.771145],[131.384937,31.770912],[131.385149,31.770495],[131.385812,31.770145],[131.386399,31.770029],[131.388112,31.76952],[131.388859,31.769187],[131.389199,31.769029],[131.389699,31.768512],[131.389781,31.768398],[131.390024,31.768295],[131.391099,31.768329],[131.391824,31.768212],[131.392349,31.768229],[131.392974,31.76837],[131.393986,31.768404],[131.394724,31.768171],[131.395999,31.767921],[131.396324,31.767529],[131.396699,31.766504],[131.397049,31.765788],[131.397649,31.765004],[131.397799,31.764088],[131.398086,31.763346],[131.398149,31.762963],[131.398374,31.762505],[131.398474,31.762138],[131.397861,31.760738],[131.397778,31.760568],[131.397624,31.760388],[131.397211,31.760096],[131.397048,31.759847],[131.397094,31.759432],[131.397774,31.75863],[131.398024,31.757997],[131.398061,31.757455],[131.397924,31.757013],[131.397324,31.75603],[131.397099,31.755605],[131.396761,31.75523],[131.396624,31.75493],[131.396541,31.754754],[131.396436,31.754497],[131.396324,31.754072],[131.396399,31.753722],[131.396361,31.753489],[131.396287,31.753222],[131.395787,31.75263],[131.395818,31.75244],[131.395962,31.752272],[131.396374,31.751981],[131.396749,31.751464],[131.396899,31.751056],[131.397063,31.75103],[131.397587,31.750881],[131.397762,31.750789],[131.398386,31.750731],[131.399036,31.750714],[131.399686,31.750622],[131.400224,31.750539],[131.400749,31.750522],[131.401349,31.750639],[131.402324,31.750556],[131.403874,31.750698],[131.404374,31.750498],[131.404986,31.750439],[131.405786,31.750173],[131.406061,31.750039],[131.406998,31.749431],[131.407448,31.749414],[131.408223,31.749465],[131.409098,31.749631],[131.409798,31.749565],[131.410198,31.74939],[131.410436,31.74874],[131.410661,31.748331],[131.411123,31.74779],[131.411836,31.74669],[131.412589,31.746423],[131.413189,31.746213],[131.413623,31.745965],[131.413698,31.745807],[131.414098,31.745448],[131.414711,31.744882],[131.415036,31.744215],[131.414973,31.743624],[131.414998,31.743057],[131.415111,31.742274],[131.415136,31.741282],[131.415573,31.740649],[131.415936,31.739999],[131.415986,31.739299],[131.415923,31.738574],[131.415973,31.738441],[131.417023,31.738183],[131.417673,31.737891],[131.418311,31.737358],[131.419023,31.736883],[131.419423,31.736574],[131.419915,31.736275],[131.420861,31.735991],[131.422461,31.735258],[131.423448,31.73495],[131.424123,31.73455],[131.42476,31.733808],[131.425485,31.733367],[131.426073,31.73285],[131.426248,31.732625],[131.426673,31.732225],[131.427485,31.731692],[131.42756,31.731692],[131.428485,31.731467],[131.429573,31.731158],[131.430123,31.731075],[131.430298,31.730825],[131.43081,31.73045],[131.43131,31.730117],[131.432035,31.730167],[131.432185,31.730234],[131.432735,31.730442],[131.433585,31.730584],[131.434335,31.730559],[131.435035,31.730767],[131.435435,31.730725],[131.436522,31.730467],[131.437089,31.730328],[131.437472,31.7302],[131.437922,31.730042],[131.438646,31.729818],[131.439284,31.729717],[131.439859,31.729651],[131.443546,31.729609],[131.444621,31.729551],[131.445521,31.72936],[131.445996,31.729176],[131.446533,31.728843],[131.447283,31.728535],[131.447883,31.728335],[131.448471,31.728293],[131.449396,31.728368],[131.450595,31.72826],[131.45107,31.728043],[131.451495,31.72786],[131.452133,31.727869],[131.452683,31.728052],[131.453408,31.728169],[131.454383,31.728152],[131.455057,31.728044],[131.455657,31.72796],[131.456082,31.727877],[131.457045,31.727902],[131.457607,31.728111],[131.457982,31.728294],[131.458132,31.728411],[131.458557,31.728544],[131.459307,31.728619],[131.459765,31.728625],[131.460219,31.728536],[131.461782,31.727578],[131.462482,31.727286],[131.463057,31.727019],[131.463519,31.726686],[131.463569,31.726345],[131.463219,31.726053],[131.463069,31.72587],[131.463094,31.725536],[131.463356,31.72452],[131.463306,31.72427],[131.462944,31.72352],[131.462944,31.723437],[131.463344,31.72287],[131.463531,31.722403],[131.463606,31.721862],[131.463706,31.721479],[131.464394,31.721345],[131.466169,31.721245],[131.467294,31.721279],[131.467718,31.721187],[131.468256,31.721129],[131.468206,31.720987],[131.468081,31.720829],[131.466956,31.720487],[131.466306,31.72037],[131.465106,31.720112],[131.464231,31.71977],[131.463931,31.719537],[131.464081,31.718754],[131.464069,31.718612],[131.463881,31.718704],[131.463581,31.719245],[131.463456,31.719104],[131.463431,31.718771],[131.463519,31.717979],[131.463319,31.717954],[131.463119,31.718246],[131.462931,31.718362],[131.462182,31.718471],[131.461607,31.718737],[131.461182,31.718779],[131.460682,31.718704],[131.460257,31.718587],[131.459932,31.718429],[131.459832,31.718245],[131.459857,31.717995],[131.460044,31.717279],[131.460269,31.716987],[131.460519,31.716854],[131.460594,31.716762],[131.460719,31.716471],[131.461157,31.716087],[131.461332,31.715979],[131.461831,31.715488],[131.462119,31.715079],[131.462119,31.714996],[131.462144,31.714996],[131.462144,31.714679],[131.461994,31.714313],[131.461694,31.713996],[131.461344,31.713813],[131.460469,31.713538],[131.460007,31.713263],[131.459732,31.712788],[131.459769,31.71078],[131.459932,31.71058],[131.459857,31.710463],[131.459782,31.710446],[131.459419,31.710488],[131.459394,31.71053],[131.459269,31.710463],[131.458944,31.710463],[131.458507,31.71003],[131.458357,31.709555],[131.458332,31.709105],[131.458419,31.708563],[131.458569,31.707997],[131.458832,31.707455],[131.459057,31.70708],[131.459407,31.706805],[131.459831,31.70668],[131.460819,31.706455],[131.461269,31.706255],[131.462019,31.705656],[131.462606,31.704847],[131.462794,31.704239],[131.463044,31.703881],[131.462944,31.703589],[131.462794,31.703606],[131.462519,31.703831],[131.461419,31.703464],[131.460869,31.703414],[131.460319,31.703414],[131.459569,31.703206],[131.459419,31.703131],[131.459294,31.702864],[131.459319,31.702431],[131.459494,31.702256],[131.459819,31.702298],[131.459906,31.702123],[131.459831,31.701848],[131.459781,31.701448],[131.459923,31.701178],[131.459981,31.701081],[131.460106,31.700931],[131.459994,31.70054],[131.460019,31.699865],[131.459869,31.699773],[131.459444,31.699956],[131.458619,31.700131],[131.458169,31.700106],[131.457669,31.700006],[131.457269,31.699781],[131.45662,31.699123],[131.456345,31.69874],[131.456157,31.69824],[131.456007,31.697515],[131.456007,31.697265],[131.45612,31.696682],[131.45637,31.695915],[131.456807,31.695107],[131.457182,31.69464],[131.457694,31.69419],[131.458544,31.693657],[131.459082,31.693391],[131.459332,31.693499],[131.459707,31.693549],[131.460257,31.693557],[131.460906,31.693491],[131.461406,31.693357],[131.461831,31.693157],[131.462294,31.693007],[131.462269,31.692824],[131.462269,31.692707],[131.462219,31.692441],[131.462269,31.692149],[131.462494,31.691833],[131.462669,31.691833],[131.462794,31.692133],[131.463094,31.692449],[131.463619,31.692699],[131.464094,31.692766],[131.464144,31.692816],[131.464719,31.692907],[131.464969,31.692891],[131.465519,31.692732],[131.466181,31.692333],[131.466231,31.692174],[131.466156,31.691791],[131.465794,31.691091],[131.465769,31.690749],[131.465919,31.690549],[131.466294,31.690416],[131.466769,31.68995],[131.467331,31.689975],[131.467656,31.689816],[131.467956,31.6891],[131.468069,31.688675],[131.467969,31.688533],[131.467769,31.688533],[131.467719,31.688575],[131.467519,31.6886],[131.467444,31.688508],[131.467519,31.688216],[131.468119,31.687525],[131.468681,31.686692],[131.468756,31.686417],[131.468531,31.686325],[131.467931,31.68635],[131.466606,31.6858],[131.465931,31.685592],[131.464732,31.685283],[131.464057,31.685192],[131.463407,31.685075],[131.461957,31.684683],[131.461357,31.684567],[131.46002,31.683992],[131.45907,31.6834],[131.458545,31.682984],[131.45762,31.682525],[131.456945,31.682317],[131.45632,31.6822],[131.454396,31.682233],[131.453796,31.682208],[131.453221,31.682042],[131.451921,31.681608],[131.451471,31.6814],[131.451096,31.681108],[131.450584,31.680517],[131.450334,31.680108],[131.450259,31.679675],[131.450334,31.679159],[131.450596,31.6786],[131.450871,31.678175],[131.451434,31.677542],[131.451734,31.677409],[131.452884,31.677242],[131.453771,31.676976],[131.453921,31.676842],[131.454271,31.676076],[131.454534,31.675692],[131.455134,31.675451],[131.455309,31.675251],[131.455359,31.674934],[131.455471,31.674684],[131.455665,31.67449],[131.455496,31.674368],[131.455246,31.674484],[131.454946,31.674551],[131.454508,31.674449],[131.454246,31.674384],[131.453634,31.674401],[131.452709,31.674284],[131.452507,31.674308],[131.452297,31.674034],[131.451697,31.673234],[131.451397,31.672626],[131.451234,31.671884],[131.451234,31.671476],[131.451372,31.670801],[131.451522,31.67046],[131.451785,31.67016],[131.45206,31.669751],[131.452235,31.669643],[131.45256,31.669618],[131.453509,31.66976],[131.453959,31.669626],[131.454197,31.669385],[131.454222,31.669268],[131.454409,31.669001],[131.454834,31.668751],[131.455459,31.668527],[131.457397,31.668018],[131.457659,31.668068],[131.458072,31.668268],[131.458871,31.668593],[131.459546,31.668802],[131.460346,31.66896],[131.460634,31.668985],[131.461159,31.669102],[131.461296,31.669285],[131.461346,31.669552],[131.461546,31.669643],[131.461734,31.669535],[131.461921,31.669102],[131.462509,31.667119],[131.462484,31.666802],[131.462284,31.66676],[131.462071,31.666869],[131.461859,31.666869],[131.461671,31.666685],[131.461596,31.666369],[131.461709,31.665919],[131.462021,31.665627],[131.462809,31.665427],[131.462996,31.665119],[131.463296,31.663761],[131.463409,31.662952],[131.463434,31.661486],[131.463497,31.660986],[131.463447,31.660494],[131.463309,31.660469],[131.463047,31.660669],[131.462997,31.660761],[131.462809,31.660894],[131.461622,31.660419],[131.461547,31.660411],[131.46136,31.660328],[131.461047,31.660253],[131.460385,31.660227],[131.45976,31.660019],[131.459335,31.659819],[131.45891,31.659411],[131.458497,31.659111],[131.457785,31.658436],[131.45776,31.658253],[131.458585,31.657486],[131.45906,31.657178],[131.459373,31.656886],[131.459748,31.656728],[131.46041,31.656803],[131.461172,31.657119],[131.461672,31.657369],[131.46206,31.657528],[131.462147,31.657528],[131.462385,31.657369],[131.46226,31.654978],[131.462373,31.65462],[131.46261,31.654445],[131.462798,31.653878],[131.462798,31.65372],[131.46296,31.653295],[131.463198,31.652887],[131.463673,31.652503],[131.464197,31.65242],[131.464747,31.652462],[131.465547,31.652603],[131.466547,31.652478],[131.466597,31.65252],[131.466722,31.652903],[131.466835,31.653037],[131.466997,31.652887],[131.467397,31.651737],[131.46756,31.65022],[131.467485,31.650203],[131.467422,31.65027],[131.46701,31.649928],[131.46711,31.649545],[131.467622,31.648912],[131.467747,31.648395],[131.467862,31.648348],[131.468072,31.648395],[131.468122,31.648395],[131.46831,31.64822],[131.468447,31.647787],[131.468447,31.647387],[131.468335,31.647087],[131.46831,31.64657],[131.468397,31.646479],[131.468547,31.646554],[131.468847,31.646954],[131.468997,31.646779],[131.469297,31.645445],[131.469297,31.64527],[131.46751,31.645237],[131.465948,31.644729],[131.465423,31.644662],[131.46461,31.644704],[131.46371,31.644854],[131.463523,31.645037],[131.463423,31.645287],[131.46291,31.645779],[131.462485,31.64632],[131.462198,31.646337],[131.461798,31.64652],[131.461823,31.646654],[131.461648,31.64672],[131.461486,31.646629],[131.461273,31.646787],[131.461036,31.646854],[131.460611,31.646895],[131.460398,31.64687],[131.459961,31.646579],[131.459798,31.646662],[131.459536,31.646912],[131.459373,31.647003],[131.458986,31.646862],[131.458442,31.646789],[131.458092,31.646764],[131.457929,31.646639],[131.457815,31.646418],[131.457061,31.645362],[131.456674,31.644187],[131.456436,31.64322],[131.456286,31.642154],[131.456286,31.641954],[131.456186,31.64132],[131.455949,31.641029],[131.455299,31.640462],[131.453974,31.63982],[131.453449,31.639504],[131.453037,31.639295],[131.452899,31.639137],[131.452824,31.638504],[131.452987,31.63817],[131.453337,31.637837],[131.454174,31.637637],[131.454699,31.637545],[131.455312,31.63737],[131.456074,31.637012],[131.457499,31.636479],[131.458824,31.636054],[131.459374,31.635829],[131.459861,31.635496],[131.460436,31.635162],[131.460861,31.634754],[131.461686,31.633788],[131.462186,31.633296],[131.462274,31.632279],[131.462224,31.631854],[131.462136,31.631738],[131.461799,31.631463],[131.461511,31.631288],[131.461461,31.631171],[131.461486,31.630988],[131.461436,31.630763],[131.461249,31.630629],[131.461061,31.630629],[131.460824,31.630579],[131.460749,31.630396],[131.460461,31.630263],[131.459986,31.630129],[131.459274,31.629988],[131.458437,31.629646],[131.458274,31.629621],[131.458199,31.629438],[131.458387,31.629238],[131.458174,31.628179],[131.457274,31.625421],[131.456912,31.624538],[131.456487,31.624013],[131.456037,31.623788],[131.455562,31.623763],[131.455062,31.623871],[131.454275,31.624138],[131.453775,31.624413],[131.453087,31.624654],[131.45285,31.624629],[131.452825,31.624838],[131.45245,31.624563],[131.452112,31.624496],[131.451762,31.624263],[131.4514,31.623921],[131.451113,31.623446],[131.449575,31.620329],[131.448263,31.618721],[131.447688,31.618196],[131.447038,31.617813],[131.446276,31.617421],[131.445426,31.617129],[131.442301,31.616546],[131.441976,31.616254],[131.441513,31.615646],[131.440964,31.615279],[131.440326,31.615188],[131.439589,31.615138],[131.438901,31.615179],[131.438301,31.615129],[131.436564,31.614538],[131.435901,31.614213],[131.433964,31.612696],[131.432777,31.611905],[131.432252,31.61138],[131.431602,31.610946],[131.430939,31.610696],[131.430177,31.61058],[131.429514,31.610646],[131.428864,31.610621],[131.427677,31.610271],[131.426802,31.610113],[131.425677,31.609771],[131.42439,31.609196],[131.423727,31.609038],[131.42299,31.608629],[131.42189,31.607471],[131.421627,31.607246],[131.42059,31.606046],[131.420215,31.605546],[131.41944,31.604255],[131.41894,31.603621],[131.418365,31.602971],[131.41729,31.601538],[131.41679,31.600971],[131.416615,31.600813],[131.41624,31.60023],[131.415728,31.599146],[131.415228,31.598397],[131.414053,31.596922],[131.413528,31.596272],[131.413091,31.595588],[131.412753,31.594863],[131.411466,31.592713],[131.411154,31.592063],[131.410766,31.591047],[131.410641,31.59093],[131.410079,31.590814],[131.409716,31.590772],[131.409666,31.59063],[131.409641,31.589705],[131.408916,31.588105],[131.408966,31.587589],[131.409129,31.587522],[131.409416,31.587314],[131.409604,31.587247],[131.409479,31.58698],[131.409366,31.586839],[131.409291,31.586664],[131.409454,31.586597],[131.409504,31.58653],[131.409429,31.585947],[131.409679,31.585272],[131.409917,31.584731],[131.410704,31.583339],[131.410954,31.583047],[131.411104,31.583047],[131.411529,31.582914],[131.411817,31.582864],[131.412054,31.582756],[131.412192,31.582531],[131.412167,31.582347],[131.412242,31.582172],[131.412304,31.581631],[131.412379,31.581431],[131.412354,31.581289],[131.412404,31.581089],[131.412279,31.580681],[131.412067,31.580323],[131.411904,31.580256],[131.411854,31.580031],[131.411942,31.579873],[131.412254,31.579673],[131.412492,31.579606],[131.412604,31.579539],[131.412892,31.579489],[131.412942,31.579423],[131.413342,31.579314],[131.413467,31.579248],[131.413317,31.579064],[131.413204,31.578839],[131.413079,31.578706],[131.413104,31.578573],[131.413292,31.578706],[131.413442,31.578681],[131.413629,31.578589],[131.413679,31.578414],[131.413479,31.578123],[131.413579,31.577964],[131.413629,31.577739],[131.413554,31.577606],[131.413404,31.577489],[131.413004,31.577531],[131.412742,31.577514],[131.412179,31.577664],[131.411842,31.577714],[131.411229,31.577931],[131.410992,31.577956],[131.410892,31.577573],[131.411079,31.577123],[131.411054,31.576581],[131.411079,31.576514],[131.411054,31.576314],[131.411092,31.57564],[131.411042,31.57514],[131.411092,31.574915],[131.411042,31.574873],[131.410992,31.57449],[131.410904,31.574398],[131.411017,31.574223],[131.411092,31.574173],[131.411304,31.574198],[131.411467,31.574065],[131.411804,31.573906],[131.412042,31.57319],[131.412129,31.573115],[131.412104,31.572307],[131.412179,31.57224],[131.412129,31.571748],[131.412192,31.571723],[131.412242,31.571182],[131.412242,31.570957],[131.412292,31.570757],[131.412267,31.57044],[131.412217,31.57019],[131.412092,31.569923],[131.411929,31.56979],[131.411767,31.569715],[131.411504,31.569673],[131.411429,31.569698],[131.411029,31.56969],[131.410692,31.569848],[131.410379,31.570048],[131.410267,31.570073],[131.409955,31.570257],[131.409742,31.570682],[131.40953,31.570857],[131.409292,31.57124],[131.409292,31.571423],[131.40918,31.571598],[131.40918,31.571781],[131.40908,31.571981],[131.408967,31.572006],[131.408392,31.572006],[131.407755,31.571956],[131.40638,31.571931],[131.404967,31.571948],[131.404467,31.571856],[131.403517,31.570957],[131.403442,31.57084],[131.40328,31.570823],[131.403205,31.57084],[131.40318,31.570907],[131.403255,31.571023],[131.403592,31.571248],[131.404355,31.571998],[131.406417,31.572065],[131.40638,31.572356],[131.406405,31.572581],[131.406755,31.572656],[131.407405,31.572681],[131.407592,31.572656],[131.40838,31.572681],[131.40873,31.572973],[131.408905,31.573556],[131.409117,31.573965],[131.409542,31.574031],[131.409592,31.574306],[131.409554,31.575839],[131.409242,31.576714],[131.409104,31.576848],[131.408867,31.576939],[131.408504,31.576823],[131.408317,31.576573],[131.408292,31.575581],[131.40803,31.575514],[131.407505,31.575556],[131.407392,31.575631],[131.407517,31.576998],[131.407492,31.577473],[131.407305,31.578123],[131.407092,31.579323],[131.405455,31.579131],[131.40533,31.579356],[131.407004,31.579681],[131.406604,31.581797],[131.405842,31.581906],[131.405179,31.582039],[131.404279,31.582014],[131.404179,31.581964],[131.404154,31.581922],[131.404267,31.580997],[131.404217,31.580347],[131.404155,31.580231],[131.40398,31.580231],[131.403767,31.580281],[131.403792,31.580589],[131.403729,31.581581],[131.403567,31.582097],[131.40268,31.581939],[131.402517,31.581831],[131.402367,31.581514],[131.402105,31.580272],[131.401917,31.580247],[131.40168,31.580297],[131.401305,31.580897],[131.401467,31.581531],[131.401542,31.581822],[131.401617,31.581847],[131.401642,31.582031],[131.401592,31.582072],[131.401017,31.581889],[131.400942,31.581822],[131.400855,31.581556],[131.400705,31.581256],[131.400467,31.580606],[131.40063,31.580339],[131.40203,31.579348],[131.402817,31.579039],[131.403505,31.578773],[131.40343,31.578539],[131.402742,31.578698],[131.402317,31.578564],[131.400955,31.578539],[131.400155,31.578581],[131.399392,31.578556],[131.399305,31.575698],[131.399343,31.573531],[131.399293,31.573373],[131.398918,31.573423],[131.398768,31.573373],[131.398768,31.573306],[131.398893,31.573173],[131.399055,31.573081],[131.399368,31.57279],[131.399693,31.57234],[131.399793,31.571956],[131.399855,31.571915],[131.399818,31.571756],[131.399905,31.571423],[131.399518,31.570806],[131.399168,31.570648],[131.398855,31.570565],[131.398643,31.570423],[131.398518,31.570448],[131.398543,31.570357],[131.39833,31.56934],[131.398155,31.568665],[131.397818,31.567898],[131.397505,31.567065],[131.39708,31.566348],[131.396718,31.565874],[131.396105,31.565399],[131.39558,31.565174],[131.394905,31.565015],[131.39398,31.564874],[131.391793,31.564624],[131.391368,31.564465],[131.391081,31.56419],[131.391056,31.564124],[131.391106,31.563765],[131.391381,31.563249],[131.391906,31.562574],[131.392356,31.562307],[131.392518,31.562282],[131.393281,31.562349],[131.393781,31.56244],[131.394181,31.562282],[131.394355,31.562082],[131.394893,31.56204],[131.395993,31.561774],[131.396368,31.56159],[131.396555,31.561457],[131.39663,31.561441],[131.396818,31.560691],[131.396793,31.560649],[131.397143,31.560066],[131.397293,31.559816],[131.397318,31.559591],[131.397618,31.559207],[131.397543,31.558849],[131.397143,31.558557],[131.396405,31.557832],[131.396143,31.557649],[131.39588,31.557516],[131.395643,31.557332],[131.39538,31.557199],[131.394968,31.557174],[131.394518,31.557199],[131.394231,31.557149],[131.393993,31.557149],[131.393543,31.557241],[131.393193,31.557266],[131.393043,31.557241],[131.392618,31.557307],[131.392268,31.557441],[131.391806,31.557549],[131.391643,31.557524],[131.391406,31.557682],[131.391456,31.557707],[131.390693,31.558024],[131.389006,31.557316],[131.388881,31.557299],[131.388793,31.557366],[131.389006,31.557499],[131.390106,31.557999],[131.390243,31.558174],[131.390081,31.558716],[131.389756,31.559324],[131.389818,31.559366],[131.389706,31.559666],[131.389518,31.559816],[131.389368,31.559774],[131.388606,31.559707],[131.387356,31.559816],[131.387093,31.559815],[131.386943,31.559699],[131.386918,31.559516],[131.386868,31.559449],[131.386393,31.559266],[131.385918,31.558999],[131.384256,31.558249],[131.384131,31.558049],[131.383969,31.557641],[131.383731,31.557232],[131.383819,31.557082],[131.384344,31.556874],[131.385106,31.556499],[131.385144,31.556382],[131.385556,31.556141],[131.385456,31.556024],[131.383531,31.556966],[131.383419,31.556991],[131.383156,31.556691],[131.382719,31.556291],[131.381931,31.555474],[131.381619,31.555024],[131.381431,31.554599],[131.381306,31.554008],[131.381256,31.553399],[131.381106,31.552233],[131.381056,31.551641],[131.381081,31.550966],[131.381269,31.549775],[131.381381,31.549258],[131.381503,31.548913],[131.381694,31.548408],[131.382106,31.546716],[131.382181,31.546175],[131.382369,31.545167],[131.382481,31.544758],[131.383319,31.544625],[131.383719,31.54465],[131.384294,31.544783],[131.385031,31.544925],[131.385169,31.545217],[131.385669,31.545808],[131.386056,31.545942],[131.386269,31.545917],[131.386456,31.545942],[131.386644,31.545917],[131.387006,31.545717],[131.387031,31.545467],[131.387118,31.545242],[131.387043,31.545017],[131.387068,31.54495],[131.386981,31.544617],[131.386881,31.544567],[131.386731,31.544342],[131.386594,31.544367],[131.386381,31.544275],[131.386406,31.543942],[131.384956,31.543867],[131.384756,31.543842],[131.384669,31.543867],[131.384381,31.544542],[131.384069,31.544492],[131.383619,31.544333],[131.383256,31.54355],[131.382856,31.543458],[131.382731,31.54285],[131.383069,31.5419],[131.383256,31.5419],[131.383606,31.541967],[131.383869,31.541634],[131.384031,31.5413],[131.384131,31.541159],[131.384394,31.54105],[131.384719,31.540984],[131.385006,31.540759],[131.385056,31.540625],[131.385269,31.540667],[131.385344,31.540892],[131.385919,31.541484],[131.386294,31.541909],[131.386581,31.542184],[131.386706,31.542359],[131.386756,31.5427],[131.386918,31.542659],[131.386893,31.542184],[131.387268,31.541934],[131.387768,31.541667],[131.388581,31.541359],[131.389243,31.542192],[131.389443,31.54255],[131.389656,31.542817],[131.389731,31.542867],[131.389843,31.5428],[131.389793,31.5426],[131.389443,31.542125],[131.389131,31.541584],[131.388793,31.5412],[131.388456,31.540675],[131.388293,31.540567],[131.387881,31.539976],[131.387693,31.539576],[131.387568,31.539417],[131.387118,31.539101],[131.386593,31.538942],[131.386543,31.538892],[131.386356,31.538892],[131.386281,31.538734],[131.386256,31.538442],[131.386281,31.538417],[131.386231,31.538309],[131.386256,31.538176],[131.385731,31.538217],[131.385381,31.538151],[131.385256,31.537926],[131.385069,31.537901],[131.384881,31.537609],[131.384806,31.537584],[131.384731,31.537492],[131.384681,31.537176],[131.384781,31.537134],[131.384894,31.536792],[131.384781,31.536501],[131.384681,31.536368],[131.384656,31.536276],[131.384794,31.536101],[131.385031,31.535943],[131.385793,31.535768],[131.386056,31.535809],[131.386343,31.535968],[131.386556,31.535926],[131.386556,31.535493],[131.386481,31.535384],[131.386481,31.535226],[131.386406,31.535159],[131.386318,31.534868],[131.386356,31.534659],[131.386193,31.534551],[131.386093,31.534368],[131.385531,31.534209],[131.385193,31.534051],[131.385006,31.533918],[131.384693,31.533468],[131.384693,31.533393],[131.384568,31.533259],[131.384518,31.53281],[131.384406,31.532426],[131.384281,31.53216],[131.383944,31.531935],[131.383881,31.531976],[131.383594,31.532068],[131.383469,31.532493],[131.383481,31.532918],[131.383406,31.533051],[131.383244,31.533035],[131.383019,31.532785],[131.382781,31.532668],[131.382694,31.533035],[131.382744,31.533051],[131.382619,31.533259],[131.382356,31.533501],[131.382169,31.533568],[131.381981,31.533593],[131.381794,31.533726],[131.381581,31.533793],[131.380981,31.533584],[131.380556,31.533276],[131.380294,31.533001],[131.380069,31.53266],[131.380169,31.532485],[131.380431,31.532193],[131.380756,31.531718],[131.380806,31.531426],[131.380944,31.53116],[131.381256,31.53071],[131.381281,31.530593],[131.381369,31.530576],[131.381544,31.530618],[131.381894,31.53046],[131.381869,31.530393],[131.381894,31.530101],[131.381844,31.529677],[131.381869,31.529493],[131.381844,31.529452],[131.381894,31.529227],[131.381694,31.528885],[131.381531,31.528793],[131.381431,31.528818],[131.381244,31.528435],[131.380856,31.527285],[131.381019,31.52611],[131.381281,31.525527],[131.381781,31.525102],[131.382019,31.525102],[131.382106,31.524969],[131.382368,31.524744],[131.382443,31.52441],[131.382818,31.523911],[131.383106,31.523644],[131.383381,31.523552],[131.384006,31.523694],[131.384506,31.523786],[131.384906,31.523894],[131.385031,31.524035],[131.385156,31.524594],[131.385131,31.524777],[131.385343,31.52491],[131.385506,31.525135],[131.385656,31.525185],[131.385943,31.525069],[131.386006,31.524935],[131.386318,31.524752],[131.386668,31.524261],[131.386843,31.524086],[131.386818,31.523994],[131.386743,31.523944],[131.386143,31.524077],[131.385956,31.524077],[131.385868,31.524127],[131.385843,31.523852],[131.385956,31.523744],[131.386568,31.523402],[131.386718,31.523269],[131.386693,31.523227],[131.386906,31.522661],[131.386831,31.522619],[131.386668,31.522436],[131.386193,31.522436],[131.385993,31.522344],[131.385456,31.522252],[131.384993,31.522052],[131.384643,31.521802],[131.384543,31.521286],[131.384781,31.520744],[131.385181,31.520411],[131.385393,31.520003],[131.385443,31.519711],[131.385393,31.519486],[131.385481,31.519303],[131.385343,31.519128],[131.384956,31.518786],[131.384668,31.518628],[131.384168,31.518511],[131.383818,31.518311],[131.383406,31.518245],[131.382956,31.518061],[131.382144,31.51797],[131.381931,31.516753],[131.381906,31.515945],[131.382119,31.515404],[131.382444,31.514954],[131.382731,31.514662],[131.382919,31.514304],[131.383106,31.513629],[131.383056,31.513262],[131.383106,31.513037],[131.383244,31.512887],[131.383456,31.512887],[131.383592,31.512889],[131.383744,31.512904],[131.383931,31.512821],[131.383981,31.512704],[131.383956,31.512529],[131.383644,31.512362],[131.383556,31.512362],[131.383431,31.512071],[131.383569,31.511871],[131.383544,31.511763],[131.383659,31.511621],[131.383719,31.511513],[131.383956,31.511488],[131.384044,31.511513],[131.384119,31.511763],[131.384381,31.511896],[131.384594,31.511871],[131.384744,31.511804],[131.384806,31.511738],[131.384781,31.511446],[131.384881,31.511379],[131.385094,31.511379],[131.385331,31.511063],[131.385256,31.510796],[131.384856,31.510521],[131.384519,31.510521],[131.384231,31.510571],[131.383881,31.510863],[131.383711,31.511125],[131.383456,31.511221],[131.383331,31.511263],[131.383219,31.511238],[131.382881,31.511304],[131.382694,31.511421],[131.382619,31.511688],[131.382406,31.511913],[131.382245,31.512102],[131.381981,31.512387],[131.381725,31.512521],[131.381406,31.512721],[131.381106,31.513437],[131.381056,31.513504],[131.380706,31.513621],[131.380294,31.513704],[131.379894,31.513912],[131.379444,31.514362],[131.379331,31.514537],[131.379229,31.514606],[131.379044,31.51472],[131.378919,31.514762],[131.378594,31.515145],[131.378044,31.516045],[131.378856,31.516762],[131.378794,31.517895],[131.378744,31.518045],[131.378369,31.518095],[131.378269,31.518203],[131.378394,31.518178],[131.378869,31.518203],[131.378981,31.518253],[131.378919,31.518928],[131.378869,31.519153],[131.378306,31.519578],[131.378019,31.519553],[131.377344,31.51937],[131.376731,31.519145],[131.376756,31.519078],[131.375944,31.518853],[131.375807,31.518961],[131.375607,31.51892],[131.375544,31.518736],[131.375394,31.518761],[131.375182,31.519003],[131.375019,31.518986],[131.375044,31.518761],[131.374732,31.518603],[131.374682,31.518237],[131.374082,31.518037],[131.373732,31.517987],[131.373682,31.518012],[131.373557,31.518237],[131.373394,31.518262],[131.373182,31.518187],[131.372666,31.51776],[131.372666,31.517535],[131.373694,31.516054],[131.373832,31.515987],[131.374007,31.515945],[131.374307,31.515645],[131.375444,31.514146],[131.375819,31.513579],[131.376057,31.513062],[131.375944,31.512979],[131.376057,31.512771],[131.376694,31.512029],[131.375894,31.511938],[131.375319,31.511804],[131.374819,31.511596],[131.374382,31.510946],[131.373857,31.510046],[131.37352,31.50903],[131.37337,31.50813],[131.373345,31.507455],[131.373245,31.507205],[131.373082,31.507138],[131.373057,31.506597],[131.373107,31.506505],[131.373582,31.506214],[131.373907,31.50588],[131.374332,31.505564],[131.375045,31.505297],[131.375645,31.505139],[131.376145,31.505072],[131.377357,31.504739],[131.378544,31.504247],[131.378969,31.504114],[131.380232,31.503514],[131.380657,31.503439],[131.380907,31.503372],[131.381257,31.503372],[131.381494,31.503322],[131.381982,31.503147],[131.382282,31.503098],[131.382494,31.503098],[131.382657,31.503056],[131.382957,31.503139],[131.383194,31.503164],[131.383407,31.503097],[131.383519,31.503097],[131.383794,31.502914],[131.384057,31.502864],[131.384519,31.502864],[131.384569,31.502839],[131.384806,31.502823],[131.385031,31.502748],[131.385269,31.502548],[131.385481,31.502431],[131.385569,31.502206],[131.385481,31.501739],[131.385394,31.501531],[131.385369,31.501065],[131.385557,31.500631],[131.385719,31.500406],[131.385957,31.500223],[131.386185,31.500126],[131.386256,31.500115],[131.38636,31.500066],[131.386444,31.499973],[131.386469,31.499665],[131.386407,31.499348],[131.386444,31.499282],[131.386544,31.499232],[131.38654,31.499149],[131.386519,31.499098],[131.386519,31.498673],[131.386443,31.49862],[131.386312,31.498595],[131.386169,31.498582],[131.385707,31.498515],[131.385594,31.498515],[131.385407,31.498382],[131.384844,31.498115],[131.384732,31.497773],[131.384669,31.497165],[131.384694,31.497074],[131.384669,31.496965],[131.384635,31.496825],[131.384507,31.496582],[131.384344,31.496382],[131.384019,31.496199],[131.383782,31.495999],[131.383207,31.495349],[131.382857,31.495057],[131.382832,31.494782],[131.382882,31.494399],[131.383232,31.494066],[131.383357,31.493858],[131.383569,31.493674],[131.383757,31.493566],[131.384219,31.493433],[131.384544,31.493541],[131.384869,31.493699],[131.385219,31.493991],[131.385469,31.494374],[131.385769,31.494616],[131.385879,31.494805],[131.386007,31.495024],[131.386419,31.495649],[131.386582,31.495674],[131.386682,31.495649],[131.386794,31.495782],[131.386982,31.495765],[131.386932,31.495266],[131.386957,31.495107],[131.386919,31.494707],[131.386957,31.494499],[131.387057,31.494341],[131.387082,31.494074],[131.386994,31.493624],[131.386732,31.493108],[131.386407,31.492908],[131.385994,31.492791],[131.385669,31.492633],[131.385244,31.492524],[131.385057,31.492549],[131.384669,31.492799],[131.384457,31.492708],[131.384382,31.492708],[131.383969,31.492508],[131.383782,31.492074],[131.383557,31.4914],[131.383507,31.491333],[131.383507,31.49125],[131.383557,31.491175],[131.383582,31.490658],[131.38367,31.49055],[131.383957,31.490433],[131.384232,31.490366],[131.384607,31.490158],[131.384844,31.490091],[131.385169,31.490066],[131.385357,31.490133],[131.385494,31.49025],[131.385682,31.490583],[131.386394,31.49065],[131.387007,31.490608],[131.387032,31.490583],[131.387119,31.4906],[131.387657,31.4911],[131.387769,31.491166],[131.387907,31.491591],[131.387957,31.491591],[131.388007,31.491275],[131.387982,31.491116],[131.388007,31.491075],[131.388169,31.490983],[131.388094,31.490575],[131.388119,31.490375],[131.388082,31.490058],[131.387894,31.489592],[131.387757,31.489367],[131.387757,31.489025],[131.387919,31.488933],[131.388432,31.488975],[131.388594,31.488933],[131.388694,31.488817],[131.388782,31.48855],[131.388557,31.488075],[131.388607,31.4876],[131.388694,31.487425],[131.388769,31.487559],[131.389044,31.487692],[131.389094,31.487692],[131.388982,31.487309],[131.389044,31.487242],[131.389007,31.487017],[131.389094,31.486817],[131.389007,31.4867],[131.388794,31.486675],[131.388607,31.4867],[131.388394,31.486592],[131.388444,31.486434],[131.388582,31.486342],[131.388982,31.48625],[131.389007,31.486225],[131.388794,31.486117],[131.388607,31.486092],[131.388657,31.485984],[131.388894,31.4858],[131.389219,31.486025],[131.389219,31.48605],[131.389382,31.485867],[131.389544,31.485459],[131.389544,31.485234],[131.389432,31.485059],[131.389157,31.484967],[131.389032,31.484942],[131.388894,31.484992],[131.388594,31.484834],[131.388294,31.484542],[131.387732,31.484134],[131.387457,31.484026],[131.387132,31.483984],[131.386432,31.483934],[131.386245,31.483801],[131.38622,31.483734],[131.385995,31.483509],[131.385857,31.483151],[131.385807,31.482834],[131.385932,31.482226],[131.38537,31.481418],[131.385257,31.481126],[131.384657,31.48061],[131.38417,31.480251],[131.38352,31.47996],[131.382657,31.479801],[131.382582,31.479801],[131.382395,31.479693],[131.382145,31.479493],[131.381683,31.479268],[131.381095,31.479318],[131.38002,31.479251],[131.379395,31.47896],[131.37912,31.478851],[131.37842,31.478668],[131.378095,31.478627],[131.377798,31.478577],[131.37743,31.478545],[131.376933,31.478493],[131.376158,31.47841],[131.375783,31.478476],[131.375483,31.478476],[131.375208,31.47841],[131.374833,31.47816],[131.374671,31.47796],[131.374508,31.477402],[131.374346,31.477152],[131.373371,31.476435],[131.373046,31.476235],[131.372668,31.476072],[131.372571,31.475935],[131.371171,31.475327],[131.370371,31.47506],[131.369771,31.47491],[131.368921,31.474393],[131.368446,31.474143],[131.367784,31.473668],[131.367534,31.473535],[131.366934,31.473377],[131.366497,31.47306],[131.366509,31.472627],[131.366297,31.472518],[131.366097,31.472568],[131.364384,31.472027],[131.363834,31.471902],[131.363147,31.471785],[131.362959,31.471418],[131.362709,31.470785],[131.362547,31.470202],[131.362235,31.468602],[131.361985,31.465511],[131.36191,31.464952],[131.361897,31.464277],[131.362072,31.462944],[131.362797,31.460503],[131.363135,31.459128],[131.36386,31.457211],[131.363885,31.456661],[131.363772,31.45623],[131.363897,31.455837],[131.36461,31.455512],[131.365085,31.455145],[131.36556,31.454603],[131.366472,31.453795],[131.366985,31.45327],[131.36801,31.452404],[131.368522,31.45207],[131.369135,31.451845],[131.369847,31.451404],[131.369997,31.451179],[131.369972,31.451037],[131.369685,31.450812],[131.369235,31.450621],[131.36921,31.450446],[131.369272,31.450354],[131.369435,31.450496],[131.36966,31.450596],[131.369809,31.450754],[131.369934,31.450812],[131.370059,31.450637],[131.370279,31.450257],[131.370468,31.449867],[131.370572,31.449696],[131.370972,31.449154],[131.371059,31.448379],[131.370922,31.447546],[131.370722,31.446838],[131.370584,31.446054],[131.370572,31.445338],[131.370647,31.444746],[131.370809,31.444155],[131.371072,31.44348],[131.371272,31.442771],[131.371509,31.441122],[131.371597,31.440338],[131.371722,31.439763],[131.371997,31.438905],[131.372584,31.436372],[131.372559,31.435922],[131.372309,31.435472],[131.372109,31.435214],[131.371735,31.434289],[131.37146,31.433339],[131.371347,31.432631],[131.371322,31.432122],[131.371485,31.431581],[131.37156,31.431031],[131.371485,31.430606],[131.37156,31.430364],[131.37171,31.430173],[131.37171,31.430089],[131.371472,31.429739],[131.37121,31.429239],[131.371022,31.428264],[131.370852,31.428128],[131.370535,31.427989],[131.37001,31.427823],[131.36961,31.427539],[131.369449,31.427423],[131.369222,31.427289],[131.368885,31.427098],[131.368397,31.426681],[131.367847,31.426289],[131.367372,31.425814],[131.366923,31.425181],[131.366573,31.424506],[131.366485,31.424023],[131.366623,31.42349],[131.366785,31.423123],[131.366935,31.422498],[131.366935,31.42229],[131.366548,31.422065],[131.366348,31.421998],[131.365973,31.421615],[131.36576,31.42099],[131.36556,31.420707],[131.36511,31.42054],[131.364298,31.420407],[131.363948,31.42024],[131.36356,31.42009],[131.363298,31.419957],[131.361923,31.419557],[131.360536,31.419381],[131.359486,31.419206],[131.359134,31.41907],[131.358611,31.419098],[131.358086,31.419273],[131.357511,31.419348],[131.356223,31.41879],[131.355324,31.418498],[131.354536,31.41819],[131.353536,31.417406],[131.353486,31.417181],[131.353474,31.416598],[131.353261,31.415423],[131.353063,31.415346],[131.352774,31.415273],[131.352211,31.415115],[131.351853,31.414787],[131.351393,31.414606],[131.350999,31.414557],[131.349799,31.414565],[131.348924,31.414473],[131.348324,31.414615],[131.347212,31.414706],[131.346512,31.414506],[131.345762,31.41399],[131.345349,31.413431],[131.344499,31.41274],[131.343775,31.412565],[131.342662,31.411107],[131.3421,31.409465],[131.342025,31.408657],[131.341675,31.40789],[131.341225,31.405732],[131.3415,31.404315],[131.342025,31.403391],[131.343325,31.402124],[131.344187,31.401608],[131.3452,31.401083],[131.345862,31.400408],[131.3456,31.399258],[131.345587,31.398716],[131.345187,31.398566],[131.34455,31.398766],[131.343762,31.398975],[131.342775,31.399041],[131.340913,31.398983],[131.340038,31.398874],[131.339088,31.398991],[131.3385,31.399149],[131.337688,31.399174],[131.336913,31.399158],[131.335626,31.398849],[131.334838,31.398741],[131.333913,31.398566],[131.333501,31.397958],[131.332976,31.397441],[131.332439,31.396591],[131.332264,31.395825],[131.332114,31.395417],[131.332664,31.395508],[131.333714,31.396],[131.333801,31.39595],[131.333601,31.395658],[131.333251,31.39535],[131.333389,31.394833],[131.333801,31.394692],[131.334526,31.394983],[131.335076,31.395383],[131.335463,31.395433],[131.335751,31.39525],[131.335751,31.395133],[131.335513,31.394825],[131.334901,31.394508],[131.334201,31.394425],[131.333789,31.394308],[131.333264,31.39395],[131.333139,31.392717],[131.332702,31.391192],[131.332664,31.390534],[131.332427,31.389276],[131.332502,31.388426],[131.332764,31.387926],[131.333052,31.387609],[131.333214,31.386959],[131.333222,31.386552],[131.333214,31.386193],[131.333302,31.385768],[131.333127,31.385201],[131.333177,31.384685],[131.333652,31.382976],[131.334064,31.38216],[131.334639,31.381393],[131.334777,31.38106],[131.335302,31.380452],[131.336052,31.380018],[131.338014,31.379294],[131.338801,31.378769],[131.339401,31.378227],[131.340251,31.377886],[131.340851,31.377544],[131.341926,31.377294],[131.343226,31.376844],[131.344501,31.376636],[131.345463,31.375711],[131.346551,31.374711],[131.346901,31.374194],[131.347626,31.373269],[131.348138,31.372753],[131.348751,31.372386],[131.349676,31.372136],[131.3502,31.372045],[131.350338,31.371953],[131.35045,31.371595],[131.350138,31.37117],[131.349951,31.370761],[131.350013,31.370178],[131.349976,31.369528],[131.349851,31.368962],[131.349413,31.367687],[131.349138,31.366578],[131.348288,31.365479],[131.347388,31.364404],[131.346889,31.363887],[131.346189,31.363537],[131.345201,31.363179],[131.344701,31.362821],[131.344151,31.362504],[131.343651,31.362287],[131.343176,31.361879],[131.342514,31.361504],[131.341752,31.361479],[131.341064,31.361621],[131.339577,31.361804],[131.338914,31.361654],[131.337427,31.361046],[131.336377,31.360763],[131.335652,31.360763],[131.335077,31.361038],[131.334552,31.361421],[131.334065,31.361671],[131.333627,31.361788],[131.331915,31.362712],[131.331165,31.363029],[131.330128,31.363304],[131.328728,31.364079],[131.327865,31.364346],[131.327515,31.364354],[131.326678,31.364537],[131.324928,31.364854],[131.323778,31.365287],[131.323628,31.365245],[131.323191,31.365337],[131.323078,31.365404],[131.322791,31.365762],[131.322303,31.366129],[131.321753,31.366378],[131.321203,31.366695],[131.320478,31.367687],[131.319954,31.368095],[131.319154,31.36857],[131.318741,31.368678],[131.318454,31.368795],[131.318429,31.369061],[131.318254,31.369286],[131.317904,31.369653],[131.317616,31.370061],[131.317479,31.370461],[131.317304,31.370778],[131.316791,31.371319],[131.316554,31.371769],[131.316304,31.372428],[131.316166,31.373527],[131.316054,31.374902],[131.315941,31.375552],[131.315604,31.376744],[131.315579,31.376969],[131.315691,31.37731],[131.315666,31.377669],[131.315579,31.377852],[131.315441,31.378368],[131.315441,31.378818],[131.315616,31.379377],[131.315504,31.379943],[131.315479,31.380485],[131.315741,31.380727],[131.315579,31.38116],[131.315166,31.381701],[131.314604,31.382693],[131.314491,31.383226],[131.314291,31.383885],[131.314266,31.384268],[131.314004,31.384401],[131.314141,31.384651],[131.314291,31.384718],[131.314466,31.384984],[131.314529,31.385476],[131.314504,31.385884],[131.314399,31.386217],[131.314129,31.386451],[131.313404,31.387084],[131.312916,31.387417],[131.312516,31.387942],[131.312279,31.388326],[131.312054,31.388884],[131.311829,31.389176],[131.311417,31.389451],[131.310354,31.390334],[131.309979,31.390534],[131.309479,31.390675],[131.308842,31.390717],[131.308579,31.3907],[131.307917,31.3905],[131.306779,31.390325],[131.306479,31.3901],[131.306129,31.38965],[131.305692,31.389384],[131.305255,31.389184],[131.30508,31.388959],[131.304592,31.38885],[131.303805,31.38885],[131.303367,31.38865],[131.303105,31.388425],[131.303455,31.388042],[131.303967,31.387726],[131.30403,31.387476],[131.303767,31.387409],[131.303617,31.387434],[131.30293,31.387884],[131.30278,31.388025],[131.302342,31.387975],[131.301792,31.387417],[131.30108,31.386526],[131.300042,31.386117],[131.299368,31.385651],[131.298055,31.385542],[131.297393,31.385234],[131.296955,31.385276],[131.29658,31.385817],[131.295493,31.388117],[131.295005,31.388817],[131.294855,31.389092],[131.294368,31.389542],[131.293993,31.389433],[131.293693,31.389433],[131.29338,31.389542],[131.29323,31.38975],[131.29303,31.389858],[131.292568,31.389908],[131.291868,31.389683],[131.291343,31.389417],[131.290818,31.38895],[131.290493,31.388383],[131.290055,31.387892],[131.289256,31.386617],[131.288818,31.385359],[131.288381,31.384859],[131.287793,31.384592],[131.287006,31.384017],[131.286281,31.383634],[131.285606,31.383184],[131.285106,31.382784],[131.284468,31.382675],[131.283893,31.382409],[131.283156,31.381776],[131.282494,31.381534],[131.280344,31.381584],[131.280081,31.3815],[131.279819,31.381367],[131.279319,31.381342],[131.278331,31.3818],[131.277781,31.381934],[131.276856,31.381959],[131.276006,31.3819],[131.274119,31.381317],[131.273219,31.381142],[131.272344,31.381167],[131.271819,31.381325],[131.271594,31.381325],[131.270919,31.381175],[131.269269,31.380909],[131.26842,31.380734],[131.267695,31.380509],[131.266907,31.38045],[131.26627,31.380334],[131.265632,31.380092],[131.264932,31.380009],[131.263482,31.37965],[131.26287,31.379542],[131.262345,31.379742],[131.261858,31.380133],[131.261333,31.380358],[131.260745,31.380475],[131.259858,31.3807],[131.258345,31.380683],[131.257095,31.380575],[131.255871,31.380533],[131.255296,31.380558],[131.254683,31.380717],[131.254246,31.380725],[131.254071,31.380858],[131.254096,31.3809],[131.253846,31.381108],[131.253721,31.381083],[131.253583,31.381216],[131.253433,31.381441],[131.252971,31.381783],[131.252546,31.382166],[131.252396,31.38235],[131.251208,31.383458],[131.250658,31.383883],[131.250146,31.384224],[131.248121,31.385449],[131.247641,31.385611],[131.247034,31.385858],[131.246596,31.385949],[131.246346,31.386066],[131.246021,31.386332],[131.245421,31.387191],[131.245046,31.387599],[131.244671,31.388074],[131.243859,31.388841],[131.242971,31.389807],[131.242684,31.390415],[131.242346,31.391682],[131.241659,31.392624],[131.241571,31.392899],[131.241134,31.393707],[131.240934,31.394207],[131.240621,31.394698],[131.240309,31.395782],[131.240221,31.39639],[131.239971,31.396956],[131.239834,31.397473],[131.239859,31.398056],[131.239946,31.398573],[131.239871,31.399156],[131.239846,31.399673],[131.239759,31.400039],[131.239759,31.400439],[131.239621,31.400914],[131.239533,31.401431],[131.239483,31.402198],[131.239283,31.402756],[131.238933,31.403189],[131.238446,31.403506],[131.237296,31.404231],[131.236746,31.404639],[131.235784,31.405206],[131.235758,31.405447],[131.235883,31.405897],[131.236346,31.406531],[131.236971,31.407806],[131.237033,31.408306],[131.236808,31.409314],[131.236808,31.410172],[131.236758,31.411205],[131.236996,31.41163],[131.237121,31.412214],[131.236695,31.414222],[131.236796,31.414601],[131.23687,31.414872],[131.236995,31.415663],[131.237433,31.415813],[131.23772,31.416263],[131.23837,31.416871],[131.239095,31.417405],[131.23977,31.418013],[131.240595,31.418638],[131.241557,31.419154],[131.242282,31.419371],[131.242632,31.419554],[131.243007,31.419546],[131.243032,31.419279],[131.242807,31.419238],[131.242457,31.419263],[131.24187,31.419079],[131.241082,31.418771],[131.240445,31.418388],[131.23962,31.417563],[131.23962,31.41743],[131.239945,31.41718],[131.240408,31.416996],[131.240808,31.41693],[131.240972,31.416905],[131.241357,31.416971],[131.241632,31.417263],[131.241632,31.417371],[131.241307,31.418005],[131.24157,31.41818],[131.241982,31.418363],[131.242645,31.418205],[131.243032,31.418379],[131.243145,31.418471],[131.24332,31.418738],[131.243845,31.419054],[131.244257,31.419046],[131.244432,31.419096],[131.244845,31.419629],[131.244982,31.420188],[131.245032,31.420396],[131.245032,31.420621],[131.244832,31.422196],[131.244732,31.422671],[131.244444,31.423529],[131.244369,31.424046],[131.243957,31.424404],[131.244057,31.424696],[131.243744,31.424829],[131.243619,31.425012],[131.243544,31.425262],[131.243644,31.425529],[131.243594,31.425662],[131.243182,31.426137],[131.242394,31.42677],[131.241994,31.42702],[131.241394,31.427495],[131.240719,31.428237],[131.240094,31.428695],[131.239169,31.429104],[131.238019,31.429487],[131.236782,31.430054],[131.236257,31.430262],[131.234845,31.430446],[131.234257,31.430446],[131.233682,31.430404],[131.232757,31.430204],[131.232257,31.430029],[131.232132,31.429896],[131.232257,31.429762],[131.232307,31.429604],[131.232382,31.429171],[131.232357,31.428904],[131.232145,31.428479],[131.231982,31.428363],[131.231857,31.428213],[131.23177,31.427646],[131.23162,31.427379],[131.231507,31.427038],[131.231345,31.426929],[131.231108,31.426546],[131.23092,31.426163],[131.230633,31.426121],[131.230133,31.426105],[131.229845,31.425971],[131.229708,31.425788],[131.229708,31.425588],[131.229208,31.42498],[131.229158,31.424846],[131.228883,31.424463],[131.228708,31.424288],[131.228308,31.424196],[131.22797,31.424196],[131.227733,31.424288],[131.22757,31.424496],[131.227545,31.424671],[131.227595,31.42483],[131.227783,31.424938],[131.227945,31.425305],[131.22792,31.425505],[131.228033,31.425663],[131.228008,31.426046],[131.227958,31.426338],[131.227845,31.426563],[131.227608,31.42683],[131.227483,31.426921],[131.227458,31.426988],[131.227483,31.427263],[131.227408,31.427463],[131.226858,31.42798],[131.226683,31.42848],[131.226545,31.429463],[131.226633,31.429688],[131.226658,31.430004],[131.226483,31.430346],[131.226458,31.430571],[131.226558,31.430771],[131.226533,31.430863],[131.22662,31.431129],[131.226695,31.431446],[131.226545,31.431829],[131.226333,31.432012],[131.225833,31.432329],[131.225408,31.432421],[131.224833,31.432421],[131.22452,31.432488],[131.224308,31.432804],[131.22442,31.432896],[131.224445,31.433121],[131.22437,31.433254],[131.22432,31.433571],[131.224158,31.433929],[131.223945,31.434221],[131.223795,31.434379],[131.223583,31.434404],[131.223558,31.434379],[131.223583,31.434446],[131.22367,31.434879],[131.223433,31.435504],[131.22302,31.436029],[131.22267,31.436362],[131.222383,31.436729],[131.22197,31.437179],[131.221395,31.437853],[131.220895,31.43837],[131.22017,31.439003],[131.219883,31.43932],[131.218995,31.440086],[131.218308,31.440586],[131.21747,31.440928],[131.217133,31.44097],[131.21687,31.441086],[131.216583,31.441336],[131.215921,31.441786],[131.215508,31.441969],[131.215446,31.442103],[131.215196,31.442244],[131.214671,31.442536],[131.214171,31.442761],[131.213596,31.443103],[131.213433,31.443144],[131.213121,31.443328],[131.212671,31.443511],[131.212283,31.443553],[131.211908,31.443536],[131.211808,31.443494],[131.211458,31.443203],[131.211408,31.442994],[131.211246,31.442819],[131.210909,31.442686],[131.210646,31.442753],[131.210571,31.442886],[131.210596,31.442953],[131.210771,31.443136],[131.210908,31.443336],[131.210958,31.443561],[131.210908,31.443836],[131.210496,31.444236],[131.210121,31.444394],[131.209896,31.444469],[131.209784,31.444311],[131.209621,31.444127],[131.209234,31.443794],[131.208971,31.443727],[131.208809,31.443769],[131.208734,31.443911],[131.209284,31.445094],[131.209109,31.445769],[131.209559,31.446802],[131.209836,31.447892],[131.210021,31.448494],[131.209608,31.449235],[131.209134,31.449818],[131.208984,31.45011],[131.208871,31.450768],[131.208671,31.451085],[131.208009,31.451693],[131.207671,31.451918],[131.207046,31.452435],[131.206659,31.452685],[131.205946,31.453051],[131.205209,31.453476],[131.204371,31.453843],[131.203421,31.454184],[131.202322,31.454434],[131.201584,31.454526],[131.198097,31.455192],[131.197572,31.455334],[131.197072,31.455401],[131.196597,31.455426],[131.196022,31.455492],[131.195385,31.455609],[131.194647,31.455634],[131.19426,31.455684],[131.193835,31.455659],[131.192622,31.455842],[131.191073,31.456009],[131.19036,31.455925],[131.190123,31.455767],[131.189648,31.455475],[131.189448,31.455434],[131.188885,31.455209],[131.188673,31.455209],[131.188498,31.4553],[131.188448,31.455209],[131.18831,31.455209],[131.188235,31.455342],[131.18831,31.4555],[131.18826,31.455592],[131.187973,31.4558],[131.187923,31.4558],[131.18766,31.455975],[131.18761,31.456109],[131.187498,31.456159],[131.187448,31.456292],[131.18743,31.456401],[131.187423,31.45645],[131.187373,31.456634],[131.187273,31.456675],[131.18651,31.456833],[131.185323,31.456775],[131.184398,31.456242],[131.184211,31.45635],[131.183848,31.456483],[131.183473,31.456558],[131.182086,31.456542],[131.180873,31.456317],[131.180398,31.456167],[131.179923,31.455967],[131.179448,31.455717],[131.178811,31.4552],[131.177999,31.454259],[131.177649,31.45325],[131.177677,31.453032],[131.177724,31.452734],[131.177961,31.452551],[131.178086,31.452376],[131.178274,31.452234],[131.178586,31.452126],[131.178774,31.452126],[131.178899,31.452009],[131.178924,31.451651],[131.178661,31.451384],[131.178424,31.451334],[131.178286,31.450659],[131.178499,31.450618],[131.178499,31.450343],[131.178286,31.450051],[131.178124,31.450076],[131.178024,31.450284],[131.178024,31.450459],[131.177949,31.450484],[131.177661,31.450326],[131.177411,31.450101],[131.177309,31.450049],[131.177174,31.449993],[131.177049,31.449968],[131.17696,31.449894],[131.176865,31.449856],[131.176711,31.449834],[131.176436,31.449793],[131.176261,31.449818],[131.176124,31.449793],[131.176099,31.449884],[131.176174,31.449909],[131.176161,31.450559],[131.176111,31.450667],[131.175661,31.450534],[131.175499,31.450292],[131.175474,31.450176],[131.175024,31.450026],[131.174924,31.450109],[131.174861,31.450109],[131.174687,31.450026],[131.174594,31.449982],[131.174449,31.449976],[131.174399,31.450134],[131.174337,31.450359],[131.174374,31.450384],[131.174337,31.450517],[131.174253,31.450638],[131.173787,31.450701],[131.173474,31.450792],[131.173212,31.451084],[131.172949,31.451109],[131.172799,31.451042],[131.172537,31.451067],[131.172449,31.451042],[131.172274,31.451092],[131.172162,31.451292],[131.172137,31.451584],[131.172199,31.451859],[131.172162,31.451942],[131.171987,31.452151],[131.171699,31.452175],[131.171412,31.452125],[131.170874,31.451926],[131.170637,31.451909],[131.170512,31.452017],[131.170515,31.452202],[131.170487,31.452309],[131.170387,31.452559],[131.170515,31.452831],[131.170574,31.452967],[131.170674,31.453275],[131.170712,31.454067],[131.170812,31.454758],[131.170762,31.455033],[131.170662,31.455283],[131.170137,31.4558],[131.169849,31.455825],[131.169487,31.4558],[131.169349,31.455825],[131.169162,31.455942],[131.168849,31.456208],[131.168824,31.4563],[131.169224,31.456566],[131.169299,31.456591],[131.16947,31.456702],[131.169532,31.456817],[131.169512,31.456991],[131.168949,31.458258],[131.168624,31.458549],[131.168362,31.458708],[131.167974,31.458891],[131.167237,31.459008],[131.166662,31.458916],[131.166212,31.458758],[131.166162,31.458358],[131.165949,31.458041],[131.165999,31.457883],[131.166099,31.457933],[131.166237,31.457791],[131.166199,31.457683],[131.165837,31.457433],[131.165487,31.457166],[131.165362,31.457216],[131.165273,31.457259],[131.165175,31.457366],[131.164975,31.457958],[131.164762,31.458049],[131.164412,31.458024],[131.164337,31.458074],[131.164187,31.458249],[131.164425,31.458516],[131.16435,31.458791],[131.164212,31.458991],[131.163925,31.459241],[131.16345,31.459558],[131.162725,31.460007],[131.162487,31.460057],[131.16225,31.460032],[131.162162,31.459991],[131.162012,31.459791],[131.161925,31.459766],[131.16178,31.459856],[131.161662,31.459899],[131.1614,31.459991],[131.161137,31.459991],[131.1609,31.459882],[131.160633,31.459894],[131.160487,31.459816],[131.160512,31.459641],[131.1603,31.459507],[131.16025,31.459507],[131.160137,31.459682],[131.160225,31.459907],[131.1603,31.460024],[131.1602,31.460266],[131.160225,31.460474],[131.160675,31.461124],[131.160812,31.461432],[131.16065,31.461682],[131.160387,31.461891],[131.16055,31.462157],[131.160787,31.462515],[131.160925,31.463032],[131.161,31.463574],[131.161275,31.46404],[131.161462,31.464199],[131.162725,31.465073],[131.163062,31.465365],[131.163037,31.465498],[131.162887,31.466015],[131.162762,31.466173],[131.162437,31.466465],[131.162262,31.46674],[131.162237,31.466848],[131.16245,31.467206],[131.162549,31.467481],[131.162662,31.468081],[131.162949,31.468515],[131.163037,31.468806],[131.163037,31.469098],[131.162987,31.469323],[131.162849,31.469498],[131.162824,31.469681],[131.162937,31.469931],[131.163312,31.470198],[131.163674,31.470506],[131.163787,31.470689],[131.163787,31.470956],[131.163624,31.471364],[131.163662,31.471498],[131.163637,31.471773],[131.163662,31.472356],[131.163999,31.472714],[131.164212,31.473114],[131.164412,31.473839],[131.164537,31.474597],[131.164462,31.474806],[131.164312,31.474914],[131.164262,31.475114],[131.164337,31.475339],[131.164712,31.475997],[131.164874,31.476489],[131.164774,31.477255],[131.164512,31.477972],[131.164199,31.478897],[131.163862,31.479838],[131.163862,31.480205],[131.163974,31.480447],[131.164374,31.480988],[131.164086,31.481688],[131.164011,31.482272],[131.163849,31.48243],[131.163674,31.482538],[131.163536,31.482722],[131.163411,31.483371],[131.163311,31.48353],[131.163274,31.483738],[131.163174,31.484071],[131.163311,31.484205],[131.163836,31.484471],[131.163886,31.484546],[131.163949,31.484905],[131.164161,31.48598],[131.164349,31.486363],[131.165011,31.487121],[131.165036,31.487213],[131.165224,31.487438],[131.165436,31.487846],[131.165549,31.488496],[131.165811,31.489188],[131.165974,31.489346],[131.166261,31.489529],[131.167448,31.490154],[131.167761,31.490371],[131.168323,31.490887],[131.168586,31.491312],[131.168748,31.491987],[131.168698,31.492662],[131.168773,31.492871],[131.168961,31.492979],[131.169198,31.493046],[131.169723,31.493137],[131.169911,31.493129],[131.170148,31.493196],[131.170836,31.493804],[131.171073,31.494162],[131.171136,31.494387],[131.171111,31.494637],[131.170898,31.494995],[131.170423,31.495512],[131.170323,31.495762],[131.169848,31.49612],[131.169298,31.496395],[131.169036,31.49662],[131.168961,31.496804],[131.169036,31.497045],[131.169311,31.497545],[131.169473,31.498153],[131.169498,31.498937],[131.169585,31.499187],[131.169735,31.499453],[131.17011,31.500078],[131.171198,31.501378],[131.171598,31.501786],[131.171935,31.501961],[131.17231,31.502078],[131.172835,31.502136],[131.173573,31.502161],[131.174723,31.502403],[131.175198,31.502445],[131.17546,31.502553],[131.176072,31.503386],[131.176235,31.503511],[131.176197,31.503553],[131.176585,31.504028],[131.176697,31.504544],[131.176822,31.504836],[131.177047,31.505061],[131.177697,31.505253],[131.178072,31.505478],[131.17866,31.506003],[131.178985,31.506194],[131.179322,31.506286],[131.179872,31.506328],[131.180335,31.506461],[131.181197,31.506819],[131.181697,31.506986],[131.182185,31.507086],[131.182672,31.507111],[131.184197,31.507028],[131.184572,31.507119],[131.185347,31.507486],[131.185822,31.507653],[131.186197,31.507711],[131.186534,31.507711],[131.186659,31.507886],[131.186897,31.508527],[131.187197,31.508677],[131.187447,31.508627],[131.188509,31.508336],[131.188859,31.508336],[131.189209,31.508469],[131.189534,31.508644],[131.190184,31.509244],[131.190484,31.509469],[131.190971,31.509552],[131.192421,31.509594],[131.193034,31.509677],[131.193409,31.509886],[131.193771,31.510244],[131.194084,31.510502],[131.194709,31.510869],[131.195309,31.511269],[131.195621,31.511402],[131.196346,31.511594],[131.196696,31.511635],[131.197084,31.51166],[131.197184,31.511727],[131.197284,31.512435],[131.197459,31.512727],[131.197796,31.51311],[131.199508,31.514643],[131.199608,31.514818],[131.199708,31.515168],[131.200033,31.515785],[131.200146,31.516393],[131.200671,31.51751],[131.200771,31.51791],[131.200771,31.518393],[131.200708,31.518918],[131.200396,31.520493],[131.20012,31.522301],[131.200083,31.523017],[131.200283,31.524567],[131.20027,31.525334],[131.200645,31.526225],[131.20092,31.526675],[131.200995,31.526933],[131.200933,31.5273],[131.20042,31.528717],[131.200195,31.529533],[131.200245,31.529666],[131.200433,31.529791],[131.20097,31.530316],[131.201158,31.530591],[131.20142,31.531166],[131.201483,31.531391],[131.20112,31.531941],[131.200733,31.532674],[131.20017,31.533466],[131.199733,31.534183],[131.199358,31.534674],[131.199283,31.535266],[131.199145,31.535524],[131.198433,31.536199],[131.198383,31.536291],[131.198045,31.537216],[131.197658,31.537924],[131.197558,31.538274],[131.197308,31.53884],[131.197308,31.53894],[131.19777,31.539457],[131.19792,31.539757],[131.19797,31.54019],[131.198095,31.540407],[131.19867,31.541182],[131.19882,31.541565],[131.198783,31.54179],[131.19802,31.543407],[131.197583,31.544498],[131.197545,31.544831],[131.197595,31.545215],[131.19757,31.545631],[131.19752,31.545756],[131.197208,31.546081],[131.19687,31.546248],[131.195983,31.546581],[131.195933,31.54689],[131.196233,31.547823],[131.196457,31.548348],[131.196832,31.548798],[131.196907,31.549089],[131.196907,31.549364],[131.19682,31.549681],[131.196682,31.549998],[131.196282,31.550697],[131.196232,31.550856],[131.195582,31.552072],[131.195382,31.552322],[131.19497,31.552739],[131.194282,31.553147],[131.193307,31.553589],[131.192483,31.554022],[131.19207,31.554364],[131.191633,31.554939],[131.191345,31.555672],[131.19107,31.556313],[131.190845,31.55653],[131.190458,31.556763],[131.189258,31.557372],[131.188983,31.557547],[131.188933,31.557638],[131.189195,31.557638],[131.189908,31.557672],[131.190408,31.557797],[131.191432,31.558238],[131.191795,31.558455],[131.19227,31.55878],[131.192682,31.559172],[131.193832,31.560005],[131.194207,31.560705],[131.19462,31.561313],[131.194895,31.56203],[131.19512,31.562505],[131.19532,31.562763],[131.195595,31.562979],[131.196532,31.563421],[131.197469,31.563704],[131.198719,31.563788],[131.199119,31.563921],[131.199607,31.564146],[131.200019,31.564721],[131.200307,31.565329],[131.200782,31.565946],[131.201169,31.566288],[131.201482,31.566762],[131.201957,31.567071],[131.201944,31.567446],[131.201832,31.567696],[131.201594,31.568046],[131.201157,31.568487],[131.200157,31.569121],[131.200482,31.569479],[131.200744,31.569595],[131.200994,31.569812],[131.201082,31.570145],[131.201319,31.570537],[131.201432,31.570604],[131.201794,31.570512],[131.201969,31.570545],[131.202432,31.57087],[131.202869,31.57147],[131.203119,31.572079],[131.203194,31.572462],[131.203106,31.572853],[131.203094,31.573112],[131.203469,31.573595],[131.203956,31.57462],[131.204431,31.576403],[131.204706,31.577645],[131.204731,31.578111],[131.204631,31.578803],[131.204781,31.579069],[131.205081,31.579403],[131.205319,31.579894],[131.205356,31.580119],[131.204844,31.581452],[131.204081,31.582977],[131.203794,31.583427],[131.203306,31.584002],[131.202606,31.585335],[131.202356,31.58626],[131.202169,31.586535],[131.201869,31.586835],[131.201644,31.587585],[131.201431,31.58801],[131.201131,31.588276],[131.201031,31.588501],[131.200919,31.589085],[131.200669,31.589535],[131.200494,31.589735],[131.200319,31.589893],[131.199456,31.590359],[131.199081,31.590559],[131.198806,31.590743],[131.198656,31.590968],[131.198469,31.591484],[131.198569,31.592434],[131.198531,31.592792],[131.198331,31.593442],[131.197944,31.594301],[131.197594,31.59515],[131.197032,31.595467],[131.196707,31.595617],[131.196382,31.5958],[131.196032,31.596092],[131.195369,31.596967],[131.195044,31.597167],[131.193857,31.59765],[131.193532,31.597808],[131.193232,31.598033],[131.192919,31.5983],[131.192544,31.598567],[131.192394,31.598633],[131.192044,31.5989],[131.191682,31.599375],[131.191457,31.599733],[131.191357,31.6],[131.191307,31.600316],[131.191232,31.600566],[131.191119,31.600675],[131.190819,31.600925],[131.190519,31.6011],[131.189519,31.601525],[131.188957,31.601741],[131.188782,31.601966],[131.188607,31.602416],[131.188419,31.602708],[131.187594,31.603224],[131.187294,31.603558],[131.187132,31.603991],[131.187082,31.604299],[131.186957,31.604616],[131.186419,31.605266],[131.186369,31.605607],[131.186332,31.606866],[131.185869,31.607565],[131.185794,31.607882],[131.185969,31.608607],[131.186182,31.60924],[131.186182,31.609307],[131.185932,31.609574],[131.185632,31.609799],[131.185457,31.610024],[131.185244,31.610357],[131.185269,31.610565],[131.185769,31.611057],[131.185894,31.61129],[131.186257,31.612573],[131.186644,31.613323],[131.186994,31.614156],[131.187281,31.615248],[131.187656,31.615739],[131.187981,31.616014],[131.188481,31.616381],[131.188769,31.616606],[131.189244,31.617264],[131.189394,31.617473],[131.189594,31.617648],[131.189794,31.617723],[131.190044,31.617681],[131.190244,31.617748],[131.190269,31.617789],[131.189869,31.618014],[131.189406,31.618306],[131.189281,31.618464],[131.189231,31.618731],[131.189381,31.621489],[131.189443,31.62223],[131.189468,31.622255],[131.189981,31.621914],[131.190631,31.621289],[131.190943,31.621047],[131.191268,31.620889],[131.191593,31.620847],[131.192643,31.620806],[131.192893,31.620697],[131.193118,31.620564],[131.193481,31.620114],[131.193606,31.619981],[131.193806,31.620006],[131.193981,31.620414],[131.194243,31.620889],[131.195305,31.622364],[131.19558,31.622814],[131.195705,31.623172],[131.195718,31.624597],[131.195655,31.625497],[131.195705,31.625772],[131.195905,31.626063],[131.196555,31.626522],[131.196818,31.626772],[131.197217,31.627496],[131.197342,31.627838],[131.197455,31.628446],[131.19738,31.62923],[131.197292,31.62998],[131.197292,31.630429],[131.197217,31.630671],[131.19703,31.630921],[131.19698,31.631079],[131.197005,31.631263],[131.19728,31.631688],[131.197467,31.632463],[131.198467,31.633596],[131.198692,31.633729],[131.199442,31.633896],[131.199892,31.634121],[131.201167,31.634196],[131.201542,31.634271],[131.201942,31.634454],[131.202217,31.634704],[131.202429,31.635046],[131.202454,31.635362],[131.202404,31.635696],[131.202379,31.636037],[131.202492,31.637004],[131.202217,31.637254],[131.201704,31.637654],[131.199917,31.639287],[131.199817,31.639787],[131.199929,31.640645],[131.199854,31.641228],[131.199742,31.641545],[131.199342,31.642103],[131.198929,31.642978],[131.198379,31.643428],[131.197617,31.644411],[131.197392,31.644544],[131.196579,31.644744],[131.195205,31.644761],[131.193855,31.644728],[131.193355,31.644636],[131.19278,31.644694],[131.192272,31.644875],[131.191892,31.644936],[131.191317,31.644911],[131.191142,31.644953],[131.190992,31.645111],[131.190842,31.645361],[131.190642,31.645586],[131.190255,31.645719],[131.18943,31.645802],[131.18913,31.645911],[131.18808,31.646336],[131.187693,31.646444],[131.186618,31.646886],[131.18578,31.647511],[131.184943,31.648569],[131.184618,31.649169],[131.18413,31.649894],[131.183405,31.650544],[131.182993,31.650743],[131.182568,31.650827],[131.181093,31.650818],[131.180918,31.65086],[131.180818,31.650927],[131.180718,31.651043],[131.180656,31.651268],[131.180681,31.651668],[131.180856,31.652393],[131.180993,31.65346],[131.180956,31.654135],[131.180293,31.655435],[131.180243,31.65571],[131.179631,31.656759],[131.179281,31.657193],[131.178493,31.657834],[131.177668,31.658351],[131.176806,31.658618],[131.176231,31.658834],[131.175931,31.659243],[131.175568,31.659709],[131.175293,31.659892],[131.175043,31.660159],[131.174843,31.660492],[131.174506,31.661309],[131.174381,31.661534],[131.174168,31.661734],[131.173594,31.662225],[131.172631,31.662759],[131.172156,31.663342],[131.171906,31.6635],[131.171506,31.663675],[131.170794,31.664217],[131.170544,31.664509],[131.170381,31.664908],[131.170481,31.6655],[131.170519,31.666175],[131.170469,31.666492],[131.170219,31.66685],[131.169969,31.667008],[131.169406,31.667275],[131.169156,31.66745],[131.169106,31.66765],[131.169106,31.668258],[131.168981,31.668375],[131.168319,31.668591],[131.168144,31.668683],[131.167669,31.668925],[131.166556,31.669191],[131.165082,31.669766],[131.164444,31.6699],[131.164319,31.669966],[131.164169,31.670158],[131.164094,31.670274],[131.163719,31.670566],[131.163519,31.670583],[131.162912,31.670384],[131.162594,31.670308],[131.161844,31.670574],[131.160912,31.670585],[131.160357,31.670699],[131.160721,31.671491],[131.160807,31.671666],[131.161094,31.672549],[131.161307,31.673499],[131.161332,31.673949],[131.161307,31.674382],[131.161469,31.674741],[131.161794,31.674991],[131.162844,31.675407],[131.163644,31.675616],[131.164069,31.675866],[131.164394,31.676324],[131.164431,31.676616],[131.164956,31.677274],[131.165531,31.677866],[131.165744,31.678274],[131.165994,31.678682],[131.166203,31.679034],[131.166394,31.679357],[131.166756,31.680357],[131.166843,31.681299],[131.167493,31.682099],[131.168018,31.682457],[131.168156,31.683249],[131.168831,31.684048],[131.169093,31.684407],[131.169168,31.685332],[131.169118,31.685623],[131.169231,31.685982],[131.169456,31.686173],[131.170581,31.686832],[131.171668,31.687631],[131.172293,31.687723],[131.173368,31.688406],[131.173868,31.688523],[131.173993,31.688665],[131.174018,31.688931],[131.173993,31.689206],[131.174118,31.689473],[131.174505,31.689681],[131.174955,31.689956],[131.175155,31.690156],[131.175305,31.690815],[131.175205,31.69104],[131.175168,31.691223],[131.175417,31.691648],[131.175667,31.691898],[131.176117,31.692081],[131.176567,31.692315],[131.17723,31.69324],[131.17813,31.694131],[131.17848,31.694381],[131.179042,31.694881],[131.180062,31.695039],[131.180712,31.695412],[131.181142,31.695839],[131.181742,31.696389],[131.182179,31.696839],[131.182304,31.697114],[131.182979,31.697839],[131.183479,31.698206],[131.184379,31.698639],[131.185117,31.699272],[131.185242,31.699347],[131.185642,31.699214],[131.185954,31.698964],[131.186229,31.698656],[131.186629,31.698539],[131.187104,31.698481],[131.18779,31.698421],[131.188229,31.698414],[131.189579,31.698656],[131.190004,31.698773],[131.190504,31.698956],[131.190779,31.698998],[131.191129,31.699181],[131.191654,31.699747],[131.192554,31.700389],[131.193078,31.700706],[131.193641,31.701164],[131.194216,31.701756],[131.194153,31.702631],[131.194203,31.702772],[131.194353,31.70288],[131.195228,31.702889],[131.195716,31.702822],[131.196453,31.703305],[131.197103,31.70383],[131.197578,31.704147],[131.199103,31.704722],[131.200378,31.705089],[131.201053,31.705072],[131.202003,31.70483],[131.20244,31.704472],[131.202515,31.704339],[131.20274,31.704139],[131.203165,31.704097],[131.203265,31.704139],[131.20364,31.704597],[131.203865,31.70478],[131.204828,31.705464],[131.205528,31.706322],[131.205753,31.70653],[131.206078,31.706714],[131.206728,31.706805],[131.207327,31.707014],[131.208365,31.707722],[131.20869,31.70788],[131.20899,31.707922],[131.209565,31.70818],[131.20964,31.70843],[131.20994,31.70888],[131.21034,31.709172],[131.211527,31.709797],[131.212127,31.709797],[131.212377,31.709863],[131.212952,31.710322],[131.213052,31.710372],[131.213127,31.710372],[131.213452,31.71048],[131.213452,31.710505],[131.213252,31.710755],[131.213027,31.711313],[131.21284,31.711588],[131.212708,31.71178],[131.21254,31.712055],[131.212369,31.712214],[131.21224,31.712388],[131.212102,31.712663],[131.211777,31.712888],[131.211277,31.712905],[131.210877,31.712972],[131.210602,31.713055],[131.210402,31.71333],[131.210365,31.713505],[131.210647,31.71426],[131.210969,31.714753],[131.211165,31.714888],[131.21154,31.714955],[131.21194,31.715138],[131.21224,31.715213],[131.212564,31.71503],[131.212889,31.714988],[131.213189,31.715288],[131.213489,31.715446],[131.214314,31.715471],[131.214714,31.715413],[131.214964,31.715255],[131.215677,31.714513],[131.216327,31.71418],[131.217389,31.713688],[131.217889,31.71358],[131.218089,31.71358],[131.218989,31.71368],[131.219989,31.713505],[131.220439,31.71353],[131.220914,31.713672],[131.221264,31.713697],[131.222051,31.713655],[131.222626,31.713838],[131.223201,31.713847],[131.223909,31.713791],[131.224376,31.713763],[131.224976,31.713697],[131.225551,31.713588],[131.226801,31.713847],[131.227526,31.713922],[131.228313,31.713905],[131.228676,31.714088],[131.229501,31.714297],[131.230201,31.714863],[131.230901,31.715613],[131.2313,31.715913],[131.231675,31.716113],[131.2321,31.71623],[131.232125,31.716297],[131.232088,31.71673],[131.232113,31.717338],[131.232088,31.717655],[131.2321,31.718038],[131.232325,31.718688],[131.232725,31.71908],[131.233275,31.71928],[131.23395,31.719471],[131.23431,31.719902],[131.234288,31.720371],[131.234113,31.720688],[131.234475,31.721571],[131.235325,31.722613],[131.235425,31.722813],[131.235437,31.722996],[131.235337,31.723354],[131.235212,31.723721],[131.234775,31.724846],[131.234662,31.725788],[131.234687,31.726129],[131.234862,31.726171],[131.235112,31.726196],[131.235362,31.726179],[131.235637,31.726221],[131.235862,31.726338],[131.236412,31.727021],[131.236637,31.727154],[131.237087,31.727296],[131.237787,31.727454],[131.237962,31.727546],[131.238187,31.727846],[131.238225,31.728496],[131.238349,31.729062],[131.238274,31.729287],[131.237962,31.729604],[131.237562,31.729754],[131.237237,31.730021],[131.237087,31.730387],[131.237181,31.731035],[131.237649,31.731471],[131.237949,31.731829],[131.238387,31.732512],[131.239187,31.733012],[131.239862,31.73347],[131.240562,31.733454],[131.241512,31.733462],[131.242011,31.733529],[131.242436,31.73362],[131.242811,31.733829],[131.243086,31.733945],[131.243461,31.73392],[131.245274,31.733104],[131.245799,31.732996],[131.246274,31.733112],[131.246886,31.733137],[131.247669,31.733084],[131.247849,31.733104],[131.248736,31.733429],[131.249161,31.733754],[131.251148,31.734729],[131.251536,31.734987],[131.251936,31.734987],[131.252536,31.734879],[131.255785,31.734679],[131.256735,31.734604],[131.257735,31.734629],[131.25831,31.734837],[131.258698,31.735045],[131.25921,31.735712],[131.259382,31.73589],[131.259659,31.735966],[131.25991,31.735987],[131.260235,31.736462],[131.261123,31.738045],[131.261585,31.739078],[131.261597,31.739237],[131.261535,31.739487],[131.261035,31.740228],[131.260935,31.740595],[131.260947,31.74107],[131.26116,31.741611],[131.261297,31.742203],[131.261235,31.74397],[131.26136,31.744544],[131.26171,31.745128],[131.26206,31.745469],[131.26276,31.746019],[131.263022,31.746303],[131.26336,31.746911],[131.263534,31.747644],[131.263859,31.748678],[131.263834,31.748869],[131.263509,31.749253],[131.263472,31.749386],[131.263597,31.749736],[131.264134,31.750286],[131.264384,31.750619],[131.264609,31.751144],[131.264859,31.751477],[131.265247,31.751769],[131.265584,31.752286],[131.266172,31.752952],[131.266512,31.753256],[131.266772,31.753494],[131.267297,31.753961],[131.267709,31.754485],[131.268072,31.754819],[131.268671,31.755177],[131.268859,31.755494],[131.268721,31.756985],[131.268559,31.758335],[131.268421,31.758852],[131.268071,31.759618],[131.267896,31.760385],[131.267871,31.761377],[131.267596,31.762843],[131.267546,31.763876],[131.267709,31.764443],[131.268046,31.765093],[131.268209,31.76586],[131.268421,31.766385],[131.268759,31.767009],[131.269284,31.767668],[131.269746,31.768518]]]},"type":"Feature"}]}