{"features":[{"type":"Feature","geometry":{"type":"Polygon","coordinates":[[[130.717198,31.588149],[130.717236,31.587999],[130.717398,31.587749],[130.717173,31.587399],[130.716898,31.587132],[130.716873,31.587007],[130.716961,31.586824],[130.716898,31.586674],[130.716848,31.586582],[130.716623,31.586541],[130.716436,31.586424],[130.715998,31.586249],[130.715961,31.586066],[130.716023,31.585816],[130.716186,31.585682],[130.716436,31.585566],[130.716461,31.585416],[130.716373,31.585274],[130.715998,31.585033],[130.715611,31.584716],[130.715299,31.584649],[130.714974,31.584691],[130.714749,31.584874],[130.714724,31.584874],[130.714699,31.584599],[130.714811,31.584491],[130.715061,31.584399],[130.715249,31.584174],[130.715238,31.584003],[130.715224,31.583883],[130.714949,31.583158],[130.714699,31.582774],[130.714499,31.582624],[130.714361,31.582599],[130.714286,31.582641],[130.714124,31.582958],[130.714011,31.583049],[130.713874,31.582799],[130.713761,31.582783],[130.713624,31.582849],[130.712984,31.582689],[130.712886,31.582574],[130.712911,31.582374],[130.712474,31.581949],[130.712199,31.581766],[130.712111,31.581741],[130.711749,31.581791],[130.711586,31.581883],[130.711174,31.582199],[130.710899,31.581991],[130.710649,31.582133],[130.710599,31.582283],[130.710412,31.582333],[130.710274,31.582174],[130.709962,31.582133],[130.709824,31.582041],[130.709449,31.582149],[130.709412,31.582199],[130.709449,31.582358],[130.709587,31.582516],[130.709587,31.582674],[130.709137,31.582649],[130.708862,31.582558],[130.708649,31.582399],[130.708287,31.582291],[130.708174,31.582199],[130.708237,31.582016],[130.708487,31.581683],[130.708787,31.581391],[130.708974,31.581408],[130.709137,31.581541],[130.709662,31.581658],[130.710074,31.581833],[130.710437,31.581699],[130.710687,31.581541],[130.710787,31.581249],[130.710824,31.580999],[130.710762,31.580375],[130.710324,31.580191],[130.710299,31.579941],[130.710324,31.579875],[130.710262,31.579608],[130.710124,31.579333],[130.709799,31.579175],[130.709474,31.579091],[130.709087,31.578483],[130.709049,31.5783],[130.709224,31.578208],[130.709362,31.5783],[130.709574,31.578525],[130.709849,31.578708],[130.710162,31.578725],[130.710349,31.578683],[130.710762,31.5785],[130.711062,31.578233],[130.711337,31.577891],[130.711499,31.57735],[130.711587,31.576808],[130.711612,31.576767],[130.711637,31.576792],[130.711862,31.576792],[130.712212,31.576992],[130.712486,31.577192],[130.712761,31.577308],[130.713099,31.577392],[130.713424,31.577417],[130.713649,31.577325],[130.713899,31.577308],[130.714174,31.577167],[130.714449,31.576942],[130.714474,31.576875],[130.714411,31.576292],[130.714574,31.576042],[130.714849,31.575775],[130.715049,31.575408],[130.715349,31.575342],[130.715786,31.575075],[130.715874,31.574959],[130.716199,31.574692],[130.716336,31.574484],[130.716011,31.573967],[130.715099,31.573675],[130.714774,31.573517],[130.714549,31.57345],[130.714299,31.57345],[130.714024,31.573542],[130.713674,31.573834],[130.713536,31.5737],[130.713337,31.573767],[130.713287,31.5737],[130.713149,31.573134],[130.713861,31.572959],[130.713886,31.572975],[130.714361,31.572642],[130.714436,31.572325],[130.714274,31.571875],[130.714049,31.571692],[130.713974,31.571467],[130.714386,31.571442],[130.714736,31.571309],[130.714874,31.571176],[130.714874,31.570909],[130.714824,31.570659],[130.714687,31.570317],[130.714374,31.570026],[130.714187,31.569984],[130.714024,31.569892],[130.713937,31.569642],[130.713799,31.569484],[130.713499,31.569326],[130.713305,31.569195],[130.713112,31.569017],[130.712724,31.568584],[130.712624,31.568542],[130.712037,31.568584],[130.711962,31.568426],[130.711737,31.567776],[130.711487,31.567593],[130.711375,31.567527],[130.711173,31.567433],[130.710912,31.567326],[130.710682,31.567232],[130.710549,31.567076],[130.710587,31.566968],[130.710799,31.566759],[130.710999,31.566518],[130.711162,31.566451],[130.711437,31.566401],[130.711687,31.566176],[130.712099,31.566134],[130.712499,31.566043],[130.712637,31.566059],[130.713137,31.566468],[130.713387,31.566626],[130.713712,31.566651],[130.714074,31.566559],[130.714212,31.566626],[130.714299,31.566893],[130.714674,31.566918],[130.715012,31.567076],[130.715224,31.567101],[130.715449,31.567234],[130.715724,31.567209],[130.715999,31.567143],[130.716049,31.567026],[130.715999,31.566893],[130.715912,31.566893],[130.715812,31.566759],[130.715699,31.566509],[130.715062,31.565993],[130.715112,31.565809],[130.715362,31.565968],[130.715449,31.565993],[130.715699,31.566218],[130.715999,31.566126],[130.716349,31.565809],[130.716249,31.565476],[130.716349,31.565318],[130.716412,31.565359],[130.716487,31.565226],[130.716487,31.565026],[130.716274,31.564935],[130.715749,31.564818],[130.715499,31.564843],[130.715499,31.564818],[130.715724,31.564735],[130.717199,31.564643],[130.717536,31.564776],[130.718524,31.56536],[130.718799,31.565451],[130.719186,31.565426],[130.719624,31.565335],[130.720149,31.565335],[130.720336,31.565401],[130.720199,31.565851],[130.720374,31.565918],[130.720449,31.565918],[130.720811,31.565784],[130.721249,31.565759],[130.721411,31.565784],[130.721524,31.565743],[130.721524,31.565518],[130.721274,31.564793],[130.721237,31.564623],[130.721161,31.564368],[130.721086,31.564143],[130.721224,31.563735],[130.721186,31.563693],[130.721024,31.563618],[130.720811,31.563601],[130.720336,31.563285],[130.720111,31.562768],[130.720149,31.56256],[130.720086,31.562293],[130.719899,31.56196],[130.719536,31.56166],[130.718799,31.561285],[130.718636,31.561143],[130.718274,31.560985],[130.718024,31.560835],[130.717837,31.56061],[130.717287,31.56031],[130.716949,31.560202],[130.716599,31.55991],[130.716324,31.559777],[130.715549,31.559568],[130.714749,31.559485],[130.714312,31.559393],[130.714149,31.559327],[130.712987,31.559302],[130.712137,31.559102],[130.710762,31.559035],[130.710437,31.558993],[130.71005,31.558902],[130.709312,31.558385],[130.709062,31.558318],[130.708725,31.558268],[130.70845,31.55816],[130.707763,31.558027],[130.707575,31.55796],[130.707075,31.557893],[130.70675,31.557735],[130.706638,31.557593],[130.706577,31.55735],[130.706563,31.557143],[130.70595,31.556943],[130.7054,31.55681],[130.704413,31.556652],[130.703975,31.556635],[130.70285,31.55681],[130.702325,31.556835],[130.701138,31.55681],[130.699301,31.556435],[130.698638,31.556251],[130.698388,31.556118],[130.698337,31.555832],[130.698313,31.555577],[130.698138,31.555577],[130.697813,31.555485],[130.697676,31.555485],[130.697488,31.555376],[130.696801,31.555151],[130.696551,31.554835],[130.696251,31.554835],[130.696051,31.554793],[130.695838,31.55481],[130.695639,31.554993],[130.695501,31.555043],[130.695339,31.555018],[130.695064,31.55511],[130.694814,31.555126],[130.694514,31.55506],[130.694189,31.554926],[130.694076,31.554793],[130.694101,31.554635],[130.694076,31.554343],[130.694264,31.554251],[130.694376,31.554276],[130.694401,31.554568],[130.694351,31.55466],[130.694351,31.554793],[130.694789,31.554968],[130.695089,31.554926],[130.695526,31.554726],[130.695701,31.554476],[130.696026,31.554343],[130.696076,31.554202],[130.696026,31.554068],[130.695839,31.55396],[130.695545,31.55389],[130.695408,31.55383],[130.695226,31.553777],[130.695151,31.55371],[130.695226,31.553368],[130.695501,31.553368],[130.695588,31.553343],[130.695701,31.553302],[130.695776,31.552985],[130.696076,31.552718],[130.696051,31.552202],[130.695939,31.552068],[130.695526,31.551702],[130.695476,31.551702],[130.695314,31.55186],[130.695139,31.552135],[130.695001,31.552202],[130.694901,31.552385],[130.694926,31.552585],[130.694839,31.552627],[130.694564,31.552535],[130.694426,31.552293],[130.694239,31.552202],[130.694101,31.552202],[130.693326,31.552543],[130.692751,31.552701],[130.692126,31.552743],[130.691876,31.552718],[130.691601,31.552635],[130.691474,31.552533],[130.691264,31.552185],[130.690989,31.55211],[130.690776,31.552185],[130.690501,31.552385],[130.690201,31.552793],[130.690001,31.552835],[130.689889,31.552768],[130.689814,31.552543],[130.689839,31.552276],[130.689814,31.552051],[130.689677,31.551868],[130.689514,31.551776],[130.689289,31.551776],[130.689039,31.551826],[130.689127,31.552343],[130.688989,31.552518],[130.688139,31.553018],[130.688114,31.553176],[130.688214,31.553651],[130.688352,31.553943],[130.688189,31.553918],[130.687702,31.553534],[130.687314,31.553309],[130.686952,31.553218],[130.685689,31.553134],[130.685552,31.553068],[130.685602,31.552926],[130.685827,31.552843],[130.685964,31.552634],[130.686014,31.552318],[130.686264,31.552118],[130.686564,31.552026],[130.686952,31.552001],[130.687339,31.551843],[130.687639,31.551801],[130.687777,31.551685],[130.687614,31.55131],[130.687664,31.551218],[130.687827,31.551235],[130.687939,31.551301],[130.688002,31.551551],[130.688239,31.551776],[130.688514,31.551643],[130.688627,31.551443],[130.688652,31.551285],[130.688764,31.551143],[130.688989,31.550943],[130.689202,31.550677],[130.689264,31.550518],[130.689152,31.550452],[130.688852,31.550452],[130.688689,31.550385],[130.688652,31.550177],[130.688739,31.549977],[130.688464,31.549618],[130.688489,31.54901],[130.688377,31.548943],[130.688164,31.548943],[130.687752,31.549027],[130.687664,31.549168],[130.687664,31.549252],[130.687277,31.549568],[130.686627,31.549593],[130.686589,31.549568],[130.686627,31.549435],[130.687039,31.549393],[130.687339,31.549102],[130.687689,31.54851],[130.687777,31.548443],[130.687889,31.54826],[130.687614,31.548085],[130.687302,31.548085],[130.687202,31.547885],[130.687277,31.547652],[130.687227,31.547502],[130.687002,31.547427],[130.686752,31.547518],[130.686102,31.547993],[130.685902,31.548043],[130.685827,31.548152],[130.685789,31.548377],[130.685647,31.548321],[130.685439,31.548202],[130.685165,31.548285],[130.685165,31.548377],[130.68494,31.548377],[130.684702,31.548043],[130.68469,31.547635],[130.684752,31.547527],[130.685302,31.547477],[130.685377,31.547343],[130.685277,31.546985],[130.685602,31.54671],[130.685552,31.546552],[130.685377,31.546443],[130.685215,31.54626],[130.685052,31.54626],[130.684727,31.546577],[130.684615,31.546552],[130.684615,31.546418],[130.68469,31.546218],[130.685052,31.545743],[130.68514,31.545402],[130.685027,31.545294],[130.684777,31.545269],[130.68439,31.545468],[130.684002,31.545943],[130.683815,31.545943],[130.683627,31.545785],[130.683452,31.545402],[130.68349,31.545293],[130.68324,31.54516],[130.68294,31.544935],[130.68274,31.544619],[130.682577,31.544552],[130.68214,31.54446],[130.682027,31.544485],[130.681977,31.544644],[130.682002,31.544843],[130.682302,31.545452],[130.682352,31.545768],[130.68219,31.545743],[130.682002,31.545768],[130.681865,31.545743],[130.681615,31.545477],[130.681452,31.54561],[130.681315,31.545635],[130.681015,31.545518],[130.681115,31.545343],[130.68104,31.545185],[130.680952,31.545185],[130.680765,31.545093],[130.680603,31.544843],[130.680628,31.54451],[130.680703,31.544443],[130.680703,31.544352],[130.68019,31.543969],[130.680053,31.54406],[130.679828,31.544285],[130.679778,31.54451],[130.679528,31.545052],[130.679415,31.545135],[130.679165,31.545252],[130.679088,31.545386],[130.678978,31.545452],[130.678653,31.545027],[130.678378,31.544893],[130.678313,31.544821],[130.678178,31.544693],[130.678015,31.544327],[130.67804,31.544152],[130.677878,31.54401],[130.677603,31.543968],[130.677378,31.54401],[130.677303,31.54426],[130.677328,31.544693],[130.67744,31.544918],[130.677578,31.545368],[130.678103,31.546177],[130.678065,31.54631],[130.677965,31.546377],[130.677765,31.546177],[130.677628,31.545818],[130.677378,31.545343],[130.677165,31.54516],[130.676828,31.54501],[130.676228,31.544852],[130.676115,31.544868],[130.67609,31.545027],[130.676115,31.545185],[130.676065,31.545477],[130.676228,31.545685],[130.676365,31.546043],[130.676415,31.546335],[130.676315,31.54656],[130.675928,31.546768],[130.675765,31.546926],[130.675715,31.547058],[130.675678,31.547193],[130.675628,31.547393],[130.675465,31.547601],[130.675328,31.548093],[130.675403,31.548251],[130.676178,31.548343],[130.676365,31.548068],[130.67634,31.54791],[130.676503,31.547751],[130.67664,31.54771],[130.67694,31.547751],[130.677165,31.547735],[130.67739,31.547893],[130.677528,31.547935],[130.677578,31.548068],[130.677603,31.548343],[130.677665,31.54841],[130.67774,31.548635],[130.677603,31.548701],[130.677278,31.548743],[130.676915,31.548835],[130.676753,31.548968],[130.676728,31.549043],[130.676753,31.549285],[130.67689,31.549576],[130.67689,31.549718],[130.67664,31.549734],[130.676453,31.549826],[130.676253,31.550051],[130.67609,31.550143],[130.675928,31.550418],[130.675715,31.550459],[130.675678,31.550684],[130.67574,31.551026],[130.676177,31.551651],[130.676152,31.551743],[130.676202,31.552376],[130.676315,31.552709],[130.676452,31.553076],[130.676427,31.553409],[130.676315,31.553817],[130.67624,31.553926],[130.676152,31.553951],[130.675965,31.553909],[130.675852,31.553817],[130.675852,31.553617],[130.675765,31.553434],[130.67574,31.553142],[130.675738,31.553011],[130.67574,31.552826],[130.675652,31.552626],[130.675465,31.552534],[130.675215,31.552467],[130.675027,31.552284],[130.674965,31.552309],[130.674965,31.552351],[130.674778,31.552376],[130.67444,31.552309],[130.674228,31.552126],[130.674253,31.552059],[130.674528,31.552017],[130.675402,31.551967],[130.675715,31.552017],[130.675902,31.551901],[130.675902,31.551743],[130.675627,31.551426],[130.674828,31.551068],[130.674528,31.551026],[130.674503,31.550909],[130.674381,31.550359],[130.674303,31.550101],[130.674223,31.54999],[130.674109,31.549835],[130.673978,31.549693],[130.67379,31.549359],[130.673728,31.548976],[130.673653,31.548926],[130.673203,31.548843],[130.67304,31.548684],[130.672878,31.548618],[130.67279,31.548659],[130.67269,31.548843],[130.672682,31.548933],[130.67269,31.549084],[130.672726,31.549235],[130.67279,31.549609],[130.672903,31.549834],[130.672903,31.550034],[130.672853,31.550034],[130.672465,31.549851],[130.672165,31.549876],[130.672078,31.549968],[130.67224,31.550418],[130.672368,31.550604],[130.672515,31.550776],[130.672696,31.550951],[130.672856,31.551045],[130.672965,31.551093],[130.673153,31.551209],[130.67324,31.551292],[130.673203,31.551384],[130.672878,31.551317],[130.672645,31.551084],[130.672415,31.550959],[130.672228,31.550877],[130.672028,31.550826],[130.671786,31.550791],[130.671553,31.550709],[130.67134,31.550643],[130.671049,31.55055],[130.67084,31.550668],[130.670644,31.551088],[130.670523,31.551291],[130.670394,31.551459],[130.67029,31.551617],[130.67024,31.551701],[130.670015,31.551776],[130.66999,31.551884],[130.670078,31.552017],[130.670428,31.552084],[130.670603,31.552151],[130.670565,31.552309],[130.670378,31.552426],[130.670128,31.552492],[130.669915,31.552609],[130.669115,31.552784],[130.668728,31.552967],[130.668478,31.552992],[130.667991,31.552834],[130.667878,31.552559],[130.667653,31.552292],[130.667403,31.552159],[130.667241,31.552159],[130.667028,31.552292],[130.666941,31.552426],[130.666941,31.552992],[130.667028,31.553217],[130.667303,31.553484],[130.667191,31.553559],[130.666916,31.553642],[130.666753,31.553667],[130.666528,31.5536],[130.666453,31.553625],[130.666316,31.553784],[130.666141,31.553825],[130.665791,31.553759],[130.665316,31.553734],[130.665128,31.553692],[130.665041,31.553559],[130.664966,31.553242],[130.664803,31.552884],[130.663866,31.552317],[130.663703,31.552276],[130.663116,31.551917],[130.662816,31.551934],[130.662541,31.552001],[130.661829,31.552092],[130.661441,31.552051],[130.659679,31.551942],[130.659404,31.551826],[130.659079,31.551784],[130.658804,31.551651],[130.658204,31.551626],[130.657697,31.551502],[130.657454,31.551442],[130.657219,31.551414],[130.657022,31.551392],[130.656703,31.551352],[130.656392,31.551334],[130.655642,31.551359],[130.655179,31.551292],[130.654842,31.551134],[130.654467,31.550884],[130.654079,31.550709],[130.653717,31.550659],[130.653304,31.550751],[130.652892,31.550642],[130.652367,31.550434],[130.65193,31.550009],[130.651605,31.550101],[130.651355,31.550351],[130.651192,31.550459],[130.651038,31.550473],[130.650967,31.550434],[130.650942,31.550351],[130.65078,31.550126],[130.65078,31.550076],[130.650917,31.549967],[130.65078,31.549784],[130.650617,31.549809],[130.64998,31.549493],[130.649705,31.549451],[130.649217,31.549651],[130.648855,31.549651],[130.648667,31.549718],[130.648417,31.549876],[130.64803,31.550034],[130.647868,31.550192],[130.647455,31.550234],[130.647455,31.550167],[130.647618,31.549809],[130.647368,31.549742],[130.647255,31.549767],[130.647093,31.550009],[130.646705,31.549518],[130.646355,31.548909],[130.646218,31.548501],[130.646193,31.547984],[130.64608,31.547718],[130.645805,31.547376],[130.645143,31.546859],[130.644843,31.546768],[130.644505,31.546751],[130.643656,31.546818],[130.642918,31.547043],[130.641931,31.547201],[130.641731,31.547201],[130.641589,31.547173],[130.641318,31.547068],[130.641081,31.547018],[130.640881,31.546634],[130.640968,31.546168],[130.640906,31.545918],[130.640831,31.545851],[130.640218,31.545509],[130.639343,31.545218],[130.639094,31.545268],[130.638906,31.545426],[130.638544,31.545493],[130.638244,31.545584],[130.638194,31.545668],[130.637881,31.545851],[130.637806,31.545943],[130.637331,31.546101],[130.636981,31.546143],[130.636481,31.546218],[130.636181,31.546393],[130.635856,31.546551],[130.635704,31.546707],[130.635469,31.546934],[130.635419,31.547159],[130.635244,31.547409],[130.635239,31.547564],[130.635219,31.547659],[130.635194,31.547909],[130.635306,31.548176],[130.635281,31.548584],[130.635356,31.549167],[130.635494,31.549234],[130.635606,31.549209],[130.635881,31.549934],[130.635886,31.550035],[130.635881,31.550117],[130.635081,31.550275],[130.634756,31.550409],[130.634594,31.550384],[130.634419,31.550409],[130.634344,31.550359],[130.634094,31.550317],[130.633844,31.550359],[130.633681,31.5505],[130.633494,31.550567],[130.633355,31.550687],[130.633269,31.550767],[130.633019,31.55095],[130.632944,31.551175],[130.632969,31.551284],[130.632906,31.551983],[130.632969,31.552075],[130.633019,31.552325],[130.633106,31.552392],[130.633131,31.552658],[130.632906,31.552775],[130.632856,31.552958],[130.633244,31.552958],[130.633244,31.553],[130.633081,31.553025],[130.632994,31.5532],[130.632631,31.553158],[130.632606,31.553292],[130.632831,31.5535],[130.632769,31.5537],[130.632556,31.553883],[130.632331,31.554191],[130.631919,31.554891],[130.631594,31.555208],[130.630744,31.555575],[130.630656,31.555658],[130.630331,31.555933],[130.629644,31.556183],[130.629206,31.55625],[130.628706,31.556633],[130.628629,31.556744],[130.628447,31.556817],[130.628269,31.556725],[130.628019,31.556858],[130.627994,31.556949],[130.628044,31.556991],[130.628044,31.557108],[130.627969,31.557133],[130.627719,31.557133],[130.627332,31.557083],[130.626782,31.556908],[130.626807,31.556541],[130.626394,31.556075],[130.626319,31.55585],[130.626319,31.555733],[130.626394,31.555375],[130.626369,31.554925],[130.626094,31.55465],[130.625494,31.554133],[130.625269,31.553908],[130.624995,31.552808],[130.624857,31.5526],[130.62437,31.552425],[130.624032,31.552175],[130.623957,31.552175],[130.623891,31.552191],[130.623732,31.552242],[130.623507,31.552442],[130.623295,31.552717],[130.623157,31.552833],[130.62307,31.552833],[130.622907,31.552967],[130.622857,31.553217],[130.622707,31.553417],[130.622357,31.5536],[130.621695,31.553975],[130.620482,31.5551],[130.620432,31.555275],[130.620457,31.555708],[130.620695,31.556608],[130.62067,31.55695],[130.620495,31.557058],[130.62032,31.557325],[130.620257,31.557575],[130.620307,31.557866],[130.6204,31.558307],[130.620387,31.558808],[130.620445,31.559316],[130.620482,31.560666],[130.620532,31.561074],[130.620482,31.561249],[130.620357,31.561366],[130.620107,31.561499],[130.619932,31.561432],[130.619807,31.561607],[130.619795,31.561882],[130.619545,31.562124],[130.61927,31.562257],[130.617995,31.562541],[130.617807,31.562607],[130.616432,31.562874],[130.615908,31.563024],[130.615458,31.563224],[130.615045,31.563266],[130.61457,31.563357],[130.614345,31.563491],[130.614145,31.563941],[130.613958,31.564632],[130.613458,31.565532],[130.613145,31.566249],[130.612895,31.566657],[130.612633,31.566974],[130.612383,31.567732],[130.61202,31.568207],[130.61172,31.568524],[130.611133,31.569399],[130.610495,31.570565],[130.610145,31.571282],[130.60997,31.571598],[130.609558,31.57209],[130.60887,31.573573],[130.608495,31.574048],[130.608183,31.57434],[130.607858,31.574515],[130.607383,31.57469],[130.607158,31.574715],[130.606983,31.57469],[130.606708,31.574531],[130.606158,31.574348],[130.605733,31.57434],[130.605633,31.574323],[130.605208,31.573998],[130.604858,31.574131],[130.604658,31.57409],[130.604508,31.573948],[130.604308,31.573907],[130.603583,31.573923],[130.603258,31.573898],[130.602958,31.573782],[130.602833,31.573715],[130.602458,31.57369],[130.602208,31.573757],[130.601971,31.573932],[130.601796,31.574473],[130.601646,31.574698],[130.601346,31.574673],[130.601021,31.574556],[130.600646,31.574648],[130.600383,31.574915],[130.600133,31.575298],[130.600008,31.575431],[130.599733,31.575831],[130.599346,31.575965],[130.598671,31.57614],[130.598396,31.576298],[130.598371,31.576573],[130.598496,31.576773],[130.598746,31.577048],[130.599208,31.57734],[130.599208,31.577498],[130.598983,31.577973],[130.598983,31.578131],[130.599083,31.578489],[130.598871,31.578714],[130.598546,31.578873],[130.598346,31.579048],[130.598021,31.579548],[130.598008,31.579839],[130.598108,31.580106],[130.598183,31.580423],[130.598433,31.581039],[130.598621,31.581556],[130.598521,31.581581],[130.597971,31.581347],[130.597833,31.580939],[130.597483,31.580356],[130.597283,31.580106],[130.597033,31.579873],[130.596883,31.579698],[130.596858,31.579356],[130.596796,31.579173],[130.596521,31.579081],[130.596196,31.579056],[130.595409,31.579164],[130.594759,31.580014],[130.594021,31.580148],[130.593421,31.580081],[130.593171,31.580256],[130.592946,31.580481],[130.591959,31.580972],[130.591759,31.581172],[130.591709,31.581281],[130.591659,31.581597],[130.591396,31.582181],[130.591321,31.582614],[130.591396,31.582814],[130.592071,31.583114],[130.592196,31.583364],[130.592034,31.584014],[130.592084,31.584172],[130.592309,31.584355],[130.592534,31.584489],[130.592434,31.584714],[130.592234,31.584897],[130.592146,31.585214],[130.592146,31.585414],[130.591971,31.585639],[130.591721,31.585797],[130.591521,31.586155],[130.591421,31.586888],[130.59138,31.587305],[130.591346,31.587605],[130.591396,31.588238],[130.591334,31.588422],[130.591184,31.588572],[130.591084,31.588913],[130.591159,31.58903],[130.591334,31.589097],[130.591334,31.589122],[130.591534,31.58923],[130.591833,31.589505],[130.592033,31.58948],[130.592133,31.589622],[130.592171,31.589888],[130.592146,31.590138],[130.591946,31.590321],[130.591871,31.590496],[130.591921,31.590546],[130.592346,31.59073],[130.592546,31.590888],[130.593058,31.59168],[130.593408,31.591813],[130.593908,31.591821],[130.594183,31.591913],[130.594971,31.591738],[130.595271,31.591805],[130.595846,31.592038],[130.596108,31.592238],[130.596308,31.592263],[130.596358,31.592696],[130.597683,31.592638],[130.597695,31.592121],[130.59797,31.591713],[130.59817,31.591605],[130.59837,31.591563],[130.59947,31.592196],[130.59917,31.59258],[130.59932,31.592671],[130.59962,31.592313],[130.599795,31.592538],[130.599745,31.592921],[130.599433,31.594113],[130.599858,31.594255],[130.599595,31.595154],[130.599295,31.595579],[130.599155,31.595692],[130.599033,31.595846],[130.598983,31.596054],[130.598958,31.596504],[130.598883,31.596704],[130.598533,31.596838],[130.598533,31.596904],[130.598645,31.596996],[130.599195,31.597271],[130.59962,31.597388],[130.600633,31.597238],[130.602107,31.597113],[130.604532,31.596946],[130.605195,31.596954],[130.605132,31.597313],[130.605457,31.597429],[130.605582,31.597388],[130.60587,31.597188],[130.60612,31.597254],[130.606207,31.597321],[130.606982,31.598112],[130.607432,31.598704],[130.60762,31.599179],[130.60807,31.599521],[130.60827,31.599729],[130.608569,31.600179],[130.608744,31.600654],[130.608807,31.600904],[130.608832,31.601962],[130.608669,31.602279],[130.608744,31.602545],[130.608869,31.602862],[130.609269,31.603478],[130.609119,31.603545],[130.608907,31.60372],[130.608932,31.603928],[130.609494,31.603753],[130.609507,31.603837],[130.609457,31.603953],[130.609432,31.604112],[130.609607,31.60447],[130.610744,31.605678],[130.610994,31.606062],[130.611094,31.606578],[130.611107,31.60757],[130.611394,31.608886],[130.611719,31.609203],[130.612694,31.609678],[130.613344,31.610094],[130.614056,31.610794],[130.615106,31.611636],[130.615531,31.611886],[130.616706,31.612436],[130.616881,31.612578],[130.616994,31.612844],[130.617219,31.613277],[130.617344,31.613319],[130.617443,31.613277],[130.617593,31.613052],[130.617768,31.613119],[130.619043,31.613969],[130.619243,31.614219],[130.619518,31.614694],[130.620156,31.616294],[130.620393,31.616685],[130.620693,31.617044],[130.621043,31.61736],[130.621493,31.617685],[130.622393,31.618185],[130.622728,31.618341],[130.62443,31.619494],[130.624418,31.61981],[130.624618,31.61996],[130.624868,31.61976],[130.625518,31.620169],[130.626518,31.620685],[130.627905,31.621252],[130.62918,31.621602],[130.629692,31.62166],[130.630042,31.621668],[130.630505,31.62176],[130.63118,31.621627],[130.631992,31.62156],[130.633242,31.621385],[130.634779,31.62111],[130.635979,31.620769],[130.636304,31.620644],[130.636892,31.62051],[130.637454,31.620427],[130.638016,31.620469],[130.638079,31.620519],[130.637941,31.620994],[130.638229,31.62106],[130.638641,31.620635],[130.638754,31.620627],[130.639454,31.62081],[130.640454,31.620794],[130.641866,31.620702],[130.642479,31.620686],[130.642841,31.620727],[130.643753,31.620986],[130.644141,31.621127],[130.644953,31.621552],[130.645153,31.621627],[130.645603,31.621744],[130.646503,31.621744],[130.647603,31.621844],[130.64839,31.621961],[130.64964,31.622252],[130.650115,31.622411],[130.650378,31.622535],[130.650215,31.62271],[130.650215,31.622785],[130.650503,31.62291],[130.650703,31.622752],[130.651165,31.623444],[130.651353,31.62376],[130.651765,31.624235],[130.652328,31.624527],[130.652378,31.624627],[130.65234,31.624777],[130.65329,31.62511],[130.654165,31.625369],[130.655115,31.625527],[130.657265,31.625594],[130.657852,31.625644],[130.65819,31.62571],[130.658377,31.625794],[130.658352,31.626027],[130.658402,31.62606],[130.658615,31.626077],[130.65874,31.62586],[130.659602,31.626152],[130.660689,31.626394],[130.661052,31.626519],[130.661152,31.626835],[130.661277,31.62691],[130.661827,31.626827],[130.662402,31.626585],[130.663352,31.626327],[130.664014,31.62621],[130.664439,31.626177],[130.664377,31.626535],[130.664702,31.626527],[130.665039,31.626244],[130.665164,31.626202],[130.665689,31.626202],[130.666014,31.62616],[130.666164,31.626177],[130.666676,31.626452],[130.666964,31.626685],[130.667739,31.627177],[130.667976,31.627369],[130.668389,31.62751],[130.668714,31.627569],[130.668839,31.627544],[130.669189,31.627569],[130.670389,31.627327],[130.671226,31.627111],[130.671838,31.626827],[130.672351,31.626527],[130.673038,31.626152],[130.673263,31.625986],[130.673338,31.625794],[130.673513,31.625611],[130.673651,31.625386],[130.673688,31.625019],[130.673726,31.624977],[130.673988,31.624886],[130.674313,31.624902],[130.674688,31.624986],[130.674926,31.625094],[130.675076,31.625244],[130.675026,31.625911],[130.675151,31.626577],[130.675576,31.627527],[130.675776,31.627836],[130.676213,31.628219],[130.676463,31.628502],[130.676716,31.628776],[130.676963,31.628977],[130.677225,31.629135],[130.67765,31.629277],[130.677975,31.629435],[130.678288,31.629494],[130.6784,31.62946],[130.678925,31.629444],[130.679688,31.629144],[130.679875,31.628769],[130.679988,31.627927],[130.680213,31.627561],[130.680538,31.627486],[130.680838,31.627344],[130.681088,31.627136],[130.681238,31.626769],[130.681413,31.626486],[130.682,31.625819],[130.68215,31.625444],[130.682236,31.625217],[130.682388,31.624944],[130.682566,31.624877],[130.682775,31.624694],[130.682813,31.624511],[130.682913,31.624428],[130.68315,31.624319],[130.683463,31.623844],[130.683563,31.623411],[130.6836,31.623044],[130.683813,31.622378],[130.684075,31.622003],[130.684288,31.621778],[130.684938,31.62147],[130.685488,31.621353],[130.685887,31.621345],[130.68615,31.621386],[130.6863,31.621545],[130.686337,31.621945],[130.6862,31.62237],[130.686187,31.622653],[130.686387,31.623061],[130.686562,31.623219],[130.687025,31.623303],[130.6879,31.623228],[130.688187,31.623253],[130.6886,31.623411],[130.688862,31.623611],[130.689162,31.623645],[130.689275,31.623636],[130.689637,31.623486],[130.69,31.623211],[130.690287,31.623111],[130.690625,31.62312],[130.690875,31.62337],[130.691737,31.624511],[130.692162,31.624786],[130.692412,31.624803],[130.692712,31.624603],[130.693137,31.624236],[130.693324,31.624103],[130.693512,31.623603],[130.693974,31.623361],[130.694162,31.623236],[130.694312,31.623036],[130.694562,31.623145],[130.694912,31.623545],[130.694924,31.623736],[130.694874,31.624111],[130.694949,31.624336],[130.695149,31.624553],[130.695624,31.624778],[130.696137,31.625103],[130.696362,31.625111],[130.696974,31.624678],[130.697249,31.624545],[130.697537,31.624328],[130.697674,31.623911],[130.697599,31.623653],[130.697449,31.623536],[130.696937,31.623311],[130.696637,31.623245],[130.696137,31.623245],[130.695974,31.622936],[130.696049,31.622886],[130.696387,31.62287],[130.696687,31.62272],[130.696949,31.622462],[130.697262,31.622237],[130.698262,31.622187],[130.698687,31.622028],[130.698974,31.62187],[130.699449,31.621437],[130.699836,31.620745],[130.699986,31.620378],[130.699999,31.619529],[130.699862,31.61892],[130.699737,31.618737],[130.699474,31.618654],[130.699062,31.61867],[130.699012,31.618595],[130.699074,31.61842],[130.699887,31.617845],[130.700062,31.617554],[130.700274,31.616862],[130.700437,31.61662],[130.701074,31.616404],[130.701336,31.616279],[130.701474,31.616071],[130.701436,31.615521],[130.701474,31.615279],[130.701711,31.615087],[130.701849,31.614637],[130.702036,31.614496],[130.702811,31.614612],[130.703024,31.614579],[130.703524,31.614396],[130.703749,31.614279],[130.703799,31.614221],[130.703886,31.613971],[130.703874,31.613679],[130.703924,31.613404],[130.704111,31.613221],[130.704899,31.613271],[130.705211,31.613188],[130.705574,31.612938],[130.705811,31.612996],[130.706199,31.613163],[130.706499,31.613154],[130.706849,31.613071],[130.707036,31.612854],[130.707236,31.612479],[130.707424,31.612263],[130.708623,31.61198],[130.708848,31.611855],[130.708961,31.611663],[130.709048,31.61133],[130.709023,31.61108],[130.708873,31.610713],[130.708686,31.610496],[130.707636,31.609713],[130.707174,31.609446],[130.707074,31.609288],[130.707186,31.609046],[130.707324,31.608921],[130.707524,31.608846],[130.707661,31.608705],[130.707861,31.608572],[130.708136,31.608155],[130.708674,31.607688],[130.708886,31.607572],[130.709174,31.60753],[130.709661,31.607297],[130.709923,31.607038],[130.710011,31.606372],[130.710074,31.605272],[130.710348,31.605047],[130.710848,31.605164],[130.711186,31.60518],[130.711536,31.605005],[130.711736,31.604647],[130.711786,31.604372],[130.711911,31.604222],[130.712711,31.603947],[130.713136,31.60393],[130.713386,31.604189],[130.713723,31.60433],[130.714186,31.604239],[130.714611,31.604047],[130.714898,31.603856],[130.715486,31.603381],[130.715848,31.603306],[130.716311,31.603297],[130.716623,31.603147],[130.71731,31.602614],[130.717348,31.602522],[130.717273,31.602306],[130.717073,31.602181],[130.716461,31.601889],[130.716223,31.601689],[130.715923,31.601181],[130.715761,31.600798],[130.715586,31.600564],[130.715323,31.600448],[130.714923,31.600398],[130.714523,31.600539],[130.714311,31.600673],[130.714161,31.600697],[130.713786,31.600581],[130.713548,31.600406],[130.713348,31.600189],[130.713023,31.599314],[130.712898,31.598731],[130.712786,31.598639],[130.712523,31.598623],[130.712323,31.598573],[130.712098,31.598548],[130.711786,31.598564],[130.711474,31.598639],[130.711199,31.598789],[130.711024,31.598948],[130.711086,31.599256],[130.711061,31.599514],[130.710949,31.599648],[130.710449,31.599831],[130.709961,31.599889],[130.709786,31.599797],[130.709674,31.599581],[130.709724,31.598823],[130.709786,31.598598],[130.710086,31.598598],[130.710361,31.598639],[130.710611,31.598481],[130.710786,31.597981],[130.711186,31.597881],[130.711474,31.597856],[130.711886,31.597748],[130.712211,31.597623],[130.712373,31.597456],[130.712398,31.597198],[130.712274,31.597014],[130.712136,31.596948],[130.711386,31.596831],[130.711249,31.596748],[130.711249,31.596673],[130.711511,31.596123],[130.711561,31.59584],[130.712149,31.595898],[130.712461,31.595848],[130.712549,31.59569],[130.712586,31.59544],[130.712461,31.59489],[130.712111,31.594406],[130.712236,31.594323],[130.712824,31.594615],[130.713198,31.594648],[130.713261,31.594806],[130.713448,31.595023],[130.713923,31.595031],[130.714273,31.595006],[130.714561,31.594931],[130.714773,31.594681],[130.714886,31.594415],[130.714848,31.594048],[130.714923,31.593707],[130.715023,31.593557],[130.715598,31.593423],[130.715973,31.593207],[130.716294,31.593071],[130.716586,31.593123],[130.716823,31.59334],[130.717136,31.593373],[130.717423,31.593265],[130.717673,31.593357],[130.718123,31.593232],[130.718186,31.593048],[130.717961,31.592373],[130.718048,31.592082],[130.718173,31.591899],[130.718186,31.591657],[130.718361,31.591507],[130.718561,31.591432],[130.718936,31.591132],[130.719073,31.590874],[130.719023,31.590674],[130.718761,31.590357],[130.718586,31.590324],[130.718136,31.590107],[130.718061,31.58994],[130.718161,31.589607],[130.718161,31.589349],[130.718073,31.589057],[130.717886,31.588807],[130.717748,31.588757],[130.717673,31.588665],[130.717623,31.588507],[130.717423,31.588307],[130.717198,31.588149]]]},"properties":{"pref":"鹿児島県","kuni_id":"K70","yomi":"きたをほすみ","name":"北大隅","kuni":"大隅","id":"G70008","id_url":"G70008.html","kuni_url":"/kg/resource/K70.html"}}],"type":"FeatureCollection"}