{"type":"FeatureCollection","features":[{"properties":{"yomi":"さつま","name":"薩摩","pref":"鹿児島県","kuni_id":"K71","id_url":"G71010.html","kuni_url":"/kg/resource/K71.html","id":"G71010","kuni":"薩摩"},"geometry":{"coordinates":[[[130.286904,31.951462],[130.287079,31.951528],[130.287229,31.951687],[130.287779,31.952162],[130.288379,31.952803],[130.288704,31.952912],[130.289029,31.952895],[130.289604,31.95272],[130.290642,31.952187],[130.290967,31.95212],[130.291342,31.95212],[130.292191,31.952195],[130.292691,31.952153],[130.293166,31.952178],[130.293891,31.952137],[130.294491,31.952345],[130.294941,31.952395],[130.296166,31.952337],[130.296516,31.952453],[130.296616,31.952628],[130.296766,31.953287],[130.296991,31.953695],[130.297478,31.954262],[130.297878,31.955078],[130.298078,31.95517],[130.298428,31.955261],[130.298803,31.955536],[130.298941,31.955828],[130.299116,31.956303],[130.299366,31.956603],[130.299666,31.956853],[130.300391,31.957128],[130.300516,31.957286],[130.300528,31.957936],[130.300728,31.958236],[130.301353,31.958828],[130.301415,31.959344],[130.30145,31.959598],[130.301485,31.959835],[130.30154,31.960044],[130.301678,31.960428],[130.301728,31.960836],[130.301603,31.961152],[130.301528,31.961644],[130.30174,31.962594],[130.301703,31.963202],[130.301753,31.963561],[130.302103,31.963969],[130.302303,31.964285],[130.30244,31.964944],[130.302365,31.965235],[130.30219,31.965527],[130.302165,31.965869],[130.302528,31.966385],[130.302703,31.966685],[130.302728,31.966952],[130.302828,31.96711],[130.302928,31.967185],[130.303203,31.967452],[130.30429,31.96816],[130.304915,31.96841],[130.305915,31.968785],[130.306315,31.968877],[130.306715,31.968918],[130.30689,31.969085],[130.30724,31.969693],[130.307527,31.970143],[130.308402,31.971035],[130.308889,31.97176],[130.309339,31.972118],[130.311164,31.973101],[130.311314,31.973243],[130.311302,31.974209],[130.311377,31.974484],[130.311602,31.974818],[130.311727,31.975092],[130.311971,31.975691],[130.312189,31.976226],[130.312301,31.976767],[130.312326,31.977259],[130.312751,31.977376],[130.313001,31.977492],[130.313376,31.977792],[130.313576,31.9779],[130.313848,31.978189],[130.314101,31.978359],[130.314476,31.97845],[130.314826,31.9785],[130.315226,31.9785],[130.316039,31.97825],[130.316601,31.978034],[130.317063,31.977884],[130.318738,31.977559],[130.318998,31.977469],[130.319188,31.977334],[130.319826,31.976476],[130.320151,31.976209],[130.320779,31.975843],[130.321032,31.975517],[130.321063,31.975359],[130.321176,31.974801],[130.321401,31.974593],[130.322026,31.974126],[130.322413,31.973676],[130.322663,31.973543],[130.323038,31.973459],[130.323838,31.973443],[130.324238,31.973509],[130.324663,31.973784],[130.325163,31.974034],[130.325488,31.974059],[130.325663,31.974043],[130.326013,31.973659],[130.32645,31.972893],[130.3266,31.972468],[130.326663,31.972193],[130.326638,31.971993],[130.326488,31.971768],[130.326538,31.971743],[130.326663,31.971543],[130.326863,31.971318],[130.327013,31.971318],[130.327438,31.971501],[130.327913,31.971826],[130.328088,31.971843],[130.328513,31.971893],[130.329813,31.971885],[130.33035,31.971768],[130.330975,31.971435],[130.3312,31.971393],[130.3317,31.971443],[130.33215,31.97156],[130.332475,31.971718],[130.333,31.971651],[130.333125,31.971585],[130.33335,31.971343],[130.333537,31.971052],[130.333787,31.970785],[130.334087,31.97031],[130.334837,31.970427],[130.335287,31.970385],[130.335625,31.970318],[130.336525,31.969943],[130.33675,31.969968],[130.337275,31.970352],[130.337699,31.970427],[130.338299,31.970427],[130.339099,31.970318],[130.339399,31.97026],[130.339899,31.97026],[130.340862,31.970402],[130.341687,31.970385],[130.341919,31.970394],[130.34224,31.970408],[130.342411,31.970435],[130.342911,31.97046],[130.343611,31.970643],[130.344454,31.970869],[130.344911,31.970952],[130.345261,31.970977],[130.345711,31.97111],[130.346686,31.971318],[130.347086,31.971327],[130.347336,31.971368],[130.347486,31.971443],[130.347511,31.971485],[130.347486,31.971618],[130.347411,31.972118],[130.347473,31.97221],[130.347986,31.972168],[130.348761,31.972235],[130.349436,31.97231],[130.349786,31.972493],[130.350273,31.973085],[130.350523,31.973268],[130.351273,31.973677],[130.351473,31.973927],[130.351573,31.974152],[130.351673,31.974243],[130.352348,31.974476],[130.352598,31.974635],[130.352835,31.975493],[130.353335,31.976243],[130.35346,31.976535],[130.353523,31.977143],[130.353273,31.977818],[130.353208,31.978204],[130.353235,31.978384],[130.353585,31.978543],[130.353935,31.978768],[130.354135,31.979068],[130.354285,31.979493],[130.354222,31.979968],[130.353947,31.980734],[130.353836,31.981381],[130.353935,31.982109],[130.353947,31.982742],[130.354122,31.982834],[130.354397,31.982876],[130.354947,31.982901],[130.355197,31.983001],[130.355472,31.983201],[130.356397,31.983501],[130.357322,31.983934],[130.357522,31.983959],[130.357972,31.983851],[130.358409,31.983651],[130.359584,31.983209],[130.360209,31.982809],[130.360622,31.982676],[130.361921,31.982476],[130.362746,31.982234],[130.363634,31.981951],[130.364134,31.981867],[130.364609,31.981709],[130.365109,31.981468],[130.366071,31.981243],[130.366846,31.980984],[130.367146,31.980984],[130.367571,31.981209],[130.367771,31.981526],[130.367683,31.982359],[130.367658,31.983309],[130.367721,31.983692],[130.368358,31.985342],[130.368383,31.985634],[130.368108,31.986042],[130.367671,31.986959],[130.367508,31.987725],[130.367508,31.988042],[130.367608,31.988184],[130.367683,31.988225],[130.368108,31.988317],[130.369083,31.988575],[130.369583,31.988784],[130.370182,31.988977],[130.370733,31.988942],[130.371158,31.988884],[130.371858,31.989],[130.37232,31.988975],[130.37247,31.988934],[130.372695,31.988825],[130.373258,31.988817],[130.373483,31.988867],[130.373858,31.989075],[130.374333,31.989484],[130.374633,31.989509],[130.374958,31.989442],[130.375308,31.989442],[130.376258,31.989742],[130.377407,31.990042],[130.377907,31.990251],[130.378395,31.990776],[130.37872,31.990892],[130.379657,31.990734],[130.380007,31.990759],[130.380445,31.991284],[130.38087,31.991692],[130.38127,31.991967],[130.381795,31.991951],[130.38222,31.991767],[130.382857,31.991234],[130.383882,31.991192],[130.384932,31.991184],[130.386069,31.991009],[130.386519,31.991076],[130.387294,31.991368],[130.388219,31.991409],[130.388819,31.991434],[130.389644,31.991526],[130.390894,31.991559],[130.391244,31.991651],[130.391319,31.991701],[130.391906,31.992942],[130.392231,31.993151],[130.392506,31.993259],[130.392881,31.993242],[130.393344,31.993134],[130.393969,31.992934],[130.394519,31.992893],[130.395294,31.993059],[130.395794,31.993259],[130.396169,31.993518],[130.396519,31.993809],[130.396619,31.994084],[130.396631,31.994509],[130.396756,31.994759],[130.397156,31.994967],[130.397481,31.995059],[130.398881,31.995109],[130.399656,31.995026],[130.400394,31.994876],[130.401169,31.994651],[130.402093,31.994593],[130.402368,31.994776],[130.402893,31.995342],[130.403168,31.995392],[130.403568,31.995351],[130.404443,31.995351],[130.404718,31.995284],[130.405381,31.994951],[130.406743,31.994084],[130.407368,31.993843],[130.408143,31.993301],[130.408531,31.993151],[130.408781,31.993151],[130.408931,31.993193],[130.409063,31.993287],[130.409181,31.993376],[130.409374,31.992922],[130.409406,31.992476],[130.409398,31.992273],[130.409318,31.991985],[130.409093,31.991735],[130.408843,31.99126],[130.408693,31.990893],[130.408706,31.990535],[130.408781,31.990218],[130.408931,31.989902],[130.408906,31.989652],[130.409018,31.989318],[130.409468,31.988577],[130.409481,31.98826],[130.409421,31.987741],[130.409306,31.987244],[130.409181,31.98706],[130.408856,31.986877],[130.408543,31.986627],[130.408443,31.986469],[130.408468,31.986152],[130.408881,31.985435],[130.409105,31.98521],[130.409354,31.984772],[130.409643,31.984219],[130.410143,31.983869],[130.410318,31.983661],[130.410605,31.982761],[130.410855,31.982453],[130.411793,31.981736],[130.412305,31.980969],[130.41258,31.980453],[130.412705,31.979895],[130.412743,31.979553],[130.412893,31.979195],[130.413193,31.978903],[130.413255,31.978561],[130.41323,31.977687],[130.413455,31.977462],[130.413743,31.977303],[130.414093,31.976787],[130.414293,31.976537],[130.41453,31.976112],[130.41513,31.975487],[130.415305,31.975237],[130.415142,31.975012],[130.415067,31.974854],[130.414993,31.974404],[130.415042,31.973954],[130.41503,31.973479],[130.415155,31.972804],[130.41528,31.972487],[130.415492,31.972262],[130.415742,31.971812],[130.415967,31.971612],[130.415992,31.971321],[130.415905,31.970796],[130.41603,31.970412],[130.416392,31.969879],[130.416592,31.969379],[130.416592,31.969071],[130.41618,31.968346],[130.416205,31.967846],[130.416305,31.967371],[130.415992,31.966696],[130.415892,31.966154],[130.415755,31.965696],[130.415655,31.965471],[130.415555,31.965179],[130.415842,31.964438],[130.415892,31.963921],[130.416067,31.963538],[130.41653,31.963046],[130.41676,31.962709],[130.41683,31.962213],[130.416692,31.96178],[130.416692,31.961513],[130.416842,31.961238],[130.417055,31.96043],[130.41738,31.95998],[130.418167,31.958905],[130.418805,31.957755],[130.419417,31.956322],[130.419492,31.955955],[130.41948,31.955864],[130.419505,31.955689],[130.419672,31.955321],[130.419818,31.955087],[130.41988,31.95488],[130.41993,31.954789],[130.420367,31.954522],[130.420617,31.954405],[130.420717,31.95423],[130.420717,31.95398],[130.42108,31.953264],[130.421155,31.952922],[130.42098,31.952356],[130.420642,31.951881],[130.420592,31.951614],[130.420642,31.951547],[130.420892,31.951456],[130.421092,31.951347],[130.421342,31.951147],[130.42143,31.950922],[130.421105,31.950356],[130.42123,31.949748],[130.421467,31.949231],[130.421542,31.948773],[130.421717,31.948531],[130.42243,31.948131],[130.422505,31.947856],[130.42213,31.947223],[130.421992,31.946748],[130.421555,31.945573],[130.42153,31.945348],[130.421555,31.944873],[130.421455,31.944648],[130.42098,31.944265],[130.420643,31.944031],[130.420443,31.943848],[130.420368,31.943465],[130.420368,31.943215],[130.420705,31.942698],[130.42078,31.942657],[130.420943,31.942773],[130.421205,31.942815],[130.421555,31.942732],[130.421955,31.942532],[130.422355,31.942265],[130.42238,31.94204],[130.42233,31.941765],[130.422218,31.941582],[130.421868,31.94129],[130.421768,31.941132],[130.421743,31.94059],[130.421793,31.940432],[130.421943,31.940324],[130.422155,31.940299],[130.422468,31.940507],[130.422693,31.940707],[130.422943,31.940849],[130.423193,31.940782],[130.42348,31.94049],[130.42363,31.940215],[130.42368,31.939974],[130.42368,31.939724],[130.423805,31.939457],[130.424043,31.939274],[130.424243,31.939232],[130.424468,31.939257],[130.424618,31.939366],[130.424655,31.939574],[130.42458,31.939774],[130.424505,31.940274],[130.424355,31.94054],[130.424218,31.94099],[130.424343,31.941307],[130.424543,31.94144],[130.425168,31.941565],[130.425568,31.941565],[130.426393,31.941415],[130.42668,31.94139],[130.426818,31.941507],[130.427042,31.941957],[130.427192,31.942074],[130.427292,31.942099],[130.427667,31.942099],[130.428467,31.941965],[130.42868,31.941832],[130.428805,31.941674],[130.428805,31.941182],[130.428855,31.941049],[130.42913,31.940932],[130.429455,31.940982],[130.430205,31.94124],[130.430455,31.941257],[130.43103,31.941107],[130.431317,31.940999],[130.431442,31.940907],[130.431417,31.940024],[130.431505,31.939732],[130.431955,31.938791],[130.43198,31.938657],[130.432142,31.938407],[130.432243,31.938091],[130.432318,31.937774],[130.432255,31.937233],[130.432305,31.936833],[130.432305,31.936449],[130.43223,31.936199],[130.431668,31.935566],[130.431618,31.93545],[130.431393,31.935333],[130.431393,31.935358],[130.431193,31.935291],[130.430343,31.93515],[130.430068,31.935008],[130.429918,31.934783],[130.429943,31.934491],[130.430018,31.9342],[130.430055,31.933608],[130.43048,31.933166],[130.430943,31.932783],[130.431168,31.932533],[130.431293,31.931975],[130.431418,31.9317],[130.431605,31.931525],[130.432405,31.931233],[130.43318,31.930883],[130.43348,31.930725],[130.433818,31.930117],[130.433843,31.93005],[130.435805,31.929184],[130.437593,31.928475],[130.438243,31.928167],[130.43883,31.927334],[130.439918,31.925334],[130.440355,31.924301],[130.440543,31.923809],[130.440768,31.923376],[130.441068,31.923068],[130.441268,31.922884],[130.441805,31.922643],[130.442705,31.922376],[130.443105,31.92211],[130.444368,31.92106],[130.444443,31.921018],[130.445068,31.921226],[130.445243,31.921201],[130.445393,31.92111],[130.445555,31.921068],[130.445618,31.92116],[130.445568,31.921426],[130.445618,31.921585],[130.445693,31.92166],[130.446143,31.921593],[130.447705,31.921493],[130.44813,31.921401],[130.44823,31.921293],[130.44823,31.921226],[130.448355,31.921135],[130.449105,31.921068],[130.449605,31.921051],[130.449905,31.92101],[130.44993,31.920851],[130.449793,31.920243],[130.450018,31.920218],[130.450068,31.920135],[130.450018,31.920118],[130.450018,31.920077],[130.450618,31.920043],[130.451568,31.91971],[130.45233,31.91951],[130.45258,31.919377],[130.452855,31.919085],[130.452965,31.91877],[130.452905,31.918452],[130.452543,31.917977],[130.452593,31.91791],[130.452768,31.917735],[130.452868,31.917685],[130.453093,31.917802],[130.453418,31.918052],[130.453817,31.918277],[130.454217,31.917877],[130.453805,31.917219],[130.453705,31.917179],[130.453518,31.917194],[130.453318,31.917219],[130.453243,31.917194],[130.45293,31.916902],[130.45268,31.916719],[130.45243,31.916469],[130.453518,31.914802],[130.453818,31.915011],[130.454443,31.91526],[130.454768,31.915419],[130.454943,31.91556],[130.455267,31.916102],[130.455505,31.916669],[130.455955,31.916602],[130.456105,31.916827],[130.456205,31.91726],[130.456705,31.91731],[130.456755,31.917085],[130.45678,31.917038],[130.456883,31.91696],[130.45703,31.916902],[130.457467,31.916885],[130.45753,31.916977],[130.45803,31.917427],[130.45838,31.91761],[130.45848,31.917635],[130.459255,31.917435],[130.459892,31.917419],[130.460217,31.917469],[130.460317,31.91751],[130.460619,31.916105],[130.459794,31.911983],[130.455532,31.906351],[130.453607,31.90113],[130.441232,31.893299],[130.431196,31.891239],[130.423266,31.890043],[130.415393,31.888027],[130.411155,31.886595],[130.407335,31.884925],[130.403985,31.88358],[130.403872,31.883197],[130.403272,31.882105],[130.40301,31.881855],[130.402633,31.881635],[130.402217,31.881381],[130.401985,31.880972],[130.401647,31.880197],[130.400535,31.878431],[130.400135,31.877572],[130.400135,31.877464],[130.400473,31.876314],[130.40091,31.875456],[130.401248,31.874623],[130.401385,31.873548],[130.401535,31.873248],[130.401835,31.873048],[130.40196,31.872873],[130.401935,31.87249],[130.401823,31.871806],[130.40176,31.87034],[130.401785,31.870073],[130.402023,31.869173],[130.402148,31.868857],[130.40246,31.868407],[130.40261,31.868073],[130.402485,31.867798],[130.401848,31.867007],[130.401973,31.866599],[130.402323,31.866215],[130.402248,31.86599],[130.402036,31.865699],[130.401933,31.865314],[130.401827,31.865314],[130.401711,31.865315],[130.401611,31.865199],[130.401461,31.864949],[130.401611,31.864366],[130.401572,31.863761],[130.401598,31.863441],[130.401548,31.863257],[130.401161,31.862782],[130.400894,31.862168],[130.400361,31.861874],[130.399915,31.8616],[130.399673,31.860941],[130.400373,31.860816],[130.401123,31.860591],[130.401936,31.860124],[130.402211,31.859899],[130.402473,31.859576],[130.402903,31.859115],[130.403173,31.858783],[130.403373,31.858491],[130.403536,31.858041],[130.403461,31.857541],[130.403311,31.857183],[130.403361,31.857025],[130.404273,31.856083],[130.404711,31.855675],[130.405086,31.855408],[130.406798,31.853958],[130.408061,31.852767],[130.408361,31.852542],[130.408873,31.852342],[130.409673,31.851634],[130.409786,31.851475],[130.409986,31.850867],[130.410111,31.850575],[130.410236,31.850525],[130.410486,31.85055],[130.411386,31.850809],[130.412036,31.850992],[130.412385,31.851059],[130.412685,31.851067],[130.413298,31.850842],[130.413598,31.850009],[130.414648,31.848509],[130.414798,31.848217],[130.414823,31.848034],[130.414773,31.847809],[130.414561,31.847134],[130.414711,31.846543],[130.415173,31.845734],[130.415239,31.845151],[130.415248,31.844926],[130.415211,31.844176],[130.415186,31.843868],[130.416461,31.844343],[130.418185,31.844701],[130.41916,31.844951],[130.419535,31.845135],[130.420035,31.845476],[130.420735,31.845868],[130.420885,31.845751],[130.421185,31.845376],[130.42136,31.844718],[130.421548,31.844493],[130.423948,31.84411],[130.424223,31.844085],[130.42551,31.843868],[130.42591,31.843826],[130.426935,31.84386],[130.42731,31.843951],[130.428135,31.844251],[130.428935,31.844485],[130.42996,31.844493],[130.43046,31.844451],[130.431185,31.844318],[130.431435,31.844227],[130.431672,31.844027],[130.431972,31.84356],[130.432047,31.84331],[130.432147,31.843193],[130.433185,31.843002],[130.43436,31.842693],[130.435109,31.842385],[130.435797,31.842002],[130.436397,31.841719],[130.437247,31.841494],[130.438534,31.841302],[130.439284,31.841102],[130.439559,31.840952],[130.439684,31.840794],[130.439797,31.840594],[130.439922,31.840436],[130.440347,31.840169],[130.440747,31.840169],[130.441571,31.840444],[130.442021,31.840402],[130.442371,31.840269],[130.442871,31.840161],[130.443784,31.840052],[130.444184,31.840061],[130.445159,31.840111],[130.445809,31.840044],[130.446209,31.839919],[130.447821,31.839161],[130.448521,31.838919],[130.449233,31.838536],[130.449508,31.838228],[130.449808,31.838003],[130.450108,31.837711],[130.450146,31.837353],[130.450246,31.837211],[130.450471,31.837195],[130.450921,31.83697],[130.451071,31.836795],[130.451261,31.836569],[130.451646,31.836203],[130.451857,31.836029],[130.452108,31.835803],[130.452133,31.835578],[130.452233,31.83537],[130.452358,31.835195],[130.452396,31.834853],[130.452446,31.83472],[130.452596,31.834703],[130.452796,31.83477],[130.452921,31.834728],[130.453046,31.834453],[130.453021,31.834228],[130.453072,31.834037],[130.453076,31.8338],[130.452908,31.83337],[130.452908,31.83312],[130.453108,31.832787],[130.453308,31.832495],[130.453446,31.832245],[130.453521,31.831479],[130.453746,31.83117],[130.454008,31.831054],[130.454083,31.830946],[130.453983,31.830646],[130.453833,31.830446],[130.454021,31.829771],[130.453996,31.829296],[130.454421,31.828737],[130.454508,31.828446],[130.454508,31.827854],[130.454497,31.827516],[130.454521,31.827154],[130.454596,31.826929],[130.454896,31.826188],[130.455183,31.825288],[130.455233,31.824955],[130.455346,31.824613],[130.455521,31.824296],[130.456071,31.823805],[130.456458,31.823155],[130.456583,31.822522],[130.456671,31.821355],[130.456433,31.819797],[130.456483,31.819572],[130.456696,31.819372],[130.456971,31.819306],[130.457696,31.819239],[130.457921,31.819197],[130.458196,31.819089],[130.458246,31.818839],[130.458183,31.817597],[130.458221,31.816764],[130.458271,31.816564],[130.458721,31.816364],[130.458846,31.816064],[130.459283,31.815506],[130.459658,31.815148],[130.460083,31.814839],[130.460321,31.814548],[130.460446,31.814181],[130.460646,31.81394],[130.460796,31.813848],[130.461633,31.813648],[130.461983,31.813498],[130.462408,31.813115],[130.462808,31.812848],[130.463221,31.812648],[130.463671,31.812581],[130.464171,31.812565],[130.465045,31.812123],[130.465658,31.811965],[130.466283,31.811906],[130.467033,31.811573],[130.46757,31.811215],[130.467645,31.81094],[130.467695,31.810557],[130.468608,31.80969],[130.469758,31.809132],[130.470245,31.808798],[130.471283,31.807765],[130.47242,31.806807],[130.47267,31.80644],[130.473195,31.805841],[130.473533,31.805324],[130.473658,31.805032],[130.474045,31.803841],[130.474508,31.801949],[130.47467,31.801741],[130.474995,31.801433],[130.475295,31.801075],[130.47552,31.800733],[130.475608,31.8004],[130.475783,31.800108],[130.475944,31.799748],[130.47617,31.799233],[130.476545,31.798558],[130.47682,31.798358],[130.477658,31.798067],[130.478083,31.797983],[130.478283,31.797867],[130.478083,31.797392],[130.47812,31.797142],[130.47842,31.797083],[130.47882,31.797267],[130.479108,31.797467],[130.479582,31.7977],[130.479907,31.7977],[130.479932,31.797675],[130.479895,31.797425],[130.480056,31.797356],[130.48037,31.797317],[130.48062,31.79725],[130.48102,31.796917],[130.48102,31.796825],[130.480757,31.796259],[130.480782,31.796242],[130.480957,31.796267],[130.481182,31.7964],[130.481432,31.796467],[130.481682,31.79645],[130.481964,31.796392],[130.482207,31.796359],[130.482632,31.7963],[130.482882,31.796234],[130.483357,31.796192],[130.483782,31.7961],[130.484007,31.79615],[130.484307,31.796825],[130.484582,31.796992],[130.484782,31.797192],[130.484807,31.797283],[130.484982,31.797483],[130.485757,31.797742],[130.486011,31.797873],[130.486195,31.797992],[130.48632,31.798058],[130.486595,31.798042],[130.486832,31.797975],[130.487282,31.797933],[130.487707,31.797933],[130.489007,31.797833],[130.489532,31.79795],[130.490207,31.798108],[130.490957,31.798142],[130.491557,31.798325],[130.491907,31.798392],[130.492207,31.798392],[130.492632,31.798283],[130.493944,31.797892],[130.494194,31.7978],[130.494857,31.797242],[130.495132,31.797108],[130.496182,31.796842],[130.497082,31.796584],[130.497744,31.796375],[130.497969,31.796325],[130.498844,31.796384],[130.499944,31.796475],[130.500232,31.796467],[130.500444,31.796384],[130.501082,31.796009],[130.501382,31.79595],[130.502194,31.796009],[130.502569,31.796075],[130.502632,31.796017],[130.502932,31.79535],[130.503169,31.795034],[130.503432,31.79485],[130.503632,31.794759],[130.503657,31.794284],[130.503432,31.793142],[130.503232,31.792601],[130.502157,31.792084],[130.50182,31.791876],[130.50152,31.791559],[130.501507,31.79119],[130.50172,31.790451],[130.501895,31.790243],[130.502107,31.790093],[130.50227,31.789926],[130.502307,31.789651],[130.502245,31.789418],[130.502095,31.789151],[130.501395,31.788343],[130.50127,31.788051],[130.501282,31.787835],[130.501457,31.787643],[130.501445,31.78761],[130.501982,31.78726],[130.50217,31.78701],[130.50257,31.786285],[130.503182,31.78546],[130.503382,31.785043],[130.503295,31.784768],[130.503032,31.784502],[130.502733,31.784352],[130.502408,31.784135],[130.502345,31.78406],[130.502133,31.783493],[130.50192,31.783168],[130.501933,31.782918],[130.502033,31.782568],[130.502083,31.781802],[130.50242,31.781152],[130.50247,31.780894],[130.50242,31.780152],[130.50242,31.779694],[130.502933,31.779019],[130.50307,31.778702],[130.50332,31.778386],[130.50382,31.778136],[130.50397,31.777902],[130.50417,31.777427],[130.504458,31.777136],[130.504458,31.776844],[130.504233,31.776686],[130.503908,31.776552],[130.503333,31.776211],[130.502933,31.775786],[130.502808,31.775494],[130.502671,31.774719],[130.502451,31.774146],[130.502521,31.773736],[130.502871,31.773311],[130.503621,31.772986],[130.503846,31.772753],[130.503996,31.772253],[130.504271,31.771994],[130.505708,31.771103],[130.506146,31.770778],[130.506171,31.770628],[130.505983,31.770278],[130.505558,31.769761],[130.504908,31.769145],[130.504508,31.768703],[130.504296,31.76832],[130.504271,31.76817],[130.504071,31.767928],[130.503971,31.767695],[130.503983,31.767362],[130.504058,31.767137],[130.503971,31.766895],[130.503409,31.766062],[130.503329,31.765486],[130.503346,31.764579],[130.503246,31.764354],[130.503034,31.764162],[130.502746,31.76397],[130.502509,31.763745],[130.502434,31.763579],[130.502446,31.763004],[130.502609,31.762254],[130.503009,31.761229],[130.503096,31.760821],[130.503084,31.760596],[130.502859,31.760296],[130.502284,31.759779],[130.502134,31.759462],[130.501846,31.758971],[130.501659,31.758821],[130.501396,31.758721],[130.500884,31.758612],[130.500609,31.758604],[130.499896,31.758821],[130.499521,31.758854],[130.499309,31.758846],[130.498721,31.758687],[130.497859,31.758279],[130.497222,31.757929],[130.496636,31.7576],[130.495859,31.756862],[130.495209,31.756246],[130.495009,31.756087],[130.494809,31.756062],[130.494734,31.756087],[130.494534,31.756079],[130.494234,31.755904],[130.494084,31.755762],[130.493984,31.755579],[130.494022,31.754837],[130.493647,31.754387],[130.493197,31.754087],[130.492809,31.753796],[130.492684,31.753638],[130.492547,31.753379],[130.492347,31.752979],[130.491934,31.752596],[130.49156,31.752346],[130.490785,31.751921],[130.490485,31.751513],[130.490235,31.751046],[130.48996,31.750679],[130.48946,31.750296],[130.488585,31.749763],[130.488197,31.749604],[130.486872,31.748679],[130.485935,31.748388],[130.485497,31.748204],[130.485035,31.748071],[130.48456,31.748029],[130.484235,31.748071],[130.483623,31.748254],[130.483548,31.748254],[130.483323,31.748163],[130.482473,31.747263],[130.48241,31.747129],[130.48241,31.746479],[130.482335,31.746229],[130.482035,31.746046],[130.481698,31.745396],[130.48131,31.744338],[130.481285,31.743913],[130.481423,31.743413],[130.481398,31.743055],[130.481148,31.74278],[130.480873,31.742605],[130.480736,31.742355],[130.480673,31.741188],[130.480786,31.740755],[130.480948,31.740372],[130.480948,31.739947],[130.480811,31.739472],[130.480536,31.739247],[130.480098,31.739047],[130.479461,31.738847],[130.479048,31.738663],[130.478498,31.738347],[130.478248,31.738172],[130.478173,31.737922],[130.478223,31.73763],[130.478251,31.737536],[130.478167,31.737431],[130.478061,31.737314],[130.477761,31.737197],[130.476986,31.736997],[130.476161,31.736639],[130.475549,31.736122],[130.475224,31.735764],[130.474624,31.735289],[130.474174,31.734839],[130.473899,31.734614],[130.473574,31.734522],[130.473136,31.734272],[130.472774,31.733872],[130.472474,31.733106],[130.472449,31.732564],[130.472774,31.731481],[130.473237,31.730581],[130.473624,31.730264],[130.473874,31.730197],[130.473787,31.730131],[130.472799,31.729722],[130.471949,31.729497],[130.471062,31.729297],[130.469912,31.729281],[130.469362,31.729347],[130.469062,31.729547],[130.468149,31.730722],[130.467849,31.730947],[130.467524,31.731106],[130.467162,31.731214],[130.466699,31.731264],[130.465874,31.731155],[130.465024,31.731105],[130.464087,31.731197],[130.463925,31.731289],[130.463925,31.731539],[130.464162,31.732164],[130.464224,31.732822],[130.464174,31.732955],[130.463899,31.733297],[130.462849,31.734105],[130.462462,31.734463],[130.462074,31.734713],[130.461499,31.734922],[130.46065,31.735388],[130.460262,31.73548],[130.459825,31.73553],[130.459062,31.73548],[130.45845,31.735555],[130.457325,31.735955],[130.454962,31.736505],[130.454412,31.736505],[130.45395,31.736371],[130.453062,31.736055],[130.451825,31.735855],[130.450063,31.735271],[130.448688,31.734705],[130.44825,31.734455],[130.447788,31.734146],[130.447175,31.733555],[130.445963,31.73248],[130.445613,31.73223],[130.445276,31.732138],[130.444788,31.732163],[130.444151,31.732346],[130.442863,31.732771],[130.442426,31.732754],[130.441788,31.732638],[130.441076,31.732729],[130.440938,31.732771],[130.440551,31.732796],[130.439813,31.732688],[130.438713,31.732796],[130.437938,31.732954],[130.437001,31.733096],[130.436513,31.733046],[130.436313,31.733004],[130.435764,31.732754],[130.434939,31.732237],[130.434776,31.732237],[130.434039,31.732379],[130.433489,31.732446],[130.433126,31.732446],[130.432989,31.732421],[130.432939,31.732379],[130.432739,31.731637],[130.432576,31.731404],[130.432189,31.731096],[130.431864,31.730729],[130.431289,31.730279],[130.430951,31.730196],[130.430376,31.730646],[130.430076,31.730754],[130.429714,31.730754],[130.429777,31.730013],[130.429739,31.729746],[130.429602,31.729604],[130.429277,31.729404],[130.429052,31.729338],[130.428589,31.729088],[130.428339,31.728913],[130.428364,31.728779],[130.428727,31.728029],[130.428702,31.727763],[130.428114,31.727179],[130.427652,31.726996],[130.427014,31.726438],[130.426639,31.726413],[130.426164,31.726438],[130.425914,31.726388],[130.425502,31.726213],[130.425089,31.725921],[130.424927,31.725846],[130.424677,31.725446],[130.424465,31.72493],[130.424602,31.72448],[130.424577,31.724405],[130.424352,31.724205],[130.424165,31.723913],[130.424077,31.723621],[130.423731,31.723169],[130.42339,31.722538],[130.423115,31.722221],[130.422777,31.721996],[130.421902,31.721596],[130.421602,31.721305],[130.421265,31.720696],[130.421052,31.720513],[130.42094,31.720063],[130.420615,31.719588],[130.420578,31.719297],[130.420488,31.719098],[130.420278,31.718938],[130.420003,31.718872],[130.418053,31.71858],[130.41564,31.71833],[130.41509,31.718238],[130.41509,31.718222],[130.414953,31.718172],[130.414803,31.717747],[130.414753,31.717363],[130.414778,31.716555],[130.414566,31.716597],[130.414366,31.71673],[130.414116,31.716847],[130.413741,31.716913],[130.413441,31.716872],[130.413303,31.716938],[130.413266,31.717113],[130.413353,31.717772],[130.413353,31.718355],[130.413303,31.71863],[130.413166,31.71883],[130.413128,31.719013],[130.413191,31.720271],[130.413303,31.720588],[130.413653,31.720855],[130.413928,31.721146],[130.41409,31.721688],[130.41454,31.722504],[130.41514,31.724146],[130.41514,31.724463],[130.41479,31.725454],[130.414703,31.725946],[130.414678,31.726921],[130.41399,31.727687],[130.413803,31.728004],[130.413465,31.728112],[130.412978,31.728004],[130.412753,31.728162],[130.412703,31.728254],[130.41294,31.729012],[130.412865,31.729354],[130.412453,31.73032],[130.412423,31.730631],[130.412315,31.730845],[130.411353,31.73127],[130.411328,31.731587],[130.411378,31.732237],[130.411303,31.732287],[130.411103,31.732312],[130.410528,31.732104],[130.410253,31.732195],[130.410065,31.73247],[130.409653,31.732712],[130.408928,31.732562],[130.408715,31.73242],[130.408416,31.731703],[130.408241,31.731637],[130.408028,31.731637],[130.407753,31.731587],[130.407453,31.731478],[130.406953,31.731137],[130.406841,31.730937],[130.406866,31.73067],[130.406816,31.730487],[130.406516,31.73022],[130.406241,31.729879],[130.405803,31.729004],[130.405441,31.728437],[130.405278,31.72812],[130.405166,31.728212],[130.405053,31.728529],[130.404978,31.728937],[130.404453,31.729854],[130.404116,31.730312],[130.403878,31.730537],[130.403154,31.73092],[130.402779,31.731637],[130.402666,31.731703],[130.402229,31.731795],[130.401154,31.731845],[130.400604,31.731937],[130.400216,31.732162],[130.399941,31.732387],[130.399454,31.73252],[130.398929,31.732728],[130.398291,31.73302],[130.397854,31.733311],[130.397554,31.733603],[130.397141,31.733828],[130.396504,31.733986],[130.395817,31.733986],[130.395079,31.733903],[130.394529,31.733928],[130.393892,31.733853],[130.393204,31.733836],[130.392004,31.733928],[130.391205,31.733878],[130.389942,31.733703],[130.389417,31.733503],[130.388942,31.733211],[130.388642,31.733069],[130.388205,31.733053],[130.387292,31.733078],[130.386717,31.733028],[130.38573,31.732761],[130.385268,31.732669],[130.385155,31.732628],[130.38413,31.732561],[130.383718,31.732444],[130.382818,31.732286],[130.382543,31.732111],[130.38218,31.732044],[130.381605,31.731703],[130.381331,31.731411],[130.380831,31.730736],[130.380531,31.730669],[130.380143,31.730711],[130.379431,31.730736],[130.379106,31.730719],[130.378393,31.730736],[130.378056,31.730719],[130.378031,31.731119],[130.377979,31.731782],[130.377943,31.732044],[130.378968,31.732478],[130.379106,31.732678],[130.379187,31.733275],[130.379106,31.733711],[130.378993,31.733986],[130.378993,31.734236],[130.379106,31.734569],[130.379081,31.734794],[130.378968,31.734819],[130.378806,31.734702],[130.378306,31.734594],[130.378193,31.734702],[130.378281,31.735002],[130.378281,31.735269],[130.378193,31.735536],[130.378256,31.735877],[130.378393,31.736077],[130.378555,31.736236],[130.37853,31.736419],[130.378393,31.736669],[130.378468,31.737369],[130.37863,31.73761],[130.378693,31.738127],[130.378643,31.738202],[130.37823,31.73811],[130.378005,31.73811],[130.377455,31.738219],[130.377068,31.738135],[130.376818,31.73811],[130.376743,31.738202],[130.376818,31.738335],[130.377343,31.738877],[130.37743,31.739352],[130.377543,31.739527],[130.37778,31.739752],[130.37778,31.740002],[130.37773,31.740185],[130.377568,31.740252],[130.377093,31.740343],[130.376955,31.740343],[130.37608,31.740452],[130.375618,31.740477],[130.375256,31.74046],[130.374931,31.740385],[130.374406,31.740235],[130.374268,31.740277],[130.374268,31.740318],[130.374543,31.741085],[130.374568,31.741427],[130.374543,31.741468],[130.374343,31.741585],[130.374043,31.741852],[130.373743,31.742035],[130.373493,31.742102],[130.372831,31.742102],[130.371981,31.741935],[130.371768,31.74196],[130.371556,31.742026],[130.371306,31.742151],[130.370793,31.742485],[130.370568,31.742568],[130.370256,31.74261],[130.369681,31.742518],[130.369418,31.742518],[130.369206,31.742576],[130.368418,31.742985],[130.368168,31.74306],[130.367868,31.743093],[130.367556,31.74306],[130.367119,31.74296],[130.365769,31.742568],[130.365356,31.742493],[130.363706,31.742393],[130.363206,31.742426],[130.362569,31.742543],[130.362401,31.742835],[130.362369,31.743193],[130.362394,31.743559],[130.362269,31.743876],[130.362219,31.744484],[130.362131,31.744643],[130.361994,31.744801],[130.361869,31.745034],[130.361856,31.745343],[130.361769,31.745584],[130.361256,31.746126],[130.360794,31.747209],[130.360506,31.747492],[130.360169,31.747759],[130.359769,31.748184],[130.359531,31.748684],[130.359606,31.749526],[130.359581,31.749876],[130.359356,31.750542],[130.358319,31.7518],[130.358244,31.751975],[130.358206,31.752809],[130.358294,31.753275],[130.358444,31.753467],[130.359119,31.754625],[130.359044,31.755192],[130.358806,31.755708],[130.358181,31.755733],[130.357219,31.755692],[130.357031,31.755675],[130.356519,31.755708],[130.356269,31.755742],[130.356144,31.755883],[130.355819,31.756825],[130.355694,31.757325],[130.353294,31.757783],[130.352831,31.757817],[130.352619,31.757783],[130.352057,31.757783],[130.351169,31.7579],[130.350982,31.757833],[130.350782,31.757592],[130.350494,31.757133],[130.350194,31.756875],[130.349707,31.756625],[130.349382,31.756317],[130.348832,31.75555],[130.348532,31.755275],[130.347594,31.754958],[130.346407,31.754867],[130.346107,31.754767],[130.345807,31.754542],[130.345107,31.754092],[130.344132,31.7538],[130.343757,31.753642],[130.343482,31.753467],[130.34278,31.753138],[130.34207,31.752783],[130.341445,31.752492],[130.340882,31.7524],[130.33992,31.752392],[130.33952,31.752342],[130.339133,31.7522],[130.337995,31.751108],[130.33767,31.7509],[130.337408,31.750867],[130.336958,31.750908],[130.33667,31.750992],[130.33632,31.751033],[130.33607,31.750967],[130.33567,31.750767],[130.33537,31.750542],[130.335045,31.750225],[130.334495,31.749659],[130.334383,31.749592],[130.334208,31.749575],[130.334033,31.749617],[130.333396,31.74965],[130.332983,31.749617],[130.332158,31.749359],[130.331958,31.749342],[130.330533,31.749409],[130.327671,31.749417],[130.326721,31.749475],[130.326009,31.749475],[130.325471,31.7494],[130.324721,31.749034],[130.32429,31.74878],[130.323808,31.74879],[130.322996,31.74915],[130.322021,31.749459],[130.321209,31.749642],[130.320684,31.749842],[130.320109,31.750125],[130.319122,31.750817],[130.318747,31.751],[130.318072,31.75135],[130.318172,31.751992],[130.318309,31.752525],[130.318309,31.7527],[130.317484,31.753458],[130.316959,31.753917],[130.316759,31.7541],[130.316784,31.754408],[130.316934,31.754883],[130.317096,31.756125],[130.316834,31.756483],[130.316421,31.757275],[130.316046,31.757825],[130.315746,31.758641],[130.315709,31.758941],[130.315621,31.759083],[130.315096,31.759199],[130.314034,31.759274],[130.313746,31.759366],[130.313684,31.759658],[130.313409,31.760666],[130.313509,31.761999],[130.313159,31.762316],[130.312759,31.762749],[130.312084,31.763674],[130.311871,31.763766],[130.311171,31.763724],[130.310546,31.763616],[130.309234,31.763299],[130.308072,31.763241],[130.307847,31.763257],[130.306859,31.763199],[130.306072,31.763199],[130.304497,31.763499],[130.304059,31.763474],[130.303722,31.763391],[130.303459,31.763232],[130.303135,31.762732],[130.302785,31.762424],[130.301897,31.761791],[130.301522,31.761582],[130.300947,31.761549],[130.30001,31.761216],[130.299135,31.761082],[130.29871,31.761149],[130.29816,31.761157],[130.297748,31.761091],[130.29731,31.760882],[130.296685,31.760316],[130.296273,31.760032],[130.296185,31.759932],[130.296023,31.759016],[130.295935,31.758816],[130.29556,31.758191],[130.294611,31.757507],[130.294373,31.757424],[130.294161,31.757407],[130.293798,31.757249],[130.293423,31.757041],[130.293136,31.757041],[130.292186,31.757182],[130.291711,31.757391],[130.291311,31.757632],[130.291036,31.757632],[130.290061,31.757299],[130.289436,31.756957],[130.289274,31.756982],[130.288574,31.756982],[130.288349,31.756899],[130.287586,31.756116],[130.287336,31.756024],[130.286399,31.755957],[130.285837,31.755866],[130.285449,31.755649],[130.284949,31.755491],[130.284362,31.755449],[130.284112,31.755399],[130.283912,31.755399],[130.283874,31.755474],[130.284012,31.755624],[130.284149,31.756032],[130.283987,31.75664],[130.283637,31.757249],[130.283187,31.758065],[130.282937,31.758382],[130.282599,31.758549],[130.282062,31.758574],[130.281524,31.758657],[130.281062,31.758799],[130.280549,31.758865],[130.280224,31.758974],[130.279937,31.759323],[130.279587,31.759523],[130.279175,31.759615],[130.27835,31.75969],[130.277262,31.759915],[130.275762,31.760098],[130.27525,31.76019],[130.274712,31.76024],[130.273675,31.760482],[130.273225,31.760715],[130.273013,31.760923],[130.2724,31.76169],[130.27235,31.761715],[130.27165,31.761756],[130.271488,31.761831],[130.271488,31.762323],[130.27135,31.762598],[130.271,31.762956],[130.269988,31.763906],[130.269188,31.764539],[130.268825,31.764773],[130.268425,31.765139],[130.2681,31.765181],[130.267675,31.765198],[130.266788,31.765339],[130.266188,31.765281],[130.265751,31.765164],[130.265126,31.765056],[130.264701,31.765181],[130.263051,31.765989],[130.262114,31.766456],[130.261401,31.766681],[130.260589,31.766897],[130.259914,31.767189],[130.259664,31.767447],[130.258964,31.768456],[130.258412,31.769035],[130.257864,31.769564],[130.257339,31.769955],[130.256476,31.77078],[130.254914,31.772488],[130.254352,31.773247],[130.253389,31.774513],[130.253089,31.77483],[130.252877,31.77518],[130.252852,31.775371],[130.252727,31.775555],[130.252502,31.77573],[130.252164,31.776363],[130.251952,31.776705],[130.251839,31.77693],[130.251652,31.777021],[130.250652,31.777154],[130.249502,31.777229],[130.249252,31.777204],[130.24879,31.777071],[130.248315,31.777004],[130.247927,31.777079],[130.247719,31.77714],[130.247602,31.777254],[130.24724,31.777479],[130.247052,31.777438],[130.246915,31.777354],[130.246452,31.776813],[130.245765,31.776438],[130.245577,31.776354],[130.24454,31.776138],[130.24349,31.776263],[130.242165,31.776571],[130.241878,31.776679],[130.24159,31.776863],[130.241353,31.777138],[130.241178,31.777254],[130.240541,31.777263],[130.240203,31.777379],[130.239941,31.777446],[130.239828,31.777537],[130.239466,31.778146],[130.239266,31.778671],[130.239216,31.779146],[130.239203,31.779821],[130.239228,31.779837],[130.239153,31.780221],[130.239191,31.780721],[130.239178,31.781437],[130.239266,31.782179],[130.239241,31.782404],[130.239066,31.783062],[130.238691,31.783962],[130.238478,31.784237],[130.238378,31.784462],[130.237828,31.785054],[130.237303,31.785512],[130.237253,31.78562],[130.236266,31.786353],[130.236028,31.786762],[130.235803,31.787687],[130.235728,31.787887],[130.235178,31.787853],[130.234891,31.787878],[130.234853,31.787895],[130.234516,31.787928],[130.234329,31.787795],[130.234091,31.78752],[130.234054,31.787437],[130.233629,31.787037],[130.233441,31.78692],[130.232829,31.786678],[130.232054,31.786195],[130.231841,31.786262],[130.231579,31.786403],[130.231316,31.786537],[130.230841,31.786637],[130.230316,31.786686],[130.229792,31.786688],[130.228942,31.786586],[130.228592,31.786503],[130.228354,31.786395],[130.228217,31.786253],[130.227954,31.785786],[130.227579,31.785453],[130.227392,31.785386],[130.226851,31.782853],[130.225081,31.780281],[130.221703,31.777388],[130.220577,31.774494],[130.220416,31.771923],[130.221864,31.766779],[130.22299,31.762761],[130.222668,31.758099],[130.220355,31.750248],[130.219905,31.750565],[130.219118,31.750956],[130.218743,31.75129],[130.218218,31.752015],[130.217756,31.752465],[130.217356,31.752715],[130.217193,31.752756],[130.216668,31.752806],[130.216243,31.752806],[130.215878,31.752824],[130.215618,31.752789],[130.21535,31.752736],[130.215031,31.752789],[130.214787,31.752823],[130.214456,31.752989],[130.214218,31.753223],[130.213893,31.753381],[130.213868,31.753514],[130.213956,31.754006],[130.214143,31.754098],[130.214293,31.754231],[130.214431,31.754414],[130.214443,31.754485],[130.214431,31.754564],[130.214281,31.754881],[130.214018,31.755248],[130.213443,31.755497],[130.212281,31.755831],[130.211918,31.755964],[130.211631,31.756039],[130.211543,31.756081],[130.211106,31.756197],[130.210756,31.756247],[130.210356,31.756189],[130.209831,31.756189],[130.209256,31.756331],[130.209019,31.756331],[130.208456,31.756247],[130.208194,31.756139],[130.207869,31.755922],[130.207556,31.755789],[130.207106,31.755722],[130.206594,31.755731],[130.205969,31.755847],[130.205731,31.755872],[130.204556,31.755547],[130.204769,31.755031],[130.204731,31.754889],[130.204656,31.754847],[130.204413,31.754807],[130.204019,31.754697],[130.204044,31.754806],[130.204099,31.754881],[130.204131,31.754947],[130.204256,31.754989],[130.204394,31.754989],[130.204219,31.755481],[130.203719,31.755447],[130.203369,31.755472],[130.202756,31.755456],[130.202469,31.755481],[130.202307,31.755439],[130.202169,31.755147],[130.201694,31.755081],[130.201519,31.755306],[130.201257,31.755356],[130.200782,31.755431],[130.200569,31.755456],[130.200432,31.755431],[130.200194,31.755456],[130.200119,31.755439],[130.199224,31.755263],[130.199132,31.755197],[130.199182,31.754931],[130.199182,31.754881],[130.198919,31.754931],[130.198833,31.754864],[130.198732,31.754731],[130.198382,31.753964],[130.198344,31.753464],[130.198207,31.753089],[130.198182,31.752881],[130.198094,31.752839],[130.197682,31.752798],[130.197332,31.752098],[130.196857,31.751398],[130.196794,31.751039],[130.196695,31.750748],[130.196395,31.750273],[130.196395,31.750181],[130.196257,31.749823],[130.195857,31.749348],[130.195807,31.749106],[130.195757,31.74904],[130.195732,31.748881],[130.195807,31.748748],[130.195407,31.74854],[130.195282,31.748365],[130.195195,31.748365],[130.195095,31.748315],[130.194982,31.74814],[130.194807,31.748248],[130.194582,31.747915],[130.194557,31.747781],[130.194295,31.747623],[130.19427,31.74789],[130.194057,31.747981],[130.193932,31.747873],[130.193795,31.747531],[130.193445,31.747198],[130.193345,31.74724],[130.193057,31.74729],[130.192945,31.747157],[130.19297,31.746923],[130.192895,31.746857],[130.192545,31.746723],[130.192595,31.746548],[130.192182,31.746457],[130.192069,31.746402],[130.191945,31.746348],[130.191695,31.746298],[130.191707,31.746573],[130.19162,31.746732],[130.191382,31.746748],[130.191145,31.74684],[130.191007,31.746845],[130.190952,31.746876],[130.190783,31.746865],[130.190762,31.746863],[130.190733,31.746865],[130.19057,31.746773],[130.190483,31.746598],[130.190408,31.746598],[130.19022,31.746707],[130.189695,31.746823],[130.18932,31.746665],[130.188908,31.746623],[130.188845,31.74674],[130.189058,31.747006],[130.188908,31.747073],[130.188695,31.747073],[130.188595,31.747481],[130.188245,31.747773],[130.18827,31.747798],[130.188483,31.747798],[130.188383,31.747973],[130.188145,31.748131],[130.187883,31.747981],[130.18777,31.74814],[130.18772,31.748406],[130.187308,31.748631],[130.18667,31.749065],[130.18662,31.748881],[130.186458,31.748948],[130.186295,31.749173],[130.186145,31.749315],[130.185908,31.749406],[130.185958,31.749581],[130.185908,31.750081],[130.185783,31.750506],[130.185808,31.751073],[130.185858,31.751073],[130.186045,31.750981],[130.186233,31.750998],[130.186283,31.751273],[130.186045,31.751498],[130.186019,31.751558],[130.186045,31.751614],[130.186108,31.751839],[130.185961,31.751909],[130.186013,31.752015],[130.186379,31.752179],[130.186558,31.752439],[130.18682,31.752781],[130.187064,31.753008],[130.18727,31.753181],[130.18747,31.753464],[130.187583,31.753672],[130.188357,31.754297],[130.188495,31.754522],[130.188907,31.755689],[130.188945,31.756139],[130.188934,31.756216],[130.18892,31.756297],[130.188982,31.756897],[130.188882,31.757422],[130.188782,31.757672],[130.188395,31.758189],[130.188057,31.75853],[130.18797,31.758664],[130.187632,31.758855],[130.18742,31.75883],[130.18732,31.758763],[130.187132,31.758855],[130.187245,31.759422],[130.18752,31.759755],[130.187807,31.759955],[130.187832,31.760113],[130.187732,31.760447],[130.187557,31.760672],[130.187295,31.760813],[130.187057,31.76088],[130.18677,31.760905],[130.186557,31.761047],[130.18632,31.761405],[130.18622,31.761838],[130.186206,31.762022],[130.186207,31.762196],[130.18627,31.762871],[130.186407,31.763771],[130.186445,31.764313],[130.186295,31.764946],[130.185782,31.765896],[130.18557,31.766146],[130.18527,31.766738],[130.185245,31.767121],[130.185382,31.767321],[130.18547,31.767629],[130.185445,31.768062],[130.185482,31.768671],[130.185457,31.768962],[130.185332,31.769304],[130.1852,31.76939],[130.185137,31.769848],[130.185395,31.770471],[130.185407,31.770737],[130.18502,31.771487],[130.184607,31.771962],[130.184157,31.772262],[130.183707,31.772629],[130.18337,31.772854],[130.18282,31.773379],[130.182382,31.773654],[130.181545,31.77407],[130.181045,31.774228],[130.180695,31.774412],[130.18057,31.77457],[130.18052,31.774845],[130.18047,31.775028],[130.180582,31.775562],[130.180432,31.77617],[130.180357,31.776578],[130.180407,31.777978],[130.180332,31.778153],[130.180357,31.778245],[130.180332,31.77847],[130.18047,31.77867],[130.180557,31.779078],[130.180345,31.779303],[130.179957,31.77992],[130.179832,31.780028],[130.179445,31.780528],[130.179182,31.780736],[130.178832,31.780853],[130.177545,31.781019],[130.176958,31.781144],[130.176433,31.781128],[130.176195,31.780928],[130.175983,31.780636],[130.17582,31.78052],[130.175683,31.780528],[130.175495,31.78037],[130.175158,31.780328],[130.175045,31.780286],[130.174945,31.780303],[130.17492,31.780395],[130.174733,31.780353],[130.174495,31.780245],[130.174433,31.780361],[130.174545,31.780495],[130.17452,31.780561],[130.174095,31.780495],[130.173933,31.780453],[130.173883,31.780361],[130.173833,31.780345],[130.17362,31.780411],[130.17347,31.780753],[130.173533,31.781403],[130.173795,31.781603],[130.174145,31.781936],[130.174333,31.782319],[130.17442,31.782719],[130.174245,31.783194],[130.17377,31.783811],[130.173258,31.784269],[130.172808,31.784544],[130.172495,31.784636],[130.172383,31.784611],[130.172308,31.784519],[130.17227,31.784227],[130.172095,31.784277],[130.171933,31.784344],[130.171858,31.784436],[130.171833,31.784619],[130.17202,31.784819],[130.172158,31.785086],[130.172083,31.785361],[130.17187,31.785786],[130.171558,31.786127],[130.171283,31.787102],[130.171208,31.787485],[130.171083,31.787869],[130.171021,31.78802],[130.170983,31.788144],[130.170745,31.788435],[130.170595,31.788727],[130.17012,31.789119],[130.169833,31.78921],[130.169708,31.789327],[130.169545,31.789352],[130.169383,31.789444],[130.169445,31.789552],[130.169345,31.790027],[130.169008,31.790635],[130.16877,31.790885],[130.16867,31.790843],[130.168458,31.790893],[130.168433,31.79096],[130.167745,31.790985],[130.167544,31.791138],[130.167483,31.791218],[130.167408,31.79131],[130.167383,31.791485],[130.167386,31.791615],[130.167333,31.791643],[130.167221,31.791535],[130.167096,31.791602],[130.167071,31.79176],[130.167233,31.79201],[130.167183,31.792118],[130.167208,31.792168],[130.167345,31.792235],[130.167395,31.792318],[130.16737,31.79241],[130.167445,31.792502],[130.16742,31.792568],[130.167508,31.792752],[130.16722,31.793401],[130.16702,31.793785],[130.166895,31.794085],[130.166658,31.794285],[130.166571,31.794218],[130.166421,31.794176],[130.166333,31.794243],[130.166496,31.794451],[130.166558,31.794585],[130.166446,31.794626],[130.166297,31.794541],[130.166233,31.794451],[130.166183,31.794518],[130.166321,31.794743],[130.166396,31.794968],[130.166458,31.79501],[130.166645,31.794968],[130.166933,31.795118],[130.16712,31.795251],[130.167833,31.79556],[130.168483,31.796026],[130.168995,31.79656],[130.16912,31.796651],[130.170033,31.797026],[130.17022,31.797001],[130.17032,31.796926],[130.170508,31.796993],[130.170745,31.797126],[130.170745,31.797401],[130.170833,31.797509],[130.170958,31.797534],[130.171045,31.797576],[130.171133,31.798001],[130.171108,31.798201],[130.170983,31.798518],[130.170508,31.798818],[130.170245,31.798893],[130.170195,31.799093],[130.170245,31.799318],[130.17052,31.799676],[130.170708,31.799834],[130.171083,31.799918],[130.171133,31.799918],[130.17127,31.800093],[130.17137,31.800143],[130.171657,31.799976],[130.17187,31.800001],[130.172032,31.799976],[130.17237,31.800018],[130.172645,31.800009],[130.172832,31.800101],[130.173007,31.800234],[130.173257,31.800684],[130.17332,31.801309],[130.173232,31.802142],[130.17317,31.802167],[130.172707,31.802851],[130.172632,31.803259],[130.172695,31.803434],[130.17282,31.803592],[130.17317,31.803884],[130.173682,31.804192],[130.173895,31.804501],[130.173845,31.804726],[130.173945,31.805584],[130.17392,31.805717],[130.174007,31.80635],[130.174407,31.807134],[130.174582,31.807675],[130.174482,31.808259],[130.174382,31.808509],[130.174095,31.808759],[130.173707,31.8093],[130.173495,31.809825],[130.173595,31.810808],[130.173495,31.8109],[130.173432,31.811042],[130.173257,31.811108],[130.17312,31.811267],[130.17307,31.811292],[130.17307,31.811425],[130.173295,31.811692],[130.173445,31.811758],[130.173632,31.811733],[130.173845,31.811867],[130.173957,31.812067],[130.173982,31.8122],[130.173957,31.812583],[130.174282,31.812875],[130.174319,31.813125],[130.174419,31.8133],[130.174582,31.81335],[130.174744,31.813341],[130.175007,31.8137],[130.175094,31.813975],[130.174919,31.814375],[130.174807,31.814466],[130.174632,31.814541],[130.173832,31.814566],[130.173544,31.814708],[130.173469,31.814775],[130.173382,31.8148],[130.173257,31.814733],[130.173207,31.814758],[130.173182,31.814866],[130.173469,31.815158],[130.173982,31.815491],[130.174119,31.815849],[130.174069,31.816124],[130.174094,31.816233],[130.174044,31.816324],[130.173882,31.816324],[130.173782,31.816416],[130.173707,31.816666],[130.173969,31.816799],[130.174182,31.816841],[130.174319,31.816774],[130.174532,31.816749],[130.174744,31.816833],[130.175057,31.816766],[130.175169,31.816808],[130.175269,31.816983],[130.175269,31.817058],[130.175569,31.817408],[130.175869,31.817699],[130.176432,31.818074],[130.176719,31.818341],[130.177169,31.818633],[130.178019,31.818599],[130.178232,31.818483],[130.178644,31.818166],[130.178881,31.818074],[130.179044,31.818049],[130.179206,31.818091],[130.179444,31.818066],[130.179656,31.818108],[130.179706,31.818041],[130.179894,31.817999],[130.180019,31.818108],[130.180081,31.818216],[130.180056,31.818374],[130.180081,31.818491],[130.181106,31.819741],[130.181331,31.820258],[130.181569,31.820699],[130.181769,31.821149],[130.182394,31.822249],[130.183044,31.823274],[130.183493,31.823766],[130.183693,31.824307],[130.183906,31.824707],[130.184043,31.825116],[130.184106,31.82554],[130.184706,31.826615],[130.185081,31.827174],[130.185431,31.82784],[130.185468,31.827982],[130.185706,31.828199],[130.185843,31.828332],[130.185968,31.828399],[130.186768,31.830332],[130.185956,31.830632],[130.185181,31.831898],[130.181381,31.832973],[130.181231,31.833381],[130.181443,31.833473],[130.181706,31.833106],[130.182781,31.832848],[130.183193,31.833298],[130.184131,31.83299],[130.184343,31.832515],[130.185818,31.832048],[130.187618,31.836789],[130.186193,31.837206],[130.184968,31.836789],[130.182031,31.835806],[130.181768,31.835698],[130.180106,31.834298],[130.179868,31.834456],[130.181581,31.835831],[130.181831,31.835964],[130.184368,31.836789],[130.186093,31.837481],[130.18788,31.836931],[130.18793,31.837039],[130.188068,31.837039],[130.18828,31.837106],[130.188643,31.837281],[130.188943,31.837489],[130.189043,31.837639],[130.189343,31.838248],[130.189393,31.838539],[130.189618,31.839148],[130.19013,31.840114],[130.190443,31.840522],[130.19063,31.841214],[130.191017,31.842522],[130.191042,31.842972],[130.191017,31.84313],[130.191022,31.843487],[130.193455,31.843639],[130.194455,31.843047],[130.194717,31.843447],[130.195017,31.843714],[130.195142,31.843781],[130.197057,31.849096],[130.207704,31.844245],[130.218833,31.837648],[130.225624,31.835575],[130.236565,31.834821],[130.249015,31.833313],[130.259202,31.830674],[130.266747,31.829731],[130.285423,31.829543],[130.297118,31.830297],[130.312775,31.835763],[130.318623,31.840852],[130.320509,31.84613],[130.32183,31.851973],[130.322104,31.860207],[130.322517,31.861898],[130.322592,31.86204],[130.322754,31.862181],[130.323117,31.862315],[130.324579,31.862665],[130.324729,31.862865],[130.325041,31.86344],[130.326516,31.865806],[130.326691,31.866181],[130.326766,31.866506],[130.326754,31.866573],[130.326429,31.867098],[130.325816,31.867839],[130.325566,31.868056],[130.324929,31.868206],[130.324141,31.868239],[130.323854,31.868397],[130.323129,31.868947],[130.322929,31.869289],[130.322816,31.86973],[130.322741,31.870372],[130.322804,31.87153],[130.322891,31.871972],[130.323153,31.87208],[130.324041,31.872005],[130.324428,31.87203],[130.325666,31.87243],[130.326041,31.872613],[130.326341,31.87288],[130.326641,31.873038],[130.326791,31.873205],[130.326853,31.87358],[130.326978,31.873863],[130.327678,31.874072],[130.328103,31.874088],[130.328903,31.873905],[130.329203,31.874005],[130.329515,31.874238],[130.32964,31.874547],[130.329703,31.874905],[130.32989,31.87518],[130.330065,31.875596],[130.330215,31.876421],[130.32984,31.876855],[130.329728,31.877396],[130.329878,31.877713],[130.330115,31.878063],[130.33009,31.878246],[130.329915,31.878654],[130.32984,31.878988],[130.329928,31.879204],[130.330153,31.879521],[130.330253,31.879979],[130.330165,31.880704],[130.330227,31.881412],[130.33044,31.881862],[130.330702,31.882154],[130.331565,31.882712],[130.331627,31.883237],[130.331765,31.883862],[130.33189,31.88482],[130.331865,31.885345],[130.331977,31.886587],[130.33194,31.887062],[130.331752,31.887287],[130.331627,31.887287],[130.331402,31.887212],[130.33119,31.88707],[130.330952,31.886778],[130.330315,31.886378],[130.330158,31.886344],[130.329897,31.886372],[130.329506,31.886491],[130.328905,31.886486],[130.328452,31.886403],[130.328027,31.886345],[130.327665,31.886337],[130.327477,31.886503],[130.326965,31.887103],[130.326615,31.887361],[130.326327,31.887528],[130.32604,31.88777],[130.325415,31.88832],[130.324327,31.889419],[130.32399,31.889861],[130.323752,31.890728],[130.32329,31.891219],[130.32324,31.891502],[130.323227,31.891986],[130.323277,31.892494],[130.323177,31.893602],[130.322802,31.894244],[130.322915,31.894402],[130.324365,31.895069],[130.32504,31.895452],[130.32564,31.896069],[130.325715,31.896227],[130.32544,31.896918],[130.32554,31.897618],[130.325752,31.898102],[130.325665,31.898368],[130.325365,31.898768],[130.325514,31.899232],[130.325702,31.899576],[130.325715,31.89976],[130.32544,31.900301],[130.325202,31.90056],[130.324665,31.900818],[130.32444,31.900985],[130.32449,31.901168],[130.32479,31.901385],[130.325452,31.901734],[130.32644,31.902109],[130.327277,31.902526],[130.327264,31.902651],[130.327039,31.902934],[130.326215,31.903468],[130.325827,31.903651],[130.324877,31.904351],[130.324552,31.904651],[130.324252,31.905059],[130.323927,31.905242],[130.32279,31.905209],[130.322127,31.905284],[130.32144,31.905842],[130.321002,31.906042],[130.32094,31.906259],[130.321002,31.906617],[130.32099,31.907084],[130.320652,31.9074],[130.319927,31.907967],[130.319565,31.908325],[130.319415,31.908683],[130.319552,31.90995],[130.319365,31.910208],[130.318815,31.910675],[130.318452,31.911416],[130.318465,31.911841],[130.318527,31.912275],[130.318402,31.913133],[130.31829,31.913558],[130.31814,31.913933],[130.317727,31.914058],[130.317052,31.914133],[130.316515,31.914533],[130.316277,31.914982],[130.316078,31.915257],[130.315153,31.915574],[130.314628,31.915966],[130.314128,31.916432],[130.313453,31.91679],[130.31304,31.91694],[130.312365,31.917115],[130.311703,31.917007],[130.31069,31.917224],[130.310115,31.917249],[130.30959,31.917549],[130.309216,31.917707],[130.307703,31.917748],[130.307428,31.91784],[130.306978,31.91839],[130.306091,31.919182],[130.305953,31.919432],[130.306028,31.919665],[130.306303,31.92009],[130.30637,31.92012],[130.306416,31.920173],[130.306478,31.92094],[130.306528,31.921231],[130.306503,31.921731],[130.306453,31.922048],[130.306466,31.922315],[130.306391,31.922431],[130.305541,31.922648],[130.305266,31.922806],[130.304891,31.922915],[130.304591,31.923023],[130.304228,31.923248],[130.303778,31.923923],[130.303528,31.924098],[130.302416,31.924473],[130.301666,31.924898],[130.301304,31.925164],[130.300829,31.925348],[130.300479,31.925364],[130.300079,31.925473],[130.299854,31.925739],[130.299779,31.926014],[130.299491,31.926214],[130.298791,31.926506],[130.298416,31.926706],[130.298041,31.926839],[130.297779,31.927039],[130.297504,31.927422],[130.297054,31.927822],[130.296842,31.928206],[130.296117,31.928872],[130.295729,31.929372],[130.295579,31.929705],[130.295579,31.930405],[130.295467,31.930655],[130.295142,31.930855],[130.294842,31.93123],[130.294029,31.931905],[130.293629,31.932105],[130.293479,31.932355],[130.293292,31.932805],[130.292942,31.933338],[130.292592,31.933655],[130.292129,31.933897],[130.291629,31.934097],[130.291029,31.93443],[130.289867,31.93483],[130.289292,31.934938],[130.289167,31.935005],[130.28908,31.935863],[130.28868,31.936646],[130.288592,31.937438],[130.288492,31.937621],[130.288217,31.937888],[130.288067,31.93813],[130.288105,31.939146],[130.288255,31.939421],[130.288255,31.939529],[130.287992,31.939804],[130.287567,31.940163],[130.286955,31.940813],[130.286705,31.941329],[130.286655,31.941571],[130.286667,31.941963],[130.286767,31.942254],[130.286902,31.942751],[130.286842,31.943204],[130.28673,31.943562],[130.286755,31.944396],[130.286842,31.945004],[130.286867,31.945387],[130.287255,31.946246],[130.28733,31.94702],[130.287592,31.94772],[130.287692,31.948195],[130.287367,31.948795],[130.287329,31.949204],[130.287354,31.949679],[130.287204,31.949903],[130.286917,31.950153],[130.286892,31.950512],[130.286967,31.95106],[130.286904,31.951462]]],"type":"Polygon"},"type":"Feature"}]}