{"type":"FeatureCollection","features":[{"properties":{"kuni_url":"/kg/resource/K71.html","id_url":"G71007.html","kuni":"薩摩","id":"G71007","name":"阿多","yomi":"あた","kuni_id":"K71","pref":"鹿児島県"},"geometry":{"coordinates":[[[130.332605,31.555469],[130.33318,31.555444],[130.333842,31.555536],[130.334379,31.555552],[130.334742,31.555494],[130.335054,31.555469],[130.335329,31.555353],[130.335404,31.555111],[130.335379,31.554836],[130.335292,31.554503],[130.335292,31.554361],[130.335404,31.554278],[130.335904,31.554361],[130.336729,31.554545],[130.337079,31.55457],[130.337217,31.55472],[130.337379,31.555445],[130.337554,31.555578],[130.337942,31.55564],[130.338342,31.555553],[130.338792,31.55547],[130.339254,31.555461],[130.339717,31.555511],[130.340079,31.555603],[130.341129,31.55607],[130.341429,31.55612],[130.341679,31.556203],[130.341916,31.556253],[130.342279,31.556228],[130.342641,31.556253],[130.342779,31.556295],[130.342916,31.556719],[130.342941,31.557019],[130.343166,31.557194],[130.343679,31.557444],[130.344066,31.557711],[130.344316,31.557694],[130.344454,31.557603],[130.344616,31.557553],[130.345004,31.557669],[130.345279,31.557778],[130.345466,31.557961],[130.345466,31.558211],[130.345228,31.558678],[130.344841,31.559178],[130.344616,31.559811],[130.344428,31.560511],[130.344153,31.560844],[130.344291,31.561386],[130.344703,31.561744],[130.344728,31.561811],[130.344703,31.561927],[130.344566,31.562061],[130.344491,31.562219],[130.344491,31.562486],[130.344353,31.563011],[130.344353,31.563144],[130.344516,31.563302],[130.344978,31.563461],[130.345891,31.563569],[130.346328,31.563594],[130.346966,31.563436],[130.347153,31.563436],[130.347316,31.563386],[130.347591,31.562986],[130.347653,31.562961],[130.347866,31.563002],[130.348416,31.563252],[130.348803,31.563277],[130.349353,31.563136],[130.349715,31.563094],[130.350915,31.563294],[130.351278,31.563252],[130.351853,31.563294],[130.352128,31.563202],[130.35229,31.563177],[130.35274,31.563227],[130.35329,31.563202],[130.353665,31.563311],[130.35414,31.563561],[130.354415,31.563786],[130.354552,31.564011],[130.35439,31.565969],[130.354415,31.566444],[130.354577,31.566494],[130.35524,31.566402],[130.35579,31.566286],[130.356977,31.566152],[130.357722,31.566045],[130.358132,31.566036],[130.358589,31.566127],[130.359664,31.565969],[130.360239,31.565828],[130.360627,31.565494],[130.360827,31.565469],[130.361064,31.565603],[130.361377,31.565694],[130.361727,31.565628],[130.362664,31.565061],[130.363102,31.564861],[130.363739,31.564636],[130.364389,31.564411],[130.364751,31.564411],[130.365989,31.564611],[130.366539,31.56477],[130.366589,31.56497],[130.365901,31.565578],[130.365876,31.565711],[130.366651,31.566544],[130.366814,31.566636],[130.367226,31.566594],[130.367451,31.566769],[130.367889,31.567219],[130.368251,31.567494],[130.368601,31.567603],[130.368938,31.567644],[130.369213,31.567761],[130.369451,31.567919],[130.369563,31.568144],[130.369701,31.568661],[130.370176,31.569044],[130.370726,31.569219],[130.370863,31.569336],[130.371199,31.569679],[130.371663,31.569894],[130.371826,31.569986],[130.372563,31.570911],[130.372713,31.570991],[130.372838,31.571052],[130.373488,31.571211],[130.373663,31.571302],[130.374375,31.572219],[130.374663,31.572444],[130.37555,31.572961],[130.375937,31.573094],[130.376325,31.573136],[130.376912,31.573127],[130.377,31.573111],[130.37735,31.573036],[130.37785,31.572902],[130.37805,31.572969],[130.378412,31.573419],[130.378612,31.573527],[130.37915,31.573594],[130.379787,31.573569],[130.37985,31.573586],[130.380087,31.573586],[130.380325,31.573636],[130.3805,31.573769],[130.380912,31.574327],[130.381037,31.574552],[130.381099,31.574777],[130.381074,31.575202],[130.381187,31.575294],[130.381599,31.575386],[130.382187,31.575786],[130.382374,31.576011],[130.382662,31.576144],[130.383137,31.576169],[130.383749,31.576252],[130.384287,31.576411],[130.384674,31.576561],[130.385086,31.576877],[130.385236,31.577077],[130.385324,31.577352],[130.385624,31.577819],[130.385911,31.578094],[130.386211,31.578202],[130.387036,31.578719],[130.387336,31.578827],[130.387574,31.578869],[130.388336,31.578844],[130.388886,31.57871],[130.389211,31.578594],[130.389599,31.578319],[130.389774,31.578094],[130.389911,31.577527],[130.390224,31.576311],[130.390274,31.575969],[130.390399,31.575677],[130.390949,31.575152],[130.391386,31.574519],[130.392136,31.573661],[130.392286,31.573503],[130.392811,31.573161],[130.393486,31.572936],[130.394536,31.572411],[130.394861,31.572161],[130.395123,31.572003],[130.395473,31.571686],[130.395761,31.571186],[130.396023,31.570353],[130.396048,31.570286],[130.396248,31.570078],[130.397048,31.569736],[130.397448,31.569286],[130.398261,31.568195],[130.398673,31.567812],[130.398848,31.56772],[130.399086,31.567695],[130.399498,31.567812],[130.399648,31.567878],[130.399848,31.567853],[130.400348,31.567603],[130.401698,31.567053],[130.402286,31.566828],[130.402511,31.566687],[130.402861,31.566237],[130.403148,31.565354],[130.403586,31.564562],[130.403673,31.56452],[130.403911,31.564537],[130.404048,31.564587],[130.404936,31.564695],[130.405323,31.564779],[130.405823,31.564845],[130.406848,31.564862],[130.40706,31.564837],[130.407498,31.564862],[130.407785,31.564904],[130.40806,31.564904],[130.40846,31.564945],[130.408873,31.564879],[130.409023,31.564804],[130.40911,31.564712],[130.409435,31.564645],[130.410023,31.564595],[130.411173,31.564637],[130.411348,31.564595],[130.41146,31.564345],[130.411623,31.563487],[130.41186,31.563054],[130.41206,31.562921],[130.412623,31.562804],[130.41261,31.562196],[130.41276,31.561312],[130.41266,31.560821],[130.412573,31.560621],[130.41206,31.559988],[130.411623,31.559521],[130.411585,31.559404],[130.412023,31.558838],[130.412235,31.558704],[130.41246,31.558704],[130.413198,31.558946],[130.41356,31.559104],[130.414798,31.559454],[130.41521,31.559638],[130.415498,31.559721],[130.415735,31.559679],[130.416435,31.559179],[130.417785,31.55838],[130.41796,31.558196],[130.418047,31.558021],[130.41821,31.557296],[130.418297,31.557205],[130.41851,31.55718],[130.418597,31.557138],[130.41886,31.556821],[130.41906,31.556097],[130.419347,31.555672],[130.419897,31.555188],[130.42001,31.55503],[130.41996,31.554738],[130.41986,31.554538],[130.419148,31.553505],[130.419035,31.55328],[130.41906,31.553097],[130.419235,31.552872],[130.41946,31.552689],[130.420073,31.551922],[130.420185,31.55163],[130.420185,31.551155],[130.419973,31.550547],[130.419773,31.550256],[130.419623,31.550097],[130.419585,31.549806],[130.419673,31.549397],[130.419523,31.549147],[130.419198,31.548789],[130.41901,31.548456],[130.418923,31.548164],[130.419035,31.548022],[130.419423,31.547889],[130.419685,31.547839],[130.419748,31.547797],[130.420248,31.547614],[130.420773,31.547298],[130.421348,31.546639],[130.42156,31.546523],[130.422148,31.546431],[130.423498,31.546606],[130.424023,31.546581],[130.424135,31.546373],[130.424248,31.545206],[130.424235,31.544548],[130.424323,31.544281],[130.424998,31.543598],[130.424873,31.543056],[130.424898,31.542581],[130.42496,31.542357],[130.425073,31.542223],[130.425248,31.542183],[130.425448,31.542198],[130.42601,31.542132],[130.426485,31.542148],[130.42681,31.54224],[130.427185,31.542282],[130.427248,31.542165],[130.427273,31.541607],[130.427173,31.541148],[130.427235,31.540815],[130.427435,31.540365],[130.42776,31.539999],[130.428198,31.53984],[130.428373,31.539724],[130.428398,31.539499],[130.428335,31.53934],[130.428335,31.539165],[130.428448,31.538915],[130.42871,31.538865],[130.428948,31.538957],[130.42921,31.538974],[130.429473,31.538815],[130.429648,31.538749],[130.430447,31.53879],[130.431622,31.538674],[130.432147,31.538757],[130.432322,31.538757],[130.432497,31.53869],[130.432822,31.538399],[130.43306,31.538232],[130.433472,31.538166],[130.433872,31.538191],[130.434322,31.538274],[130.434585,31.538499],[130.43476,31.538816],[130.434972,31.538857],[130.435147,31.538791],[130.4353,31.538684],[130.435472,31.538566],[130.435822,31.538424],[130.436022,31.538291],[130.436135,31.538066],[130.436285,31.537907],[130.43646,31.537791],[130.436872,31.537766],[130.43711,31.537699],[130.437197,31.537541],[130.43716,31.537091],[130.437185,31.536949],[130.43731,31.536816],[130.43766,31.536749],[130.437947,31.536791],[130.438597,31.536741],[130.439097,31.536449],[130.43971,31.535991],[130.44041,31.535766],[130.44096,31.5354],[130.441247,31.535016],[130.441335,31.534808],[130.441597,31.534516],[130.44186,31.534333],[130.44216,31.534066],[130.44236,31.533975],[130.442909,31.53345],[130.443347,31.533225],[130.444172,31.532658],[130.444547,31.532133],[130.444697,31.531908],[130.445072,31.531567],[130.445447,31.531408],[130.445747,31.531342],[130.446409,31.530975],[130.446887,31.530701],[130.447234,31.530542],[130.446972,31.530292],[130.446909,31.530092],[130.447022,31.5298],[130.447047,31.5293],[130.446922,31.5284],[130.44701,31.52795],[130.447347,31.527342],[130.44741,31.527092],[130.447497,31.526959],[130.447672,31.526842],[130.448172,31.526659],[130.448372,31.526434],[130.448335,31.525917],[130.447972,31.525126],[130.447622,31.524659],[130.44661,31.523734],[130.44646,31.523559],[130.446435,31.523417],[130.446747,31.522942],[130.446835,31.522717],[130.44686,31.522451],[130.446835,31.521859],[130.44686,31.521751],[130.446947,31.521634],[130.446997,31.521476],[130.446972,31.521276],[130.446847,31.521051],[130.446785,31.520351],[130.446872,31.519768],[130.447035,31.519359],[130.447297,31.519043],[130.447385,31.518951],[130.448035,31.518584],[130.448235,31.518451],[130.448472,31.518226],[130.448585,31.518043],[130.449022,31.517751],[130.449397,31.517585],[130.44946,31.51741],[130.44946,31.517201],[130.448947,31.516601],[130.448335,31.516018],[130.447885,31.515593],[130.447322,31.515185],[130.447122,31.515076],[130.446885,31.514785],[130.446523,31.513701],[130.44646,31.513368],[130.446248,31.512618],[130.446273,31.512376],[130.446535,31.512101],[130.44691,31.511943],[130.447348,31.51171],[130.44761,31.511643],[130.448023,31.511593],[130.448198,31.51151],[130.448285,31.511393],[130.448335,31.510985],[130.448573,31.510285],[130.448598,31.509993],[130.448473,31.509585],[130.447735,31.508602],[130.44731,31.507993],[130.44716,31.50781],[130.446985,31.507727],[130.446848,31.507702],[130.446373,31.50746],[130.44586,31.506944],[130.444598,31.506294],[130.444123,31.50596],[130.443261,31.505152],[130.442823,31.504744],[130.442523,31.504319],[130.441873,31.503694],[130.441598,31.503494],[130.441561,31.503302],[130.441648,31.503185],[130.441686,31.50301],[130.441348,31.502735],[130.440386,31.50231],[130.439961,31.502019],[130.439786,31.50171],[130.439436,31.501485],[130.438986,31.501302],[130.438099,31.50066],[130.437661,31.500369],[130.437449,31.50016],[130.437324,31.499935],[130.437236,31.499577],[130.437261,31.498877],[130.437199,31.498361],[130.436936,31.498319],[130.436699,31.498502],[130.436586,31.498611],[130.436349,31.498594],[130.435724,31.498327],[130.435374,31.498119],[130.434949,31.497536],[130.434624,31.497269],[130.434274,31.497094],[130.433949,31.497002],[130.433624,31.497069],[130.433274,31.497027],[130.433162,31.496919],[130.433037,31.496711],[130.433099,31.496511],[130.433212,31.496327],[130.433387,31.496152],[130.433849,31.495377],[130.434137,31.494652],[130.434137,31.494502],[130.433899,31.494253],[130.433687,31.494144],[130.433662,31.494028],[130.433687,31.493761],[130.433837,31.493644],[130.434237,31.493594],[130.434912,31.493436],[130.434999,31.493253],[130.435062,31.492669],[130.435174,31.492286],[130.435399,31.491903],[130.435612,31.491828],[130.435962,31.491878],[130.436162,31.491828],[130.436312,31.491628],[130.436399,31.491036],[130.436512,31.490853],[130.436712,31.490678],[130.436859,31.49059],[130.436974,31.490495],[130.437411,31.48997],[130.437736,31.489836],[130.438874,31.489653],[130.439199,31.489511],[130.439461,31.48947],[130.440374,31.489528],[130.440761,31.489436],[130.440986,31.489236],[130.441136,31.489003],[130.441336,31.488287],[130.441861,31.48772],[130.442211,31.48722],[130.442524,31.486337],[130.442586,31.486228],[130.442961,31.48577],[130.443224,31.485662],[130.443434,31.485615],[130.443686,31.485478],[130.443749,31.485295],[130.443624,31.485045],[130.443524,31.484012],[130.443611,31.483604],[130.443674,31.483537],[130.443999,31.483329],[130.444286,31.483312],[130.444611,31.48337],[130.445086,31.483304],[130.445174,31.483262],[130.445374,31.482804],[130.445486,31.482354],[130.445599,31.481587],[130.445936,31.480346],[130.446099,31.479154],[130.446011,31.478854],[130.445886,31.478704],[130.445774,31.478363],[130.445761,31.477954],[130.445849,31.477413],[130.446049,31.476579],[130.446058,31.47643],[130.446052,31.476142],[130.446036,31.475788],[130.445836,31.475721],[130.445536,31.475609],[130.445279,31.475604],[130.444974,31.475613],[130.444624,31.475638],[130.443949,31.475579],[130.443124,31.475713],[130.442949,31.475696],[130.442424,31.475446],[130.442124,31.475338],[130.441474,31.474821],[130.441024,31.474579],[130.440499,31.474329],[130.440199,31.474246],[130.439849,31.474196],[130.439674,31.474129],[130.439087,31.473688],[130.438612,31.473488],[130.437899,31.473304],[130.437612,31.473171],[130.436837,31.472546],[130.436575,31.472296],[130.43625,31.472121],[130.435837,31.471988],[130.43545,31.471946],[130.434862,31.472063],[130.434225,31.472313],[130.433837,31.472496],[130.4334,31.472454],[130.433312,31.472379],[130.432925,31.471779],[130.432475,31.471213],[130.432113,31.470604],[130.431938,31.470471],[130.431613,31.470321],[130.431413,31.470254],[130.43065,31.470163],[130.430288,31.470238],[130.429588,31.470554],[130.429475,31.470554],[130.429413,31.470513],[130.429199,31.47025],[130.429,31.469904],[130.4289,31.469654],[130.429013,31.468846],[130.428988,31.468571],[130.4288,31.468346],[130.428625,31.468188],[130.42815,31.467896],[130.428038,31.467905],[130.427838,31.467946],[130.427388,31.467996],[130.426563,31.467863],[130.426363,31.467821],[130.425951,31.467505],[130.425026,31.466563],[130.424813,31.46618],[130.424526,31.466163],[130.423463,31.466346],[130.422826,31.466371],[130.422238,31.46633],[130.421964,31.466238],[130.421764,31.465996],[130.421576,31.46548],[130.421576,31.465363],[130.421726,31.464888],[130.421301,31.46408],[130.420939,31.463338],[130.420201,31.462372],[130.419389,31.460772],[130.419364,31.46048],[130.419439,31.459514],[130.419376,31.459222],[130.418539,31.45798],[130.418714,31.457555],[130.418864,31.457347],[130.418889,31.456989],[130.418764,31.456472],[130.418589,31.456131],[130.418114,31.455547],[130.417214,31.454606],[130.416989,31.454589],[130.416752,31.454631],[130.416539,31.454472],[130.416102,31.454047],[130.415977,31.454072],[130.415777,31.453981],[130.415064,31.453064],[130.414614,31.452364],[130.414227,31.451581],[130.414102,31.450973],[130.414102,31.450564],[130.413977,31.450339],[130.41374,31.450164],[130.413415,31.450048],[130.41309,31.449898],[130.412352,31.449381],[130.412052,31.44904],[130.41164,31.448348],[130.410777,31.447065],[130.410652,31.44684],[130.41069,31.446656],[130.410852,31.446298],[130.41074,31.446098],[130.410415,31.44594],[130.41024,31.44574],[130.409915,31.44554],[130.409703,31.445248],[130.409665,31.444973],[130.409728,31.444232],[130.409603,31.443915],[130.409478,31.443823],[130.409303,31.443807],[130.408628,31.443398],[130.408278,31.443132],[130.407953,31.442957],[130.40754,31.442865],[130.407128,31.44289],[130.40589,31.443098],[130.405566,31.443057],[130.405191,31.442948],[130.404566,31.442632],[130.404366,31.442498],[130.404241,31.442007],[130.403966,31.441782],[130.403503,31.44149],[130.403203,31.441132],[130.402966,31.440707],[130.402453,31.439982],[130.402041,31.439557],[130.401741,31.439357],[130.401216,31.439182],[130.400241,31.439007],[130.399691,31.438957],[130.398979,31.43874],[130.397679,31.438207],[130.396916,31.438116],[130.396654,31.438032],[130.396204,31.437716],[130.395792,31.437157],[130.395817,31.436907],[130.396117,31.436474],[130.396079,31.436049],[130.396129,31.435757],[130.396304,31.435308],[130.396242,31.435008],[130.395954,31.434608],[130.395579,31.433433],[130.395429,31.433075],[130.395317,31.4329],[130.395054,31.432691],[130.394692,31.432583],[130.394229,31.432566],[130.393992,31.432408],[130.393492,31.43185],[130.392742,31.431441],[130.392605,31.4314],[130.392042,31.43095],[130.392005,31.430633],[130.391855,31.430433],[130.39118,31.429875],[130.390705,31.429067],[130.390492,31.428567],[130.390517,31.428008],[130.390605,31.427625],[130.390592,31.427334],[130.39018,31.426275],[130.389943,31.425959],[130.389793,31.425617],[130.389493,31.425217],[130.389143,31.424884],[130.387893,31.424234],[130.387543,31.424126],[130.387105,31.424059],[130.38678,31.423942],[130.386431,31.423676],[130.386106,31.423542],[130.385593,31.423276],[130.385131,31.422801],[130.384481,31.422451],[130.383656,31.422042],[130.383231,31.421801],[130.383118,31.421667],[130.383118,31.421459],[130.383126,31.421049],[130.383131,31.420176],[130.383306,31.419951],[130.383656,31.419693],[130.383868,31.419459],[130.384043,31.419076],[130.384131,31.418535],[130.384131,31.41831],[130.384031,31.418101],[130.383656,31.417768],[130.383331,31.417501],[130.382719,31.41656],[130.382394,31.415885],[130.382269,31.415502],[130.381881,31.414685],[130.381819,31.413769],[130.381769,31.413627],[130.381606,31.413385],[130.381281,31.413044],[130.381156,31.412794],[130.381069,31.412535],[130.381015,31.412226],[130.380844,31.412077],[130.380407,31.412144],[130.380044,31.412144],[130.379757,31.412102],[130.379332,31.411961],[130.379082,31.411844],[130.378794,31.411827],[130.378223,31.411779],[130.377119,31.411469],[130.37662,31.411319],[130.376232,31.411294],[130.375795,31.411319],[130.375432,31.411285],[130.374757,31.411027],[130.374482,31.410986],[130.374107,31.411052],[130.37392,31.411169],[130.373707,31.411535],[130.37352,31.411635],[130.372748,31.411936],[130.372682,31.411952],[130.372557,31.41211],[130.372432,31.412469],[130.372182,31.412627],[130.371882,31.412694],[130.37117,31.412893],[130.37087,31.413027],[130.370395,31.41311],[130.36992,31.413285],[130.369258,31.413627],[130.369033,31.413668],[130.368783,31.413643],[130.368558,31.413685],[130.368358,31.413793],[130.367956,31.413751],[130.367658,31.413518],[130.367408,31.413293],[130.367133,31.41316],[130.366733,31.412818],[130.366533,31.412818],[130.366233,31.412652],[130.36592,31.412402],[130.36577,31.412227],[130.365746,31.412068],[130.365771,31.411843],[130.365821,31.411752],[130.365796,31.411385],[130.365596,31.411252],[130.365296,31.41136],[130.365146,31.411493],[130.364896,31.41161],[130.364221,31.411785],[130.363583,31.411827],[130.363208,31.411843],[130.362083,31.411727],[130.361083,31.411943],[130.360758,31.412027],[130.360284,31.412118],[130.359196,31.412227],[130.358421,31.412326],[130.357971,31.412326],[130.356621,31.412451],[130.355971,31.412426],[130.355534,31.412376],[130.355159,31.412401],[130.353684,31.412751],[130.353309,31.41286],[130.352934,31.412926],[130.351897,31.413209],[130.351622,31.413226],[130.351247,31.413409],[130.350972,31.413609],[130.350809,31.413834],[130.350634,31.413968],[130.349509,31.414159],[130.348635,31.414492],[130.348397,31.414626],[130.348097,31.414901],[130.347547,31.415092],[130.346985,31.415567],[130.346785,31.415676],[130.34646,31.416126],[130.346347,31.41685],[130.346172,31.417184],[130.345972,31.417409],[130.345647,31.417609],[130.34441,31.418233],[130.343222,31.418675],[130.342447,31.419033],[130.341597,31.419292],[130.340972,31.419358],[130.340635,31.419333],[130.33971,31.41935],[130.33891,31.4193],[130.338535,31.4193],[130.338035,31.419358],[130.337185,31.41965],[130.336848,31.419783],[130.336148,31.420166],[130.335773,31.420533],[130.335598,31.420833],[130.335573,31.421916],[130.335498,31.422791],[130.335473,31.423449],[130.335135,31.424532],[130.33511,31.424782],[130.33531,31.425232],[130.33541,31.425591],[130.33571,31.427257],[130.335785,31.428049],[130.335672,31.42854],[130.335272,31.429448],[130.334685,31.430398],[130.334397,31.430756],[130.333035,31.431915],[130.332035,31.432623],[130.331535,31.432889],[130.331247,31.433006],[130.33066,31.433148],[130.330135,31.433173],[130.329573,31.432989],[130.329273,31.432723],[130.329123,31.432456],[130.329185,31.431931],[130.329385,31.43164],[130.329623,31.431415],[130.330635,31.43069],[130.330898,31.43039],[130.331098,31.430098],[130.331335,31.429398],[130.331298,31.42904],[130.331173,31.42854],[130.330785,31.427915],[130.330548,31.42769],[130.330135,31.427373],[130.329848,31.427357],[130.32926,31.427382],[130.327173,31.427573],[130.324911,31.427607],[130.322911,31.427707],[130.322448,31.427798],[130.322186,31.427956],[130.321886,31.428181],[130.321748,31.428431],[130.321636,31.428773],[130.321723,31.429381],[130.321873,31.42974],[130.322886,31.431514],[130.323511,31.432348],[130.324135,31.432997],[130.325348,31.434006],[130.326098,31.434472],[130.326985,31.435331],[130.327135,31.435414],[130.32766,31.435981],[130.327897,31.436297],[130.32811,31.436897],[130.328085,31.43713],[130.327972,31.437439],[130.327735,31.437847],[130.32766,31.438097],[130.327447,31.438372],[130.32701,31.438847],[130.32666,31.439047],[130.326197,31.439163],[130.325785,31.439122],[130.324898,31.438947],[130.324223,31.43888],[130.323673,31.438888],[130.322698,31.439005],[130.32211,31.439122],[130.321198,31.439397],[130.320323,31.439738],[130.319448,31.440196],[130.318686,31.440696],[130.317936,31.441488],[130.316248,31.443638],[130.314686,31.445512],[130.313811,31.446354],[130.313573,31.446487],[130.313423,31.446537],[130.312186,31.446162],[130.311398,31.445846],[130.311273,31.445921],[130.311186,31.446187],[130.310998,31.447337],[130.310911,31.447362],[130.309086,31.447054],[130.308411,31.446854],[130.307724,31.446546],[130.307224,31.446279],[130.306462,31.445896],[130.304862,31.445029],[130.304362,31.444688],[130.301262,31.442696],[130.300763,31.44248],[130.30035,31.442346],[130.299988,31.44228],[130.299375,31.442396],[130.298463,31.442688],[130.297825,31.443054],[130.2966,31.444188],[130.295438,31.445454],[130.294276,31.446521],[130.293863,31.446837],[130.293226,31.447254],[130.292488,31.447596],[130.292076,31.447687],[130.291963,31.448769],[130.291852,31.449232],[130.291626,31.449471],[130.291451,31.449579],[130.291251,31.449854],[130.290963,31.450554],[130.291238,31.451495],[130.291676,31.452329],[130.291738,31.45262],[130.291988,31.453345],[130.293025,31.454853],[130.29315,31.455212],[130.293388,31.455678],[130.293688,31.456086],[130.2938,31.456445],[130.294575,31.457661],[130.295562,31.459394],[130.296162,31.460219],[130.296849,31.461053],[130.297587,31.462427],[130.298186,31.463344],[130.298724,31.464336],[130.299236,31.465144],[130.299624,31.465685],[130.300061,31.466535],[130.300811,31.467685],[130.301173,31.468135],[130.302248,31.469843],[130.30346,31.471885],[130.303673,31.472268],[130.303948,31.472676],[130.304423,31.473593],[130.306297,31.476518],[130.306872,31.477618],[130.307584,31.479101],[130.307947,31.479934],[130.308847,31.481484],[130.310134,31.484092],[130.310259,31.484567],[130.310434,31.484909],[130.310796,31.485692],[130.311121,31.486259],[130.311459,31.487017],[130.311609,31.487492],[130.311894,31.488064],[130.312171,31.48855],[130.312621,31.489608],[130.313021,31.490775],[130.313946,31.492625],[130.314271,31.493091],[130.314908,31.49435],[130.315296,31.4953],[130.315896,31.497033],[130.316108,31.497508],[130.316708,31.498633],[130.317545,31.500199],[130.31812,31.501758],[130.318508,31.502658],[130.318945,31.503616],[130.319608,31.504832],[130.320545,31.507624],[130.322257,31.512132],[130.323469,31.515823],[130.323744,31.51659],[130.324757,31.519831],[130.325344,31.521998],[130.326281,31.524839],[130.326469,31.525672],[130.326881,31.527947],[130.327081,31.528597],[130.327294,31.529614],[130.327469,31.530155],[130.327769,31.530914],[130.32789,31.531423],[130.328031,31.532106],[130.328268,31.533105],[130.328593,31.53443],[130.328893,31.536255],[130.329118,31.537313],[130.329418,31.538304],[130.329893,31.539654],[130.330183,31.541576],[130.33028,31.542696],[130.33048,31.544437],[130.330804,31.545446],[130.331105,31.546529],[130.331355,31.547362],[130.331417,31.547854],[130.331667,31.549612],[130.33183,31.550203],[130.332267,31.552586],[130.332355,31.553445],[130.332492,31.55477],[130.332605,31.555469]]],"type":"Polygon"},"type":"Feature"}]}