{"features":[{"type":"Feature","properties":{"name":"谿山","yomi":"たにやま","kuni_id":"K71","pref":"鹿児島県","kuni_url":"/kg/resource/K71.html","id_url":"G71002.html","id":"G71002","kuni":"薩摩"},"geometry":{"coordinates":[[[130.547651,31.549283],[130.546589,31.5477],[130.547363,31.547316],[130.546951,31.546616],[130.546214,31.547],[130.545476,31.545792],[130.545362,31.545733],[130.545301,31.545658],[130.544801,31.545025],[130.546439,31.544267],[130.546739,31.544292],[130.546814,31.544425],[130.547714,31.544367],[130.547889,31.5443],[130.547926,31.544192],[130.548101,31.544125],[130.547901,31.543175],[130.548016,31.543131],[130.548101,31.543175],[130.548326,31.543608],[130.548401,31.5439],[130.548526,31.543833],[130.548451,31.543584],[130.548726,31.54345],[130.549076,31.54415],[130.549226,31.544133],[130.546051,31.537659],[130.545901,31.537651],[130.542402,31.539617],[130.539577,31.536501],[130.539877,31.536217],[130.539777,31.536142],[130.539502,31.536392],[130.537252,31.533509],[130.537827,31.533151],[130.540027,31.536034],[130.54074,31.535476],[130.535778,31.529235],[130.539152,31.528243],[130.542252,31.534493],[130.542127,31.534601],[130.542477,31.534718],[130.544114,31.533743],[130.538528,31.522444],[130.538403,31.522377],[130.538128,31.522369],[130.537628,31.522502],[130.535415,31.52321],[130.533603,31.523735],[130.531866,31.524294],[130.531716,31.524269],[130.531091,31.524085],[130.530691,31.524102],[130.530416,31.524194],[130.528966,31.52486],[130.528929,31.524902],[130.528016,31.523544],[130.530028,31.522652],[130.531091,31.522544],[130.531316,31.522552],[130.532116,31.522169],[130.534016,31.522502],[130.534391,31.522369],[130.534516,31.522277],[130.534978,31.522144],[130.536065,31.520261],[130.536978,31.519794],[130.537403,31.519594],[130.537553,31.519394],[130.537553,31.519277],[130.53704,31.518119],[130.536528,31.516586],[130.533816,31.50912],[130.533154,31.507154],[130.531179,31.507678],[130.531004,31.507162],[130.529504,31.507578],[130.529379,31.50717],[130.521592,31.509328],[130.520342,31.505845],[130.520092,31.505845],[130.519386,31.504138],[130.519368,31.504029],[130.519418,31.503712],[130.519143,31.503762],[130.519193,31.503895],[130.518768,31.503979],[130.518505,31.503495],[130.51849,31.503463],[130.519505,31.503129],[130.519743,31.503495],[130.520067,31.504129],[130.520242,31.504062],[130.520142,31.503904],[130.521692,31.503495],[130.52438,31.502787],[130.524455,31.503054],[130.524705,31.502987],[130.524817,31.503145],[130.527367,31.502379],[130.527229,31.502037],[130.528917,31.501546],[130.529329,31.501854],[130.530204,31.501654],[130.530117,31.501204],[130.530254,31.501137],[130.530317,31.500529],[130.533866,31.501221],[130.531267,31.484297],[130.52558,31.484939],[130.524317,31.486197],[130.524205,31.490505],[130.52068,31.492355],[130.519005,31.490063],[130.516805,31.49123],[130.516755,31.49308],[130.514531,31.494146],[130.513593,31.490855],[130.519618,31.487672],[130.519693,31.485555],[130.51513,31.487922],[130.514856,31.487497],[130.514631,31.48603],[130.515868,31.485372],[130.515793,31.485105],[130.518068,31.483955],[130.517718,31.48233],[130.514768,31.482622],[130.514468,31.480755],[130.513531,31.480847],[130.513118,31.477897],[130.517168,31.477439],[130.51713,31.477331],[130.517405,31.477281],[130.516918,31.474106],[130.51953,31.473856],[130.519218,31.471598],[130.532641,31.470124],[130.533329,31.474157],[130.533816,31.474115],[130.532141,31.46255],[130.515543,31.464324],[130.51488,31.465657],[130.514605,31.466107],[130.514443,31.466715],[130.51413,31.467482],[130.51403,31.467598],[130.513993,31.467598],[130.513968,31.466582],[130.513306,31.46584],[130.513206,31.465565],[130.513118,31.465565],[130.513093,31.465523],[130.513168,31.465432],[130.513006,31.46464],[130.512893,31.46444],[130.512656,31.463699],[130.512618,31.463132],[130.512756,31.462499],[130.512868,31.462099],[130.512868,31.461957],[130.513006,31.461757],[130.513281,31.461532],[130.51358,31.461399],[130.513805,31.461374],[130.51413,31.46149],[130.514655,31.461732],[130.514905,31.461757],[130.515343,31.461574],[130.51543,31.461574],[130.515705,31.461399],[130.51598,31.461082],[130.516168,31.460966],[130.516255,31.460807],[130.516055,31.460541],[130.515918,31.460516],[130.515568,31.460649],[130.515205,31.460674],[130.514955,31.460632],[130.514768,31.460516],[130.514493,31.460499],[130.51433,31.460382],[130.513943,31.459816],[130.51383,31.459299],[130.513693,31.459099],[130.513481,31.458982],[130.513393,31.458824],[130.513343,31.457991],[130.513443,31.457433],[130.513531,31.457299],[130.513556,31.457316],[130.513918,31.457249],[130.514018,31.456983],[130.513856,31.456799],[130.513918,31.456616],[130.51548,31.456999],[130.51578,31.45635],[130.514493,31.455291],[130.514705,31.454908],[130.51498,31.454925],[130.515018,31.454683],[130.514818,31.454658],[130.514843,31.45385],[130.515293,31.45405],[130.515368,31.45405],[130.515505,31.453933],[130.51553,31.453733],[130.515618,31.453642],[130.515668,31.452992],[130.516055,31.4527],[130.516143,31.452492],[130.516143,31.452242],[130.515968,31.451792],[130.515943,31.451342],[130.515968,31.450984],[130.51608,31.45085],[130.516105,31.450625],[130.51608,31.450442],[130.516243,31.450217],[130.51628,31.450034],[130.516418,31.449859],[130.516968,31.449676],[130.51718,31.449651],[130.517318,31.449559],[130.51743,31.449426],[130.517618,31.449426],[130.517818,31.449476],[130.51798,31.449451],[130.51823,31.449292],[130.518855,31.449017],[130.51888,31.448842],[130.51883,31.448617],[130.518618,31.448409],[130.518418,31.448326],[130.51848,31.448118],[130.518255,31.447826],[130.517893,31.447826],[130.517843,31.447801],[130.51748,31.447401],[130.517268,31.446926],[130.51718,31.446584],[130.517155,31.446001],[130.51718,31.446001],[130.51718,31.445909],[130.517318,31.44571],[130.517893,31.445076],[130.51803,31.444743],[130.518093,31.444426],[130.517843,31.443477],[130.517568,31.442668],[130.517455,31.442152],[130.517455,31.441877],[130.517893,31.440502],[130.51828,31.439802],[130.518368,31.439419],[130.51828,31.437752],[130.518355,31.437461],[130.518468,31.437327],[130.51908,31.437077],[130.51938,31.436878],[130.51968,31.436578],[130.51993,31.436219],[130.520093,31.435878],[130.520255,31.435253],[130.520368,31.435136],[130.520687,31.434834],[130.520918,31.434553],[130.521168,31.434261],[130.520418,31.434211],[130.519293,31.434036],[130.51883,31.43392],[130.518168,31.433678],[130.517481,31.433628],[130.517181,31.433695],[130.516931,31.433878],[130.516493,31.434511],[130.516218,31.434761],[130.515618,31.435053],[130.514767,31.435135],[130.513881,31.435411],[130.513493,31.435503],[130.513168,31.435503],[130.512981,31.435411],[130.512431,31.434736],[130.511996,31.434348],[130.511519,31.433861],[130.511127,31.43342],[130.510506,31.433228],[130.510144,31.433253],[130.509656,31.433028],[130.509294,31.432803],[130.508881,31.432603],[130.508519,31.432486],[130.507894,31.432378],[130.507227,31.432179],[130.50658,31.43219],[130.505857,31.432469],[130.505032,31.432378],[130.504682,31.432286],[130.504319,31.432128],[130.504044,31.431903],[130.503907,31.431503],[130.503882,31.43112],[130.503794,31.430711],[130.503519,31.430236],[130.503419,31.429903],[130.503107,31.429828],[130.502232,31.42992],[130.501869,31.429786],[130.501407,31.42947],[130.500507,31.428778],[130.500057,31.428528],[130.499707,31.428211],[130.499045,31.427562],[130.49852,31.427245],[130.49822,31.426995],[130.497981,31.42675],[130.497744,31.426499],[130.497557,31.42632],[130.496995,31.425737],[130.49667,31.42547],[130.496283,31.425362],[130.49567,31.425295],[130.495308,31.425137],[130.495133,31.425003],[130.494508,31.42447],[130.494333,31.424379],[130.494158,31.424129],[130.49412,31.423929],[130.494233,31.422804],[130.494195,31.422396],[130.49407,31.421987],[130.49392,31.421587],[130.493383,31.420912],[130.493295,31.420687],[130.49327,31.420396],[130.49332,31.420171],[130.49347,31.419663],[130.492658,31.419571],[130.491946,31.419446],[130.491408,31.419296],[130.490733,31.419396],[130.490646,31.419496],[130.490596,31.419713],[130.490533,31.420171],[130.490383,31.420496],[130.490046,31.420862],[130.489896,31.421087],[130.489058,31.422062],[130.488671,31.422404],[130.488121,31.423104],[130.487833,31.423604],[130.487758,31.424187],[130.487283,31.42482],[130.487208,31.425028],[130.487233,31.42532],[130.487208,31.42552],[130.487333,31.426261],[130.487246,31.426853],[130.487058,31.427595],[130.486833,31.428519],[130.486483,31.428886],[130.485783,31.429269],[130.485658,31.429411],[130.485271,31.430969],[130.485271,31.431261],[130.485421,31.432069],[130.485408,31.43286],[130.485121,31.433919],[130.484833,31.434644],[130.484421,31.43521],[130.483871,31.435577],[130.483734,31.435802],[130.483584,31.436502],[130.483521,31.43801],[130.483546,31.438168],[130.484083,31.438635],[130.484233,31.438818],[130.484521,31.439068],[130.485083,31.439651],[130.485208,31.439893],[130.485208,31.440143],[130.485133,31.440643],[130.485021,31.441701],[130.485058,31.442017],[130.485171,31.442467],[130.485296,31.442759],[130.485383,31.443142],[130.485483,31.443859],[130.485521,31.444609],[130.485796,31.445192],[130.485996,31.445459],[130.486271,31.445734],[130.486383,31.445934],[130.486358,31.446267],[130.486296,31.446342],[130.485983,31.446975],[130.485933,31.447292],[130.485958,31.447625],[130.485933,31.44785],[130.485583,31.448375],[130.484883,31.449075],[130.483783,31.450683],[130.483646,31.451],[130.483708,31.45165],[130.483658,31.452033],[130.483308,31.452758],[130.482971,31.453549],[130.482908,31.454024],[130.482946,31.454583],[130.482921,31.454899],[130.482783,31.455557],[130.482758,31.456057],[130.482933,31.456616],[130.483296,31.457174],[130.483508,31.457699],[130.483571,31.45799],[130.483508,31.458415],[130.483571,31.458824],[130.483721,31.459074],[130.483758,31.459074],[130.483908,31.459432],[130.483971,31.459657],[130.483946,31.460082],[130.483833,31.460965],[130.483571,31.461057],[130.483396,31.461032],[130.483246,31.460923],[130.483158,31.460715],[130.482621,31.460448],[130.482058,31.46034],[130.481508,31.460032],[130.481471,31.460049],[130.481233,31.460007],[130.481096,31.459899],[130.480771,31.459782],[130.480621,31.459874],[130.480384,31.45994],[130.480034,31.45979],[130.479471,31.459699],[130.479209,31.459632],[130.478796,31.459615],[130.478771,31.45959],[130.478796,31.45959],[130.478559,31.459499],[130.477384,31.458924],[130.477146,31.458857],[130.476521,31.458882],[130.476109,31.45884],[130.475784,31.458749],[130.475109,31.458415],[130.474959,31.458374],[130.474672,31.458374],[130.473909,31.458715],[130.473672,31.458782],[130.473559,31.458782],[130.473322,31.458715],[130.473059,31.458557],[130.472609,31.458199],[130.472409,31.458157],[130.471697,31.458324],[130.471347,31.458365],[130.470997,31.458365],[130.470647,31.458415],[130.470384,31.458482],[130.470209,31.458599],[130.470122,31.458732],[130.469685,31.45914],[130.46936,31.459298],[130.469247,31.45944],[130.46936,31.459773],[130.46946,31.46029],[130.469722,31.460765],[130.469822,31.461148],[130.469672,31.461332],[130.469585,31.461532],[130.469534,31.46219],[130.469247,31.462215],[130.46886,31.462123],[130.467685,31.462015],[130.467185,31.462015],[130.466472,31.462065],[130.465685,31.462181],[130.46516,31.462323],[130.464635,31.462598],[130.464335,31.462915],[130.464285,31.46309],[130.464172,31.463181],[130.464022,31.463206],[130.46281,31.46319],[130.46246,31.463031],[130.46216,31.462831],[130.46166,31.462631],[130.461248,31.462548],[130.460898,31.462548],[130.460548,31.462506],[130.46031,31.462415],[130.459923,31.46244],[130.459485,31.462373],[130.45896,31.462106],[130.458773,31.462065],[130.458635,31.462156],[130.45816,31.462223],[130.458048,31.462265],[130.457898,31.462406],[130.45781,31.462631],[130.457648,31.464031],[130.45751,31.464548],[130.457485,31.464798],[130.457223,31.465498],[130.45711,31.465631],[130.456848,31.465747],[130.456286,31.465839],[130.455461,31.465981],[130.454848,31.466297],[130.454323,31.466456],[130.453973,31.466439],[130.453711,31.466239],[130.452936,31.465814],[130.452586,31.465697],[130.452275,31.465661],[130.451974,31.465741],[130.451736,31.465797],[130.451611,31.465981],[130.451536,31.466181],[130.451448,31.466789],[130.451598,31.467264],[130.451486,31.467514],[130.450436,31.468872],[130.449449,31.470022],[130.448986,31.471022],[130.448761,31.471313],[130.448261,31.471697],[130.448124,31.472013],[130.448124,31.472305],[130.448211,31.472621],[130.448424,31.473071],[130.448336,31.473255],[130.447986,31.473638],[130.447636,31.474271],[130.447474,31.474788],[130.447386,31.474971],[130.447261,31.475088],[130.447211,31.475063],[130.446999,31.475063],[130.446674,31.475113],[130.446499,31.47518],[130.446124,31.475588],[130.446036,31.475788],[130.446052,31.476142],[130.446058,31.47643],[130.446049,31.476579],[130.445849,31.477413],[130.445761,31.477954],[130.445774,31.478363],[130.445886,31.478704],[130.446011,31.478854],[130.446099,31.479154],[130.445936,31.480346],[130.445599,31.481587],[130.445486,31.482354],[130.445374,31.482804],[130.445174,31.483262],[130.445086,31.483304],[130.444611,31.48337],[130.444286,31.483312],[130.443999,31.483329],[130.443674,31.483537],[130.443611,31.483604],[130.443524,31.484012],[130.443624,31.485045],[130.443749,31.485295],[130.443686,31.485478],[130.443434,31.485615],[130.443224,31.485662],[130.442961,31.48577],[130.442586,31.486228],[130.442524,31.486337],[130.442211,31.48722],[130.441861,31.48772],[130.441336,31.488287],[130.441136,31.489003],[130.440986,31.489236],[130.440761,31.489436],[130.440374,31.489528],[130.439461,31.48947],[130.439199,31.489511],[130.438874,31.489653],[130.437736,31.489836],[130.437411,31.48997],[130.436974,31.490495],[130.436859,31.49059],[130.436712,31.490678],[130.436512,31.490853],[130.436399,31.491036],[130.436312,31.491628],[130.436162,31.491828],[130.435962,31.491878],[130.435612,31.491828],[130.435399,31.491903],[130.435174,31.492286],[130.435062,31.492669],[130.434999,31.493253],[130.434912,31.493436],[130.434237,31.493594],[130.433837,31.493644],[130.433687,31.493761],[130.433662,31.494028],[130.433687,31.494144],[130.433899,31.494253],[130.434137,31.494502],[130.434137,31.494652],[130.433849,31.495377],[130.433387,31.496152],[130.433212,31.496327],[130.433099,31.496511],[130.433037,31.496711],[130.433162,31.496919],[130.433274,31.497027],[130.433624,31.497069],[130.433949,31.497002],[130.434274,31.497094],[130.434624,31.497269],[130.434949,31.497536],[130.435374,31.498119],[130.435724,31.498327],[130.436349,31.498594],[130.436586,31.498611],[130.436699,31.498502],[130.436936,31.498319],[130.437199,31.498361],[130.437261,31.498877],[130.437236,31.499577],[130.437324,31.499935],[130.437449,31.50016],[130.437661,31.500369],[130.438099,31.50066],[130.438986,31.501302],[130.439436,31.501485],[130.439786,31.50171],[130.439961,31.502019],[130.440386,31.50231],[130.441348,31.502735],[130.441686,31.50301],[130.441648,31.503185],[130.441561,31.503302],[130.441598,31.503494],[130.441873,31.503694],[130.442523,31.504319],[130.442823,31.504744],[130.443261,31.505152],[130.444123,31.50596],[130.444598,31.506294],[130.44586,31.506944],[130.446373,31.50746],[130.446848,31.507702],[130.446985,31.507727],[130.44716,31.50781],[130.44731,31.507993],[130.447735,31.508602],[130.448473,31.509585],[130.448598,31.509993],[130.448573,31.510285],[130.448335,31.510985],[130.448285,31.511393],[130.448198,31.51151],[130.448023,31.511593],[130.44761,31.511643],[130.447348,31.51171],[130.44691,31.511943],[130.446535,31.512101],[130.446273,31.512376],[130.446248,31.512618],[130.44646,31.513368],[130.446523,31.513701],[130.446885,31.514785],[130.447122,31.515076],[130.447322,31.515185],[130.447885,31.515593],[130.448335,31.516018],[130.448947,31.516601],[130.44946,31.517201],[130.44946,31.51741],[130.449397,31.517585],[130.449022,31.517751],[130.448585,31.518043],[130.448472,31.518226],[130.448235,31.518451],[130.448035,31.518584],[130.447385,31.518951],[130.447297,31.519043],[130.447035,31.519359],[130.446872,31.519768],[130.446785,31.520351],[130.446847,31.521051],[130.446972,31.521276],[130.446997,31.521476],[130.446947,31.521634],[130.44686,31.521751],[130.446835,31.521859],[130.44686,31.522451],[130.446835,31.522717],[130.446747,31.522942],[130.446435,31.523417],[130.44646,31.523559],[130.44661,31.523734],[130.447622,31.524659],[130.447972,31.525126],[130.448335,31.525917],[130.448372,31.526434],[130.448172,31.526659],[130.447672,31.526842],[130.447497,31.526959],[130.44741,31.527092],[130.447347,31.527342],[130.44701,31.52795],[130.446922,31.5284],[130.447047,31.5293],[130.447022,31.5298],[130.446909,31.530092],[130.446972,31.530292],[130.447234,31.530542],[130.447071,31.53089],[130.447093,31.531117],[130.447184,31.531492],[130.447222,31.532075],[130.447134,31.532933],[130.447372,31.533108],[130.447822,31.533383],[130.448084,31.53365],[130.448234,31.5339],[130.448447,31.53435],[130.448509,31.534575],[130.448659,31.5348],[130.448809,31.534933],[130.448859,31.534975],[130.449159,31.535],[130.449859,31.5349],[130.450509,31.534925],[130.450809,31.535075],[130.450872,31.536158],[130.451109,31.536291],[130.451809,31.536408],[130.452196,31.536425],[130.452671,31.5366],[130.452784,31.536716],[130.453109,31.536783],[130.453371,31.5368],[130.454196,31.536958],[130.454784,31.537092],[130.454871,31.537133],[130.455234,31.537608],[130.455496,31.5379],[130.456071,31.538566],[130.456209,31.538708],[130.456484,31.539491],[130.456321,31.540166],[130.456296,31.54055],[130.456234,31.541074],[130.456146,31.541341],[130.456009,31.541616],[130.455771,31.541774],[130.455634,31.541816],[130.455509,31.541933],[130.455484,31.542116],[130.455509,31.542249],[130.455746,31.542491],[130.456171,31.542766],[130.456409,31.543058],[130.456671,31.543324],[130.457059,31.543299],[130.457284,31.543341],[130.457434,31.543474],[130.458034,31.544424],[130.458559,31.544691],[130.458746,31.544849],[130.458896,31.545141],[130.458871,31.545566],[130.458559,31.546949],[130.458384,31.547416],[130.458359,31.547757],[130.458446,31.547957],[130.459046,31.548765],[130.459433,31.549265],[130.459671,31.549732],[130.459858,31.550524],[130.459971,31.550974],[130.460008,31.551698],[130.459671,31.552148],[130.459583,31.552373],[130.459608,31.552782],[130.459996,31.553432],[130.460596,31.554557],[130.460958,31.55514],[130.461346,31.555523],[130.461696,31.555606],[130.461908,31.555698],[130.462046,31.555815],[130.462733,31.556098],[130.462883,31.556281],[130.463008,31.556823],[130.463008,31.557156],[130.462921,31.557723],[130.462908,31.559348],[130.462858,31.559664],[130.462658,31.560089],[130.462708,31.560406],[130.463096,31.560748],[130.463283,31.561214],[130.463671,31.561731],[130.464108,31.561956],[130.464671,31.562339],[130.464821,31.562581],[130.464908,31.562923],[130.465096,31.563148],[130.465533,31.563464],[130.465683,31.563614],[130.465771,31.563981],[130.465746,31.564364],[130.465933,31.565056],[130.466171,31.565689],[130.466383,31.565956],[130.467008,31.566472],[130.467396,31.566881],[130.467696,31.567264],[130.468458,31.567981],[130.468796,31.568497],[130.469121,31.568789],[130.469558,31.569056],[130.469683,31.569189],[130.469796,31.569481],[130.469946,31.569822],[130.470133,31.570064],[130.470546,31.57103],[130.470608,31.571214],[130.470821,31.571439],[130.470971,31.571864],[130.470946,31.572247],[130.470858,31.572947],[130.470783,31.57333],[130.470783,31.573472],[130.470871,31.57358],[130.471158,31.573764],[130.471258,31.573872],[130.471258,31.57403],[130.471171,31.57423],[130.470846,31.574572],[130.470671,31.574689],[130.470302,31.574681],[130.469933,31.574689],[130.469672,31.57473],[130.469432,31.574838],[130.469171,31.574973],[130.468996,31.575055],[130.468771,31.575188],[130.468246,31.575605],[130.467896,31.575713],[130.467808,31.575855],[130.467808,31.576005],[130.467921,31.576255],[130.467921,31.576438],[130.467721,31.576888],[130.467521,31.577297],[130.467383,31.577705],[130.467058,31.578221],[130.467033,31.578655],[130.467096,31.578946],[130.467133,31.57953],[130.467021,31.579688],[130.466521,31.580096],[130.466458,31.580213],[130.466408,31.580455],[130.466233,31.580613],[130.465908,31.580755],[130.465821,31.580846],[130.465821,31.58098],[130.465971,31.581338],[130.466008,31.581904],[130.465896,31.582263],[130.465783,31.582488],[130.46567,31.583013],[130.465758,31.583254],[130.46617,31.583771],[130.466064,31.583894],[130.465858,31.583888],[130.465683,31.583913],[130.46512,31.584096],[130.465033,31.584213],[130.464895,31.585087],[130.46492,31.585271],[130.465495,31.585896],[130.465506,31.585957],[130.465495,31.586054],[130.465345,31.586212],[130.46497,31.586287],[130.464908,31.586437],[130.465083,31.586821],[130.465183,31.586921],[130.465758,31.587354],[130.466133,31.587512],[130.466308,31.587737],[130.46657,31.588329],[130.466945,31.589687],[130.466957,31.59007],[130.466832,31.590654],[130.46692,31.591354],[130.467195,31.592187],[130.467832,31.593478],[130.468595,31.594703],[130.470619,31.598103],[130.471094,31.598986],[130.471056,31.599686],[130.471256,31.600561],[130.471894,31.602036],[130.471831,31.602194],[130.471731,31.602261],[130.471681,31.602369],[130.471506,31.602619],[130.471381,31.60291],[130.471219,31.603452],[130.470944,31.604394],[130.470756,31.604735],[130.470681,31.605119],[130.470706,31.605318],[130.471081,31.605885],[130.471131,31.606202],[130.471093,31.606652],[130.470893,31.60701],[130.470693,31.607052],[130.473405,31.606873],[130.475528,31.606115],[130.477879,31.604145],[130.480238,31.599942],[130.483685,31.595871],[130.49058,31.5918],[130.499042,31.583345],[130.504369,31.576143],[130.517532,31.564244],[130.525367,31.557668],[130.536962,31.553283],[130.547651,31.549283]]],"type":"Polygon"}}],"type":"FeatureCollection"}